<?xml version="1.0" encoding="UTF-8"?>
<gpx xmlns="http://www.topografix.com/GPX/1/1" xmlns:xsi="http://www.w3.org/2001/XMLSchema-instance" xsi:schemaLocation="http://www.topografix.com/GPX/1/1 http://www.topografix.com/GPX/1/1/gpx.xsd" version="1.1" creator="gpx.py -- https://github.com/tkrajina/gpxpy">
  <wpt lat="44.3265497618205" lon="3.0446203798055667">
    <ele>669.0</ele>
    <name>Point de vue: Lac de la Cisba</name>
    <desc>Ce plan d'eau est id&amp;eacute;al pour la baignade ou un pique-nique. Le lac est aliment&amp;eacute; par des sources d'eau et on mesure jusqu'&amp;agrave; 5,80m de profondeur. Une plage est am&amp;eacute;nag&amp;eacute;e, un restaurant est ouvert en saison. La p&amp;ecirc;che est autoris&amp;eacute;e sous r&amp;eacute;serve d'avoir un permis.</desc>
  </wpt>
  <trk>
    <name>[Itinéraire] Gravel N°01 - Découverte du Gravel Sévéragais</name>
    <desc>&lt;ol&gt;
&lt;li&gt;De la gare partir vers le sud pour rejoindre le Moulin de Thibault. Prendre &amp;agrave; gauche juste au niveau des grands b&amp;acirc;timents agricoles. 900m plus loin prendre la piste &amp;agrave; droite, et &amp;agrave; gauche apr&amp;egrave;s 800m de piste.&lt;/li&gt;
&lt;li&gt;Au croisement en angle droit tourner &amp;agrave; droite pour rejoindre la route qui vous m&amp;egrave;nera vers le lac de Cisba.&lt;/li&gt;
&lt;li&gt;300m apr&amp;egrave;s &amp;ecirc;tre pass&amp;eacute; au niveau du Lac tourner &amp;agrave; gauche pour rejoindre l'itin&amp;eacute;raire de l'aller et revenir sur la gare.&lt;/li&gt;
&lt;/ol&gt;
&lt;br /&gt;60% de routes et 40% de chemins&lt;br /&gt;&lt;br /&gt;Points sensibles :&lt;br /&gt;Km 9 : travers&amp;eacute;e du cour d&amp;rsquo;eau Le Merdans&lt;br /&gt;&lt;br /&gt;Temps de roulage en fonction votre niveau : 30min &amp;agrave; 45minModifié: 6 jours</desc>
    <trkseg>
      <trkpt lat="44.32473457802853" lon="3.0575868487358084">
        <ele>672.0</ele>
      </trkpt>
      <trkpt lat="44.3245945032124" lon="3.057639151940849">
        <ele>672.0</ele>
      </trkpt>
      <trkpt lat="44.324454428380776" lon="3.057691454887391">
        <ele>672.0</ele>
      </trkpt>
      <trkpt lat="44.32434985154826" lon="3.057750463594583">
        <ele>672.0</ele>
      </trkpt>
      <trkpt lat="44.324245274689304" lon="3.0578094720840454">
        <ele>672.0</ele>
      </trkpt>
      <trkpt lat="44.32414261633844" lon="3.057873845216986">
        <ele>672.0</ele>
      </trkpt>
      <trkpt lat="44.324039957954945" lon="3.0579382181167603">
        <ele>672.0</ele>
      </trkpt>
      <trkpt lat="44.32392098905108" lon="3.0579516291618356">
        <ele>673.0</ele>
      </trkpt>
      <trkpt lat="44.323803938765046" lon="3.0579194426536573">
        <ele>673.0</ele>
      </trkpt>
      <trkpt lat="44.323706076871225" lon="3.0579543113708496">
        <ele>673.0</ele>
      </trkpt>
      <trkpt lat="44.32362932233047" lon="3.058021366596223">
        <ele>673.0</ele>
      </trkpt>
      <trkpt lat="44.32356024315794" lon="3.0581286549568185">
        <ele>674.0</ele>
      </trkpt>
      <trkpt lat="44.32347965068716" lon="3.0581742525100717">
        <ele>674.0</ele>
      </trkpt>
      <trkpt lat="44.323353964461354" lon="3.058222532379389">
        <ele>674.0</ele>
      </trkpt>
      <trkpt lat="44.3232282782219" lon="3.0582708120346065">
        <ele>675.0</ele>
      </trkpt>
      <trkpt lat="44.32301144461942" lon="3.058329820632935">
        <ele>675.0</ele>
      </trkpt>
      <trkpt lat="44.322821474698394" lon="3.058356642723083">
        <ele>676.0</ele>
      </trkpt>
      <trkpt lat="44.322683314204596" lon="3.058379441555277">
        <ele>676.0</ele>
      </trkpt>
      <trkpt lat="44.32254515371519" lon="3.0584022402763367">
        <ele>676.0</ele>
      </trkpt>
      <trkpt lat="44.32242042493195" lon="3.0584169924583793">
        <ele>676.0</ele>
      </trkpt>
      <trkpt lat="44.32229598015582" lon="3.0584317109856896">
        <ele>676.0</ele>
      </trkpt>
      <trkpt lat="44.32229569615418" lon="3.058431744575502">
        <ele>677.0</ele>
      </trkpt>
      <trkpt lat="44.32218343979709" lon="3.0584518611829496">
        <ele>677.0</ele>
      </trkpt>
      <trkpt lat="44.32207118344234" lon="3.0584719777107248">
        <ele>677.0</ele>
      </trkpt>
      <trkpt lat="44.321863940176534" lon="3.0584934353828443">
        <ele>677.0</ele>
      </trkpt>
      <trkpt lat="44.32173441261669" lon="3.0584961175979877">
        <ele>677.0</ele>
      </trkpt>
      <trkpt lat="44.32160488506482" lon="3.0584987998008732">
        <ele>677.0</ele>
      </trkpt>
      <trkpt lat="44.32144177548389" lon="3.0584451554662215">
        <ele>677.0</ele>
      </trkpt>
      <trkpt lat="44.32127866588951" lon="3.0583915114402767">
        <ele>677.0</ele>
      </trkpt>
      <trkpt lat="44.32115201560327" lon="3.058380782604217">
        <ele>677.0</ele>
      </trkpt>
      <trkpt lat="44.32104167601352" lon="3.0584116280679283">
        <ele>677.0</ele>
      </trkpt>
      <trkpt lat="44.32093133642096" lon="3.0584424734115614">
        <ele>676.0</ele>
      </trkpt>
      <trkpt lat="44.32074711664178" lon="3.0584692955017085">
        <ele>676.0</ele>
      </trkpt>
      <trkpt lat="44.320674196152744" lon="3.058445155620575">
        <ele>676.0</ele>
      </trkpt>
      <trkpt lat="44.32067419615276" lon="3.0583673715591426">
        <ele>675.0</ele>
      </trkpt>
      <trkpt lat="44.32064733068657" lon="3.0582252144813538">
        <ele>675.0</ele>
      </trkpt>
      <trkpt lat="44.32062430313431" lon="3.0581125617027283">
        <ele>674.0</ele>
      </trkpt>
      <trkpt lat="44.32061278935484" lon="3.0580267310142517">
        <ele>674.0</ele>
      </trkpt>
      <trkpt lat="44.320633897948845" lon="3.0579596757888803">
        <ele>673.0</ele>
      </trkpt>
      <trkpt lat="44.320699142646006" lon="3.057889938354493">
        <ele>672.0</ele>
      </trkpt>
      <trkpt lat="44.32082003704019" lon="3.057801425457">
        <ele>671.0</ele>
      </trkpt>
      <trkpt lat="44.32096971546882" lon="3.0576780438423152">
        <ele>671.0</ele>
      </trkpt>
      <trkpt lat="44.32108101456561" lon="3.057557344436645">
        <ele>670.0</ele>
      </trkpt>
      <trkpt lat="44.321111717727575" lon="3.057401776313782">
        <ele>670.0</ele>
      </trkpt>
      <trkpt lat="44.32109252825324" lon="3.057246208190917">
        <ele>669.0</ele>
      </trkpt>
      <trkpt lat="44.32101768924332" lon="3.057112097740174">
        <ele>669.0</ele>
      </trkpt>
      <trkpt lat="44.32088528153037" lon="3.057015538215638">
        <ele>669.0</ele>
      </trkpt>
      <trkpt lat="44.32076630622911" lon="3.056929707527161">
        <ele>668.0</ele>
      </trkpt>
      <trkpt lat="44.32073752184578" lon="3.056843876838684">
        <ele>668.0</ele>
      </trkpt>
      <trkpt lat="44.32062622209736" lon="3.0568760633468632">
        <ele>668.0</ele>
      </trkpt>
      <trkpt lat="44.32051876007098" lon="3.0568894743919386">
        <ele>668.0</ele>
      </trkpt>
      <trkpt lat="44.320417054757336" lon="3.0568701396987317">
        <ele>668.0</ele>
      </trkpt>
      <trkpt lat="44.3202884835237" lon="3.056786991030685">
        <ele>668.0</ele>
      </trkpt>
      <trkpt lat="44.320159912235134" lon="3.056703842739807">
        <ele>668.0</ele>
      </trkpt>
      <trkpt lat="44.3200486113642" lon="3.056569732025754">
        <ele>668.0</ele>
      </trkpt>
      <trkpt lat="44.31993731033568" lon="3.0564356218383186">
        <ele>668.0</ele>
      </trkpt>
      <trkpt lat="44.31982600902118" lon="3.056320286624232">
        <ele>668.0</ele>
      </trkpt>
      <trkpt lat="44.31971470759168" lon="3.056204951863038">
        <ele>669.0</ele>
      </trkpt>
      <trkpt lat="44.31961491983337" lon="3.056111074382267">
        <ele>669.0</ele>
      </trkpt>
      <trkpt lat="44.319515131999715" lon="3.056017197231995">
        <ele>669.0</ele>
      </trkpt>
      <trkpt lat="44.31945372398874" lon="3.055920637707459">
        <ele>669.0</ele>
      </trkpt>
      <trkpt lat="44.31943453397211" lon="3.055738247494445">
        <ele>669.0</ele>
      </trkpt>
      <trkpt lat="44.31947291416527" lon="3.055539764161722">
        <ele>669.0</ele>
      </trkpt>
      <trkpt lat="44.31951129400094" lon="3.055341280560242">
        <ele>669.0</ele>
      </trkpt>
      <trkpt lat="44.31954583598116" lon="3.0551106105849617">
        <ele>669.0</ele>
      </trkpt>
      <trkpt lat="44.31954583598113" lon="3.0549228559539188">
        <ele>669.0</ele>
      </trkpt>
      <trkpt lat="44.31949210400313" lon="3.054686821560609">
        <ele>669.0</ele>
      </trkpt>
      <trkpt lat="44.31941534401531" lon="3.0545258888018036">
        <ele>669.0</ele>
      </trkpt>
      <trkpt lat="44.319338583794845" lon="3.054364956478822">
        <ele>669.0</ele>
      </trkpt>
      <trkpt lat="44.319208091502446" lon="3.0541307091464334">
        <ele>669.0</ele>
      </trkpt>
      <trkpt lat="44.31907759871933" lon="3.0538964628924683">
        <ele>669.0</ele>
      </trkpt>
      <trkpt lat="44.31894795171647" lon="3.053663736830277">
        <ele>669.0</ele>
      </trkpt>
      <trkpt lat="44.318947105445474" lon="3.0536622177169193">
        <ele>669.0</ele>
      </trkpt>
      <trkpt lat="44.31883196455269" lon="3.0534449574628995">
        <ele>670.0</ele>
      </trkpt>
      <trkpt lat="44.318716823237104" lon="3.053227698091425">
        <ele>670.0</ele>
      </trkpt>
      <trkpt lat="44.318601681498706" lon="3.05301043960249">
        <ele>671.0</ele>
      </trkpt>
      <trkpt lat="44.31848653933751" lon="3.0527931819960945">
        <ele>671.0</ele>
      </trkpt>
      <trkpt lat="44.31837811408774" lon="3.0525973796145367">
        <ele>672.0</ele>
      </trkpt>
      <trkpt lat="44.31826968849501" lon="3.0524015779819607">
        <ele>673.0</ele>
      </trkpt>
      <trkpt lat="44.31816126255937" lon="3.0522057770983646">
        <ele>674.0</ele>
      </trkpt>
      <trkpt lat="44.318052836280785" lon="3.0520099769637463">
        <ele>675.0</ele>
      </trkpt>
      <trkpt lat="44.31791594426811" lon="3.0517739414305165">
        <ele>676.0</ele>
      </trkpt>
      <trkpt lat="44.31777905175785" lon="3.0515379070372064">
        <ele>677.0</ele>
      </trkpt>
      <trkpt lat="44.317642158750054" lon="3.0513018737838147">
        <ele>678.0</ele>
      </trkpt>
      <trkpt lat="44.31754492645198" lon="3.0511051777813374">
        <ele>679.0</ele>
      </trkpt>
      <trkpt lat="44.31744769380668" lon="3.050908482453578">
        <ele>680.0</ele>
      </trkpt>
      <trkpt lat="44.31735046081413" lon="3.0507117878005374">
        <ele>681.0</ele>
      </trkpt>
      <trkpt lat="44.31725578685872" lon="3.050500786653291">
        <ele>682.0</ele>
      </trkpt>
      <trkpt lat="44.317161112502774" lon="3.0502897862107874">
        <ele>683.0</ele>
      </trkpt>
      <trkpt lat="44.317066437746355" lon="3.050078786473024">
        <ele>683.0</ele>
      </trkpt>
      <trkpt lat="44.31696280745082" lon="3.049880302643099">
        <ele>684.0</ele>
      </trkpt>
      <trkpt lat="44.316859176802254" lon="3.0496818195388187">
        <ele>685.0</ele>
      </trkpt>
      <trkpt lat="44.31679200880601" lon="3.0495342978682167">
        <ele>686.0</ele>
      </trkpt>
      <trkpt lat="44.31672484061409" lon="3.049386776547181">
        <ele>686.0</ele>
      </trkpt>
      <trkpt lat="44.3166672678679" lon="3.04915074215387">
        <ele>687.0</ele>
      </trkpt>
      <trkpt lat="44.31666342968281" lon="3.048936165432679">
        <ele>688.0</ele>
      </trkpt>
      <trkpt lat="44.31669413534213" lon="3.0487296354503934">
        <ele>688.0</ele>
      </trkpt>
      <trkpt lat="44.31672484061409" lon="3.048523105244384">
        <ele>689.0</ele>
      </trkpt>
      <trkpt lat="44.316778575475404" lon="3.0482361091518175">
        <ele>689.0</ele>
      </trkpt>
      <trkpt lat="44.31683230958919" lon="3.047949112515198">
        <ele>690.0</ele>
      </trkpt>
      <trkpt lat="44.31686877245711" lon="3.0477211248955687">
        <ele>690.0</ele>
      </trkpt>
      <trkpt lat="44.31690523485307" lon="3.0474931369826663">
        <ele>691.0</ele>
      </trkpt>
      <trkpt lat="44.31692826386496" lon="3.047224916081178">
        <ele>691.0</ele>
      </trkpt>
      <trkpt lat="44.31693977836751" lon="3.047107178499573">
        <ele>691.0</ele>
      </trkpt>
      <trkpt lat="44.317033813387056" lon="3.047125953962677">
        <ele>692.0</ele>
      </trkpt>
      <trkpt lat="44.31723147834496" lon="3.04719300918805">
        <ele>692.0</ele>
      </trkpt>
      <trkpt lat="44.31736677275554" lon="3.047234583328563">
        <ele>692.0</ele>
      </trkpt>
      <trkpt lat="44.31750206715918" lon="3.0472761576675116">
        <ele>692.0</ele>
      </trkpt>
      <trkpt lat="44.317724678297765" lon="3.0473083441756885">
        <ele>692.0</ele>
      </trkpt>
      <trkpt lat="44.31789259537668" lon="3.047304320874084">
        <ele>692.0</ele>
      </trkpt>
      <trkpt lat="44.31806051246895" lon="3.047300297548646">
        <ele>692.0</ele>
      </trkpt>
      <trkpt lat="44.318269688209874" lon="3.047300297548646">
        <ele>692.0</ele>
      </trkpt>
      <trkpt lat="44.318430887354666" lon="3.0473163908027354">
        <ele>692.0</ele>
      </trkpt>
      <trkpt lat="44.31859208583783" lon="3.047360647125638">
        <ele>691.0</ele>
      </trkpt>
      <trkpt lat="44.31875328431563" lon="3.0474049037002264">
        <ele>691.0</ele>
      </trkpt>
      <trkpt lat="44.318910643880045" lon="3.0474317257159216">
        <ele>692.0</ele>
      </trkpt>
      <trkpt lat="44.319068003449786" lon="3.0474585478805234">
        <ele>692.0</ele>
      </trkpt>
      <trkpt lat="44.31922920017389" lon="3.0474652533839928">
        <ele>692.0</ele>
      </trkpt>
      <trkpt lat="44.31939039691004" lon="3.0474719589255965">
        <ele>692.0</ele>
      </trkpt>
      <trkpt lat="44.31956694441707" lon="3.04745050138713">
        <ele>692.0</ele>
      </trkpt>
      <trkpt lat="44.31974349193485" lon="3.0474290437150113">
        <ele>692.0</ele>
      </trkpt>
      <trkpt lat="44.31992003946338" lon="3.04740758590924">
        <ele>693.0</ele>
      </trkpt>
      <trkpt lat="44.32005820613674" lon="3.0473767405807486">
        <ele>693.0</ele>
      </trkpt>
      <trkpt lat="44.320196372810585" lon="3.047345895101898">
        <ele>693.0</ele>
      </trkpt>
      <trkpt lat="44.32036140460556" lon="3.047235924532288">
        <ele>693.0</ele>
      </trkpt>
      <trkpt lat="44.32045543411264" lon="3.0471326596565027">
        <ele>693.0</ele>
      </trkpt>
      <trkpt lat="44.320549463526966" lon="3.0470293944381424">
        <ele>692.0</ele>
      </trkpt>
      <trkpt lat="44.32065692545644" lon="3.046914059669139">
        <ele>692.0</ele>
      </trkpt>
      <trkpt lat="44.32076438727048" lon="3.0467987244628607">
        <ele>691.0</ele>
      </trkpt>
      <trkpt lat="44.32089871409583" lon="3.0467008240658022">
        <ele>690.0</ele>
      </trkpt>
      <trkpt lat="44.32103304084269" lon="3.0466029232047735">
        <ele>689.0</ele>
      </trkpt>
      <trkpt lat="44.321188475409386" lon="3.0464889296342075">
        <ele>688.0</ele>
      </trkpt>
      <trkpt lat="44.32134390986952" lon="3.0463749354385086">
        <ele>687.0</ele>
      </trkpt>
      <trkpt lat="44.32144849196479" lon="3.046242166337218">
        <ele>686.0</ele>
      </trkpt>
      <trkpt lat="44.32155307390504" lon="3.0461093967460338">
        <ele>685.0</ele>
      </trkpt>
      <trkpt lat="44.32164614204284" lon="3.0460021085615834">
        <ele>685.0</ele>
      </trkpt>
      <trkpt lat="44.32173921008015" lon="3.0458948200248415">
        <ele>684.0</ele>
      </trkpt>
      <trkpt lat="44.321931102426014" lon="3.0457338874839475">
        <ele>683.0</ele>
      </trkpt>
      <trkpt lat="44.3220558320009" lon="3.0456628091014513">
        <ele>683.0</ele>
      </trkpt>
      <trkpt lat="44.32217963684469" lon="3.0455922573551106">
        <ele>683.0</ele>
      </trkpt>
      <trkpt lat="44.3221805615373" lon="3.0455917304061595">
        <ele>683.0</ele>
      </trkpt>
      <trkpt lat="44.32230145276087" lon="3.0455447918485006">
        <ele>683.0</ele>
      </trkpt>
      <trkpt lat="44.32242234397139" lon="3.045497853090636">
        <ele>683.0</ele>
      </trkpt>
      <trkpt lat="44.32256050479485" lon="3.0453959293964905">
        <ele>683.0</ele>
      </trkpt>
      <trkpt lat="44.322698665533" lon="3.045294005205507">
        <ele>683.0</ele>
      </trkpt>
      <trkpt lat="44.32281955571349" lon="3.0452068335984284">
        <ele>683.0</ele>
      </trkpt>
      <trkpt lat="44.32294044583187" lon="3.045119661619539">
        <ele>683.0</ele>
      </trkpt>
      <trkpt lat="44.32306325444383" lon="3.0449828692561383">
        <ele>683.0</ele>
      </trkpt>
      <trkpt lat="44.323186062892894" lon="3.044846076300019">
        <ele>682.0</ele>
      </trkpt>
      <trkpt lat="44.323302154900716" lon="3.0447468347697164">
        <ele>682.0</ele>
      </trkpt>
      <trkpt lat="44.32341824682545" lon="3.0446475928329173">
        <ele>682.0</ele>
      </trkpt>
      <trkpt lat="44.3235285817721" lon="3.044559080107712">
        <ele>681.0</ele>
      </trkpt>
      <trkpt lat="44.323638916653366" lon="3.0444705670379344">
        <ele>681.0</ele>
      </trkpt>
      <trkpt lat="44.32374829182584" lon="3.0444037914276123">
        <ele>680.0</ele>
      </trkpt>
      <trkpt lat="44.32375788612945" lon="3.0442965030670166">
        <ele>680.0</ele>
      </trkpt>
      <trkpt lat="44.323729103213765" lon="3.0441436171531673">
        <ele>679.0</ele>
      </trkpt>
      <trkpt lat="44.323711833457644" lon="3.0439075827598567">
        <ele>679.0</ele>
      </trkpt>
      <trkpt lat="44.32371087425733" lon="3.0436822771987924">
        <ele>678.0</ele>
      </trkpt>
      <trkpt lat="44.32370991459552" lon="3.043456971645355">
        <ele>678.0</ele>
      </trkpt>
      <trkpt lat="44.323698401609306" lon="3.043253123718821">
        <ele>678.0</ele>
      </trkpt>
      <trkpt lat="44.323686888245355" lon="3.0430492758750916">
        <ele>678.0</ele>
      </trkpt>
      <trkpt lat="44.32368209127415" lon="3.042846769077328">
        <ele>677.0</ele>
      </trkpt>
      <trkpt lat="44.32367729393012" lon="3.0426442623138423">
        <ele>677.0</ele>
      </trkpt>
      <trkpt lat="44.323659064893484" lon="3.042451143202667">
        <ele>677.0</ele>
      </trkpt>
      <trkpt lat="44.323640835517914" lon="3.042258024215699">
        <ele>677.0</ele>
      </trkpt>
      <trkpt lat="44.32362068755049" lon="3.042098432722587">
        <ele>678.0</ele>
      </trkpt>
      <trkpt lat="44.32360053935169" lon="3.041938841342926">
        <ele>678.0</ele>
      </trkpt>
      <trkpt lat="44.32356504042996" lon="3.0417792498065954">
        <ele>678.0</ele>
      </trkpt>
      <trkpt lat="44.32352954127728" lon="3.041619658470154">
        <ele>678.0</ele>
      </trkpt>
      <trkpt lat="44.323506515023546" lon="3.041425198237581">
        <ele>678.0</ele>
      </trkpt>
      <trkpt lat="44.32348348842629" lon="3.0412307381629944">
        <ele>678.0</ele>
      </trkpt>
      <trkpt lat="44.32346685863148" lon="3.041017055386095">
        <ele>679.0</ele>
      </trkpt>
      <trkpt lat="44.32345022842169" lon="3.040803372734575">
        <ele>679.0</ele>
      </trkpt>
      <trkpt lat="44.32343359779692" lon="3.0405896902084355">
        <ele>679.0</ele>
      </trkpt>
      <trkpt lat="44.32342880075887" lon="3.040414005503092">
        <ele>680.0</ele>
      </trkpt>
      <trkpt lat="44.323424003440245" lon="3.040238320827484">
        <ele>680.0</ele>
      </trkpt>
      <trkpt lat="44.323466218597844" lon="3.040004968643189">
        <ele>680.0</ele>
      </trkpt>
      <trkpt lat="44.32350651485628" lon="3.039793074131013">
        <ele>681.0</ele>
      </trkpt>
      <trkpt lat="44.32350075824962" lon="3.0395007133483882">
        <ele>681.0</ele>
      </trkpt>
      <trkpt lat="44.32349020462178" lon="3.0393169819966617">
        <ele>682.0</ele>
      </trkpt>
      <trkpt lat="44.32347965085482" lon="3.0391332536336715">
        <ele>682.0</ele>
      </trkpt>
      <trkpt lat="44.32347965068708" lon="3.039133250713349">
        <ele>683.0</ele>
      </trkpt>
      <trkpt lat="44.323463340471775" lon="3.0389334260842418">
        <ele>684.0</ele>
      </trkpt>
      <trkpt lat="44.32344702989359" lon="3.03873360157013">
        <ele>684.0</ele>
      </trkpt>
      <trkpt lat="44.323433597969604" lon="3.038537800265646">
        <ele>685.0</ele>
      </trkpt>
      <trkpt lat="44.32342016569716" lon="3.038341999053956">
        <ele>685.0</ele>
      </trkpt>
      <trkpt lat="44.323427841347446" lon="3.0381515622396846">
        <ele>685.0</ele>
      </trkpt>
      <trkpt lat="44.323435516668056" lon="3.0379611253738408">
        <ele>686.0</ele>
      </trkpt>
      <trkpt lat="44.323450867786335" lon="3.037777394106076">
        <ele>686.0</ele>
      </trkpt>
      <trkpt lat="44.32346621859782" lon="3.0375936627388">
        <ele>686.0</ele>
      </trkpt>
      <trkpt lat="44.32348924503462" lon="3.0373656749725346">
        <ele>687.0</ele>
      </trkpt>
      <trkpt lat="44.32352570354105" lon="3.0370733141899104">
        <ele>687.0</ele>
      </trkpt>
      <trkpt lat="44.32352858199888" lon="3.0368882417772807">
        <ele>687.0</ele>
      </trkpt>
      <trkpt lat="44.3235314601453" lon="3.036703169345856">
        <ele>687.0</ele>
      </trkpt>
      <trkpt lat="44.323542973352005" lon="3.0364537239074716">
        <ele>688.0</ele>
      </trkpt>
      <trkpt lat="44.32353337901322" lon="3.036324977874756">
        <ele>688.0</ele>
      </trkpt>
      <trkpt lat="44.32349308277322" lon="3.0360755324363704">
        <ele>688.0</ele>
      </trkpt>
      <trkpt lat="44.323496920511545" lon="3.0358314514160147">
        <ele>689.0</ele>
      </trkpt>
      <trkpt lat="44.32351706874591" lon="3.035671860036354">
        <ele>689.0</ele>
      </trkpt>
      <trkpt lat="44.3235372167489" lon="3.035512268543243">
        <ele>689.0</ele>
      </trkpt>
      <trkpt lat="44.32355256786863" lon="3.035312444025748">
        <ele>689.0</ele>
      </trkpt>
      <trkpt lat="44.323567918625464" lon="3.035112619400025">
        <ele>689.0</ele>
      </trkpt>
      <trkpt lat="44.323592863888365" lon="3.034954369068146">
        <ele>688.0</ele>
      </trkpt>
      <trkpt lat="44.32372334662884" lon="3.0349650979042058">
        <ele>688.0</ele>
      </trkpt>
      <trkpt lat="44.32389700310716" lon="3.0350241063217585">
        <ele>687.0</ele>
      </trkpt>
      <trkpt lat="44.324070659568214" lon="3.035083115100862">
        <ele>686.0</ele>
      </trkpt>
      <trkpt lat="44.324245274428414" lon="3.0351209173677156">
        <ele>685.0</ele>
      </trkpt>
      <trkpt lat="44.32441988929017" lon="3.0351587198674688">
        <ele>684.0</ele>
      </trkpt>
      <trkpt lat="44.32458107131258" lon="3.03518260822358">
        <ele>683.0</ele>
      </trkpt>
      <trkpt lat="44.32474225334224" lon="3.035206496715547">
        <ele>683.0</ele>
      </trkpt>
      <trkpt lat="44.32487657117438" lon="3.0352306365966806">
        <ele>682.0</ele>
      </trkpt>
      <trkpt lat="44.32500321342023" lon="3.0352123640477666">
        <ele>681.0</ele>
      </trkpt>
      <trkpt lat="44.325200851530276" lon="3.035139944404364">
        <ele>680.0</ele>
      </trkpt>
      <trkpt lat="44.3253658688364" lon="3.035055008280097">
        <ele>680.0</ele>
      </trkpt>
      <trkpt lat="44.32553088608994" lon="3.0349700716612937">
        <ele>679.0</ele>
      </trkpt>
      <trkpt lat="44.3256959032909" lon="3.0348851345479497">
        <ele>679.0</ele>
      </trkpt>
      <trkpt lat="44.325696247854076" lon="3.0348850079830645">
        <ele>678.0</ele>
      </trkpt>
      <trkpt lat="44.325827340609486" lon="3.034836854897634">
        <ele>678.0</ele>
      </trkpt>
      <trkpt lat="44.325958777915154" lon="3.034788575023414">
        <ele>677.0</ele>
      </trkpt>
      <trkpt lat="44.32607774256253" lon="3.034795280531877">
        <ele>677.0</ele>
      </trkpt>
      <trkpt lat="44.32619670721628" lon="3.0348019860684876">
        <ele>676.0</ele>
      </trkpt>
      <trkpt lat="44.326370355829624" lon="3.0348107031676697">
        <ele>676.0</ele>
      </trkpt>
      <trkpt lat="44.32654400445667" lon="3.0348194203202628">
        <ele>675.0</ele>
      </trkpt>
      <trkpt lat="44.32671765309745" lon="3.034828137526265">
        <ele>675.0</ele>
      </trkpt>
      <trkpt lat="44.3268913017519" lon="3.0348368547856803">
        <ele>674.0</ele>
      </trkpt>
      <trkpt lat="44.327100446009226" lon="3.0348046682775025">
        <ele>674.0</ele>
      </trkpt>
      <trkpt lat="44.327251387240956" lon="3.0347224143057945">
        <ele>673.0</ele>
      </trkpt>
      <trkpt lat="44.327402328422046" lon="3.034640159896006">
        <ele>672.0</ele>
      </trkpt>
      <trkpt lat="44.327553269552496" lon="3.034557905048132">
        <ele>672.0</ele>
      </trkpt>
      <trkpt lat="44.327732350971424" lon="3.034413960740577">
        <ele>671.0</ele>
      </trkpt>
      <trkpt lat="44.32791143221727" lon="3.034270015523448">
        <ele>670.0</ele>
      </trkpt>
      <trkpt lat="44.32809051329005" lon="3.0341260693967342">
        <ele>670.0</ele>
      </trkpt>
      <trkpt lat="44.32826799432391" lon="3.033989277165308">
        <ele>670.0</ele>
      </trkpt>
      <trkpt lat="44.32844547520269" lon="3.0338524840772156">
        <ele>669.0</ele>
      </trkpt>
      <trkpt lat="44.328635426645015" lon="3.0337478782762006">
        <ele>669.0</ele>
      </trkpt>
      <trkpt lat="44.32882537800506" lon="3.0336432717740545">
        <ele>669.0</ele>
      </trkpt>
      <trkpt lat="44.32898693121023" lon="3.033528474537048">
        <ele>669.0</ele>
      </trkpt>
      <trkpt lat="44.32914848430803" lon="3.033413676645631">
        <ele>669.0</ele>
      </trkpt>
      <trkpt lat="44.32931003729847" lon="3.0332988780997985">
        <ele>669.0</ele>
      </trkpt>
      <trkpt lat="44.329471590181555" lon="3.033184078899546">
        <ele>670.0</ele>
      </trkpt>
      <trkpt lat="44.32963314295726" lon="3.033069279044867">
        <ele>670.0</ele>
      </trkpt>
      <trkpt lat="44.32974250695349" lon="3.0330607295036325">
        <ele>670.0</ele>
      </trkpt>
      <trkpt lat="44.329790473554034" lon="3.0330714583396916">
        <ele>670.0</ele>
      </trkpt>
      <trkpt lat="44.32979431088018" lon="3.0331543272041013">
        <ele>670.0</ele>
      </trkpt>
      <trkpt lat="44.32986434207436" lon="3.0332830730777416">
        <ele>670.0</ele>
      </trkpt>
      <trkpt lat="44.3299343731202" lon="3.0334118192695314">
        <ele>670.0</ele>
      </trkpt>
      <trkpt lat="44.330029346673406" lon="3.0335687282339787">
        <ele>670.0</ele>
      </trkpt>
      <trkpt lat="44.33012432000713" lon="3.0337256377242743">
        <ele>670.0</ele>
      </trkpt>
      <trkpt lat="44.3302327237352" lon="3.033854383510749">
        <ele>670.0</ele>
      </trkpt>
      <trkpt lat="44.33034112731818" lon="3.033983129789704">
        <ele>670.0</ele>
      </trkpt>
      <trkpt lat="44.330468717014895" lon="3.0341078522281313">
        <ele>670.0</ele>
      </trkpt>
      <trkpt lat="44.330596306577945" lon="3.034232575228088">
        <ele>669.0</ele>
      </trkpt>
      <trkpt lat="44.330699912809344" lon="3.034307676943222">
        <ele>669.0</ele>
      </trkpt>
      <trkpt lat="44.33080351899461" lon="3.0343827789329234">
        <ele>669.0</ele>
      </trkpt>
      <trkpt lat="44.330939741428836" lon="3.034445810693279">
        <ele>669.0</ele>
      </trkpt>
      <trkpt lat="44.33107596383579" lon="3.0345088427566225">
        <ele>668.0</ele>
      </trkpt>
      <trkpt lat="44.3312035518738" lon="3.0345571224102073">
        <ele>668.0</ele>
      </trkpt>
      <trkpt lat="44.331331139898346" lon="3.034605402281159">
        <ele>667.0</ele>
      </trkpt>
      <trkpt lat="44.33147503568471" lon="3.0347046440147105">
        <ele>667.0</ele>
      </trkpt>
      <trkpt lat="44.3315907915296" lon="3.034841436115709">
        <ele>666.0</ele>
      </trkpt>
      <trkpt lat="44.33170654721077" lon="3.0349782287754663">
        <ele>666.0</ele>
      </trkpt>
      <trkpt lat="44.33182230272822" lon="3.035115021993989">
        <ele>665.0</ele>
      </trkpt>
      <trkpt lat="44.33193454052225" lon="3.0352638842995208">
        <ele>665.0</ele>
      </trkpt>
      <trkpt lat="44.33204677812079" lon="3.0354127471946417">
        <ele>664.0</ele>
      </trkpt>
      <trkpt lat="44.33213887030902" lon="3.0355093065622825">
        <ele>664.0</ele>
      </trkpt>
      <trkpt lat="44.33223096241653" lon="3.0356058662437144">
        <ele>663.0</ele>
      </trkpt>
      <trkpt lat="44.332286601308766" lon="3.035670239260072">
        <ele>663.0</ele>
      </trkpt>
      <trkpt lat="44.33231729860603" lon="3.0357587521575633">
        <ele>663.0</ele>
      </trkpt>
      <trkpt lat="44.332315380025456" lon="3.03593846016156">
        <ele>662.0</ele>
      </trkpt>
      <trkpt lat="44.3322894791811" lon="3.036090004970902">
        <ele>662.0</ele>
      </trkpt>
      <trkpt lat="44.332263578325275" lon="3.036241549780244">
        <ele>661.0</ele>
      </trkpt>
      <trkpt lat="44.33224535192551" lon="3.0364158934222787">
        <ele>661.0</ele>
      </trkpt>
      <trkpt lat="44.33222712524958" lon="3.0365902369521804">
        <ele>661.0</ele>
      </trkpt>
      <trkpt lat="44.332194509564445" lon="3.0368262714813232">
        <ele>660.0</ele>
      </trkpt>
      <trkpt lat="44.332161893373396" lon="3.0370623057388015">
        <ele>660.0</ele>
      </trkpt>
      <trkpt lat="44.33212927759262" lon="3.0372688359518007">
        <ele>660.0</ele>
      </trkpt>
      <trkpt lat="44.332096661424615" lon="3.037475365927094">
        <ele>659.0</ele>
      </trkpt>
      <trkpt lat="44.33205828990811" lon="3.0377167649018673">
        <ele>659.0</ele>
      </trkpt>
      <trkpt lat="44.332019917862624" lon="3.0379581635497748">
        <ele>659.0</ele>
      </trkpt>
      <trkpt lat="44.33199017990425" lon="3.0381713992783435">
        <ele>659.0</ele>
      </trkpt>
      <trkpt lat="44.331960441533006" lon="3.0383846347831422">
        <ele>659.0</ele>
      </trkpt>
      <trkpt lat="44.33193645923567" lon="3.0385442262870592">
        <ele>659.0</ele>
      </trkpt>
      <trkpt lat="44.3319124767071" lon="3.0387038176559145">
        <ele>659.0</ele>
      </trkpt>
      <trkpt lat="44.331853000268495" lon="3.038888890077942">
        <ele>659.0</ele>
      </trkpt>
      <trkpt lat="44.33174172160852" lon="3.039122242262238">
        <ele>659.0</ele>
      </trkpt>
      <trkpt lat="44.33168032647617" lon="3.0392804927655406">
        <ele>659.0</ele>
      </trkpt>
      <trkpt lat="44.331618931117966" lon="3.039438742925995">
        <ele>659.0</ele>
      </trkpt>
      <trkpt lat="44.33152971614643" lon="3.0396613666246606">
        <ele>659.0</ele>
      </trkpt>
      <trkpt lat="44.331440500728135" lon="3.039883989622468">
        <ele>658.0</ele>
      </trkpt>
      <trkpt lat="44.33138198317492" lon="3.040023464635244">
        <ele>658.0</ele>
      </trkpt>
      <trkpt lat="44.331323465446495" lon="3.040162939360015">
        <ele>658.0</ele>
      </trkpt>
      <trkpt lat="44.3312601511804" lon="3.0402943676017467">
        <ele>658.0</ele>
      </trkpt>
      <trkpt lat="44.33125985343386" lon="3.0402946922751046">
        <ele>658.0</ele>
      </trkpt>
      <trkpt lat="44.33116422034392" lon="3.040398973753326">
        <ele>658.0</ele>
      </trkpt>
      <trkpt lat="44.33102607966371" lon="3.0404955332778614">
        <ele>658.0</ele>
      </trkpt>
      <trkpt lat="44.330978114073645" lon="3.0405652707122495">
        <ele>658.0</ele>
      </trkpt>
      <trkpt lat="44.33094741607545" lon="3.0407557075523073">
        <ele>658.0</ele>
      </trkpt>
      <trkpt lat="44.33090808445893" lon="3.04098101326591">
        <ele>658.0</ele>
      </trkpt>
      <trkpt lat="44.330868752381676" lon="3.04120631866681">
        <ele>658.0</ele>
      </trkpt>
      <trkpt lat="44.33082270561076" lon="3.0414785631030017">
        <ele>658.0</ele>
      </trkpt>
      <trkpt lat="44.33077665816711" lon="3.0417508070968324">
        <ele>658.0</ele>
      </trkpt>
      <trkpt lat="44.330736367268784" lon="3.0419591256265006">
        <ele>658.0</ele>
      </trkpt>
      <trkpt lat="44.330696075976725" lon="3.042167443859992">
        <ele>658.0</ele>
      </trkpt>
      <trkpt lat="44.33065578429098" lon="3.0423757617973037">
        <ele>658.0</ele>
      </trkpt>
      <trkpt lat="44.330619330413576" lon="3.0425903386565056">
        <ele>659.0</ele>
      </trkpt>
      <trkpt lat="44.33058287611827" lon="3.042804915239686">
        <ele>659.0</ele>
      </trkpt>
      <trkpt lat="44.330537788392064" lon="3.043055701982081">
        <ele>659.0</ele>
      </trkpt>
      <trkpt lat="44.3304927000951" lon="3.0433064883254706">
        <ele>660.0</ele>
      </trkpt>
      <trkpt lat="44.33045240863564" lon="3.043478149702424">
        <ele>660.0</ele>
      </trkpt>
      <trkpt lat="44.33039101207283" lon="3.0435639803909003">
        <ele>660.0</ele>
      </trkpt>
      <trkpt lat="44.330295079814725" lon="3.0436310356162735">
        <ele>661.0</ele>
      </trkpt>
      <trkpt lat="44.330170367644634" lon="3.0436310356162726">
        <ele>662.0</ele>
      </trkpt>
      <trkpt lat="44.32998617687763" lon="3.043572027017945">
        <ele>662.0</ele>
      </trkpt>
      <trkpt lat="44.3298230906056" lon="3.0435076538163623">
        <ele>663.0</ele>
      </trkpt>
      <trkpt lat="44.32966000430857" lon="3.0434432809852305">
        <ele>664.0</ele>
      </trkpt>
      <trkpt lat="44.32949116108896" lon="3.043388295536627">
        <ele>664.0</ele>
      </trkpt>
      <trkpt lat="44.329322317855414" lon="3.043333310415619">
        <ele>665.0</ele>
      </trkpt>
      <trkpt lat="44.32928970047826" lon="3.043530452891664">
        <ele>665.0</ele>
      </trkpt>
      <trkpt lat="44.32925708274833" lon="3.043727595140808">
        <ele>665.0</ele>
      </trkpt>
      <trkpt lat="44.32922254687307" lon="3.0439394899112098">
        <ele>665.0</ele>
      </trkpt>
      <trkpt lat="44.329188010590215" lon="3.0441513844233876">
        <ele>665.0</ele>
      </trkpt>
      <trkpt lat="44.32915347389978" lon="3.0443632786773387">
        <ele>664.0</ele>
      </trkpt>
      <trkpt lat="44.32911989710536" lon="3.0445711499991344">
        <ele>664.0</ele>
      </trkpt>
      <trkpt lat="44.32908631991869" lon="3.044779021074645">
        <ele>664.0</ele>
      </trkpt>
      <trkpt lat="44.32903643405443" lon="3.0450499241851507">
        <ele>663.0</ele>
      </trkpt>
      <trkpt lat="44.32895584910707" lon="3.0452966874145213">
        <ele>663.0</ele>
      </trkpt>
      <trkpt lat="44.32888389821589" lon="3.0454401857789786">
        <ele>663.0</ele>
      </trkpt>
      <trkpt lat="44.32881194713999" lon="3.0455836837791153">
        <ele>663.0</ele>
      </trkpt>
      <trkpt lat="44.3287025814089" lon="3.045833129217499">
        <ele>663.0</ele>
      </trkpt>
      <trkpt lat="44.328579784555515" lon="3.0460772102378546">
        <ele>663.0</ele>
      </trkpt>
      <trkpt lat="44.328495361576664" lon="3.0462007318440447">
        <ele>662.0</ele>
      </trkpt>
      <trkpt lat="44.32841093846249" lon="3.046324253082275">
        <ele>662.0</ele>
      </trkpt>
      <trkpt lat="44.328307328119344" lon="3.046452999114991">
        <ele>662.0</ele>
      </trkpt>
      <trkpt lat="44.32821139245294" lon="3.046413017436863">
        <ele>663.0</ele>
      </trkpt>
      <trkpt lat="44.328107781757204" lon="3.046375466510654">
        <ele>663.0</ele>
      </trkpt>
      <trkpt lat="44.32800992704325" lon="3.046353757381439">
        <ele>663.0</ele>
      </trkpt>
      <trkpt lat="44.327906315991676" lon="3.0463188886642465">
        <ele>663.0</ele>
      </trkpt>
      <trkpt lat="44.32772211811471" lon="3.046257197856904">
        <ele>664.0</ele>
      </trkpt>
      <trkpt lat="44.327514894811664" lon="3.0461928248405457">
        <ele>664.0</ele>
      </trkpt>
      <trkpt lat="44.32735180188244" lon="3.046128451824189">
        <ele>664.0</ele>
      </trkpt>
      <trkpt lat="44.32721173347535" lon="3.0460801720619206">
        <ele>665.0</ele>
      </trkpt>
      <trkpt lat="44.3270812584939" lon="3.0460238456726083">
        <ele>665.0</ele>
      </trkpt>
      <trkpt lat="44.32696805202472" lon="3.0459677707403907">
        <ele>666.0</ele>
      </trkpt>
      <trkpt lat="44.32686443913277" lon="3.0459302198141804">
        <ele>667.0</ele>
      </trkpt>
      <trkpt lat="44.32676466358232" lon="3.045892668887973">
        <ele>667.0</ele>
      </trkpt>
      <trkpt lat="44.326576624583666" lon="3.045881940051914">
        <ele>668.0</ele>
      </trkpt>
      <trkpt lat="44.32638090988358" lon="3.045876575633883">
        <ele>668.0</ele>
      </trkpt>
      <trkpt lat="44.32620821990005" lon="3.045860482379795">
        <ele>668.0</ele>
      </trkpt>
      <trkpt lat="44.32600099124883" lon="3.04583877325058">
        <ele>669.0</ele>
      </trkpt>
      <trkpt lat="44.3258014370408" lon="3.0458014737814674">
        <ele>669.0</ele>
      </trkpt>
      <trkpt lat="44.32571701005612" lon="3.0457961093634367">
        <ele>670.0</ele>
      </trkpt>
      <trkpt lat="44.32552513009363" lon="3.0458282958716145">
        <ele>670.0</ele>
      </trkpt>
      <trkpt lat="44.32538697613201" lon="3.0458443891257048">
        <ele>670.0</ele>
      </trkpt>
      <trkpt lat="44.32529871093066" lon="3.0458497535437354">
        <ele>671.0</ele>
      </trkpt>
      <trkpt lat="44.32521428322244" lon="3.0458497535437346">
        <ele>671.0</ele>
      </trkpt>
      <trkpt lat="44.3250722908937" lon="3.0458390247076763">
        <ele>672.0</ele>
      </trkpt>
      <trkpt lat="44.32493413586566" lon="3.0458226799964914">
        <ele>672.0</ele>
      </trkpt>
      <trkpt lat="44.32480365581813" lon="3.045798540115357">
        <ele>673.0</ele>
      </trkpt>
      <trkpt lat="44.32466933781902" lon="3.045777082443238">
        <ele>674.0</ele>
      </trkpt>
      <trkpt lat="44.324481291798016" lon="3.0457462369372394">
        <ele>674.0</ele>
      </trkpt>
      <trkpt lat="44.32429324578526" lon="3.0457153916358957">
        <ele>675.0</ele>
      </trkpt>
      <trkpt lat="44.32409176656763" lon="3.045681863904038">
        <ele>676.0</ele>
      </trkpt>
      <trkpt lat="44.323890287359205" lon="3.0456483364105233">
        <ele>676.0</ele>
      </trkpt>
      <trkpt lat="44.32374101531756" lon="3.045625379164609">
        <ele>676.0</ele>
      </trkpt>
      <trkpt lat="44.32373677865941" lon="3.0457153916358948">
        <ele>676.0</ele>
      </trkpt>
      <trkpt lat="44.323747332598494" lon="3.0459272861086206">
        <ele>676.0</ele>
      </trkpt>
      <trkpt lat="44.32375788612945" lon="3.0461391806602482">
        <ele>675.0</ele>
      </trkpt>
      <trkpt lat="44.32376364271087" lon="3.046439588069916">
        <ele>674.0</ele>
      </trkpt>
      <trkpt lat="44.3237962633283" lon="3.0466380715370183">
        <ele>674.0</ele>
      </trkpt>
      <trkpt lat="44.32389604392773" lon="3.046908974647521">
        <ele>673.0</ele>
      </trkpt>
      <trkpt lat="44.32396512270487" lon="3.0471691489219666">
        <ele>671.0</ele>
      </trkpt>
      <trkpt lat="44.32400733747304" lon="3.0474561452865605">
        <ele>670.0</ele>
      </trkpt>
      <trkpt lat="44.32401501288219" lon="3.047748506069184">
        <ele>669.0</ele>
      </trkpt>
      <trkpt lat="44.32399966206291" lon="3.0480542778968815">
        <ele>668.0</ele>
      </trkpt>
      <trkpt lat="44.32399198680696" lon="3.0482393503439678">
        <ele>667.0</ele>
      </trkpt>
      <trkpt lat="44.323984311239634" lon="3.0484244227409363">
        <ele>667.0</ele>
      </trkpt>
      <trkpt lat="44.32398623035762" lon="3.048665821544105">
        <ele>666.0</ele>
      </trkpt>
      <trkpt lat="44.32398812197671" lon="3.0489038266197683">
        <ele>666.0</ele>
      </trkpt>
      <trkpt lat="44.32398814894584" lon="3.048907220363617">
        <ele>666.0</ele>
      </trkpt>
      <trkpt lat="44.32398942869148" lon="3.049144148815904">
        <ele>665.0</ele>
      </trkpt>
      <trkpt lat="44.323990707926804" lon="3.049381077278888">
        <ele>665.0</ele>
      </trkpt>
      <trkpt lat="44.32399198665179" lon="3.0496180057525635">
        <ele>665.0</ele>
      </trkpt>
      <trkpt lat="44.32400829718281" lon="3.049868792223296">
        <ele>665.0</ele>
      </trkpt>
      <trkpt lat="44.3240246071422" lon="3.0501195788383484">
        <ele>664.0</ele>
      </trkpt>
      <trkpt lat="44.324054349512" lon="3.05031940330511">
        <ele>664.0</ele>
      </trkpt>
      <trkpt lat="44.324084091519225" lon="3.0505192279815674">
        <ele>664.0</ele>
      </trkpt>
      <trkpt lat="44.32414453555818" lon="3.050788789700125">
        <ele>664.0</ele>
      </trkpt>
      <trkpt lat="44.32420497893832" lon="3.0510583519935612">
        <ele>664.0</ele>
      </trkpt>
      <trkpt lat="44.32424719353391" lon="3.051323890686035">
        <ele>664.0</ele>
      </trkpt>
      <trkpt lat="44.32425678775595" lon="3.0516269803047185">
        <ele>664.0</ele>
      </trkpt>
      <trkpt lat="44.324257747384735" lon="3.051840215917793">
        <ele>664.0</ele>
      </trkpt>
      <trkpt lat="44.32425870660016" lon="3.052053451538086">
        <ele>664.0</ele>
      </trkpt>
      <trkpt lat="44.32427885459106" lon="3.052225112854023">
        <ele>664.0</ele>
      </trkpt>
      <trkpt lat="44.324299002314255" lon="3.0523967742919917">
        <ele>664.0</ele>
      </trkpt>
      <trkpt lat="44.324315312610096" lon="3.052569776723673">
        <ele>664.0</ele>
      </trkpt>
      <trkpt lat="44.32433162263396" lon="3.0527427792549138">
        <ele>664.0</ele>
      </trkpt>
      <trkpt lat="44.32435464892796" lon="3.052953332577052">
        <ele>665.0</ele>
      </trkpt>
      <trkpt lat="44.32437767481918" lon="3.0531638860702515">
        <ele>665.0</ele>
      </trkpt>
      <trkpt lat="44.324380553362296" lon="3.0534133314959706">
        <ele>665.0</ele>
      </trkpt>
      <trkpt lat="44.32438343133977" lon="3.053662776947022">
        <ele>665.0</ele>
      </trkpt>
      <trkpt lat="44.32437383736838" lon="3.053888082542408">
        <ele>665.0</ele>
      </trkpt>
      <trkpt lat="44.32436424293553" lon="3.054113388061524">
        <ele>666.0</ele>
      </trkpt>
      <trkpt lat="44.32435656778348" lon="3.054329305916459">
        <ele>666.0</ele>
      </trkpt>
      <trkpt lat="44.324348892207645" lon="3.054545223712921">
        <ele>666.0</ele>
      </trkpt>
      <trkpt lat="44.32432778495025" lon="3.05482417345047">
        <ele>666.0</ele>
      </trkpt>
      <trkpt lat="44.324312434212814" lon="3.0550307035446176">
        <ele>666.0</ele>
      </trkpt>
      <trkpt lat="44.32429708347137" lon="3.055194318294526">
        <ele>667.0</ele>
      </trkpt>
      <trkpt lat="44.324254868911666" lon="3.0552855134010315">
        <ele>667.0</ele>
      </trkpt>
      <trkpt lat="44.3241761962421" lon="3.055347204208374">
        <ele>667.0</ele>
      </trkpt>
      <trkpt lat="44.323972798119534" lon="3.055371344089509">
        <ele>667.0</ele>
      </trkpt>
      <trkpt lat="44.323778993591944" lon="3.055387437343597">
        <ele>667.0</ele>
      </trkpt>
      <trkpt lat="44.323635078924504" lon="3.0554088950157166">
        <ele>667.0</ele>
      </trkpt>
      <trkpt lat="44.32342208456883" lon="3.055473268032075">
        <ele>667.0</ele>
      </trkpt>
      <trkpt lat="44.323285844378965" lon="3.055522889018111">
        <ele>667.0</ele>
      </trkpt>
      <trkpt lat="44.32314960417558" lon="3.0555725097656254">
        <ele>667.0</ele>
      </trkpt>
      <trkpt lat="44.322944283606525" lon="3.055642247200012">
        <ele>667.0</ele>
      </trkpt>
      <trkpt lat="44.322772542710574" lon="3.0557025970856895">
        <ele>667.0</ele>
      </trkpt>
      <trkpt lat="44.32260080179564" lon="3.0557629466056833">
        <ele>667.0</ele>
      </trkpt>
      <trkpt lat="44.32246743806012" lon="3.055813908696863">
        <ele>667.0</ele>
      </trkpt>
      <trkpt lat="44.322334074309516" lon="3.055864870548249">
        <ele>667.0</ele>
      </trkpt>
      <trkpt lat="44.3221469802822" lon="3.055937290430673">
        <ele>667.0</ele>
      </trkpt>
      <trkpt lat="44.321962031214724" lon="3.0560088795658533">
        <ele>667.0</ele>
      </trkpt>
      <trkpt lat="44.321959886223944" lon="3.0560097098350534">
        <ele>667.0</ele>
      </trkpt>
      <trkpt lat="44.32179389923877" lon="3.0560714008230354">
        <ele>667.0</ele>
      </trkpt>
      <trkpt lat="44.32162791223218" lon="3.0561330914497384">
        <ele>667.0</ele>
      </trkpt>
      <trkpt lat="44.32143026208481" lon="3.0561921000480665">
        <ele>667.0</ele>
      </trkpt>
      <trkpt lat="44.32124796281495" lon="3.056261837482452">
        <ele>667.0</ele>
      </trkpt>
      <trkpt lat="44.321159691385986" lon="3.0563342571258545">
        <ele>667.0</ele>
      </trkpt>
      <trkpt lat="44.32105894661032" lon="3.0564294757151043">
        <ele>667.0</ele>
      </trkpt>
      <trkpt lat="44.320958201757094" lon="3.056524693965912">
        <ele>668.0</ele>
      </trkpt>
      <trkpt lat="44.32082963182271" lon="3.056656122207642">
        <ele>668.0</ele>
      </trkpt>
      <trkpt lat="44.320756711436225" lon="3.056755363941192">
        <ele>668.0</ele>
      </trkpt>
      <trkpt lat="44.32073752184578" lon="3.056843876838684">
        <ele>668.0</ele>
      </trkpt>
      <trkpt lat="44.32076630622911" lon="3.056929707527161">
        <ele>668.0</ele>
      </trkpt>
      <trkpt lat="44.32088528153037" lon="3.057015538215638">
        <ele>669.0</ele>
      </trkpt>
      <trkpt lat="44.32101768924332" lon="3.057112097740174">
        <ele>669.0</ele>
      </trkpt>
      <trkpt lat="44.32109252825324" lon="3.057246208190917">
        <ele>669.0</ele>
      </trkpt>
      <trkpt lat="44.321111717727575" lon="3.057401776313782">
        <ele>670.0</ele>
      </trkpt>
      <trkpt lat="44.32108101456561" lon="3.057557344436645">
        <ele>670.0</ele>
      </trkpt>
      <trkpt lat="44.32096971546882" lon="3.0576780438423152">
        <ele>670.0</ele>
      </trkpt>
      <trkpt lat="44.32082003704019" lon="3.057801425457">
        <ele>671.0</ele>
      </trkpt>
      <trkpt lat="44.320699142646006" lon="3.057889938354493">
        <ele>672.0</ele>
      </trkpt>
      <trkpt lat="44.320633897948845" lon="3.0579596757888803">
        <ele>672.0</ele>
      </trkpt>
      <trkpt lat="44.3206337212457" lon="3.0579602371187886">
        <ele>673.0</ele>
      </trkpt>
      <trkpt lat="44.32061278935484" lon="3.0580267310142517">
        <ele>674.0</ele>
      </trkpt>
      <trkpt lat="44.32062430313431" lon="3.0581125617027283">
        <ele>674.0</ele>
      </trkpt>
      <trkpt lat="44.32064733068657" lon="3.0582252144813538">
        <ele>675.0</ele>
      </trkpt>
      <trkpt lat="44.32067419615276" lon="3.0583673715591426">
        <ele>675.0</ele>
      </trkpt>
      <trkpt lat="44.320674196152744" lon="3.058445155620575">
        <ele>676.0</ele>
      </trkpt>
      <trkpt lat="44.32074711664178" lon="3.0584692955017085">
        <ele>676.0</ele>
      </trkpt>
      <trkpt lat="44.32093133642096" lon="3.0584424734115614">
        <ele>676.0</ele>
      </trkpt>
      <trkpt lat="44.32104167601352" lon="3.0584116280679283">
        <ele>676.0</ele>
      </trkpt>
      <trkpt lat="44.32115201560327" lon="3.058380782604217">
        <ele>677.0</ele>
      </trkpt>
      <trkpt lat="44.32127866588951" lon="3.0583915114402767">
        <ele>677.0</ele>
      </trkpt>
      <trkpt lat="44.32144177548389" lon="3.0584451554662215">
        <ele>677.0</ele>
      </trkpt>
      <trkpt lat="44.32160488506482" lon="3.0584987998008732">
        <ele>677.0</ele>
      </trkpt>
      <trkpt lat="44.32173441261669" lon="3.0584961175979877">
        <ele>677.0</ele>
      </trkpt>
      <trkpt lat="44.321863940176534" lon="3.0584934353828443">
        <ele>677.0</ele>
      </trkpt>
      <trkpt lat="44.32207118344234" lon="3.0584719777107248">
        <ele>677.0</ele>
      </trkpt>
      <trkpt lat="44.32218343979709" lon="3.0584518611829496">
        <ele>676.0</ele>
      </trkpt>
      <trkpt lat="44.32229569615418" lon="3.058431744575502">
        <ele>676.0</ele>
      </trkpt>
      <trkpt lat="44.32242042493195" lon="3.0584169924583793">
        <ele>676.0</ele>
      </trkpt>
      <trkpt lat="44.32254515371519" lon="3.0584022402763367">
        <ele>676.0</ele>
      </trkpt>
      <trkpt lat="44.322683314204596" lon="3.058379441555277">
        <ele>676.0</ele>
      </trkpt>
      <trkpt lat="44.322821474698394" lon="3.058356642723083">
        <ele>676.0</ele>
      </trkpt>
      <trkpt lat="44.32301144461942" lon="3.058329820632935">
        <ele>675.0</ele>
      </trkpt>
      <trkpt lat="44.3232282782219" lon="3.0582708120346065">
        <ele>675.0</ele>
      </trkpt>
      <trkpt lat="44.323353964461354" lon="3.058222532379389">
        <ele>674.0</ele>
      </trkpt>
      <trkpt lat="44.32347965068716" lon="3.0581742525100717">
        <ele>674.0</ele>
      </trkpt>
      <trkpt lat="44.32356024315794" lon="3.0581286549568185">
        <ele>674.0</ele>
      </trkpt>
      <trkpt lat="44.32362932233047" lon="3.058021366596223">
        <ele>673.0</ele>
      </trkpt>
      <trkpt lat="44.323706076871225" lon="3.0579543113708496">
        <ele>673.0</ele>
      </trkpt>
      <trkpt lat="44.323803938765046" lon="3.0579194426536573">
        <ele>673.0</ele>
      </trkpt>
      <trkpt lat="44.32392098905108" lon="3.0579516291618356">
        <ele>673.0</ele>
      </trkpt>
      <trkpt lat="44.324039957954945" lon="3.0579382181167603">
        <ele>672.0</ele>
      </trkpt>
      <trkpt lat="44.32414261633844" lon="3.057873845216986">
        <ele>672.0</ele>
      </trkpt>
      <trkpt lat="44.324245274689304" lon="3.0578094720840454">
        <ele>672.0</ele>
      </trkpt>
      <trkpt lat="44.32434985154826" lon="3.057750463594583">
        <ele>672.0</ele>
      </trkpt>
      <trkpt lat="44.324454428380776" lon="3.057691454887391">
        <ele>672.0</ele>
      </trkpt>
      <trkpt lat="44.3245945032124" lon="3.057639151940849">
        <ele>672.0</ele>
      </trkpt>
      <trkpt lat="44.32473457802853" lon="3.0575868487358084">
        <ele>672.0</ele>
      </trkpt>
    </trkseg>
  </trk>
</gpx>