<?xml version="1.0" encoding="UTF-8"?>
<gpx xmlns="http://www.topografix.com/GPX/1/1" xmlns:xsi="http://www.w3.org/2001/XMLSchema-instance" xsi:schemaLocation="http://www.topografix.com/GPX/1/1 http://www.topografix.com/GPX/1/1/gpx.xsd" version="1.1" creator="gpx.py -- https://github.com/tkrajina/gpxpy">
  <wpt lat="43.97374646722545" lon="3.212716553101815">
    <ele>727.0</ele>
    <name>Agropastoralisme: Une lavogne</name>
    <desc>La lavogne est une mare am&amp;eacute;nag&amp;eacute;e permettant de reccueillir l'eau de pluie. Elle servait d'abreuvoir pour les troupeaux de brebis. Les fonds d'argile assurent l'imperm&amp;eacute;abilit&amp;eacute; et les abords sont g&amp;eacute;n&amp;eacute;ralement empierr&amp;eacute;s ou ciment&amp;eacute;s pour &amp;eacute;viter le ravinement provoqu&amp;eacute; par le pi&amp;eacute;tinement des b&amp;ecirc;tes.</desc>
  </wpt>
  <trk>
    <name>[Itinéraire] Gravel N°13 - Randonnée Gravel sur les pistes forestières du Larzac</name>
    <desc>&lt;ol&gt;
&lt;li&gt;Se diriger vers Egali&amp;egrave;res par de petites routes et chemins forestiers.&lt;/li&gt;
&lt;li&gt;Emprunter la piste vers Canalettes puis la quitter rapidement.&lt;/li&gt;
&lt;li&gt;Continuer &amp;agrave; droite sur l'ancienne voie de chemin de fer pour rejoindre le coeur du village de l'Hospitalet.&lt;/li&gt;
&lt;/ol&gt;
&lt;p&gt;45% de routes et 55% de chemins&lt;br&gt;Temps de roulage en fonction votre niveau : 30min &amp;agrave; 45min&lt;/p&gt;Modifié: 6 jours</desc>
    <trkseg>
      <trkpt lat="43.97328705631007" lon="3.1934691499918704">
        <ele>749.0</ele>
      </trkpt>
      <trkpt lat="43.973202123569465" lon="3.1936139892786732">
        <ele>749.0</ele>
      </trkpt>
      <trkpt lat="43.973163517738215" lon="3.19373737089336">
        <ele>749.0</ele>
      </trkpt>
      <trkpt lat="43.97309402717878" lon="3.1938714813441043">
        <ele>749.0</ele>
      </trkpt>
      <trkpt lat="43.97305928186852" lon="3.194000227376819">
        <ele>749.0</ele>
      </trkpt>
      <trkpt lat="43.97303997890962" lon="3.1942684482783075">
        <ele>749.0</ele>
      </trkpt>
      <trkpt lat="43.97300137297294" lon="3.1944508384913215">
        <ele>749.0</ele>
      </trkpt>
      <trkpt lat="43.97293960342215" lon="3.194590313360094">
        <ele>749.0</ele>
      </trkpt>
      <trkpt lat="43.97288169440992" lon="3.1946546863764524">
        <ele>749.0</ele>
      </trkpt>
      <trkpt lat="43.972750433773086" lon="3.194831712171435">
        <ele>749.0</ele>
      </trkpt>
      <trkpt lat="43.97263075470431" lon="3.1950248312205067">
        <ele>749.0</ele>
      </trkpt>
      <trkpt lat="43.97252651789949" lon="3.1952394079416977">
        <ele>748.0</ele>
      </trkpt>
      <trkpt lat="43.97241842027907" lon="3.1954164337366815">
        <ele>748.0</ele>
      </trkpt>
      <trkpt lat="43.97231418310158" lon="3.195609552785755">
        <ele>748.0</ele>
      </trkpt>
      <trkpt lat="43.972209945741156" lon="3.1958026718348265">
        <ele>748.0</ele>
      </trkpt>
      <trkpt lat="43.97214431471666" lon="3.195899231359363">
        <ele>748.0</ele>
      </trkpt>
      <trkpt lat="43.972063240998" lon="3.1960387062281366">
        <ele>747.0</ele>
      </trkpt>
      <trkpt lat="43.97195128187129" lon="3.1962103676050893">
        <ele>747.0</ele>
      </trkpt>
      <trkpt lat="43.97186634722076" lon="3.1963938474655156">
        <ele>747.0</ele>
      </trkpt>
      <trkpt lat="43.971837392343254" lon="3.1965762377711378">
        <ele>747.0</ele>
      </trkpt>
      <trkpt lat="43.971808437161954" lon="3.196758627891541">
        <ele>746.0</ele>
      </trkpt>
      <trkpt lat="43.971784308077524" lon="3.196926266025903">
        <ele>746.0</ele>
      </trkpt>
      <trkpt lat="43.9717601787364" lon="3.1970939040184034">
        <ele>746.0</ele>
      </trkpt>
      <trkpt lat="43.97172350260149" lon="3.197352737354809">
        <ele>746.0</ele>
      </trkpt>
      <trkpt lat="43.97168682585465" lon="3.1976115703582773">
        <ele>746.0</ele>
      </trkpt>
      <trkpt lat="43.97166559210877" lon="3.1978583335876465">
        <ele>746.0</ele>
      </trkpt>
      <trkpt lat="43.97167138313124" lon="3.198027312755586">
        <ele>746.0</ele>
      </trkpt>
      <trkpt lat="43.9716733134719" lon="3.1982553005218515">
        <ele>746.0</ele>
      </trkpt>
      <trkpt lat="43.97170226857419" lon="3.198520839214326">
        <ele>745.0</ele>
      </trkpt>
      <trkpt lat="43.97172832827683" lon="3.198688477201151">
        <ele>745.0</ele>
      </trkpt>
      <trkpt lat="43.97175438772281" lon="3.198856115341188">
        <ele>745.0</ele>
      </trkpt>
      <trkpt lat="43.97178527324816" lon="3.199027231801757">
        <ele>745.0</ele>
      </trkpt>
      <trkpt lat="43.97181615850627" lon="3.1991983484476805">
        <ele>744.0</ele>
      </trkpt>
      <trkpt lat="43.97185090464781" lon="3.1993565986831367">
        <ele>744.0</ele>
      </trkpt>
      <trkpt lat="43.97188565056103" lon="3.1995148491114374">
        <ele>744.0</ele>
      </trkpt>
      <trkpt lat="43.97193583939595" lon="3.1997246060536977">
        <ele>743.0</ele>
      </trkpt>
      <trkpt lat="43.97198602782993" lon="3.1999343633651742">
        <ele>743.0</ele>
      </trkpt>
      <trkpt lat="43.97208640492903" lon="3.2002014946192503">
        <ele>743.0</ele>
      </trkpt>
      <trkpt lat="43.97213659350265" lon="3.200356266325098">
        <ele>743.0</ele>
      </trkpt>
      <trkpt lat="43.97218678185863" lon="3.200511038303376">
        <ele>742.0</ele>
      </trkpt>
      <trkpt lat="43.9722639947659" lon="3.2007765769958496">
        <ele>742.0</ele>
      </trkpt>
      <trkpt lat="43.972364371395265" lon="3.2010528445243835">
        <ele>742.0</ele>
      </trkpt>
      <trkpt lat="43.972430002176566" lon="3.201304972171785">
        <ele>742.0</ele>
      </trkpt>
      <trkpt lat="43.972482120807435" lon="3.2014827940850483">
        <ele>742.0</ele>
      </trkpt>
      <trkpt lat="43.9725342391507" lon="3.2016606163233514">
        <ele>741.0</ele>
      </trkpt>
      <trkpt lat="43.97256705460837" lon="3.20184837084635">
        <ele>741.0</ele>
      </trkpt>
      <trkpt lat="43.97259986974428" lon="3.202036125585436">
        <ele>741.0</ele>
      </trkpt>
      <trkpt lat="43.97260759098583" lon="3.202245337888598">
        <ele>741.0</ele>
      </trkpt>
      <trkpt lat="43.97261531222635" lon="3.2024760078638788">
        <ele>741.0</ele>
      </trkpt>
      <trkpt lat="43.97261145181141" lon="3.2026879023904007">
        <ele>741.0</ele>
      </trkpt>
      <trkpt lat="43.97260759098583" lon="3.2028997968882322">
        <ele>741.0</ele>
      </trkpt>
      <trkpt lat="43.97259214850173" lon="3.203189475461841">
        <ele>741.0</ele>
      </trkpt>
      <trkpt lat="43.97258249708533" lon="3.2033638190773175">
        <ele>741.0</ele>
      </trkpt>
      <trkpt lat="43.97257284539101" lon="3.203538162633779">
        <ele>741.0</ele>
      </trkpt>
      <trkpt lat="43.97251107539444" lon="3.2038278412073846">
        <ele>740.0</ele>
      </trkpt>
      <trkpt lat="43.97241842027916" lon="3.2040906976908436">
        <ele>740.0</ele>
      </trkpt>
      <trkpt lat="43.97234506827803" lon="3.2042489482262813">
        <ele>740.0</ele>
      </trkpt>
      <trkpt lat="43.97227171605101" lon="3.2044071983546023">
        <ele>740.0</ele>
      </trkpt>
      <trkpt lat="43.97219643355866" lon="3.2045761777456185">
        <ele>739.0</ele>
      </trkpt>
      <trkpt lat="43.97212115080845" lon="3.204745156690478">
        <ele>739.0</ele>
      </trkpt>
      <trkpt lat="43.97208061410338" lon="3.2049382758768292">
        <ele>739.0</ele>
      </trkpt>
      <trkpt lat="43.97204007705817" lon="3.2051313947886233">
        <ele>738.0</ele>
      </trkpt>
      <trkpt lat="43.97204972881461" lon="3.205289645093717">
        <ele>738.0</ele>
      </trkpt>
      <trkpt lat="43.97205938034208" lon="3.2054478954523793">
        <ele>738.0</ele>
      </trkpt>
      <trkpt lat="43.97212115080843" lon="3.2056839298456903">
        <ele>738.0</ele>
      </trkpt>
      <trkpt lat="43.97222924896994" lon="3.2058985065668817">
        <ele>738.0</ele>
      </trkpt>
      <trkpt lat="43.9723315559968" lon="3.2060540744106483">
        <ele>738.0</ele>
      </trkpt>
      <trkpt lat="43.972433862808394" lon="3.20620964281261">
        <ele>737.0</ele>
      </trkpt>
      <trkpt lat="43.972491772257364" lon="3.2062793802469964">
        <ele>737.0</ele>
      </trkpt>
      <trkpt lat="43.972588287880185" lon="3.2065476011484852">
        <ele>737.0</ele>
      </trkpt>
      <trkpt lat="43.9726095212959" lon="3.2066547274371255">
        <ele>736.0</ele>
      </trkpt>
      <trkpt lat="43.97263461532316" lon="3.2068719863673314">
        <ele>736.0</ele>
      </trkpt>
      <trkpt lat="43.9726490928531" lon="3.207087904138214">
        <ele>736.0</ele>
      </trkpt>
      <trkpt lat="43.972663569956794" lon="3.2073038220187304">
        <ele>735.0</ele>
      </trkpt>
      <trkpt lat="43.972670326311" lon="3.2075492441145164">
        <ele>734.0</ele>
      </trkpt>
      <trkpt lat="43.97267708211437" lon="3.207794666268455">
        <ele>734.0</ele>
      </trkpt>
      <trkpt lat="43.97268480334585" lon="3.2079636454363927">
        <ele>733.0</ele>
      </trkpt>
      <trkpt lat="43.97274464303268" lon="3.208176880829319">
        <ele>732.0</ele>
      </trkpt>
      <trkpt lat="43.972804482305726" lon="3.208390116669761">
        <ele>732.0</ele>
      </trkpt>
      <trkpt lat="43.97286142629958" lon="3.2085269091929236">
        <ele>731.0</ele>
      </trkpt>
      <trkpt lat="43.97291836279878" lon="3.2086636843917917">
        <ele>731.0</ele>
      </trkpt>
      <trkpt lat="43.972918370124205" lon="3.2086637019892814">
        <ele>730.0</ele>
      </trkpt>
      <trkpt lat="43.97298979130618" lon="3.2088527974879986">
        <ele>730.0</ele>
      </trkpt>
      <trkpt lat="43.9730612121641" lon="3.2090418934603795">
        <ele>730.0</ele>
      </trkpt>
      <trkpt lat="43.97309402732603" lon="3.2092269657759074">
        <ele>730.0</ele>
      </trkpt>
      <trkpt lat="43.97312684217531" lon="3.2094120383044347">
        <ele>730.0</ele>
      </trkpt>
      <trkpt lat="43.97312587721368" lon="3.2096132039839573">
        <ele>730.0</ele>
      </trkpt>
      <trkpt lat="43.973124911881925" lon="3.209814369656669">
        <ele>730.0</ele>
      </trkpt>
      <trkpt lat="43.97312877291123" lon="3.2101255058813334">
        <ele>729.0</ele>
      </trkpt>
      <trkpt lat="43.97313263305519" lon="3.210436642148124">
        <ele>729.0</ele>
      </trkpt>
      <trkpt lat="43.97314807562877" lon="3.2106619476443634">
        <ele>729.0</ele>
      </trkpt>
      <trkpt lat="43.973163517738215" lon="3.2108872532626265">
        <ele>729.0</ele>
      </trkpt>
      <trkpt lat="43.97321756608269" lon="3.211103170883679">
        <ele>729.0</ele>
      </trkpt>
      <trkpt lat="43.97327161400247" lon="3.2113190889140233">
        <ele>728.0</ele>
      </trkpt>
      <trkpt lat="43.973364267949556" lon="3.2115470763098557">
        <ele>728.0</ele>
      </trkpt>
      <trkpt lat="43.973456921426234" lon="3.211775064446555">
        <ele>728.0</ele>
      </trkpt>
      <trkpt lat="43.97352898550944" lon="3.2119655008052894">
        <ele>727.0</ele>
      </trkpt>
      <trkpt lat="43.97360104926399" lon="3.2121559376453486">
        <ele>727.0</ele>
      </trkpt>
      <trkpt lat="43.973673112689845" lon="3.2123463749667285">
        <ele>727.0</ele>
      </trkpt>
      <trkpt lat="43.97370978806028" lon="3.2125314472697273">
        <ele>727.0</ele>
      </trkpt>
      <trkpt lat="43.973746463118246" lon="3.212716519810783">
        <ele>726.0</ele>
      </trkpt>
      <trkpt lat="43.97378120837864" lon="3.212998151585749">
        <ele>726.0</ele>
      </trkpt>
      <trkpt lat="43.973815952914315" lon="3.21327978370391">
        <ele>726.0</ele>
      </trkpt>
      <trkpt lat="43.97382850071732" lon="3.2135560510500847">
        <ele>726.0</ele>
      </trkpt>
      <trkpt lat="43.97384104782238" lon="3.2138323185178357">
        <ele>726.0</ele>
      </trkpt>
      <trkpt lat="43.97385359422951" lon="3.2141085861071583">
        <ele>725.0</ele>
      </trkpt>
      <trkpt lat="43.973866139938686" lon="3.214384853818047">
        <ele>725.0</ele>
      </trkpt>
      <trkpt lat="43.973860349351234" lon="3.2146047949796035">
        <ele>725.0</ele>
      </trkpt>
      <trkpt lat="43.9738545583214" lon="3.21482473609649">
        <ele>724.0</ele>
      </trkpt>
      <trkpt lat="43.97383815130866" lon="3.2150741816066457">
        <ele>724.0</ele>
      </trkpt>
      <trkpt lat="43.97382174372701" lon="3.2153236269732575">
        <ele>723.0</ele>
      </trkpt>
      <trkpt lat="43.97380919735499" lon="3.215615987820207">
        <ele>723.0</ele>
      </trkpt>
      <trkpt lat="43.97379665020133" lon="3.215908348538505">
        <ele>722.0</ele>
      </trkpt>
      <trkpt lat="43.97381498792578" lon="3.2160893975887896">
        <ele>721.0</ele>
      </trkpt>
      <trkpt lat="43.973833325350626" lon="3.2162704467555163">
        <ele>721.0</ele>
      </trkpt>
      <trkpt lat="43.97391825718829" lon="3.2164984345217813">
        <ele>720.0</ele>
      </trkpt>
      <trkpt lat="43.97401863102167" lon="3.2166727781077493">
        <ele>720.0</ele>
      </trkpt>
      <trkpt lat="43.97413251651174" lon="3.216914176919089">
        <ele>719.0</ele>
      </trkpt>
      <trkpt lat="43.97417691249108" lon="3.217152893521415">
        <ele>719.0</ele>
      </trkpt>
      <trkpt lat="43.974168226518216" lon="3.21735942364702">
        <ele>718.0</ele>
      </trkpt>
      <trkpt lat="43.97415954015529" lon="3.217565953709708">
        <ele>718.0</ele>
      </trkpt>
      <trkpt lat="43.97414409825285" lon="3.2177644372305583">
        <ele>718.0</ele>
      </trkpt>
      <trkpt lat="43.974128655990235" lon="3.2179629206439113">
        <ele>717.0</ele>
      </trkpt>
      <trkpt lat="43.9741682264535" lon="3.218139946316053">
        <ele>717.0</ele>
      </trkpt>
      <trkpt lat="43.9742077966311" lon="3.2183169722338785">
        <ele>717.0</ele>
      </trkpt>
      <trkpt lat="43.974263774279734" lon="3.2185328898476206">
        <ele>716.0</ele>
      </trkpt>
      <trkpt lat="43.974319751503806" lon="3.2187488078852757">
        <ele>716.0</ele>
      </trkpt>
      <trkpt lat="43.97439020610281" lon="3.2190411683066795">
        <ele>716.0</ele>
      </trkpt>
      <trkpt lat="43.97446065992296" lon="3.2193335294505223">
        <ele>716.0</ele>
      </trkpt>
      <trkpt lat="43.97449669169493" lon="3.2195606228601306">
        <ele>716.0</ele>
      </trkpt>
      <trkpt lat="43.97453272299597" lon="3.2197877165567266">
        <ele>715.0</ele>
      </trkpt>
      <trkpt lat="43.974568753826134" lon="3.220014810540307">
        <ele>715.0</ele>
      </trkpt>
      <trkpt lat="43.97460349825341" lon="3.2203003764152527">
        <ele>716.0</ele>
      </trkpt>
      <trkpt lat="43.974746336239804" lon="3.220308423042298">
        <ele>716.0</ele>
      </trkpt>
      <trkpt lat="43.97495673174805" lon="3.2203835246176142">
        <ele>716.0</ele>
      </trkpt>
      <trkpt lat="43.9751671272304" lon="3.2204586267471296">
        <ele>716.0</ele>
      </trkpt>
      <trkpt lat="43.97535242791152" lon="3.220529704593097">
        <ele>716.0</ele>
      </trkpt>
      <trkpt lat="43.97553772856634" lon="3.2206007829010126">
        <ele>716.0</ele>
      </trkpt>
      <trkpt lat="43.97572302919487" lon="3.220671861670881">
        <ele>717.0</ele>
      </trkpt>
      <trkpt lat="43.975908329797065" lon="3.2207429409027095">
        <ele>717.0</ele>
      </trkpt>
      <trkpt lat="43.97608494235293" lon="3.220809995505018">
        <ele>718.0</ele>
      </trkpt>
      <trkpt lat="43.97626155488572" lon="3.2208770505226996">
        <ele>718.0</ele>
      </trkpt>
      <trkpt lat="43.976438167395486" lon="3.2209441059557595">
        <ele>719.0</ele>
      </trkpt>
      <trkpt lat="43.97661477988219" lon="3.2210111618041983">
        <ele>719.0</ele>
      </trkpt>
      <trkpt lat="43.976780774653086" lon="3.2209959627082747">
        <ele>719.0</ele>
      </trkpt>
      <trkpt lat="43.976946769437816" lon="3.2209807635238565">
        <ele>720.0</ele>
      </trkpt>
      <trkpt lat="43.97711276423638" lon="3.2209655642509465">
        <ele>720.0</ele>
      </trkpt>
      <trkpt lat="43.9772305041127" lon="3.2209762930870065">
        <ele>721.0</ele>
      </trkpt>
      <trkpt lat="43.97731736124887" lon="3.2210138440132154">
        <ele>721.0</ele>
      </trkpt>
      <trkpt lat="43.97739263733077" lon="3.2211077213287367">
        <ele>721.0</ele>
      </trkpt>
      <trkpt lat="43.977431240412656" lon="3.2212308233283697">
        <ele>722.0</ele>
      </trkpt>
      <trkpt lat="43.977468878499444" lon="3.2213917557630354">
        <ele>722.0</ele>
      </trkpt>
      <trkpt lat="43.9775065163502" lon="3.2215526884101573">
        <ele>722.0</ele>
      </trkpt>
      <trkpt lat="43.977552840175626" lon="3.221780675991205">
        <ele>721.0</ele>
      </trkpt>
      <trkpt lat="43.97758153124574" lon="3.221921883467628">
        <ele>721.0</ele>
      </trkpt>
      <trkpt lat="43.977599163526925" lon="3.222008663942689">
        <ele>721.0</ele>
      </trkpt>
      <trkpt lat="43.97764838256283" lon="3.2222661557858574">
        <ele>720.0</ele>
      </trkpt>
      <trkpt lat="43.97769760099381" lon="3.222523648073548">
        <ele>720.0</ele>
      </trkpt>
      <trkpt lat="43.97774521159143" lon="3.2227373303682314">
        <ele>719.0</ele>
      </trkpt>
      <trkpt lat="43.97779282177282" lon="3.2229510130197525">
        <ele>718.0</ele>
      </trkpt>
      <trkpt lat="43.977840431537935" lon="3.223164696028108">
        <ele>718.0</ele>
      </trkpt>
      <trkpt lat="43.97790026620547" lon="3.223454374297742">
        <ele>717.0</ele>
      </trkpt>
      <trkpt lat="43.97796010010768" lon="3.223744053175325">
        <ele>716.0</ele>
      </trkpt>
      <trkpt lat="43.97802186478333" lon="3.224032390332099">
        <ele>715.0</ele>
      </trkpt>
      <trkpt lat="43.97808362870089" lon="3.2243207281135255">
        <ele>715.0</ele>
      </trkpt>
      <trkpt lat="43.978133812639555" lon="3.224569279044738">
        <ele>715.0</ele>
      </trkpt>
      <trkpt lat="43.97818399601474" lon="3.224817830413454">
        <ele>714.0</ele>
      </trkpt>
      <trkpt lat="43.9782341788264" lon="3.2250663822196666">
        <ele>714.0</ele>
      </trkpt>
      <trkpt lat="43.978285006044935" lon="3.2253220856898914">
        <ele>715.0</ele>
      </trkpt>
      <trkpt lat="43.97833583266702" lon="3.225577789615979">
        <ele>715.0</ele>
      </trkpt>
      <trkpt lat="43.97838665869267" lon="3.225833493997925">
        <ele>716.0</ele>
      </trkpt>
      <trkpt lat="43.97843008663042" lon="3.226050752762661">
        <ele>717.0</ele>
      </trkpt>
      <trkpt lat="43.9784735141376" lon="3.226268011858338">
        <ele>718.0</ele>
      </trkpt>
      <trkpt lat="43.97853624335483" lon="3.2265630545253914">
        <ele>719.0</ele>
      </trkpt>
      <trkpt lat="43.978598971778254" lon="3.2268580978416153">
        <ele>720.0</ele>
      </trkpt>
      <trkpt lat="43.978653015473895" lon="3.227100390263336">
        <ele>721.0</ele>
      </trkpt>
      <trkpt lat="43.97870705863436" lon="3.227342683144349">
        <ele>722.0</ele>
      </trkpt>
      <trkpt lat="43.97876110125966" lon="3.2275849764846507">
        <ele>723.0</ele>
      </trkpt>
      <trkpt lat="43.9788054941618" lon="3.2277986588034446">
        <ele>725.0</ele>
      </trkpt>
      <trkpt lat="43.9788498866475" lon="3.228012341454966">
        <ele>726.0</ele>
      </trkpt>
      <trkpt lat="43.978894278716815" lon="3.22822602443921">
        <ele>727.0</ele>
      </trkpt>
      <trkpt lat="43.97895218218227" lon="3.228500950584048">
        <ele>727.0</ele>
      </trkpt>
      <trkpt lat="43.97901008495845" lon="3.2287758772872626">
        <ele>728.0</ele>
      </trkpt>
      <trkpt lat="43.979062198348686" lon="3.2290530383788427">
        <ele>729.0</ele>
      </trkpt>
      <trkpt lat="43.979114311038" lon="3.229330199977051">
        <ele>729.0</ele>
      </trkpt>
      <trkpt lat="43.979166423026385" lon="3.229607362081879">
        <ele>730.0</ele>
      </trkpt>
      <trkpt lat="43.97921274562864" lon="3.229867536144958">
        <ele>730.0</ele>
      </trkpt>
      <trkpt lat="43.97925906761312" lon="3.2301277106307684">
        <ele>730.0</ele>
      </trkpt>
      <trkpt lat="43.97928994921612" lon="3.2302859608769374">
        <ele>730.0</ele>
      </trkpt>
      <trkpt lat="43.979320830590645" lon="3.2304442112945257">
        <ele>729.0</ele>
      </trkpt>
      <trkpt lat="43.97937487314321" lon="3.2306241989135738">
        <ele>729.0</ele>
      </trkpt>
      <trkpt lat="43.97919215709658" lon="3.2306814197392812">
        <ele>728.0</ele>
      </trkpt>
      <trkpt lat="43.97900944103932" lon="3.2307386401982643">
        <ele>728.0</ele>
      </trkpt>
      <trkpt lat="43.97882672497142" lon="3.230795860290527">
        <ele>727.0</ele>
      </trkpt>
      <trkpt lat="43.97871091837219" lon="3.2308709621429452">
        <ele>726.0</ele>
      </trkpt>
      <trkpt lat="43.97850632616143" lon="3.230913877487183">
        <ele>726.0</ele>
      </trkpt>
      <trkpt lat="43.9783557765622" lon="3.230999708402278">
        <ele>725.0</ele>
      </trkpt>
      <trkpt lat="43.978205226908734" lon="3.2310855388641357">
        <ele>724.0</ele>
      </trkpt>
      <trkpt lat="43.97802842693937" lon="3.231031894683837">
        <ele>723.0</ele>
      </trkpt>
      <trkpt lat="43.97787787610542" lon="3.231080174573579">
        <ele>723.0</ele>
      </trkpt>
      <trkpt lat="43.977727325263274" lon="3.2311284542083745">
        <ele>722.0</ele>
      </trkpt>
      <trkpt lat="43.97752620356396" lon="3.231163323048557">
        <ele>721.0</ele>
      </trkpt>
      <trkpt lat="43.97732508187694" lon="3.231198191642763">
        <ele>721.0</ele>
      </trkpt>
      <trkpt lat="43.977203481737924" lon="3.2311928272132926">
        <ele>720.0</ele>
      </trkpt>
      <trkpt lat="43.977081881607226" lon="3.231187462806702">
        <ele>720.0</ele>
      </trkpt>
      <trkpt lat="43.97713303114479" lon="3.2314040956828984">
        <ele>720.0</ele>
      </trkpt>
      <trkpt lat="43.97718418025467" lon="3.231620728947746">
        <ele>719.0</ele>
      </trkpt>
      <trkpt lat="43.9772446591147" lon="3.2318683857214405">
        <ele>719.0</ele>
      </trkpt>
      <trkpt lat="43.97730513741595" lon="3.2321160430204823">
        <ele>719.0</ele>
      </trkpt>
      <trkpt lat="43.9773656151584" lon="3.2323637008448713">
        <ele>719.0</ele>
      </trkpt>
      <trkpt lat="43.97736562096982" lon="3.2323637250719517">
        <ele>719.0</ele>
      </trkpt>
      <trkpt lat="43.9774119390266" lon="3.232556819737053">
        <ele>719.0</ele>
      </trkpt>
      <trkpt lat="43.97745826255499" lon="3.2327499389430154">
        <ele>719.0</ele>
      </trkpt>
      <trkpt lat="43.97748914509266" lon="3.232906848085405">
        <ele>718.0</ele>
      </trkpt>
      <trkpt lat="43.97752002740572" lon="3.2330637573977583">
        <ele>718.0</ele>
      </trkpt>
      <trkpt lat="43.97753546860832" lon="3.2332836985369786">
        <ele>718.0</ele>
      </trkpt>
      <trkpt lat="43.97758565287346" lon="3.2335000630166677">
        <ele>718.0</ele>
      </trkpt>
      <trkpt lat="43.97763583671192" lon="3.233716427877202">
        <ele>717.0</ele>
      </trkpt>
      <trkpt lat="43.97768602012371" lon="3.2339327931185826">
        <ele>717.0</ele>
      </trkpt>
      <trkpt lat="43.97773137863092" lon="3.234101772152102">
        <ele>717.0</ele>
      </trkpt>
      <trkpt lat="43.97777673687816" lon="3.2342707514544595">
        <ele>717.0</ele>
      </trkpt>
      <trkpt lat="43.977823060447626" lon="3.2344759402774033">
        <ele>716.0</ele>
      </trkpt>
      <trkpt lat="43.977869383633276" lon="3.234681129433739">
        <ele>716.0</ele>
      </trkpt>
      <trkpt lat="43.97789640557626" lon="3.2349681257983325">
        <ele>716.0</ele>
      </trkpt>
      <trkpt lat="43.977958169971274" lon="3.235247075535881">
        <ele>716.0</ele>
      </trkpt>
      <trkpt lat="43.97801028362959" lon="3.2354777455111634">
        <ele>716.0</ele>
      </trkpt>
      <trkpt lat="43.978068187640694" lon="3.2357674240847696">
        <ele>716.0</ele>
      </trkpt>
      <trkpt lat="43.97805853697618" lon="3.235863983609306">
        <ele>716.0</ele>
      </trkpt>
      <trkpt lat="43.977996772685586" lon="3.2359793185969474">
        <ele>716.0</ele>
      </trkpt>
      <trkpt lat="43.97793693846785" lon="3.2360329627772453">
        <ele>716.0</ele>
      </trkpt>
      <trkpt lat="43.97787131377256" lon="3.2360678314944384">
        <ele>716.0</ele>
      </trkpt>
      <trkpt lat="43.97776901630883" lon="3.236094653584588">
        <ele>715.0</ele>
      </trkpt>
      <trkpt lat="43.9776763693971" lon="3.2361482977648848">
        <ele>715.0</ele>
      </trkpt>
      <trkpt lat="43.97754318920829" lon="3.236223399617302">
        <ele>715.0</ele>
      </trkpt>
      <trkpt lat="43.97740614841228" lon="3.2362475394984362">
        <ele>714.0</ele>
      </trkpt>
      <trkpt lat="43.9772555961873" lon="3.236293137051689">
        <ele>714.0</ele>
      </trkpt>
      <trkpt lat="43.97705678945921" lon="3.2363601922770613">
        <ele>714.0</ele>
      </trkpt>
      <trkpt lat="43.97687149326869" lon="3.236395060994255">
        <ele>713.0</ele>
      </trkpt>
      <trkpt lat="43.97665531364892" lon="3.236416518666374">
        <ele>713.0</ele>
      </trkpt>
      <trkpt lat="43.976458435096134" lon="3.2364567518015974">
        <ele>712.0</ele>
      </trkpt>
      <trkpt lat="43.976363855951426" lon="3.236480891682731">
        <ele>712.0</ele>
      </trkpt>
      <trkpt lat="43.97624032378044" lon="3.23651844260894">
        <ele>711.0</ele>
      </trkpt>
      <trkpt lat="43.97614381409304" lon="3.236553311326133">
        <ele>711.0</ele>
      </trkpt>
      <trkpt lat="43.976035723056924" lon="3.2366015910884016">
        <ele>710.0</ele>
      </trkpt>
      <trkpt lat="43.97591412040611" lon="3.236636459805596">
        <ele>710.0</ele>
      </trkpt>
      <trkpt lat="43.97581954039443" lon="3.236682057358849">
        <ele>710.0</ele>
      </trkpt>
      <trkpt lat="43.97576549460584" lon="3.2366618514060983">
        <ele>709.0</ele>
      </trkpt>
      <trkpt lat="43.97570951855866" lon="3.236656486988067">
        <ele>709.0</ele>
      </trkpt>
      <trkpt lat="43.975607217370566" lon="3.236603021578049">
        <ele>709.0</ele>
      </trkpt>
      <trkpt lat="43.97546438145465" lon="3.2365064620535127">
        <ele>708.0</ele>
      </trkpt>
      <trkpt lat="43.97530996386177" lon="3.236425995783066">
        <ele>708.0</ele>
      </trkpt>
      <trkpt lat="43.97519801074931" lon="3.236401855854537">
        <ele>708.0</ele>
      </trkpt>
      <trkpt lat="43.97508605763881" lon="3.236377716020798">
        <ele>707.0</ele>
      </trkpt>
      <trkpt lat="43.97495480187419" lon="3.2363830804388267">
        <ele>707.0</ele>
      </trkpt>
      <trkpt lat="43.97479266199975" lon="3.2363508939306485">
        <ele>707.0</ele>
      </trkpt>
      <trkpt lat="43.97459963776252" lon="3.23630261416838">
        <ele>707.0</ele>
      </trkpt>
      <trkpt lat="43.97445293892257" lon="3.236297070980072">
        <ele>706.0</ele>
      </trkpt>
      <trkpt lat="43.97431010023019" lon="3.2363240718405004">
        <ele>706.0</ele>
      </trkpt>
      <trkpt lat="43.97414409807497" lon="3.236383080438827">
        <ele>706.0</ele>
      </trkpt>
      <trkpt lat="43.974020561286224" lon="3.2364635467092744">
        <ele>706.0</ele>
      </trkpt>
      <trkpt lat="43.973889303166544" lon="3.236527919725631">
        <ele>706.0</ele>
      </trkpt>
      <trkpt lat="43.97388916396974" lon="3.236527910457569">
        <ele>705.0</ele>
      </trkpt>
      <trkpt lat="43.973765765847745" lon="3.236519694328308">
        <ele>705.0</ele>
      </trkpt>
      <trkpt lat="43.973657670482986" lon="3.236479639963363">
        <ele>705.0</ele>
      </trkpt>
      <trkpt lat="43.973592041058424" lon="3.2365064620535122">
        <ele>705.0</ele>
      </trkpt>
      <trkpt lat="43.97351869043918" lon="3.23654937739775">
        <ele>705.0</ele>
      </trkpt>
      <trkpt lat="43.97340673405625" lon="3.2365708350698705">
        <ele>704.0</ele>
      </trkpt>
      <trkpt lat="43.97321370531416" lon="3.2366459369222866">
        <ele>704.0</ele>
      </trkpt>
      <trkpt lat="43.973086306000674" lon="3.2366942166845547">
        <ele>704.0</ele>
      </trkpt>
      <trkpt lat="43.972912579223646" lon="3.236758589700913">
        <ele>704.0</ele>
      </trkpt>
      <trkpt lat="43.97277745804576" lon="3.236763954118942">
        <ele>704.0</ele>
      </trkpt>
      <trkpt lat="43.97267322149845" lon="3.2367371320287934">
        <ele>704.0</ele>
      </trkpt>
      <trkpt lat="43.97259600912323" lon="3.2366834878484956">
        <ele>704.0</ele>
      </trkpt>
      <trkpt lat="43.972520726960745" lon="3.2365908622523416">
        <ele>704.0</ele>
      </trkpt>
      <trkpt lat="43.97240490806286" lon="3.236499667145836">
        <ele>704.0</ele>
      </trkpt>
      <trkpt lat="43.97229681022108" lon="3.2364218830844047">
        <ele>704.0</ele>
      </trkpt>
      <trkpt lat="43.972246766384686" lon="3.236383889752433">
        <ele>704.0</ele>
      </trkpt>
      <trkpt lat="43.97226013412293" lon="3.236336214467883">
        <ele>704.0</ele>
      </trkpt>
      <trkpt lat="43.97232190438046" lon="3.2360894512385134">
        <ele>704.0</ele>
      </trkpt>
      <trkpt lat="43.97236244121488" lon="3.235907061155153">
        <ele>704.0</ele>
      </trkpt>
      <trkpt lat="43.97240297774599" lon="3.2357246708124885">
        <ele>704.0</ele>
      </trkpt>
      <trkpt lat="43.9724589571859" lon="3.2354671789998264">
        <ele>704.0</ele>
      </trkpt>
      <trkpt lat="43.97251493602122" lon="3.235209686681628">
        <ele>704.0</ele>
      </trkpt>
      <trkpt lat="43.97254775150369" lon="3.2350138855362145">
        <ele>703.0</ele>
      </trkpt>
      <trkpt lat="43.97258056663614" lon="3.2348180841654535">
        <ele>703.0</ele>
      </trkpt>
      <trkpt lat="43.972611451763846" lon="3.2346276474285376">
        <ele>703.0</ele>
      </trkpt>
      <trkpt lat="43.972642336560405" lon="3.2344372104853387">
        <ele>703.0</ele>
      </trkpt>
      <trkpt lat="43.9726693611789" lon="3.234179718541935">
        <ele>703.0</ele>
      </trkpt>
      <trkpt lat="43.97269638519141" lon="3.2339222263544802">
        <ele>703.0</ele>
      </trkpt>
      <trkpt lat="43.97271182787846" lon="3.233696920858242">
        <ele>702.0</ele>
      </trkpt>
      <trkpt lat="43.972727270101366" lon="3.233471615239977">
        <ele>702.0</ele>
      </trkpt>
      <trkpt lat="43.97272920081303" lon="3.2331738900494016">
        <ele>702.0</ele>
      </trkpt>
      <trkpt lat="43.97273113071399" lon="3.232876164838672">
        <ele>703.0</ele>
      </trkpt>
      <trkpt lat="43.9727234094885" lon="3.2325703930109744">
        <ele>703.0</ele>
      </trkpt>
      <trkpt lat="43.97271954902738" lon="3.232388002785614">
        <ele>703.0</ele>
      </trkpt>
      <trkpt lat="43.97271568826203" lon="3.232205612584949">
        <ele>703.0</ele>
      </trkpt>
      <trkpt lat="43.97270603692685" lon="3.2319964002463784">
        <ele>703.0</ele>
      </trkpt>
      <trkpt lat="43.972696385191426" lon="3.231787187978626">
        <ele>703.0</ele>
      </trkpt>
      <trkpt lat="43.97267708231146" lon="3.2315779756046465">
        <ele>704.0</ele>
      </trkpt>
      <trkpt lat="43.97265777903144" lon="3.2313687633723025">
        <ele>704.0</ele>
      </trkpt>
      <trkpt lat="43.972632685188636" lon="3.2311702798178583">
        <ele>704.0</ele>
      </trkpt>
      <trkpt lat="43.97260759098593" lon="3.230971796438098">
        <ele>704.0</ele>
      </trkpt>
      <trkpt lat="43.97257863651273" lon="3.2307652662390844">
        <ele>704.0</ele>
      </trkpt>
      <trkpt lat="43.9725496816499" lon="3.230558736249804">
        <ele>704.0</ele>
      </trkpt>
      <trkpt lat="43.97251686645567" lon="3.2303897569846267">
        <ele>704.0</ele>
      </trkpt>
      <trkpt lat="43.97248405100086" lon="3.230220777913928">
        <ele>705.0</ele>
      </trkpt>
      <trkpt lat="43.972449305479884" lon="3.2300357053791364">
        <ele>705.0</ele>
      </trkpt>
      <trkpt lat="43.972414559646325" lon="3.229850633069873">
        <ele>705.0</ele>
      </trkpt>
      <trkpt lat="43.97237981407138" lon="3.2296736071670273">
        <ele>705.0</ele>
      </trkpt>
      <trkpt lat="43.9723450682105" lon="3.229496581479907">
        <ele>705.0</ele>
      </trkpt>
      <trkpt lat="43.97230260153722" lon="3.2292909451491587">
        <ele>705.0</ele>
      </trkpt>
      <trkpt lat="43.972260134478255" lon="3.229085309124682">
        <ele>705.0</ele>
      </trkpt>
      <trkpt lat="43.97221766703358" lon="3.228879673406482">
        <ele>705.0</ele>
      </trkpt>
      <trkpt lat="43.972169409152514" lon="3.2286543676585655">
        <ele>705.0</ele>
      </trkpt>
      <trkpt lat="43.972121150808526" lon="3.22842906229198">
        <ele>705.0</ele>
      </trkpt>
      <trkpt lat="43.972069032207145" lon="3.228195709894412">
        <ele>705.0</ele>
      </trkpt>
      <trkpt lat="43.97201691310931" lon="3.227962357923388">
        <ele>706.0</ele>
      </trkpt>
      <trkpt lat="43.971962864163444" lon="3.2276941367676795">
        <ele>706.0</ele>
      </trkpt>
      <trkpt lat="43.97190881456129" lon="3.2274259161204095">
        <ele>706.0</ele>
      </trkpt>
      <trkpt lat="43.9718470438741" lon="3.22717915289104">
        <ele>706.0</ele>
      </trkpt>
      <trkpt lat="43.971812297958536" lon="3.227007491409494">
        <ele>706.0</ele>
      </trkpt>
      <trkpt lat="43.97177755177419" lon="3.2268358301371345">
        <ele>707.0</ele>
      </trkpt>
      <trkpt lat="43.9717466664885" lon="3.2266695330881436">
        <ele>707.0</ele>
      </trkpt>
      <trkpt lat="43.971715780950454" lon="3.2265032362192865">
        <ele>707.0</ele>
      </trkpt>
      <trkpt lat="43.97166559210887" lon="3.226283295080066">
        <ele>707.0</ele>
      </trkpt>
      <trkpt lat="43.971607681854366" lon="3.2259989809244876">
        <ele>707.0</ele>
      </trkpt>
      <trkpt lat="43.97156392776936" lon="3.2257897683002836">
        <ele>708.0</ele>
      </trkpt>
      <trkpt lat="43.971520173285114" lon="3.22558055599712">
        <ele>708.0</ele>
      </trkpt>
      <trkpt lat="43.971476418401714" lon="3.2253713440150023">
        <ele>708.0</ele>
      </trkpt>
      <trkpt lat="43.971422368913416" lon="3.2251245805517494">
        <ele>708.0</ele>
      </trkpt>
      <trkpt lat="43.97136831886991" lon="3.2248778175562625">
        <ele>708.0</ele>
      </trkpt>
      <trkpt lat="43.97131619969444" lon="3.2246069141981666">
        <ele>708.0</ele>
      </trkpt>
      <trkpt lat="43.97126407984933" lon="3.2243360113352533">
        <ele>708.0</ele>
      </trkpt>
      <trkpt lat="43.971208099816344" lon="3.2240865656520006">
        <ele>707.0</ele>
      </trkpt>
      <trkpt lat="43.97115218778503" lon="3.223837425994528">
        <ele>707.0</ele>
      </trkpt>
      <trkpt lat="43.97115211921608" lon="3.2238371204584837">
        <ele>707.0</ele>
      </trkpt>
      <trkpt lat="43.971101930113925" lon="3.2236091324915668">
        <ele>707.0</ele>
      </trkpt>
      <trkpt lat="43.97105174053781" lon="3.223381144925953">
        <ele>707.0</ele>
      </trkpt>
      <trkpt lat="43.971005412051746" lon="3.2231665680304387">
        <ele>707.0</ele>
      </trkpt>
      <trkpt lat="43.970959083145814" lon="3.222951991483569">
        <ele>707.0</ele>
      </trkpt>
      <trkpt lat="43.970924336728146" lon="3.222769601159427">
        <ele>707.0</ele>
      </trkpt>
      <trkpt lat="43.97088959000692" lon="3.222587211057544">
        <ele>707.0</ele>
      </trkpt>
      <trkpt lat="43.970843261202475" lon="3.2223565410822625">
        <ele>707.0</ele>
      </trkpt>
      <trkpt lat="43.97080465396386" lon="3.2221821973782645">
        <ele>707.0</ele>
      </trkpt>
      <trkpt lat="43.970766046448105" lon="3.2220078539103274">
        <ele>707.0</ele>
      </trkpt>
      <trkpt lat="43.97072550885291" lon="3.221795959247525">
        <ele>707.0</ele>
      </trkpt>
      <trkpt lat="43.97068497084801" lon="3.2215840648859744">
        <ele>708.0</ele>
      </trkpt>
      <trkpt lat="43.970630920670544" lon="3.2213238903649355">
        <ele>708.0</ele>
      </trkpt>
      <trkpt lat="43.97057686987568" lon="3.2210637163370848">
        <ele>708.0</ele>
      </trkpt>
      <trkpt lat="43.97051702852684" lon="3.2207767196713317">
        <ele>708.0</ele>
      </trkpt>
      <trkpt lat="43.97045718642679" lon="3.2204897236078978">
        <ele>708.0</ele>
      </trkpt>
      <trkpt lat="43.97039734494345" lon="3.2202080913658024">
        <ele>708.0</ele>
      </trkpt>
      <trkpt lat="43.970337502736754" lon="3.21992645971477">
        <ele>708.0</ele>
      </trkpt>
      <trkpt lat="43.97028538255878" lon="3.2196984717401342">
        <ele>708.0</ele>
      </trkpt>
      <trkpt lat="43.97023326190698" lon="3.219470484182239">
        <ele>708.0</ele>
      </trkpt>
      <trkpt lat="43.97018693280403" lon="3.21924517844195">
        <ele>709.0</ele>
      </trkpt>
      <trkpt lat="43.970140603238036" lon="3.219019873067736">
        <ele>709.0</ele>
      </trkpt>
      <trkpt lat="43.970086552540174" lon="3.218770427392928">
        <ele>709.0</ele>
      </trkpt>
      <trkpt lat="43.97003250127491" lon="3.218520982190967">
        <ele>710.0</ele>
      </trkpt>
      <trkpt lat="43.96999582387361" lon="3.21836809617879">
        <ele>710.0</ele>
      </trkpt>
      <trkpt lat="43.96995914625933" lon="3.2182152103632693">
        <ele>710.0</ele>
      </trkpt>
      <trkpt lat="43.96990895619589" lon="3.217965764705347">
        <ele>711.0</ele>
      </trkpt>
      <trkpt lat="43.96985876556484" lon="3.2177163194864993">
        <ele>711.0</ele>
      </trkpt>
      <trkpt lat="43.969815010233496" lon="3.217496378009772">
        <ele>712.0</ele>
      </trkpt>
      <trkpt lat="43.96977125446081" lon="3.2172764368705487">
        <ele>712.0</ele>
      </trkpt>
      <trkpt lat="43.969727498246804" lon="3.2170564960688353">
        <ele>712.0</ele>
      </trkpt>
      <trkpt lat="43.969658003666886" lon="3.2167721819132558">
        <ele>712.0</ele>
      </trkpt>
      <trkpt lat="43.96974294147568" lon="3.2165361475199465">
        <ele>712.0</ele>
      </trkpt>
      <trkpt lat="43.96978927123423" lon="3.21637789731663">
        <ele>713.0</ele>
      </trkpt>
      <trkpt lat="43.96983560076499" lon="3.2162196468561888">
        <ele>713.0</ele>
      </trkpt>
      <trkpt lat="43.969881930429175" lon="3.216077489893889">
        <ele>713.0</ele>
      </trkpt>
      <trkpt lat="43.96992825990975" lon="3.2159353327006106">
        <ele>713.0</ele>
      </trkpt>
      <trkpt lat="43.97002477969849" lon="3.2156885694712414">
        <ele>713.0</ele>
      </trkpt>
      <trkpt lat="43.97014060323794" lon="3.2155008148401967">
        <ele>714.0</ele>
      </trkpt>
      <trkpt lat="43.970279591187115" lon="3.2152916025370355">
        <ele>714.0</ele>
      </trkpt>
      <trkpt lat="43.97036259773968" lon="3.215162856691716">
        <ele>714.0</ele>
      </trkpt>
      <trkpt lat="43.97044560414466" lon="3.2150341104716063">
        <ele>715.0</ele>
      </trkpt>
      <trkpt lat="43.97054598384734" lon="3.2148034404963255">
        <ele>715.0</ele>
      </trkpt>
      <trkpt lat="43.97060389520739" lon="3.214655919150314">
        <ele>715.0</ele>
      </trkpt>
      <trkpt lat="43.97066180637035" lon="3.2145083975046873">
        <ele>715.0</ele>
      </trkpt>
      <trkpt lat="43.970725508708675" lon="3.214374287203751">
        <ele>716.0</ele>
      </trkpt>
      <trkpt lat="43.97078921088485" lon="3.2142401766031976">
        <ele>716.0</ele>
      </trkpt>
      <trkpt lat="43.97084712201515" lon="3.214087290844605">
        <ele>716.0</ele>
      </trkpt>
      <trkpt lat="43.9709050329336" lon="3.2139344047755003">
        <ele>716.0</ele>
      </trkpt>
      <trkpt lat="43.97098996915688" lon="3.213695688528719">
        <ele>717.0</ele>
      </trkpt>
      <trkpt lat="43.971074904863166" lon="3.213456971570849">
        <ele>717.0</ele>
      </trkpt>
      <trkpt lat="43.971075348422836" lon="3.2134554307796703">
        <ele>717.0</ele>
      </trkpt>
      <trkpt lat="43.971121233586636" lon="3.2132960391606966">
        <ele>718.0</ele>
      </trkpt>
      <trkpt lat="43.97116756207449" lon="3.2131351064890614">
        <ele>718.0</ele>
      </trkpt>
      <trkpt lat="43.97121003006022" lon="3.21294735199784">
        <ele>718.0</ele>
      </trkpt>
      <trkpt lat="43.97125249772457" lon="3.212759597226977">
        <ele>719.0</ele>
      </trkpt>
      <trkpt lat="43.97128338338538" lon="3.212593300268055">
        <ele>719.0</ele>
      </trkpt>
      <trkpt lat="43.971318129734584" lon="3.212378723546864">
        <ele>720.0</ele>
      </trkpt>
      <trkpt lat="43.971368318869814" lon="3.212110502645373">
        <ele>720.0</ele>
      </trkpt>
      <trkpt lat="43.97142622935773" lon="3.211842281743884">
        <ele>721.0</ele>
      </trkpt>
      <trkpt lat="43.97149572186873" lon="3.211606247350573">
        <ele>721.0</ele>
      </trkpt>
      <trkpt lat="43.97159223911015" lon="3.2113809417933243">
        <ele>722.0</ele>
      </trkpt>
      <trkpt lat="43.97167331347179" lon="3.2111395429819822">
        <ele>722.0</ele>
      </trkpt>
      <trkpt lat="43.971731223662346" lon="3.210855228826403">
        <ele>723.0</ele>
      </trkpt>
      <trkpt lat="43.97174473614885" lon="3.2106942963236427">
        <ele>723.0</ele>
      </trkpt>
      <trkpt lat="43.971758248398594" lon="3.2105333637446165">
        <ele>724.0</ele>
      </trkpt>
      <trkpt lat="43.97178334289072" lon="3.21037779569021">
        <ele>725.0</ele>
      </trkpt>
      <trkpt lat="43.971808437161854" lon="3.2102222274988885">
        <ele>725.0</ele>
      </trkpt>
      <trkpt lat="43.9718702078892" lon="3.20994327776134">
        <ele>726.0</ele>
      </trkpt>
      <trkpt lat="43.97189530235392" lon="3.209774298667762">
        <ele>726.0</ele>
      </trkpt>
      <trkpt lat="43.97192039655787" lon="3.2096053194254637">
        <ele>727.0</ele>
      </trkpt>
      <trkpt lat="43.97193004833378" lon="3.2094470691203694">
        <ele>727.0</ele>
      </trkpt>
      <trkpt lat="43.971939699880686" lon="3.2092888187617055">
        <ele>728.0</ele>
      </trkpt>
      <trkpt lat="43.971939699880664" lon="3.209079606458545">
        <ele>728.0</ele>
      </trkpt>
      <trkpt lat="43.97194742134228" lon="3.2089079451048352">
        <ele>729.0</ele>
      </trkpt>
      <trkpt lat="43.97195514253443" lon="3.208736283704639">
        <ele>729.0</ele>
      </trkpt>
      <trkpt lat="43.97198988849065" lon="3.20845196954906">
        <ele>730.0</ele>
      </trkpt>
      <trkpt lat="43.97203042551021" lon="3.2082964015367814">
        <ele>730.0</ele>
      </trkpt>
      <trkpt lat="43.9720709623094" lon="3.2081408333033314">
        <ele>731.0</ele>
      </trkpt>
      <trkpt lat="43.97211149928538" lon="3.2079772186697295">
        <ele>732.0</ele>
      </trkpt>
      <trkpt lat="43.97215203601752" lon="3.207813603803515">
        <ele>732.0</ele>
      </trkpt>
      <trkpt lat="43.97217326958955" lon="3.207567930221558">
        <ele>733.0</ele>
      </trkpt>
      <trkpt lat="43.97216168783102" lon="3.2073640822950256">
        <ele>733.0</ele>
      </trkpt>
      <trkpt lat="43.97215010569252" lon="3.2071602344512953">
        <ele>734.0</ele>
      </trkpt>
      <trkpt lat="43.972142384391525" lon="3.206975162029267">
        <ele>735.0</ele>
      </trkpt>
      <trkpt lat="43.972271716051004" lon="3.206853372976183">
        <ele>735.0</ele>
      </trkpt>
      <trkpt lat="43.97241069901303" lon="3.206724626943468">
        <ele>736.0</ele>
      </trkpt>
      <trkpt lat="43.97252265727369" lon="3.206628067418933">
        <ele>736.0</ele>
      </trkpt>
      <trkpt lat="43.972588287880185" lon="3.2065476011484852">
        <ele>736.0</ele>
      </trkpt>
      <trkpt lat="43.972491772257364" lon="3.2062793802469964">
        <ele>737.0</ele>
      </trkpt>
      <trkpt lat="43.972433862808394" lon="3.20620964281261">
        <ele>737.0</ele>
      </trkpt>
      <trkpt lat="43.9723315559968" lon="3.2060540744106483">
        <ele>737.0</ele>
      </trkpt>
      <trkpt lat="43.97222924896994" lon="3.2058985065668817">
        <ele>738.0</ele>
      </trkpt>
      <trkpt lat="43.97212115080843" lon="3.2056839298456903">
        <ele>738.0</ele>
      </trkpt>
      <trkpt lat="43.97205938034208" lon="3.2054478954523793">
        <ele>738.0</ele>
      </trkpt>
      <trkpt lat="43.97204972881461" lon="3.205289645093717">
        <ele>738.0</ele>
      </trkpt>
      <trkpt lat="43.97204007705817" lon="3.2051313947886233">
        <ele>738.0</ele>
      </trkpt>
      <trkpt lat="43.97208061410338" lon="3.2049382758768292">
        <ele>739.0</ele>
      </trkpt>
      <trkpt lat="43.97212115080845" lon="3.204745156690478">
        <ele>739.0</ele>
      </trkpt>
      <trkpt lat="43.97219643355866" lon="3.2045761777456185">
        <ele>739.0</ele>
      </trkpt>
      <trkpt lat="43.97227171605101" lon="3.2044071983546023">
        <ele>740.0</ele>
      </trkpt>
      <trkpt lat="43.97234506827803" lon="3.2042489482262813">
        <ele>740.0</ele>
      </trkpt>
      <trkpt lat="43.97241842027916" lon="3.2040906976908436">
        <ele>740.0</ele>
      </trkpt>
      <trkpt lat="43.97251107539444" lon="3.2038278412073846">
        <ele>740.0</ele>
      </trkpt>
      <trkpt lat="43.97257284539101" lon="3.203538162633779">
        <ele>741.0</ele>
      </trkpt>
      <trkpt lat="43.97258249708533" lon="3.2033638190773175">
        <ele>741.0</ele>
      </trkpt>
      <trkpt lat="43.97259214850173" lon="3.203189475461841">
        <ele>741.0</ele>
      </trkpt>
      <trkpt lat="43.97260759098583" lon="3.2028997968882322">
        <ele>741.0</ele>
      </trkpt>
      <trkpt lat="43.97261145181141" lon="3.2026879023904007">
        <ele>741.0</ele>
      </trkpt>
      <trkpt lat="43.97261531222635" lon="3.2024760078638788">
        <ele>741.0</ele>
      </trkpt>
      <trkpt lat="43.97260759098583" lon="3.202245337888598">
        <ele>741.0</ele>
      </trkpt>
      <trkpt lat="43.97259986974428" lon="3.202036125585436">
        <ele>741.0</ele>
      </trkpt>
      <trkpt lat="43.97256705460837" lon="3.20184837084635">
        <ele>741.0</ele>
      </trkpt>
      <trkpt lat="43.9725342391507" lon="3.2016606163233514">
        <ele>741.0</ele>
      </trkpt>
      <trkpt lat="43.972482120807435" lon="3.2014827940850483">
        <ele>742.0</ele>
      </trkpt>
      <trkpt lat="43.972430002176566" lon="3.201304972171785">
        <ele>742.0</ele>
      </trkpt>
      <trkpt lat="43.972364371395265" lon="3.2010528445243835">
        <ele>742.0</ele>
      </trkpt>
      <trkpt lat="43.9722639947659" lon="3.2007765769958496">
        <ele>742.0</ele>
      </trkpt>
      <trkpt lat="43.97218678185863" lon="3.200511038303376">
        <ele>742.0</ele>
      </trkpt>
      <trkpt lat="43.97213659350265" lon="3.200356266325098">
        <ele>743.0</ele>
      </trkpt>
      <trkpt lat="43.97208640492903" lon="3.2002014946192503">
        <ele>743.0</ele>
      </trkpt>
      <trkpt lat="43.97198602782993" lon="3.1999343633651742">
        <ele>743.0</ele>
      </trkpt>
      <trkpt lat="43.97193583939595" lon="3.1997246060536977">
        <ele>743.0</ele>
      </trkpt>
      <trkpt lat="43.97188565056103" lon="3.1995148491114374">
        <ele>744.0</ele>
      </trkpt>
      <trkpt lat="43.97185090464781" lon="3.1993565986831367">
        <ele>744.0</ele>
      </trkpt>
      <trkpt lat="43.97181615850627" lon="3.1991983484476805">
        <ele>744.0</ele>
      </trkpt>
      <trkpt lat="43.97178527324816" lon="3.199027231801757">
        <ele>745.0</ele>
      </trkpt>
      <trkpt lat="43.97175438772281" lon="3.198856115341188">
        <ele>745.0</ele>
      </trkpt>
      <trkpt lat="43.97172832827683" lon="3.198688477201151">
        <ele>745.0</ele>
      </trkpt>
      <trkpt lat="43.97170226857419" lon="3.198520839214326">
        <ele>745.0</ele>
      </trkpt>
      <trkpt lat="43.9716733134719" lon="3.1982553005218515">
        <ele>746.0</ele>
      </trkpt>
      <trkpt lat="43.97167138313124" lon="3.198027312755586">
        <ele>746.0</ele>
      </trkpt>
      <trkpt lat="43.97166559210877" lon="3.1978583335876465">
        <ele>746.0</ele>
      </trkpt>
      <trkpt lat="43.97168682585465" lon="3.1976115703582773">
        <ele>746.0</ele>
      </trkpt>
      <trkpt lat="43.97172350260149" lon="3.197352737354809">
        <ele>746.0</ele>
      </trkpt>
      <trkpt lat="43.9717601787364" lon="3.1970939040184034">
        <ele>746.0</ele>
      </trkpt>
      <trkpt lat="43.971784308077524" lon="3.196926266025903">
        <ele>746.0</ele>
      </trkpt>
      <trkpt lat="43.971808437161954" lon="3.196758627891541">
        <ele>746.0</ele>
      </trkpt>
      <trkpt lat="43.971837392343254" lon="3.1965762377711378">
        <ele>746.0</ele>
      </trkpt>
      <trkpt lat="43.97186634722076" lon="3.1963938474655156">
        <ele>747.0</ele>
      </trkpt>
      <trkpt lat="43.97195128187129" lon="3.1962103676050893">
        <ele>747.0</ele>
      </trkpt>
      <trkpt lat="43.972063240998" lon="3.1960387062281366">
        <ele>747.0</ele>
      </trkpt>
      <trkpt lat="43.97214431471666" lon="3.195899231359363">
        <ele>747.0</ele>
      </trkpt>
      <trkpt lat="43.972209945741156" lon="3.1958026718348265">
        <ele>748.0</ele>
      </trkpt>
      <trkpt lat="43.97231418310158" lon="3.195609552785755">
        <ele>748.0</ele>
      </trkpt>
      <trkpt lat="43.97241842027907" lon="3.1954164337366815">
        <ele>748.0</ele>
      </trkpt>
      <trkpt lat="43.97252651789949" lon="3.1952394079416977">
        <ele>748.0</ele>
      </trkpt>
      <trkpt lat="43.97263075470431" lon="3.1950248312205067">
        <ele>749.0</ele>
      </trkpt>
      <trkpt lat="43.972750433773086" lon="3.194831712171435">
        <ele>749.0</ele>
      </trkpt>
      <trkpt lat="43.97288169440992" lon="3.1946546863764524">
        <ele>749.0</ele>
      </trkpt>
      <trkpt lat="43.97293960342215" lon="3.194590313360094">
        <ele>749.0</ele>
      </trkpt>
      <trkpt lat="43.97300137297294" lon="3.1944508384913215">
        <ele>749.0</ele>
      </trkpt>
      <trkpt lat="43.97303997890962" lon="3.1942684482783075">
        <ele>749.0</ele>
      </trkpt>
      <trkpt lat="43.97305928186852" lon="3.194000227376819">
        <ele>749.0</ele>
      </trkpt>
      <trkpt lat="43.97309402717878" lon="3.1938714813441043">
        <ele>749.0</ele>
      </trkpt>
      <trkpt lat="43.973163517738215" lon="3.19373737089336">
        <ele>749.0</ele>
      </trkpt>
      <trkpt lat="43.973202123569465" lon="3.1936139892786732">
        <ele>749.0</ele>
      </trkpt>
      <trkpt lat="43.97328705631007" lon="3.1934691499918704">
        <ele>749.0</ele>
      </trkpt>
    </trkseg>
  </trk>
</gpx>