<?xml version="1.0" encoding="UTF-8" standalone="no" ?>
<gpx xmlns="http://www.topografix.com/GPX/1/1"
     creator="TourInSoft"
     version="1.1"
     xmlns:xsi="http://www.w3.org/2001/XMLSchema-instance"
     xsi:schemaLocation="http://www.topografix.com/GPX/1/1 http://www.topografix.com/GPX/1/1/gpx.xsd">
<trk>
<trkseg>
<trkpt lat="44.78115" lon="3.63355"></trkpt><trkpt lat="44.78115" lon="3.63355"></trkpt><trkpt lat="44.78115" lon="3.63355"></trkpt><trkpt lat="44.78075" lon="3.63333"></trkpt><trkpt lat="44.78054" lon="3.63326"></trkpt><trkpt lat="44.78035" lon="3.6332"></trkpt><trkpt lat="44.7802" lon="3.63315"></trkpt><trkpt lat="44.78002" lon="3.63308"></trkpt><trkpt lat="44.77965" lon="3.63286"></trkpt><trkpt lat="44.77959" lon="3.63282"></trkpt><trkpt lat="44.77954" lon="3.63273"></trkpt><trkpt lat="44.77954" lon="3.63267"></trkpt><trkpt lat="44.77962" lon="3.63248"></trkpt><trkpt lat="44.77976" lon="3.6322"></trkpt><trkpt lat="44.7797" lon="3.63193"></trkpt><trkpt lat="44.77964" lon="3.63168"></trkpt><trkpt lat="44.7796" lon="3.63159"></trkpt><trkpt lat="44.77958" lon="3.6315"></trkpt><trkpt lat="44.77955" lon="3.63128"></trkpt><trkpt lat="44.77957" lon="3.63106"></trkpt><trkpt lat="44.77965" lon="3.63077"></trkpt><trkpt lat="44.77979" lon="3.63081"></trkpt><trkpt lat="44.77984" lon="3.63073"></trkpt><trkpt lat="44.77993" lon="3.63039"></trkpt><trkpt lat="44.77983" lon="3.63011"></trkpt><trkpt lat="44.77998" lon="3.62953"></trkpt><trkpt lat="44.78003" lon="3.62928"></trkpt><trkpt lat="44.78006" lon="3.62901"></trkpt><trkpt lat="44.78005" lon="3.62851"></trkpt><trkpt lat="44.77997" lon="3.62806"></trkpt><trkpt lat="44.77992" lon="3.62772"></trkpt><trkpt lat="44.77989" lon="3.62759"></trkpt><trkpt lat="44.77957" lon="3.62581"></trkpt><trkpt lat="44.77903" lon="3.6243"></trkpt><trkpt lat="44.77877" lon="3.62356"></trkpt><trkpt lat="44.77874" lon="3.62336"></trkpt><trkpt lat="44.77872" lon="3.62324"></trkpt><trkpt lat="44.77871" lon="3.62284"></trkpt><trkpt lat="44.77885" lon="3.62196"></trkpt><trkpt lat="44.77882" lon="3.62195"></trkpt><trkpt lat="44.7772" lon="3.62156"></trkpt><trkpt lat="44.7771" lon="3.62148"></trkpt><trkpt lat="44.77705" lon="3.62141"></trkpt><trkpt lat="44.77695" lon="3.62111"></trkpt><trkpt lat="44.77688" lon="3.62098"></trkpt><trkpt lat="44.77685" lon="3.62093"></trkpt><trkpt lat="44.7768" lon="3.6209"></trkpt><trkpt lat="44.77654" lon="3.62079"></trkpt><trkpt lat="44.77646" lon="3.62069"></trkpt><trkpt lat="44.77642" lon="3.62061"></trkpt><trkpt lat="44.77637" lon="3.62048"></trkpt><trkpt lat="44.77636" lon="3.62043"></trkpt><trkpt lat="44.77635" lon="3.62031"></trkpt><trkpt lat="44.7764" lon="3.62004"></trkpt><trkpt lat="44.77641" lon="3.6199"></trkpt><trkpt lat="44.77649" lon="3.61965"></trkpt><trkpt lat="44.77658" lon="3.61938"></trkpt><trkpt lat="44.7768" lon="3.6189"></trkpt><trkpt lat="44.77683" lon="3.6188"></trkpt><trkpt lat="44.77684" lon="3.61873"></trkpt><trkpt lat="44.77682" lon="3.6186"></trkpt><trkpt lat="44.77671" lon="3.61837"></trkpt><trkpt lat="44.77667" lon="3.61824"></trkpt><trkpt lat="44.77661" lon="3.61785"></trkpt><trkpt lat="44.7766" lon="3.61768"></trkpt><trkpt lat="44.77663" lon="3.61753"></trkpt><trkpt lat="44.7766" lon="3.61736"></trkpt><trkpt lat="44.77658" lon="3.61729"></trkpt><trkpt lat="44.77653" lon="3.61709"></trkpt><trkpt lat="44.77645" lon="3.61673"></trkpt><trkpt lat="44.77643" lon="3.6166"></trkpt><trkpt lat="44.77642" lon="3.61654"></trkpt><trkpt lat="44.77641" lon="3.61645"></trkpt><trkpt lat="44.77641" lon="3.61637"></trkpt><trkpt lat="44.77645" lon="3.61611"></trkpt><trkpt lat="44.77654" lon="3.61592"></trkpt><trkpt lat="44.77663" lon="3.61562"></trkpt><trkpt lat="44.77663" lon="3.61549"></trkpt><trkpt lat="44.77658" lon="3.61519"></trkpt><trkpt lat="44.77654" lon="3.61508"></trkpt><trkpt lat="44.77624" lon="3.61474"></trkpt><trkpt lat="44.77614" lon="3.61458"></trkpt><trkpt lat="44.77594" lon="3.61417"></trkpt><trkpt lat="44.7759" lon="3.61417"></trkpt><trkpt lat="44.7758" lon="3.61421"></trkpt><trkpt lat="44.77553" lon="3.61444"></trkpt><trkpt lat="44.77522" lon="3.61457"></trkpt><trkpt lat="44.77509" lon="3.61465"></trkpt><trkpt lat="44.77501" lon="3.61472"></trkpt><trkpt lat="44.77493" lon="3.6148"></trkpt><trkpt lat="44.77472" lon="3.61504"></trkpt><trkpt lat="44.77425" lon="3.61535"></trkpt><trkpt lat="44.77412" lon="3.61549"></trkpt><trkpt lat="44.7737" lon="3.61611"></trkpt><trkpt lat="44.77355" lon="3.61641"></trkpt><trkpt lat="44.77326" lon="3.6169"></trkpt><trkpt lat="44.77317" lon="3.61699"></trkpt><trkpt lat="44.77303" lon="3.61708"></trkpt><trkpt lat="44.77278" lon="3.6172"></trkpt><trkpt lat="44.77223" lon="3.61755"></trkpt><trkpt lat="44.772" lon="3.61777"></trkpt><trkpt lat="44.7718" lon="3.61793"></trkpt><trkpt lat="44.77167" lon="3.61799"></trkpt><trkpt lat="44.77134" lon="3.61808"></trkpt><trkpt lat="44.77118" lon="3.61811"></trkpt><trkpt lat="44.77023" lon="3.61802"></trkpt><trkpt lat="44.77006" lon="3.61799"></trkpt><trkpt lat="44.76946" lon="3.61785"></trkpt><trkpt lat="44.76787" lon="3.61716"></trkpt><trkpt lat="44.76768" lon="3.61704"></trkpt><trkpt lat="44.76753" lon="3.61691"></trkpt><trkpt lat="44.76736" lon="3.61669"></trkpt><trkpt lat="44.76699" lon="3.61618"></trkpt><trkpt lat="44.76684" lon="3.61588"></trkpt><trkpt lat="44.76678" lon="3.61567"></trkpt><trkpt lat="44.76673" lon="3.61557"></trkpt><trkpt lat="44.76656" lon="3.61545"></trkpt><trkpt lat="44.76649" lon="3.61536"></trkpt><trkpt lat="44.76632" lon="3.61504"></trkpt><trkpt lat="44.76626" lon="3.615"></trkpt><trkpt lat="44.76603" lon="3.61495"></trkpt><trkpt lat="44.76592" lon="3.61491"></trkpt><trkpt lat="44.76563" lon="3.61465"></trkpt><trkpt lat="44.76482" lon="3.61394"></trkpt><trkpt lat="44.76474" lon="3.61391"></trkpt><trkpt lat="44.76466" lon="3.61391"></trkpt><trkpt lat="44.76405" lon="3.61412"></trkpt><trkpt lat="44.76375" lon="3.61429"></trkpt><trkpt lat="44.76371" lon="3.61433"></trkpt><trkpt lat="44.76366" lon="3.61442"></trkpt><trkpt lat="44.76363" lon="3.61458"></trkpt><trkpt lat="44.7636" lon="3.61465"></trkpt><trkpt lat="44.76354" lon="3.61472"></trkpt><trkpt lat="44.76304" lon="3.61496"></trkpt><trkpt lat="44.76255" lon="3.61503"></trkpt><trkpt lat="44.76224" lon="3.61498"></trkpt><trkpt lat="44.7621" lon="3.61497"></trkpt><trkpt lat="44.76201" lon="3.615"></trkpt><trkpt lat="44.76193" lon="3.61506"></trkpt><trkpt lat="44.76168" lon="3.61542"></trkpt><trkpt lat="44.76157" lon="3.61561"></trkpt><trkpt lat="44.76141" lon="3.61581"></trkpt><trkpt lat="44.76141" lon="3.61581"></trkpt><trkpt lat="44.7612" lon="3.61605"></trkpt><trkpt lat="44.76108" lon="3.61617"></trkpt><trkpt lat="44.76084" lon="3.61625"></trkpt><trkpt lat="44.76068" lon="3.61628"></trkpt><trkpt lat="44.76062" lon="3.61628"></trkpt><trkpt lat="44.76054" lon="3.61626"></trkpt><trkpt lat="44.76046" lon="3.61622"></trkpt><trkpt lat="44.76041" lon="3.61622"></trkpt><trkpt lat="44.76031" lon="3.61621"></trkpt><trkpt lat="44.76018" lon="3.6162"></trkpt><trkpt lat="44.76015" lon="3.61615"></trkpt><trkpt lat="44.75999" lon="3.61591"></trkpt><trkpt lat="44.75972" lon="3.61557"></trkpt><trkpt lat="44.75964" lon="3.61551"></trkpt><trkpt lat="44.75963" lon="3.61549"></trkpt><trkpt lat="44.75957" lon="3.61542"></trkpt><trkpt lat="44.7593" lon="3.61519"></trkpt><trkpt lat="44.75926" lon="3.61518"></trkpt><trkpt lat="44.75918" lon="3.61504"></trkpt><trkpt lat="44.75897" lon="3.61463"></trkpt><trkpt lat="44.75879" lon="3.61442"></trkpt><trkpt lat="44.75864" lon="3.61416"></trkpt><trkpt lat="44.75856" lon="3.61405"></trkpt><trkpt lat="44.7585" lon="3.61403"></trkpt><trkpt lat="44.75839" lon="3.61403"></trkpt><trkpt lat="44.75835" lon="3.61405"></trkpt><trkpt lat="44.75831" lon="3.61408"></trkpt><trkpt lat="44.75813" lon="3.61384"></trkpt><trkpt lat="44.7579" lon="3.61346"></trkpt><trkpt lat="44.75781" lon="3.61334"></trkpt><trkpt lat="44.75768" lon="3.61326"></trkpt><trkpt lat="44.75759" lon="3.61319"></trkpt><trkpt lat="44.75744" lon="3.61315"></trkpt><trkpt lat="44.75712" lon="3.61306"></trkpt><trkpt lat="44.75635" lon="3.61291"></trkpt><trkpt lat="44.75605" lon="3.61289"></trkpt><trkpt lat="44.75497" lon="3.61321"></trkpt><trkpt lat="44.75491" lon="3.61321"></trkpt><trkpt lat="44.75482" lon="3.61315"></trkpt><trkpt lat="44.7548" lon="3.61311"></trkpt><trkpt lat="44.75476" lon="3.61289"></trkpt><trkpt lat="44.75472" lon="3.61283"></trkpt><trkpt lat="44.75463" lon="3.61274"></trkpt><trkpt lat="44.75453" lon="3.61268"></trkpt><trkpt lat="44.75446" lon="3.61264"></trkpt><trkpt lat="44.75439" lon="3.61263"></trkpt><trkpt lat="44.75429" lon="3.61268"></trkpt><trkpt lat="44.75418" lon="3.61274"></trkpt><trkpt lat="44.75399" lon="3.61281"></trkpt><trkpt lat="44.7539" lon="3.61281"></trkpt><trkpt lat="44.75371" lon="3.61276"></trkpt><trkpt lat="44.75341" lon="3.61274"></trkpt><trkpt lat="44.75311" lon="3.61283"></trkpt><trkpt lat="44.75259" lon="3.61291"></trkpt><trkpt lat="44.75242" lon="3.61298"></trkpt><trkpt lat="44.75201" lon="3.61324"></trkpt><trkpt lat="44.75188" lon="3.61325"></trkpt><trkpt lat="44.75146" lon="3.61319"></trkpt><trkpt lat="44.75075" lon="3.61306"></trkpt><trkpt lat="44.75036" lon="3.61295"></trkpt><trkpt lat="44.74986" lon="3.61293"></trkpt><trkpt lat="44.74973" lon="3.61295"></trkpt><trkpt lat="44.74957" lon="3.61294"></trkpt><trkpt lat="44.74952" lon="3.61292"></trkpt><trkpt lat="44.74942" lon="3.6129"></trkpt><trkpt lat="44.74931" lon="3.61287"></trkpt><trkpt lat="44.74918" lon="3.61281"></trkpt><trkpt lat="44.74896" lon="3.61269"></trkpt><trkpt lat="44.74834" lon="3.61241"></trkpt><trkpt lat="44.74798" lon="3.61221"></trkpt><trkpt lat="44.74721" lon="3.61198"></trkpt><trkpt lat="44.74665" lon="3.61191"></trkpt><trkpt lat="44.74609" lon="3.6119"></trkpt><trkpt lat="44.74594" lon="3.61186"></trkpt><trkpt lat="44.74568" lon="3.61173"></trkpt><trkpt lat="44.74545" lon="3.61169"></trkpt><trkpt lat="44.74492" lon="3.6117"></trkpt><trkpt lat="44.7448" lon="3.61173"></trkpt><trkpt lat="44.74474" lon="3.6118"></trkpt><trkpt lat="44.74463" lon="3.61208"></trkpt><trkpt lat="44.74452" lon="3.61221"></trkpt><trkpt lat="44.74416" lon="3.61238"></trkpt><trkpt lat="44.74405" lon="3.61246"></trkpt><trkpt lat="44.74345" lon="3.61328"></trkpt><trkpt lat="44.74342" lon="3.61337"></trkpt><trkpt lat="44.74332" lon="3.61329"></trkpt><trkpt lat="44.74311" lon="3.61311"></trkpt><trkpt lat="44.74274" lon="3.61275"></trkpt><trkpt lat="44.74223" lon="3.61221"></trkpt><trkpt lat="44.74221" lon="3.61215"></trkpt><trkpt lat="44.74214" lon="3.61214"></trkpt><trkpt lat="44.74139" lon="3.61182"></trkpt><trkpt lat="44.74116" lon="3.61158"></trkpt><trkpt lat="44.74086" lon="3.61111"></trkpt><trkpt lat="44.74066" lon="3.61068"></trkpt><trkpt lat="44.74045" lon="3.61006"></trkpt><trkpt lat="44.7403" lon="3.60963"></trkpt><trkpt lat="44.74019" lon="3.60937"></trkpt><trkpt lat="44.74006" lon="3.60912"></trkpt><trkpt lat="44.73989" lon="3.60867"></trkpt><trkpt lat="44.73985" lon="3.60858"></trkpt><trkpt lat="44.73985" lon="3.60839"></trkpt><trkpt lat="44.73985" lon="3.60828"></trkpt><trkpt lat="44.73983" lon="3.60817"></trkpt><trkpt lat="44.73965" lon="3.60764"></trkpt><trkpt lat="44.73948" lon="3.60716"></trkpt><trkpt lat="44.73925" lon="3.60669"></trkpt><trkpt lat="44.73918" lon="3.60646"></trkpt><trkpt lat="44.73914" lon="3.60627"></trkpt><trkpt lat="44.7391" lon="3.60611"></trkpt><trkpt lat="44.73888" lon="3.60536"></trkpt><trkpt lat="44.73866" lon="3.60476"></trkpt><trkpt lat="44.73862" lon="3.60467"></trkpt><trkpt lat="44.73841" lon="3.60422"></trkpt><trkpt lat="44.73804" lon="3.6036"></trkpt><trkpt lat="44.73759" lon="3.60294"></trkpt><trkpt lat="44.73693" lon="3.60184"></trkpt><trkpt lat="44.73678" lon="3.60165"></trkpt><trkpt lat="44.73671" lon="3.60156"></trkpt><trkpt lat="44.73637" lon="3.60109"></trkpt><trkpt lat="44.7362" lon="3.60092"></trkpt><trkpt lat="44.73588" lon="3.60066"></trkpt><trkpt lat="44.73575" lon="3.60051"></trkpt><trkpt lat="44.73566" lon="3.60025"></trkpt><trkpt lat="44.7356" lon="3.59987"></trkpt><trkpt lat="44.73556" lon="3.59974"></trkpt><trkpt lat="44.73541" lon="3.59942"></trkpt><trkpt lat="44.73532" lon="3.59912"></trkpt><trkpt lat="44.73519" lon="3.59882"></trkpt><trkpt lat="44.7348" lon="3.59826"></trkpt><trkpt lat="44.73474" lon="3.59813"></trkpt><trkpt lat="44.73461" lon="3.59777"></trkpt><trkpt lat="44.73453" lon="3.59758"></trkpt><trkpt lat="44.73444" lon="3.59744"></trkpt><trkpt lat="44.7342" lon="3.59716"></trkpt><trkpt lat="44.73406" lon="3.59708"></trkpt><trkpt lat="44.73381" lon="3.59687"></trkpt><trkpt lat="44.73369" lon="3.59676"></trkpt><trkpt lat="44.7336" lon="3.59654"></trkpt><trkpt lat="44.7335" lon="3.59631"></trkpt><trkpt lat="44.73346" lon="3.59619"></trkpt><trkpt lat="44.73344" lon="3.5961"></trkpt><trkpt lat="44.73343" lon="3.59607"></trkpt><trkpt lat="44.73337" lon="3.59573"></trkpt><trkpt lat="44.73333" lon="3.59495"></trkpt><trkpt lat="44.73327" lon="3.59453"></trkpt><trkpt lat="44.73294" lon="3.59287"></trkpt><trkpt lat="44.73289" lon="3.59272"></trkpt><trkpt lat="44.73283" lon="3.59259"></trkpt><trkpt lat="44.73277" lon="3.59251"></trkpt><trkpt lat="44.73233" lon="3.59211"></trkpt><trkpt lat="44.73211" lon="3.59189"></trkpt><trkpt lat="44.73195" lon="3.59167"></trkpt><trkpt lat="44.73192" lon="3.59161"></trkpt><trkpt lat="44.73188" lon="3.59154"></trkpt><trkpt lat="44.73163" lon="3.59137"></trkpt><trkpt lat="44.73122" lon="3.59115"></trkpt><trkpt lat="44.73118" lon="3.59113"></trkpt><trkpt lat="44.73108" lon="3.59109"></trkpt><trkpt lat="44.73089" lon="3.591"></trkpt><trkpt lat="44.7307" lon="3.59086"></trkpt><trkpt lat="44.73029" lon="3.59039"></trkpt><trkpt lat="44.73021" lon="3.59026"></trkpt><trkpt lat="44.72992" lon="3.5896"></trkpt><trkpt lat="44.72981" lon="3.58938"></trkpt><trkpt lat="44.72978" lon="3.58932"></trkpt><trkpt lat="44.72975" lon="3.58927"></trkpt><trkpt lat="44.72969" lon="3.58915"></trkpt><trkpt lat="44.72963" lon="3.58909"></trkpt><trkpt lat="44.72948" lon="3.5889"></trkpt><trkpt lat="44.72937" lon="3.58871"></trkpt><trkpt lat="44.72932" lon="3.58859"></trkpt><trkpt lat="44.7292" lon="3.58811"></trkpt><trkpt lat="44.72917" lon="3.58803"></trkpt><trkpt lat="44.7291" lon="3.58797"></trkpt><trkpt lat="44.72905" lon="3.58798"></trkpt><trkpt lat="44.72902" lon="3.58804"></trkpt><trkpt lat="44.72891" lon="3.58789"></trkpt><trkpt lat="44.72868" lon="3.58741"></trkpt><trkpt lat="44.72852" lon="3.58721"></trkpt><trkpt lat="44.72834" lon="3.58708"></trkpt><trkpt lat="44.7279" lon="3.58664"></trkpt><trkpt lat="44.72769" lon="3.58644"></trkpt><trkpt lat="44.72759" lon="3.58635"></trkpt><trkpt lat="44.72734" lon="3.58606"></trkpt><trkpt lat="44.72715" lon="3.58566"></trkpt><trkpt lat="44.72704" lon="3.58541"></trkpt><trkpt lat="44.72701" lon="3.58532"></trkpt><trkpt lat="44.727" lon="3.58521"></trkpt><trkpt lat="44.72701" lon="3.58511"></trkpt><trkpt lat="44.72698" lon="3.58508"></trkpt><trkpt lat="44.72697" lon="3.58502"></trkpt><trkpt lat="44.72697" lon="3.58472"></trkpt><trkpt lat="44.72674" lon="3.58292"></trkpt><trkpt lat="44.72667" lon="3.58272"></trkpt><trkpt lat="44.72652" lon="3.58251"></trkpt><trkpt lat="44.7262" lon="3.58221"></trkpt><trkpt lat="44.7259" lon="3.58201"></trkpt><trkpt lat="44.72442" lon="3.58144"></trkpt><trkpt lat="44.72414" lon="3.58129"></trkpt><trkpt lat="44.72405" lon="3.58118"></trkpt><trkpt lat="44.72398" lon="3.58105"></trkpt><trkpt lat="44.72393" lon="3.58088"></trkpt><trkpt lat="44.72328" lon="3.57873"></trkpt><trkpt lat="44.7232" lon="3.57852"></trkpt><trkpt lat="44.72264" lon="3.57764"></trkpt><trkpt lat="44.72247" lon="3.57734"></trkpt><trkpt lat="44.72244" lon="3.57724"></trkpt><trkpt lat="44.72243" lon="3.5771"></trkpt><trkpt lat="44.72243" lon="3.57698"></trkpt><trkpt lat="44.72244" lon="3.5762"></trkpt><trkpt lat="44.72251" lon="3.57455"></trkpt><trkpt lat="44.72251" lon="3.57204"></trkpt><trkpt lat="44.72244" lon="3.57193"></trkpt><trkpt lat="44.72238" lon="3.57187"></trkpt><trkpt lat="44.72214" lon="3.57167"></trkpt><trkpt lat="44.72191" lon="3.57141"></trkpt><trkpt lat="44.72165" lon="3.57118"></trkpt><trkpt lat="44.72144" lon="3.57105"></trkpt><trkpt lat="44.72137" lon="3.57105"></trkpt><trkpt lat="44.72124" lon="3.57111"></trkpt><trkpt lat="44.72002" lon="3.57208"></trkpt><trkpt lat="44.71991" lon="3.57214"></trkpt><trkpt lat="44.71981" lon="3.57217"></trkpt><trkpt lat="44.7197" lon="3.57219"></trkpt><trkpt lat="44.71976" lon="3.57204"></trkpt><trkpt lat="44.71983" lon="3.57184"></trkpt><trkpt lat="44.71985" lon="3.57169"></trkpt><trkpt lat="44.71976" lon="3.57111"></trkpt><trkpt lat="44.71974" lon="3.57081"></trkpt><trkpt lat="44.71976" lon="3.57043"></trkpt><trkpt lat="44.71983" lon="3.57006"></trkpt><trkpt lat="44.71993" lon="3.56974"></trkpt><trkpt lat="44.72006" lon="3.56944"></trkpt><trkpt lat="44.72019" lon="3.56918"></trkpt><trkpt lat="44.72034" lon="3.56901"></trkpt><trkpt lat="44.72159" lon="3.568"></trkpt><trkpt lat="44.7218" lon="3.56779"></trkpt><trkpt lat="44.72195" lon="3.5676"></trkpt><trkpt lat="44.72228" lon="3.56709"></trkpt><trkpt lat="44.72251" lon="3.56674"></trkpt><trkpt lat="44.72264" lon="3.5665"></trkpt><trkpt lat="44.72285" lon="3.5659"></trkpt><trkpt lat="44.723" lon="3.56541"></trkpt><trkpt lat="44.72308" lon="3.56517"></trkpt><trkpt lat="44.72313" lon="3.56503"></trkpt><trkpt lat="44.72315" lon="3.56494"></trkpt><trkpt lat="44.72317" lon="3.56487"></trkpt><trkpt lat="44.72335" lon="3.56433"></trkpt><trkpt lat="44.72353" lon="3.56375"></trkpt><trkpt lat="44.72354" lon="3.56373"></trkpt><trkpt lat="44.7242" lon="3.56163"></trkpt><trkpt lat="44.72427" lon="3.56135"></trkpt><trkpt lat="44.7244" lon="3.56019"></trkpt><trkpt lat="44.72446" lon="3.55983"></trkpt><trkpt lat="44.72448" lon="3.55948"></trkpt><trkpt lat="44.72453" lon="3.55914"></trkpt><trkpt lat="44.72466" lon="3.55833"></trkpt><trkpt lat="44.72466" lon="3.5579"></trkpt><trkpt lat="44.72461" lon="3.55749"></trkpt><trkpt lat="44.72435" lon="3.55622"></trkpt><trkpt lat="44.72429" lon="3.55566"></trkpt><trkpt lat="44.72429" lon="3.55536"></trkpt><trkpt lat="44.72431" lon="3.55506"></trkpt><trkpt lat="44.72438" lon="3.55466"></trkpt><trkpt lat="44.72438" lon="3.55421"></trkpt><trkpt lat="44.72429" lon="3.55322"></trkpt><trkpt lat="44.72429" lon="3.55275"></trkpt><trkpt lat="44.72435" lon="3.55236"></trkpt><trkpt lat="44.72446" lon="3.55193"></trkpt><trkpt lat="44.72455" lon="3.55174"></trkpt><trkpt lat="44.72459" lon="3.5517"></trkpt><trkpt lat="44.72489" lon="3.55112"></trkpt><trkpt lat="44.72498" lon="3.55088"></trkpt><trkpt lat="44.72519" lon="3.55015"></trkpt><trkpt lat="44.72538" lon="3.54933"></trkpt><trkpt lat="44.72566" lon="3.54826"></trkpt><trkpt lat="44.72618" lon="3.54682"></trkpt><trkpt lat="44.72669" lon="3.54577"></trkpt><trkpt lat="44.72691" lon="3.54539"></trkpt><trkpt lat="44.72699" lon="3.54528"></trkpt><trkpt lat="44.72762" lon="3.54466"></trkpt><trkpt lat="44.72779" lon="3.54444"></trkpt><trkpt lat="44.72785" lon="3.54429"></trkpt><trkpt lat="44.72787" lon="3.54425"></trkpt><trkpt lat="44.72787" lon="3.54416"></trkpt><trkpt lat="44.7279" lon="3.54384"></trkpt><trkpt lat="44.72798" lon="3.54356"></trkpt><trkpt lat="44.72817" lon="3.54335"></trkpt><trkpt lat="44.72865" lon="3.5429"></trkpt><trkpt lat="44.72884" lon="3.54262"></trkpt><trkpt lat="44.72897" lon="3.54236"></trkpt><trkpt lat="44.72927" lon="3.54174"></trkpt><trkpt lat="44.72935" lon="3.54152"></trkpt><trkpt lat="44.7294" lon="3.54122"></trkpt><trkpt lat="44.7294" lon="3.54105"></trkpt><trkpt lat="44.72938" lon="3.54092"></trkpt><trkpt lat="44.72927" lon="3.54064"></trkpt><trkpt lat="44.72893" lon="3.54013"></trkpt><trkpt lat="44.7286" lon="3.53983"></trkpt><trkpt lat="44.72781" lon="3.53936"></trkpt><trkpt lat="44.72749" lon="3.53901"></trkpt><trkpt lat="44.72708" lon="3.53854"></trkpt><trkpt lat="44.72697" lon="3.53837"></trkpt><trkpt lat="44.72684" lon="3.53818"></trkpt><trkpt lat="44.72665" lon="3.53783"></trkpt><trkpt lat="44.72637" lon="3.53738"></trkpt><trkpt lat="44.72584" lon="3.53695"></trkpt><trkpt lat="44.72571" lon="3.53685"></trkpt><trkpt lat="44.72581" lon="3.53685"></trkpt><trkpt lat="44.72601" lon="3.53695"></trkpt><trkpt lat="44.72633" lon="3.5372"></trkpt><trkpt lat="44.72651" lon="3.53741"></trkpt><trkpt lat="44.72672" lon="3.53772"></trkpt><trkpt lat="44.72697" lon="3.53814"></trkpt><trkpt lat="44.72723" lon="3.53844"></trkpt><trkpt lat="44.72737" lon="3.53856"></trkpt><trkpt lat="44.72757" lon="3.53867"></trkpt><trkpt lat="44.72775" lon="3.53873"></trkpt><trkpt lat="44.72784" lon="3.53874"></trkpt><trkpt lat="44.72796" lon="3.53868"></trkpt><trkpt lat="44.72807" lon="3.53857"></trkpt><trkpt lat="44.72809" lon="3.53855"></trkpt><trkpt lat="44.72812" lon="3.53849"></trkpt><trkpt lat="44.72812" lon="3.53842"></trkpt><trkpt lat="44.72811" lon="3.53836"></trkpt><trkpt lat="44.72787" lon="3.53795"></trkpt><trkpt lat="44.72782" lon="3.53784"></trkpt><trkpt lat="44.72766" lon="3.53729"></trkpt><trkpt lat="44.72758" lon="3.53712"></trkpt><trkpt lat="44.7275" lon="3.537"></trkpt><trkpt lat="44.7275" lon="3.537"></trkpt><trkpt lat="44.72749" lon="3.53699"></trkpt><trkpt lat="44.72737" lon="3.5364"></trkpt><trkpt lat="44.72703" lon="3.53568"></trkpt><trkpt lat="44.72679" lon="3.53532"></trkpt><trkpt lat="44.72665" lon="3.53516"></trkpt><trkpt lat="44.72644" lon="3.53483"></trkpt><trkpt lat="44.72636" lon="3.53479"></trkpt><trkpt lat="44.72586" lon="3.53469"></trkpt><trkpt lat="44.72578" lon="3.53465"></trkpt><trkpt lat="44.72572" lon="3.53456"></trkpt><trkpt lat="44.72567" lon="3.53443"></trkpt><trkpt lat="44.72562" lon="3.53406"></trkpt><trkpt lat="44.72556" lon="3.53367"></trkpt><trkpt lat="44.72528" lon="3.5329"></trkpt><trkpt lat="44.72502" lon="3.53252"></trkpt><trkpt lat="44.72481" lon="3.5319"></trkpt><trkpt lat="44.7248" lon="3.53171"></trkpt><trkpt lat="44.72482" lon="3.53157"></trkpt><trkpt lat="44.72491" lon="3.53132"></trkpt><trkpt lat="44.725" lon="3.53095"></trkpt><trkpt lat="44.72509" lon="3.53071"></trkpt><trkpt lat="44.72515" lon="3.53039"></trkpt><trkpt lat="44.72522" lon="3.5302"></trkpt><trkpt lat="44.72532" lon="3.53009"></trkpt><trkpt lat="44.72541" lon="3.53004"></trkpt><trkpt lat="44.7255" lon="3.53003"></trkpt><trkpt lat="44.72577" lon="3.53005"></trkpt><trkpt lat="44.72589" lon="3.53001"></trkpt><trkpt lat="44.72594" lon="3.52991"></trkpt><trkpt lat="44.72594" lon="3.52979"></trkpt><trkpt lat="44.72585" lon="3.52921"></trkpt><trkpt lat="44.7258" lon="3.52912"></trkpt><trkpt lat="44.72561" lon="3.529"></trkpt><trkpt lat="44.72551" lon="3.52899"></trkpt><trkpt lat="44.72541" lon="3.52895"></trkpt><trkpt lat="44.72536" lon="3.52888"></trkpt><trkpt lat="44.72516" lon="3.52818"></trkpt><trkpt lat="44.72506" lon="3.52799"></trkpt><trkpt lat="44.72495" lon="3.52788"></trkpt><trkpt lat="44.72469" lon="3.52773"></trkpt><trkpt lat="44.72435" lon="3.52743"></trkpt><trkpt lat="44.72421" lon="3.52743"></trkpt><trkpt lat="44.72392" lon="3.52736"></trkpt><trkpt lat="44.72376" lon="3.52723"></trkpt><trkpt lat="44.72348" lon="3.52708"></trkpt><trkpt lat="44.72327" lon="3.52699"></trkpt><trkpt lat="44.72305" lon="3.52664"></trkpt><trkpt lat="44.72288" lon="3.52592"></trkpt><trkpt lat="44.72286" lon="3.52583"></trkpt><trkpt lat="44.72276" lon="3.52551"></trkpt><trkpt lat="44.72258" lon="3.52505"></trkpt><trkpt lat="44.72242" lon="3.5246"></trkpt><trkpt lat="44.7222" lon="3.52385"></trkpt><trkpt lat="44.72189" lon="3.52322"></trkpt><trkpt lat="44.72182" lon="3.52299"></trkpt><trkpt lat="44.72179" lon="3.52272"></trkpt><trkpt lat="44.72179" lon="3.52237"></trkpt><trkpt lat="44.72179" lon="3.52196"></trkpt><trkpt lat="44.72184" lon="3.52139"></trkpt><trkpt lat="44.72188" lon="3.52057"></trkpt><trkpt lat="44.72185" lon="3.52042"></trkpt><trkpt lat="44.72177" lon="3.5202"></trkpt><trkpt lat="44.72173" lon="3.52017"></trkpt><trkpt lat="44.72153" lon="3.51991"></trkpt><trkpt lat="44.72133" lon="3.51977"></trkpt><trkpt lat="44.72091" lon="3.51956"></trkpt><trkpt lat="44.72072" lon="3.51952"></trkpt><trkpt lat="44.72067" lon="3.5195"></trkpt><trkpt lat="44.71996" lon="3.5194"></trkpt><trkpt lat="44.71969" lon="3.51931"></trkpt><trkpt lat="44.71848" lon="3.51911"></trkpt><trkpt lat="44.71814" lon="3.5191"></trkpt><trkpt lat="44.71812" lon="3.5191"></trkpt><trkpt lat="44.71783" lon="3.51912"></trkpt><trkpt lat="44.71707" lon="3.51928"></trkpt><trkpt lat="44.71642" lon="3.51936"></trkpt><trkpt lat="44.71627" lon="3.51943"></trkpt><trkpt lat="44.71622" lon="3.51948"></trkpt><trkpt lat="44.71616" lon="3.51954"></trkpt><trkpt lat="44.71601" lon="3.51976"></trkpt><trkpt lat="44.7158" lon="3.51995"></trkpt><trkpt lat="44.71533" lon="3.52032"></trkpt><trkpt lat="44.71524" lon="3.52039"></trkpt><trkpt lat="44.71508" lon="3.5205"></trkpt><trkpt lat="44.71493" lon="3.52058"></trkpt><trkpt lat="44.71473" lon="3.52061"></trkpt><trkpt lat="44.71448" lon="3.52061"></trkpt><trkpt lat="44.71443" lon="3.52063"></trkpt><trkpt lat="44.71438" lon="3.52068"></trkpt><trkpt lat="44.71436" lon="3.52067"></trkpt><trkpt lat="44.71429" lon="3.52067"></trkpt><trkpt lat="44.71427" lon="3.52056"></trkpt><trkpt lat="44.71416" lon="3.5202"></trkpt><trkpt lat="44.71412" lon="3.52"></trkpt><trkpt lat="44.71412" lon="3.51981"></trkpt><trkpt lat="44.71411" lon="3.5197"></trkpt><trkpt lat="44.71408" lon="3.51959"></trkpt><trkpt lat="44.71399" lon="3.51947"></trkpt><trkpt lat="44.71391" lon="3.51935"></trkpt><trkpt lat="44.71387" lon="3.51929"></trkpt><trkpt lat="44.7138" lon="3.51919"></trkpt><trkpt lat="44.71367" lon="3.51895"></trkpt><trkpt lat="44.71365" lon="3.51891"></trkpt><trkpt lat="44.71363" lon="3.51884"></trkpt><trkpt lat="44.71358" lon="3.51859"></trkpt><trkpt lat="44.7136" lon="3.51833"></trkpt><trkpt lat="44.7136" lon="3.51788"></trkpt><trkpt lat="44.71354" lon="3.51753"></trkpt><trkpt lat="44.71358" lon="3.51691"></trkpt><trkpt lat="44.7136" lon="3.51678"></trkpt><trkpt lat="44.71365" lon="3.51672"></trkpt><trkpt lat="44.71369" lon="3.51672"></trkpt><trkpt lat="44.7138" lon="3.51681"></trkpt><trkpt lat="44.7139" lon="3.51696"></trkpt><trkpt lat="44.71406" lon="3.51706"></trkpt><trkpt lat="44.71414" lon="3.51708"></trkpt><trkpt lat="44.71429" lon="3.51702"></trkpt><trkpt lat="44.71455" lon="3.5167"></trkpt><trkpt lat="44.71459" lon="3.51661"></trkpt><trkpt lat="44.71462" lon="3.51647"></trkpt><trkpt lat="44.71462" lon="3.51647"></trkpt><trkpt lat="44.71463" lon="3.51642"></trkpt><trkpt lat="44.71463" lon="3.51627"></trkpt><trkpt lat="44.71453" lon="3.51517"></trkpt><trkpt lat="44.71453" lon="3.51479"></trkpt><trkpt lat="44.71455" lon="3.51464"></trkpt><trkpt lat="44.71461" lon="3.51442"></trkpt><trkpt lat="44.71474" lon="3.51408"></trkpt><trkpt lat="44.71521" lon="3.51294"></trkpt><trkpt lat="44.71541" lon="3.5126"></trkpt><trkpt lat="44.71556" lon="3.51241"></trkpt><trkpt lat="44.71573" lon="3.51213"></trkpt><trkpt lat="44.71603" lon="3.51155"></trkpt><trkpt lat="44.71637" lon="3.51078"></trkpt><trkpt lat="44.71672" lon="3.50975"></trkpt><trkpt lat="44.71676" lon="3.50951"></trkpt><trkpt lat="44.7168" lon="3.50942"></trkpt><trkpt lat="44.7168" lon="3.50938"></trkpt><trkpt lat="44.71684" lon="3.50925"></trkpt><trkpt lat="44.71693" lon="3.50908"></trkpt><trkpt lat="44.71708" lon="3.50878"></trkpt><trkpt lat="44.71723" lon="3.50852"></trkpt><trkpt lat="44.71833" lon="3.50681"></trkpt><trkpt lat="44.71884" lon="3.50595"></trkpt><trkpt lat="44.71893" lon="3.50588"></trkpt><trkpt lat="44.71905" lon="3.50582"></trkpt><trkpt lat="44.71931" lon="3.50571"></trkpt><trkpt lat="44.71943" lon="3.50562"></trkpt><trkpt lat="44.72061" lon="3.50687"></trkpt><trkpt lat="44.72126" lon="3.5076"></trkpt><trkpt lat="44.72255" lon="3.50903"></trkpt><trkpt lat="44.7227" lon="3.5092"></trkpt><trkpt lat="44.72291" lon="3.50948"></trkpt><trkpt lat="44.7232" lon="3.50978"></trkpt><trkpt lat="44.72343" lon="3.50994"></trkpt><trkpt lat="44.72379" lon="3.51011"></trkpt><trkpt lat="44.72476" lon="3.51062"></trkpt><trkpt lat="44.72632" lon="3.51157"></trkpt><trkpt lat="44.72678" lon="3.51181"></trkpt><trkpt lat="44.72722" lon="3.51209"></trkpt><trkpt lat="44.728" lon="3.5128"></trkpt><trkpt lat="44.72921" lon="3.51445"></trkpt><trkpt lat="44.72955" lon="3.5148"></trkpt><trkpt lat="44.73012" lon="3.51517"></trkpt><trkpt lat="44.73083" lon="3.51574"></trkpt><trkpt lat="44.73173" lon="3.51623"></trkpt><trkpt lat="44.73278" lon="3.51659"></trkpt><trkpt lat="44.7334" lon="3.5168"></trkpt><trkpt lat="44.73361" lon="3.51684"></trkpt><trkpt lat="44.73378" lon="3.51679"></trkpt><trkpt lat="44.73395" lon="3.51678"></trkpt><trkpt lat="44.73402" lon="3.51719"></trkpt><trkpt lat="44.73409" lon="3.5174"></trkpt><trkpt lat="44.73416" lon="3.51744"></trkpt><trkpt lat="44.73425" lon="3.51743"></trkpt><trkpt lat="44.73455" lon="3.51735"></trkpt><trkpt lat="44.73491" lon="3.51746"></trkpt><trkpt lat="44.73546" lon="3.51802"></trkpt><trkpt lat="44.73634" lon="3.5188"></trkpt><trkpt lat="44.73744" lon="3.51996"></trkpt><trkpt lat="44.73889" lon="3.52119"></trkpt><trkpt lat="44.73936" lon="3.52202"></trkpt><trkpt lat="44.74027" lon="3.52322"></trkpt><trkpt lat="44.7407" lon="3.52381"></trkpt><trkpt lat="44.74117" lon="3.52472"></trkpt><trkpt lat="44.74164" lon="3.52523"></trkpt><trkpt lat="44.74314" lon="3.52628"></trkpt><trkpt lat="44.74351" lon="3.52645"></trkpt><trkpt lat="44.74394" lon="3.52673"></trkpt><trkpt lat="44.74482" lon="3.52729"></trkpt><trkpt lat="44.74536" lon="3.52761"></trkpt><trkpt lat="44.74597" lon="3.52793"></trkpt><trkpt lat="44.74674" lon="3.52832"></trkpt><trkpt lat="44.74708" lon="3.52844"></trkpt><trkpt lat="44.74773" lon="3.52879"></trkpt><trkpt lat="44.74871" lon="3.5295"></trkpt><trkpt lat="44.74962" lon="3.53007"></trkpt><trkpt lat="44.7506" lon="3.53045"></trkpt><trkpt lat="44.75142" lon="3.53075"></trkpt><trkpt lat="44.75251" lon="3.53118"></trkpt><trkpt lat="44.75278" lon="3.5313"></trkpt><trkpt lat="44.75356" lon="3.53029"></trkpt><trkpt lat="44.75427" lon="3.52936"></trkpt><trkpt lat="44.75503" lon="3.52893"></trkpt><trkpt lat="44.75582" lon="3.52689"></trkpt><trkpt lat="44.75599" lon="3.52645"></trkpt><trkpt lat="44.75708" lon="3.52404"></trkpt><trkpt lat="44.75764" lon="3.52282"></trkpt><trkpt lat="44.75769" lon="3.52272"></trkpt><trkpt lat="44.75776" lon="3.52263"></trkpt><trkpt lat="44.75809" lon="3.52236"></trkpt><trkpt lat="44.75839" lon="3.52201"></trkpt><trkpt lat="44.75864" lon="3.52164"></trkpt><trkpt lat="44.75868" lon="3.52171"></trkpt><trkpt lat="44.75872" lon="3.52182"></trkpt><trkpt lat="44.75875" lon="3.52191"></trkpt><trkpt lat="44.75877" lon="3.522"></trkpt><trkpt lat="44.75878" lon="3.52228"></trkpt><trkpt lat="44.75878" lon="3.52239"></trkpt><trkpt lat="44.75875" lon="3.52265"></trkpt><trkpt lat="44.75872" lon="3.52347"></trkpt><trkpt lat="44.75873" lon="3.52438"></trkpt><trkpt lat="44.75873" lon="3.52438"></trkpt><trkpt lat="44.75873" lon="3.52488"></trkpt><trkpt lat="44.75876" lon="3.52532"></trkpt><trkpt lat="44.75884" lon="3.52577"></trkpt><trkpt lat="44.75902" lon="3.52634"></trkpt><trkpt lat="44.75915" lon="3.52655"></trkpt><trkpt lat="44.75924" lon="3.52668"></trkpt><trkpt lat="44.75951" lon="3.52711"></trkpt><trkpt lat="44.75974" lon="3.52758"></trkpt><trkpt lat="44.7599" lon="3.52806"></trkpt><trkpt lat="44.75998" lon="3.52853"></trkpt><trkpt lat="44.76002" lon="3.52892"></trkpt><trkpt lat="44.76015" lon="3.52926"></trkpt><trkpt lat="44.7604" lon="3.52947"></trkpt><trkpt lat="44.76067" lon="3.52957"></trkpt><trkpt lat="44.76099" lon="3.5296"></trkpt><trkpt lat="44.76128" lon="3.5296"></trkpt><trkpt lat="44.76152" lon="3.52968"></trkpt><trkpt lat="44.76156" lon="3.5297"></trkpt><trkpt lat="44.76184" lon="3.52997"></trkpt><trkpt lat="44.76225" lon="3.53054"></trkpt><trkpt lat="44.76241" lon="3.5307"></trkpt><trkpt lat="44.76261" lon="3.53084"></trkpt><trkpt lat="44.76309" lon="3.531"></trkpt><trkpt lat="44.76341" lon="3.53118"></trkpt><trkpt lat="44.76353" lon="3.53127"></trkpt><trkpt lat="44.76407" lon="3.53172"></trkpt><trkpt lat="44.76436" lon="3.53204"></trkpt><trkpt lat="44.76453" lon="3.53231"></trkpt><trkpt lat="44.76466" lon="3.53267"></trkpt><trkpt lat="44.76472" lon="3.53292"></trkpt><trkpt lat="44.76475" lon="3.53332"></trkpt><trkpt lat="44.76461" lon="3.53609"></trkpt><trkpt lat="44.76463" lon="3.53655"></trkpt><trkpt lat="44.76478" lon="3.53832"></trkpt><trkpt lat="44.76485" lon="3.53854"></trkpt><trkpt lat="44.76494" lon="3.53875"></trkpt><trkpt lat="44.76534" lon="3.53938"></trkpt><trkpt lat="44.76542" lon="3.53958"></trkpt><trkpt lat="44.76548" lon="3.53974"></trkpt><trkpt lat="44.76553" lon="3.54003"></trkpt><trkpt lat="44.7658" lon="3.53995"></trkpt><trkpt lat="44.76612" lon="3.54003"></trkpt><trkpt lat="44.76662" lon="3.54029"></trkpt><trkpt lat="44.76715" lon="3.54039"></trkpt><trkpt lat="44.76786" lon="3.54037"></trkpt><trkpt lat="44.76869" lon="3.54038"></trkpt><trkpt lat="44.76963" lon="3.54046"></trkpt><trkpt lat="44.77028" lon="3.54077"></trkpt><trkpt lat="44.77046" lon="3.54089"></trkpt><trkpt lat="44.77072" lon="3.54108"></trkpt><trkpt lat="44.77092" lon="3.5413"></trkpt><trkpt lat="44.77143" lon="3.54231"></trkpt><trkpt lat="44.77148" lon="3.54238"></trkpt><trkpt lat="44.77148" lon="3.54238"></trkpt><trkpt lat="44.77189" lon="3.54291"></trkpt><trkpt lat="44.77248" lon="3.5433"></trkpt><trkpt lat="44.77298" lon="3.54341"></trkpt><trkpt lat="44.77343" lon="3.54312"></trkpt><trkpt lat="44.7742" lon="3.54232"></trkpt><trkpt lat="44.77465" lon="3.54195"></trkpt><trkpt lat="44.77518" lon="3.54166"></trkpt><trkpt lat="44.77538" lon="3.54143"></trkpt><trkpt lat="44.77544" lon="3.54107"></trkpt><trkpt lat="44.77529" lon="3.53978"></trkpt><trkpt lat="44.77542" lon="3.53962"></trkpt><trkpt lat="44.77577" lon="3.53993"></trkpt><trkpt lat="44.77657" lon="3.54096"></trkpt><trkpt lat="44.77714" lon="3.54134"></trkpt><trkpt lat="44.77732" lon="3.54191"></trkpt><trkpt lat="44.7774" lon="3.54256"></trkpt><trkpt lat="44.77775" lon="3.54313"></trkpt><trkpt lat="44.77787" lon="3.54338"></trkpt><trkpt lat="44.77796" lon="3.54336"></trkpt><trkpt lat="44.77807" lon="3.54338"></trkpt><trkpt lat="44.77818" lon="3.54344"></trkpt><trkpt lat="44.77854" lon="3.54372"></trkpt><trkpt lat="44.77885" lon="3.5441"></trkpt><trkpt lat="44.77907" lon="3.54433"></trkpt><trkpt lat="44.77924" lon="3.54456"></trkpt><trkpt lat="44.77956" lon="3.54504"></trkpt><trkpt lat="44.7797" lon="3.54525"></trkpt><trkpt lat="44.77979" lon="3.54574"></trkpt><trkpt lat="44.77986" lon="3.54586"></trkpt><trkpt lat="44.78013" lon="3.54626"></trkpt><trkpt lat="44.7803" lon="3.54642"></trkpt><trkpt lat="44.78044" lon="3.54651"></trkpt><trkpt lat="44.78059" lon="3.54655"></trkpt><trkpt lat="44.78112" lon="3.54661"></trkpt><trkpt lat="44.78185" lon="3.54665"></trkpt><trkpt lat="44.78222" lon="3.54673"></trkpt><trkpt lat="44.78261" lon="3.54669"></trkpt><trkpt lat="44.78303" lon="3.54659"></trkpt><trkpt lat="44.78329" lon="3.54656"></trkpt><trkpt lat="44.78342" lon="3.54658"></trkpt><trkpt lat="44.78367" lon="3.54655"></trkpt><trkpt lat="44.78377" lon="3.54653"></trkpt><trkpt lat="44.78411" lon="3.5463"></trkpt><trkpt lat="44.78424" lon="3.54626"></trkpt><trkpt lat="44.78438" lon="3.54627"></trkpt><trkpt lat="44.78452" lon="3.54631"></trkpt><trkpt lat="44.78473" lon="3.54652"></trkpt><trkpt lat="44.7849" lon="3.5466"></trkpt><trkpt lat="44.78504" lon="3.54659"></trkpt><trkpt lat="44.78535" lon="3.54652"></trkpt><trkpt lat="44.786" lon="3.54645"></trkpt><trkpt lat="44.78649" lon="3.54646"></trkpt><trkpt lat="44.78677" lon="3.54648"></trkpt><trkpt lat="44.78699" lon="3.54643"></trkpt><trkpt lat="44.7876" lon="3.54612"></trkpt><trkpt lat="44.78796" lon="3.54601"></trkpt><trkpt lat="44.78825" lon="3.54585"></trkpt><trkpt lat="44.78846" lon="3.54579"></trkpt><trkpt lat="44.7888" lon="3.54564"></trkpt><trkpt lat="44.78914" lon="3.5456"></trkpt><trkpt lat="44.78929" lon="3.54565"></trkpt><trkpt lat="44.78934" lon="3.54574"></trkpt><trkpt lat="44.78922" lon="3.54588"></trkpt><trkpt lat="44.78917" lon="3.54611"></trkpt><trkpt lat="44.78914" lon="3.54673"></trkpt><trkpt lat="44.78914" lon="3.54673"></trkpt><trkpt lat="44.78912" lon="3.54716"></trkpt><trkpt lat="44.789" lon="3.54767"></trkpt><trkpt lat="44.7889" lon="3.54803"></trkpt><trkpt lat="44.78885" lon="3.54848"></trkpt><trkpt lat="44.78895" lon="3.54901"></trkpt><trkpt lat="44.78928" lon="3.54946"></trkpt><trkpt lat="44.78945" lon="3.54973"></trkpt><trkpt lat="44.78959" lon="3.55001"></trkpt><trkpt lat="44.78994" lon="3.55056"></trkpt><trkpt lat="44.79012" lon="3.55103"></trkpt><trkpt lat="44.79037" lon="3.55159"></trkpt><trkpt lat="44.79077" lon="3.55272"></trkpt><trkpt lat="44.79083" lon="3.55324"></trkpt><trkpt lat="44.7909" lon="3.5537"></trkpt><trkpt lat="44.79121" lon="3.55515"></trkpt><trkpt lat="44.79141" lon="3.55644"></trkpt><trkpt lat="44.79173" lon="3.5574"></trkpt><trkpt lat="44.7918" lon="3.55766"></trkpt><trkpt lat="44.79186" lon="3.55792"></trkpt><trkpt lat="44.79188" lon="3.55825"></trkpt><trkpt lat="44.79186" lon="3.55874"></trkpt><trkpt lat="44.79182" lon="3.55892"></trkpt><trkpt lat="44.79173" lon="3.55911"></trkpt><trkpt lat="44.79163" lon="3.55923"></trkpt><trkpt lat="44.79159" lon="3.55936"></trkpt><trkpt lat="44.7916" lon="3.55948"></trkpt><trkpt lat="44.79158" lon="3.5597"></trkpt><trkpt lat="44.79159" lon="3.5598"></trkpt><trkpt lat="44.79159" lon="3.5598"></trkpt><trkpt lat="44.79161" lon="3.56004"></trkpt><trkpt lat="44.7916" lon="3.56028"></trkpt><trkpt lat="44.79151" lon="3.5607"></trkpt><trkpt lat="44.79154" lon="3.56119"></trkpt><trkpt lat="44.79151" lon="3.5613"></trkpt><trkpt lat="44.79147" lon="3.56135"></trkpt><trkpt lat="44.7914" lon="3.56137"></trkpt><trkpt lat="44.79096" lon="3.56121"></trkpt><trkpt lat="44.79072" lon="3.56117"></trkpt><trkpt lat="44.79029" lon="3.56115"></trkpt><trkpt lat="44.79016" lon="3.56118"></trkpt><trkpt lat="44.79012" lon="3.5611"></trkpt><trkpt lat="44.79008" lon="3.56098"></trkpt><trkpt lat="44.79006" lon="3.56084"></trkpt><trkpt lat="44.79007" lon="3.56061"></trkpt><trkpt lat="44.79012" lon="3.56007"></trkpt><trkpt lat="44.79013" lon="3.5598"></trkpt><trkpt lat="44.79012" lon="3.55952"></trkpt><trkpt lat="44.79009" lon="3.55927"></trkpt><trkpt lat="44.79003" lon="3.55906"></trkpt><trkpt lat="44.78997" lon="3.55893"></trkpt><trkpt lat="44.78988" lon="3.55877"></trkpt><trkpt lat="44.78972" lon="3.55861"></trkpt><trkpt lat="44.78955" lon="3.55847"></trkpt><trkpt lat="44.78903" lon="3.55805"></trkpt><trkpt lat="44.78872" lon="3.55783"></trkpt><trkpt lat="44.78859" lon="3.55778"></trkpt><trkpt lat="44.78845" lon="3.55775"></trkpt><trkpt lat="44.78829" lon="3.55775"></trkpt><trkpt lat="44.78812" lon="3.5578"></trkpt><trkpt lat="44.78705" lon="3.55828"></trkpt><trkpt lat="44.7867" lon="3.55841"></trkpt><trkpt lat="44.78613" lon="3.55859"></trkpt><trkpt lat="44.78618" lon="3.55862"></trkpt><trkpt lat="44.78658" lon="3.55869"></trkpt><trkpt lat="44.78672" lon="3.55873"></trkpt><trkpt lat="44.78695" lon="3.55884"></trkpt><trkpt lat="44.78727" lon="3.55903"></trkpt><trkpt lat="44.78762" lon="3.55914"></trkpt><trkpt lat="44.78778" lon="3.5591"></trkpt><trkpt lat="44.78803" lon="3.55914"></trkpt><trkpt lat="44.78806" lon="3.55914"></trkpt><trkpt lat="44.78841" lon="3.55927"></trkpt><trkpt lat="44.78871" lon="3.55942"></trkpt><trkpt lat="44.78888" lon="3.55963"></trkpt><trkpt lat="44.78894" lon="3.55976"></trkpt><trkpt lat="44.78899" lon="3.55987"></trkpt><trkpt lat="44.78903" lon="3.56009"></trkpt><trkpt lat="44.78903" lon="3.56021"></trkpt><trkpt lat="44.78894" lon="3.5606"></trkpt><trkpt lat="44.78862" lon="3.56116"></trkpt><trkpt lat="44.78832" lon="3.56178"></trkpt><trkpt lat="44.78791" lon="3.56286"></trkpt><trkpt lat="44.78785" lon="3.56305"></trkpt><trkpt lat="44.78765" lon="3.56341"></trkpt><trkpt lat="44.78757" lon="3.56367"></trkpt><trkpt lat="44.78755" lon="3.5638"></trkpt><trkpt lat="44.78755" lon="3.56393"></trkpt><trkpt lat="44.78763" lon="3.56442"></trkpt><trkpt lat="44.78778" lon="3.56481"></trkpt><trkpt lat="44.78796" lon="3.56513"></trkpt><trkpt lat="44.78804" lon="3.56526"></trkpt><trkpt lat="44.78819" lon="3.56543"></trkpt><trkpt lat="44.78856" lon="3.56575"></trkpt><trkpt lat="44.78914" lon="3.56639"></trkpt><trkpt lat="44.78948" lon="3.56663"></trkpt><trkpt lat="44.78984" lon="3.56693"></trkpt><trkpt lat="44.79044" lon="3.56753"></trkpt><trkpt lat="44.79068" lon="3.5677"></trkpt><trkpt lat="44.79079" lon="3.56781"></trkpt><trkpt lat="44.79088" lon="3.56795"></trkpt><trkpt lat="44.79092" lon="3.56807"></trkpt><trkpt lat="44.791" lon="3.56886"></trkpt><trkpt lat="44.79106" lon="3.56956"></trkpt><trkpt lat="44.79107" lon="3.56965"></trkpt><trkpt lat="44.79111" lon="3.56972"></trkpt><trkpt lat="44.79108" lon="3.56976"></trkpt><trkpt lat="44.79102" lon="3.5699"></trkpt><trkpt lat="44.79086" lon="3.57052"></trkpt><trkpt lat="44.79083" lon="3.57057"></trkpt><trkpt lat="44.79081" lon="3.57066"></trkpt><trkpt lat="44.79077" lon="3.57088"></trkpt><trkpt lat="44.79076" lon="3.57117"></trkpt><trkpt lat="44.79077" lon="3.5717"></trkpt><trkpt lat="44.7908" lon="3.57224"></trkpt><trkpt lat="44.79085" lon="3.57229"></trkpt><trkpt lat="44.79091" lon="3.57239"></trkpt><trkpt lat="44.79096" lon="3.57247"></trkpt><trkpt lat="44.79087" lon="3.57257"></trkpt><trkpt lat="44.79062" lon="3.57305"></trkpt><trkpt lat="44.79027" lon="3.5738"></trkpt><trkpt lat="44.79021" lon="3.57403"></trkpt><trkpt lat="44.79019" lon="3.57476"></trkpt><trkpt lat="44.79023" lon="3.57513"></trkpt><trkpt lat="44.79023" lon="3.57549"></trkpt><trkpt lat="44.79008" lon="3.57738"></trkpt><trkpt lat="44.78991" lon="3.57832"></trkpt><trkpt lat="44.78982" lon="3.57931"></trkpt><trkpt lat="44.78974" lon="3.57991"></trkpt><trkpt lat="44.78974" lon="3.58021"></trkpt><trkpt lat="44.78977" lon="3.58042"></trkpt><trkpt lat="44.7898" lon="3.5806"></trkpt><trkpt lat="44.78979" lon="3.58067"></trkpt><trkpt lat="44.78976" lon="3.58071"></trkpt><trkpt lat="44.78956" lon="3.58096"></trkpt><trkpt lat="44.78944" lon="3.58111"></trkpt><trkpt lat="44.78862" lon="3.58298"></trkpt><trkpt lat="44.78759" lon="3.58543"></trkpt><trkpt lat="44.78746" lon="3.58568"></trkpt><trkpt lat="44.78738" lon="3.58594"></trkpt><trkpt lat="44.78723" lon="3.58624"></trkpt><trkpt lat="44.78688" lon="3.58731"></trkpt><trkpt lat="44.78639" lon="3.58869"></trkpt><trkpt lat="44.78626" lon="3.58918"></trkpt><trkpt lat="44.78583" lon="3.59025"></trkpt><trkpt lat="44.78525" lon="3.59189"></trkpt><trkpt lat="44.78515" lon="3.5924"></trkpt><trkpt lat="44.78512" lon="3.59262"></trkpt><trkpt lat="44.78516" lon="3.59321"></trkpt><trkpt lat="44.78514" lon="3.59341"></trkpt><trkpt lat="44.78496" lon="3.59448"></trkpt><trkpt lat="44.78493" lon="3.59504"></trkpt><trkpt lat="44.78491" lon="3.59534"></trkpt><trkpt lat="44.78485" lon="3.59548"></trkpt><trkpt lat="44.78476" lon="3.59559"></trkpt><trkpt lat="44.78464" lon="3.5957"></trkpt><trkpt lat="44.78407" lon="3.59595"></trkpt><trkpt lat="44.78397" lon="3.59604"></trkpt><trkpt lat="44.78388" lon="3.59619"></trkpt><trkpt lat="44.78382" lon="3.59632"></trkpt><trkpt lat="44.78388" lon="3.59636"></trkpt><trkpt lat="44.78396" lon="3.59648"></trkpt><trkpt lat="44.78403" lon="3.5967"></trkpt><trkpt lat="44.78431" lon="3.59728"></trkpt><trkpt lat="44.7847" lon="3.59769"></trkpt><trkpt lat="44.78497" lon="3.59813"></trkpt><trkpt lat="44.78502" lon="3.5983"></trkpt><trkpt lat="44.78506" lon="3.59846"></trkpt><trkpt lat="44.78504" lon="3.59873"></trkpt><trkpt lat="44.78506" lon="3.59906"></trkpt><trkpt lat="44.78506" lon="3.59918"></trkpt><trkpt lat="44.78506" lon="3.59928"></trkpt><trkpt lat="44.78503" lon="3.59946"></trkpt><trkpt lat="44.78505" lon="3.59993"></trkpt><trkpt lat="44.78501" lon="3.60019"></trkpt><trkpt lat="44.78485" lon="3.6007"></trkpt><trkpt lat="44.78483" lon="3.60085"></trkpt><trkpt lat="44.78485" lon="3.601"></trkpt><trkpt lat="44.78489" lon="3.60116"></trkpt><trkpt lat="44.785" lon="3.60136"></trkpt><trkpt lat="44.78513" lon="3.60153"></trkpt><trkpt lat="44.78522" lon="3.60165"></trkpt><trkpt lat="44.78533" lon="3.60185"></trkpt><trkpt lat="44.78542" lon="3.6021"></trkpt><trkpt lat="44.78564" lon="3.6027"></trkpt><trkpt lat="44.78586" lon="3.60323"></trkpt><trkpt lat="44.78606" lon="3.60398"></trkpt><trkpt lat="44.78625" lon="3.60532"></trkpt><trkpt lat="44.7863" lon="3.60558"></trkpt><trkpt lat="44.78641" lon="3.60597"></trkpt><trkpt lat="44.78667" lon="3.60727"></trkpt><trkpt lat="44.78679" lon="3.60778"></trkpt><trkpt lat="44.78681" lon="3.60799"></trkpt><trkpt lat="44.78681" lon="3.60816"></trkpt><trkpt lat="44.7868" lon="3.60855"></trkpt><trkpt lat="44.78683" lon="3.6089"></trkpt><trkpt lat="44.78689" lon="3.60921"></trkpt><trkpt lat="44.78697" lon="3.61013"></trkpt><trkpt lat="44.78708" lon="3.61069"></trkpt><trkpt lat="44.78711" lon="3.61193"></trkpt><trkpt lat="44.78712" lon="3.61228"></trkpt><trkpt lat="44.78718" lon="3.61288"></trkpt><trkpt lat="44.78722" lon="3.61353"></trkpt><trkpt lat="44.78715" lon="3.61456"></trkpt><trkpt lat="44.78715" lon="3.61498"></trkpt><trkpt lat="44.78712" lon="3.6151"></trkpt><trkpt lat="44.78705" lon="3.61523"></trkpt><trkpt lat="44.7863" lon="3.61606"></trkpt><trkpt lat="44.7862" lon="3.61624"></trkpt><trkpt lat="44.78616" lon="3.61643"></trkpt><trkpt lat="44.78618" lon="3.61661"></trkpt><trkpt lat="44.7864" lon="3.61726"></trkpt><trkpt lat="44.78642" lon="3.61729"></trkpt><trkpt lat="44.78648" lon="3.61738"></trkpt><trkpt lat="44.78714" lon="3.61782"></trkpt><trkpt lat="44.78726" lon="3.61792"></trkpt><trkpt lat="44.78742" lon="3.61849"></trkpt><trkpt lat="44.78743" lon="3.61858"></trkpt><trkpt lat="44.78742" lon="3.61867"></trkpt><trkpt lat="44.78735" lon="3.61885"></trkpt><trkpt lat="44.78729" lon="3.61908"></trkpt><trkpt lat="44.78723" lon="3.61956"></trkpt><trkpt lat="44.78724" lon="3.61969"></trkpt><trkpt lat="44.78732" lon="3.62015"></trkpt><trkpt lat="44.78734" lon="3.62059"></trkpt><trkpt lat="44.78743" lon="3.6212"></trkpt><trkpt lat="44.78751" lon="3.62146"></trkpt><trkpt lat="44.78753" lon="3.62153"></trkpt><trkpt lat="44.78751" lon="3.62162"></trkpt><trkpt lat="44.78749" lon="3.62177"></trkpt><trkpt lat="44.78749" lon="3.62209"></trkpt><trkpt lat="44.78745" lon="3.62232"></trkpt><trkpt lat="44.78747" lon="3.62245"></trkpt><trkpt lat="44.78751" lon="3.62257"></trkpt><trkpt lat="44.78752" lon="3.62267"></trkpt><trkpt lat="44.78751" lon="3.62281"></trkpt><trkpt lat="44.78746" lon="3.62307"></trkpt><trkpt lat="44.78743" lon="3.62315"></trkpt><trkpt lat="44.78736" lon="3.62325"></trkpt><trkpt lat="44.78731" lon="3.6234"></trkpt><trkpt lat="44.78727" lon="3.62358"></trkpt><trkpt lat="44.78725" lon="3.62378"></trkpt><trkpt lat="44.78725" lon="3.62404"></trkpt><trkpt lat="44.78725" lon="3.6243"></trkpt><trkpt lat="44.78724" lon="3.62459"></trkpt><trkpt lat="44.78721" lon="3.62483"></trkpt><trkpt lat="44.78717" lon="3.62496"></trkpt><trkpt lat="44.78713" lon="3.62504"></trkpt><trkpt lat="44.78696" lon="3.62531"></trkpt><trkpt lat="44.78687" lon="3.62558"></trkpt><trkpt lat="44.78681" lon="3.62576"></trkpt><trkpt lat="44.78674" lon="3.62592"></trkpt><trkpt lat="44.7866" lon="3.62612"></trkpt><trkpt lat="44.78644" lon="3.62626"></trkpt><trkpt lat="44.78616" lon="3.62641"></trkpt><trkpt lat="44.78605" lon="3.6265"></trkpt><trkpt lat="44.786" lon="3.62657"></trkpt><trkpt lat="44.78592" lon="3.6267"></trkpt><trkpt lat="44.78564" lon="3.62725"></trkpt><trkpt lat="44.78549" lon="3.62768"></trkpt><trkpt lat="44.78545" lon="3.62787"></trkpt><trkpt lat="44.78544" lon="3.62797"></trkpt><trkpt lat="44.78544" lon="3.62797"></trkpt><trkpt lat="44.78543" lon="3.62806"></trkpt><trkpt lat="44.78544" lon="3.62848"></trkpt><trkpt lat="44.78548" lon="3.62874"></trkpt><trkpt lat="44.7855" lon="3.62881"></trkpt><trkpt lat="44.78543" lon="3.62886"></trkpt><trkpt lat="44.78537" lon="3.62892"></trkpt><trkpt lat="44.78531" lon="3.62905"></trkpt><trkpt lat="44.7853" lon="3.62907"></trkpt><trkpt lat="44.78528" lon="3.62912"></trkpt><trkpt lat="44.78527" lon="3.62922"></trkpt><trkpt lat="44.78525" lon="3.62949"></trkpt><trkpt lat="44.78532" lon="3.63065"></trkpt><trkpt lat="44.78538" lon="3.63127"></trkpt><trkpt lat="44.78543" lon="3.63128"></trkpt><trkpt lat="44.78547" lon="3.63134"></trkpt><trkpt lat="44.78561" lon="3.63162"></trkpt><trkpt lat="44.78567" lon="3.63175"></trkpt><trkpt lat="44.78599" lon="3.63225"></trkpt><trkpt lat="44.78609" lon="3.63238"></trkpt><trkpt lat="44.78617" lon="3.63255"></trkpt><trkpt lat="44.78623" lon="3.63283"></trkpt><trkpt lat="44.78625" lon="3.6329"></trkpt><trkpt lat="44.78622" lon="3.63294"></trkpt><trkpt lat="44.78618" lon="3.63303"></trkpt><trkpt lat="44.78615" lon="3.63325"></trkpt><trkpt lat="44.78614" lon="3.63336"></trkpt><trkpt lat="44.78605" lon="3.63338"></trkpt><trkpt lat="44.78598" lon="3.6334"></trkpt><trkpt lat="44.78592" lon="3.63339"></trkpt><trkpt lat="44.78587" lon="3.63341"></trkpt><trkpt lat="44.78564" lon="3.63343"></trkpt><trkpt lat="44.78559" lon="3.63343"></trkpt><trkpt lat="44.78547" lon="3.63343"></trkpt><trkpt lat="44.78503" lon="3.63341"></trkpt><trkpt lat="44.78488" lon="3.63344"></trkpt><trkpt lat="44.78478" lon="3.63347"></trkpt><trkpt lat="44.78465" lon="3.63354"></trkpt><trkpt lat="44.78437" lon="3.63376"></trkpt><trkpt lat="44.78417" lon="3.63395"></trkpt><trkpt lat="44.78403" lon="3.63408"></trkpt><trkpt lat="44.78396" lon="3.63412"></trkpt><trkpt lat="44.78389" lon="3.63418"></trkpt><trkpt lat="44.78392" lon="3.63429"></trkpt><trkpt lat="44.7839" lon="3.63434"></trkpt><trkpt lat="44.78376" lon="3.63443"></trkpt><trkpt lat="44.78355" lon="3.6345"></trkpt><trkpt lat="44.78347" lon="3.63451"></trkpt><trkpt lat="44.78339" lon="3.63448"></trkpt><trkpt lat="44.78332" lon="3.63447"></trkpt><trkpt lat="44.78324" lon="3.63444"></trkpt><trkpt lat="44.78318" lon="3.63444"></trkpt><trkpt lat="44.7831" lon="3.63443"></trkpt><trkpt lat="44.78245" lon="3.63434"></trkpt><trkpt lat="44.7823" lon="3.63433"></trkpt><trkpt lat="44.78221" lon="3.63431"></trkpt><trkpt lat="44.78213" lon="3.63423"></trkpt><trkpt lat="44.78198" lon="3.63411"></trkpt><trkpt lat="44.7819" lon="3.63403"></trkpt><trkpt lat="44.78184" lon="3.63393"></trkpt><trkpt lat="44.78181" lon="3.63384"></trkpt><trkpt lat="44.78173" lon="3.6337"></trkpt><trkpt lat="44.78166" lon="3.63365"></trkpt><trkpt lat="44.78123" lon="3.63356"></trkpt>
</trkseg>
</trk>

</gpx>