<?xml version="1.0" encoding="UTF-8"?>
<gpx xmlns="http://www.topografix.com/GPX/1/1" xmlns:xsi="http://www.w3.org/2001/XMLSchema-instance" xsi:schemaLocation="http://www.topografix.com/GPX/1/1 http://www.topografix.com/GPX/1/1/gpx.xsd" version="1.1" creator="gpx.py -- https://github.com/tkrajina/gpxpy">
  <trk>
    <name>[Itinéraire] Gravel N°12 - Petite boucle au cœur  du Larzac</name>
    <desc>&lt;ol&gt;
&lt;li&gt;Depuis la mairie, suivre la rue de la Vierge puis la route de la Tune.&lt;/li&gt;
&lt;li&gt;Quitter la route en empruntant la 2&amp;egrave;me piste &amp;agrave; droite apr&amp;egrave;s le coll&amp;egrave;ge. Elle passe &amp;agrave; proximit&amp;eacute; de l'a&amp;eacute;rodrome et non loin de la Carri&amp;egrave;re du Cavet.&lt;/li&gt;
&lt;li&gt;Tourner &amp;agrave; gauche sur la route pour rejoindre le centre de la Cavalerie.&lt;/li&gt;
&lt;/ol&gt;
&lt;p&gt;&lt;br&gt;60% de routes et 40% de chemins&lt;br&gt;Temps de roulage en fonction votre niveau : 30min &amp;agrave; 45min&lt;/p&gt;Modifié: 6 jours</desc>
    <trkseg>
      <trkpt lat="44.00870113921291" lon="3.158303976015304">
        <ele>802.0</ele>
      </trkpt>
      <trkpt lat="44.00858539089677" lon="3.158486366228318">
        <ele>802.0</ele>
      </trkpt>
      <trkpt lat="44.00841176799906" lon="3.1585882901708833">
        <ele>802.0</ele>
      </trkpt>
      <trkpt lat="44.00826515271184" lon="3.158674120859359">
        <ele>802.0</ele>
      </trkpt>
      <trkpt lat="44.0082034198509" lon="3.158802866892075">
        <ele>802.0</ele>
      </trkpt>
      <trkpt lat="44.00811853706222" lon="3.158979892687058">
        <ele>801.0</ele>
      </trkpt>
      <trkpt lat="44.008079953936296" lon="3.159124731973862">
        <ele>801.0</ele>
      </trkpt>
      <trkpt lat="44.00803365415204" lon="3.1592320203344575">
        <ele>801.0</ele>
      </trkpt>
      <trkpt lat="44.00789861290828" lon="3.1593983172933813">
        <ele>801.0</ele>
      </trkpt>
      <trkpt lat="44.007740421345964" lon="3.1595699786703326">
        <ele>800.0</ele>
      </trkpt>
      <trkpt lat="44.00755907927993" lon="3.159741640047286">
        <ele>800.0</ele>
      </trkpt>
      <trkpt lat="44.00739702845394" lon="3.1598489284078823">
        <ele>800.0</ele>
      </trkpt>
      <trkpt lat="44.00727356086084" lon="3.1599776744405976">
        <ele>799.0</ele>
      </trkpt>
      <trkpt lat="44.00718481836951" lon="3.1601922511617886">
        <ele>799.0</ele>
      </trkpt>
      <trkpt lat="44.007165526506" lon="3.160444378809189">
        <ele>799.0</ele>
      </trkpt>
      <trkpt lat="44.00722726044714" lon="3.160626769022201">
        <ele>799.0</ele>
      </trkpt>
      <trkpt lat="44.00731600287495" lon="3.160862803415512">
        <ele>799.0</ele>
      </trkpt>
      <trkpt lat="44.00737387829981" lon="3.1610773801367027">
        <ele>798.0</ele>
      </trkpt>
      <trkpt lat="44.007381595188775" lon="3.1612704991596265">
        <ele>798.0</ele>
      </trkpt>
      <trkpt lat="44.00738931173688" lon="3.1614636182348486">
        <ele>798.0</ele>
      </trkpt>
      <trkpt lat="44.00736423259928" lon="3.1616755128402683">
        <ele>798.0</ele>
      </trkpt>
      <trkpt lat="44.00733915305165" lon="3.1618874072592007">
        <ele>797.0</ele>
      </trkpt>
      <trkpt lat="44.00731407379826" lon="3.1620429754505235">
        <ele>797.0</ele>
      </trkpt>
      <trkpt lat="44.00728899432401" lon="3.1621985435049287">
        <ele>797.0</ele>
      </trkpt>
      <trkpt lat="44.007265844288774" lon="3.1623889804223415">
        <ele>797.0</ele>
      </trkpt>
      <trkpt lat="44.007242693922365" lon="3.162579417185043">
        <ele>797.0</ele>
      </trkpt>
      <trkpt lat="44.00721182707017" lon="3.162734985392162">
        <ele>797.0</ele>
      </trkpt>
      <trkpt lat="44.007180959997285" lon="3.1628905534307714">
        <ele>797.0</ele>
      </trkpt>
      <trkpt lat="44.00708450061075" lon="3.1631319522421104">
        <ele>797.0</ele>
      </trkpt>
      <trkpt lat="44.00697646591162" lon="3.1632875203649746">
        <ele>797.0</ele>
      </trkpt>
      <trkpt lat="44.00692437778966" lon="3.1634564996873524">
        <ele>797.0</ele>
      </trkpt>
      <trkpt lat="44.00687228940823" lon="3.1636254787008515">
        <ele>798.0</ele>
      </trkpt>
      <trkpt lat="44.00682791807227" lon="3.163840055589102">
        <ele>798.0</ele>
      </trkpt>
      <trkpt lat="44.00678354631658" lon="3.1640546321432343">
        <ele>799.0</ele>
      </trkpt>
      <trkpt lat="44.0066832278792" lon="3.1642906665365444">
        <ele>799.0</ele>
      </trkpt>
      <trkpt lat="44.00660991814459" lon="3.1644569634954682">
        <ele>799.0</ele>
      </trkpt>
      <trkpt lat="44.00651731642493" lon="3.1646929982722884">
        <ele>799.0</ele>
      </trkpt>
      <trkpt lat="44.00642471420093" lon="3.164929032282089">
        <ele>800.0</ele>
      </trkpt>
      <trkpt lat="44.00636876716171" lon="3.1650953294042585">
        <ele>800.0</ele>
      </trkpt>
      <trkpt lat="44.00631281987145" lon="3.1652616261999347">
        <ele>800.0</ele>
      </trkpt>
      <trkpt lat="44.006185491584596" lon="3.165476202921127">
        <ele>800.0</ele>
      </trkpt>
      <trkpt lat="44.00610639358684" lon="3.1655995847070475">
        <ele>800.0</ele>
      </trkpt>
      <trkpt lat="44.00602729545353" lon="3.165722966150497">
        <ele>799.0</ele>
      </trkpt>
      <trkpt lat="44.00593276341562" lon="3.165851712396757">
        <ele>799.0</ele>
      </trkpt>
      <trkpt lat="44.00583823123129" lon="3.1659804582159268">
        <ele>799.0</ele>
      </trkpt>
      <trkpt lat="44.00568775111352" lon="3.1661950349371186">
        <ele>799.0</ele>
      </trkpt>
      <trkpt lat="44.00556427996258" lon="3.1664525270025474">
        <ele>799.0</ele>
      </trkpt>
      <trkpt lat="44.005496756624325" lon="3.166597366460951">
        <ele>798.0</ele>
      </trkpt>
      <trkpt lat="44.0054292330969" lon="3.166742205576156">
        <ele>798.0</ele>
      </trkpt>
      <trkpt lat="44.00532505415107" lon="3.1669675119570817">
        <ele>798.0</ele>
      </trkpt>
      <trkpt lat="44.00522087474741" lon="3.1671928175143336">
        <ele>799.0</ele>
      </trkpt>
      <trkpt lat="44.005116694885935" lon="3.167418122247909">
        <ele>799.0</ele>
      </trkpt>
      <trkpt lat="44.00504724175715" lon="3.1675441862252307">
        <ele>799.0</ele>
      </trkpt>
      <trkpt lat="44.00497778848585" lon="3.1676702498953087">
        <ele>799.0</ele>
      </trkpt>
      <trkpt lat="44.004896759763234" lon="3.167888760855541">
        <ele>799.0</ele>
      </trkpt>
      <trkpt lat="44.004815730607895" lon="3.168107271194457">
        <ele>800.0</ele>
      </trkpt>
      <trkpt lat="44.00480029665114" lon="3.1682896614568627">
        <ele>800.0</ele>
      </trkpt>
      <trkpt lat="44.004784862390444" lon="3.168472051620484">
        <ele>800.0</ele>
      </trkpt>
      <trkpt lat="44.004773287035626" lon="3.1686973572234938">
        <ele>801.0</ele>
      </trkpt>
      <trkpt lat="44.004761711216865" lon="3.1689226627349862">
        <ele>801.0</ele>
      </trkpt>
      <trkpt lat="44.004761707508365" lon="3.1689229257289697">
        <ele>801.0</ele>
      </trkpt>
      <trkpt lat="44.004757853029034" lon="3.1691962480730265">
        <ele>801.0</ele>
      </trkpt>
      <trkpt lat="44.004753994157" lon="3.1694698333740234">
        <ele>801.0</ele>
      </trkpt>
      <trkpt lat="44.004715409113984" lon="3.169719278981283">
        <ele>801.0</ele>
      </trkpt>
      <trkpt lat="44.00467682350302" lon="3.1699687242507935">
        <ele>801.0</ele>
      </trkpt>
      <trkpt lat="44.00465367279492" lon="3.1702065469766536">
        <ele>801.0</ele>
      </trkpt>
      <trkpt lat="44.004630521570135" lon="3.1704443695093096">
        <ele>801.0</ele>
      </trkpt>
      <trkpt lat="44.00460736982865" lon="3.1706821918487544">
        <ele>801.0</ele>
      </trkpt>
      <trkpt lat="44.00456685532834" lon="3.1708887220897135">
        <ele>801.0</ele>
      </trkpt>
      <trkpt lat="44.00452634043907" lon="3.171095252037048">
        <ele>801.0</ele>
      </trkpt>
      <trkpt lat="44.00447810897742" lon="3.1713876130670826">
        <ele>802.0</ele>
      </trkpt>
      <trkpt lat="44.00442987673577" lon="3.171679973602295">
        <ele>802.0</ele>
      </trkpt>
      <trkpt lat="44.004397079422205" lon="3.171972334553158">
        <ele>802.0</ele>
      </trkpt>
      <trkpt lat="44.0043642813279" lon="3.1722646951675415">
        <ele>802.0</ele>
      </trkpt>
      <trkpt lat="44.00432106691404" lon="3.1725500830722893">
        <ele>802.0</ele>
      </trkpt>
      <trkpt lat="44.00427785175677" lon="3.1728354705442636">
        <ele>802.0</ele>
      </trkpt>
      <trkpt lat="44.00423463585604" lon="3.1731208575834535">
        <ele>802.0</ele>
      </trkpt>
      <trkpt lat="44.00419141921189" lon="3.173406244189857">
        <ele>802.0</ele>
      </trkpt>
      <trkpt lat="44.00414820182432" lon="3.1736916303634644">
        <ele>801.0</ele>
      </trkpt>
      <trkpt lat="44.00411861983493" lon="3.173900842883802">
        <ele>801.0</ele>
      </trkpt>
      <trkpt lat="44.00408903744594" lon="3.1741100551869654">
        <ele>801.0</ele>
      </trkpt>
      <trkpt lat="44.00405945465732" lon="3.174319267272949">
        <ele>801.0</ele>
      </trkpt>
      <trkpt lat="44.004023762931816" lon="3.1744801999146226">
        <ele>801.0</ele>
      </trkpt>
      <trkpt lat="44.00398807097029" lon="3.174641132354737">
        <ele>802.0</ele>
      </trkpt>
      <trkpt lat="44.0039166871971" lon="3.1746381705306703">
        <ele>802.0</ele>
      </trkpt>
      <trkpt lat="44.00373340389301" lon="3.1747347303657194">
        <ele>802.0</ele>
      </trkpt>
      <trkpt lat="44.00355012052287" lon="3.174831289579743">
        <ele>803.0</ele>
      </trkpt>
      <trkpt lat="44.00340735170189" lon="3.174927849346153">
        <ele>803.0</ele>
      </trkpt>
      <trkpt lat="44.0032645828073" lon="3.1750244086288157">
        <ele>804.0</ele>
      </trkpt>
      <trkpt lat="44.003145929841764" lon="3.175137061641959">
        <ele>805.0</ele>
      </trkpt>
      <trkpt lat="44.00302727676824" lon="3.1752497141860663">
        <ele>805.0</ele>
      </trkpt>
      <trkpt lat="44.0028700368354" lon="3.1754441748761195">
        <ele>806.0</ele>
      </trkpt>
      <trkpt lat="44.002712796571" lon="3.1756386344932257">
        <ele>807.0</ele>
      </trkpt>
      <trkpt lat="44.00257259824204" lon="3.1758094026406063">
        <ele>808.0</ele>
      </trkpt>
      <trkpt lat="44.002432399657756" lon="3.1759801699478882">
        <ele>808.0</ele>
      </trkpt>
      <trkpt lat="44.00229220081815" lon="3.1761509364150724">
        <ele>809.0</ele>
      </trkpt>
      <trkpt lat="44.002184800537805" lon="3.176310081416382">
        <ele>810.0</ele>
      </trkpt>
      <trkpt lat="44.00207740003254" lon="3.176469225817931">
        <ele>810.0</ele>
      </trkpt>
      <trkpt lat="44.00196999930236" lon="3.176628369619723">
        <ele>811.0</ele>
      </trkpt>
      <trkpt lat="44.00184893210279" lon="3.1767933265252846">
        <ele>812.0</ele>
      </trkpt>
      <trkpt lat="44.001727864662875" lon="3.1769582827300815">
        <ele>813.0</ele>
      </trkpt>
      <trkpt lat="44.0016067969826" lon="3.177123238234113">
        <ele>814.0</ele>
      </trkpt>
      <trkpt lat="44.00148572906198" lon="3.177288193037384">
        <ele>814.0</ele>
      </trkpt>
      <trkpt lat="44.00134006137737" lon="3.1775067936307706">
        <ele>815.0</ele>
      </trkpt>
      <trkpt lat="44.001194393268044" lon="3.1777253931068126">
        <ele>815.0</ele>
      </trkpt>
      <trkpt lat="44.00110757105426" lon="3.1778340227373865">
        <ele>816.0</ele>
      </trkpt>
      <trkpt lat="44.001020748736906" lon="3.177942652037019">
        <ele>816.0</ele>
      </trkpt>
      <trkpt lat="44.00091270297158" lon="3.178074080527884">
        <ele>816.0</ele>
      </trkpt>
      <trkpt lat="44.000804657055035" lon="3.1782055085204775">
        <ele>815.0</ele>
      </trkpt>
      <trkpt lat="44.00070432847694" lon="3.1783181614973945">
        <ele>815.0</ele>
      </trkpt>
      <trkpt lat="44.000603999788595" lon="3.178430814077729">
        <ele>814.0</ele>
      </trkpt>
      <trkpt lat="44.000457365120795" lon="3.1785823592769358">
        <ele>813.0</ele>
      </trkpt>
      <trkpt lat="44.00031073025534" lon="3.1787339036964117">
        <ele>813.0</ele>
      </trkpt>
      <trkpt lat="44.000140941837444" lon="3.1788961778251945">
        <ele>812.0</ele>
      </trkpt>
      <trkpt lat="43.99997115319531" lon="3.179058450987213">
        <ele>811.0</ele>
      </trkpt>
      <trkpt lat="43.99985538775707" lon="3.179138917421087">
        <ele>811.0</ele>
      </trkpt>
      <trkpt lat="43.999739622267306" lon="3.1792193835281073">
        <ele>810.0</ele>
      </trkpt>
      <trkpt lat="43.99956983213271" lon="3.1793105789062666">
        <ele>810.0</ele>
      </trkpt>
      <trkpt lat="43.99940004193861" lon="3.1794017737411204">
        <ele>810.0</ele>
      </trkpt>
      <trkpt lat="43.999314181841704" lon="3.1795291788612414">
        <ele>810.0</ele>
      </trkpt>
      <trkpt lat="43.99922832160065" lon="3.1796565835975352">
        <ele>810.0</ele>
      </trkpt>
      <trkpt lat="43.999139567063224" lon="3.1797692365515724">
        <ele>810.0</ele>
      </trkpt>
      <trkpt lat="43.999050812414296" lon="3.1798818891547866">
        <ele>810.0</ele>
      </trkpt>
      <trkpt lat="43.998940833607044" lon="3.180015999864291">
        <ele>810.0</ele>
      </trkpt>
      <trkpt lat="43.9988308546423" lon="3.1801501100562746">
        <ele>810.0</ele>
      </trkpt>
      <trkpt lat="43.99866877997278" lon="3.1802627628349014">
        <ele>811.0</ele>
      </trkpt>
      <trkpt lat="43.99854336474604" lon="3.180300313761109">
        <ele>811.0</ele>
      </trkpt>
      <trkpt lat="43.998419878725365" lon="3.180367368986481">
        <ele>811.0</ele>
      </trkpt>
      <trkpt lat="43.99828095664489" lon="3.1804853861831357">
        <ele>811.0</ele>
      </trkpt>
      <trkpt lat="43.99815554059848" lon="3.1806034033797923">
        <ele>812.0</ele>
      </trkpt>
      <trkpt lat="43.99799539356915" lon="3.1807911580108343">
        <ele>812.0</ele>
      </trkpt>
      <trkpt lat="43.99784360703309" lon="3.1809404684411833">
        <ele>812.0</ele>
      </trkpt>
      <trkpt lat="43.9976918203064" lon="3.1810897780763434">
        <ele>812.0</ele>
      </trkpt>
      <trkpt lat="43.99754003338913" lon="3.181239086916321">
        <ele>812.0</ele>
      </trkpt>
      <trkpt lat="43.9974107566109" lon="3.181359786869473">
        <ele>812.0</ele>
      </trkpt>
      <trkpt lat="43.997281479709066" lon="3.1814804862751433">
        <ele>812.0</ele>
      </trkpt>
      <trkpt lat="43.99715220268364" lon="3.181601185133332">
        <ele>812.0</ele>
      </trkpt>
      <trkpt lat="43.99697179279808" lon="3.1817272493560225">
        <ele>812.0</ele>
      </trkpt>
      <trkpt lat="43.996791382785894" lon="3.181853312780732">
        <ele>812.0</ele>
      </trkpt>
      <trkpt lat="43.996619654692545" lon="3.181959260356003">
        <ele>812.0</ele>
      </trkpt>
      <trkpt lat="43.99644792651346" lon="3.1820652072929083">
        <ele>812.0</ele>
      </trkpt>
      <trkpt lat="43.99634855532034" lon="3.182157743665238">
        <ele>812.0</ele>
      </trkpt>
      <trkpt lat="43.99624918405457" lon="3.1822502797149355">
        <ele>812.0</ele>
      </trkpt>
      <trkpt lat="43.996117975076196" lon="3.1823790257476503">
        <ele>812.0</ele>
      </trkpt>
      <trkpt lat="43.996023427250094" lon="3.1825775092147532">
        <ele>811.0</ele>
      </trkpt>
      <trkpt lat="43.99597904760632" lon="3.1827974503539744">
        <ele>811.0</ele>
      </trkpt>
      <trkpt lat="43.99596939985327" lon="3.1830978577636437">
        <ele>811.0</ele>
      </trkpt>
      <trkpt lat="43.99597711819425" lon="3.1832722013260044">
        <ele>811.0</ele>
      </trkpt>
      <trkpt lat="43.99598483625737" lon="3.1834465449355775">
        <ele>811.0</ele>
      </trkpt>
      <trkpt lat="43.995992554583836" lon="3.1836128418719842">
        <ele>811.0</ele>
      </trkpt>
      <trkpt lat="43.9960002726575" lon="3.1837791388534247">
        <ele>810.0</ele>
      </trkpt>
      <trkpt lat="43.99601892543065" lon="3.1840053383323137">
        <ele>810.0</ele>
      </trkpt>
      <trkpt lat="43.996037577736196" lon="3.1842315379592367">
        <ele>810.0</ele>
      </trkpt>
      <trkpt lat="43.996056229574194" lon="3.184457737734192">
        <ele>811.0</ele>
      </trkpt>
      <trkpt lat="43.99607359604252" lon="3.184701818605828">
        <ele>811.0</ele>
      </trkpt>
      <trkpt lat="43.996090961966345" lon="3.1849458996261837">
        <ele>811.0</ele>
      </trkpt>
      <trkpt lat="43.996108327345695" lon="3.1851899807952577">
        <ele>811.0</ele>
      </trkpt>
      <trkpt lat="43.996128909592926" lon="3.185407239568574">
        <ele>811.0</ele>
      </trkpt>
      <trkpt lat="43.996149491408865" lon="3.18562449849878">
        <ele>811.0</ele>
      </trkpt>
      <trkpt lat="43.996170072793525" lon="3.1858417575858766">
        <ele>811.0</ele>
      </trkpt>
      <trkpt lat="43.99620094572824" lon="3.1860724274362267">
        <ele>811.0</ele>
      </trkpt>
      <trkpt lat="43.996231818177044" lon="3.186303097536441">
        <ele>811.0</ele>
      </trkpt>
      <trkpt lat="43.99624821946392" lon="3.186502922050554">
        <ele>811.0</ele>
      </trkpt>
      <trkpt lat="43.996264620385915" lon="3.1867027466796567">
        <ele>811.0</ele>
      </trkpt>
      <trkpt lat="43.996258831762155" lon="3.186903912355775">
        <ele>811.0</ele>
      </trkpt>
      <trkpt lat="43.99621252275157" lon="3.187207001974457">
        <ele>811.0</ele>
      </trkpt>
      <trkpt lat="43.99617586218872" lon="3.187500257203965">
        <ele>811.0</ele>
      </trkpt>
      <trkpt lat="43.99613920084043" lon="3.187793512056264">
        <ele>811.0</ele>
      </trkpt>
      <trkpt lat="43.99610253870668" lon="3.1880867665313426">
        <ele>811.0</ele>
      </trkpt>
      <trkpt lat="43.996075525424125" lon="3.188375104137086">
        <ele>811.0</ele>
      </trkpt>
      <trkpt lat="43.996048511381915" lon="3.1886634414695436">
        <ele>811.0</ele>
      </trkpt>
      <trkpt lat="43.99603211045248" lon="3.1888900881965125">
        <ele>811.0</ele>
      </trkpt>
      <trkpt lat="43.99601570905359" lon="3.1891167347930596">
        <ele>812.0</ele>
      </trkpt>
      <trkpt lat="43.996046582106786" lon="3.1893648389925646">
        <ele>812.0</ele>
      </trkpt>
      <trkpt lat="43.99607745459773" lon="3.189612943460815">
        <ele>812.0</ele>
      </trkpt>
      <trkpt lat="43.99613534120108" lon="3.189843613201851">
        <ele>812.0</ele>
      </trkpt>
      <trkpt lat="43.996193227319885" lon="3.1900742834113767">
        <ele>812.0</ele>
      </trkpt>
      <trkpt lat="43.996194606470745" lon="3.1900799861686546">
        <ele>812.0</ele>
      </trkpt>
      <trkpt lat="43.996244038968534" lon="3.1902843894096384">
        <ele>813.0</ele>
      </trkpt>
      <trkpt lat="43.99629485021509" lon="3.190494495782473">
        <ele>813.0</ele>
      </trkpt>
      <trkpt lat="43.996345661059514" lon="3.1907046025298778">
        <ele>813.0</ele>
      </trkpt>
      <trkpt lat="43.99640612037567" lon="3.1909468948969204">
        <ele>813.0</ele>
      </trkpt>
      <trkpt lat="43.99646657915719" lon="3.1911891877779337">
        <ele>814.0</ele>
      </trkpt>
      <trkpt lat="43.99652703740413" lon="3.1914314811729145">
        <ele>814.0</ele>
      </trkpt>
      <trkpt lat="43.99658621028795" lon="3.191696125246277">
        <ele>815.0</ele>
      </trkpt>
      <trkpt lat="43.99664538253349" lon="3.19196076986908">
        <ele>815.0</ele>
      </trkpt>
      <trkpt lat="43.99670455414074" lon="3.192225415041321">
        <ele>816.0</ele>
      </trkpt>
      <trkpt lat="43.99676244035012" lon="3.1924569786159656">
        <ele>816.0</ele>
      </trkpt>
      <trkpt lat="43.99682032607121" lon="3.1926885426609193">
        <ele>817.0</ele>
      </trkpt>
      <trkpt lat="43.99687821130399" lon="3.192920107176179">
        <ele>817.0</ele>
      </trkpt>
      <trkpt lat="43.99692580646542" lon="3.193119484380004">
        <ele>818.0</ele>
      </trkpt>
      <trkpt lat="43.996973401264746" lon="3.193318861916779">
        <ele>818.0</ele>
      </trkpt>
      <trkpt lat="43.99702099570196" lon="3.1935182397864996">
        <ele>819.0</ele>
      </trkpt>
      <trkpt lat="43.99708531348052" lon="3.1937882482180093">
        <ele>819.0</ele>
      </trkpt>
      <trkpt lat="43.99714963059494" lon="3.194058257258842">
        <ele>819.0</ele>
      </trkpt>
      <trkpt lat="43.99721394704523" lon="3.194328266908996">
        <ele>819.0</ele>
      </trkpt>
      <trkpt lat="43.99726475782328" lon="3.194539266975335">
        <ele>819.0</ele>
      </trkpt>
      <trkpt lat="43.99731556819581" lon="3.1947502674178407">
        <ele>818.0</ele>
      </trkpt>
      <trkpt lat="43.99736637816277" lon="3.1949612682365114">
        <ele>818.0</ele>
      </trkpt>
      <trkpt lat="43.99741847478402" lon="3.195213395883914">
        <ele>818.0</ele>
      </trkpt>
      <trkpt lat="43.99743776981735" lon="3.1954413836501785">
        <ele>818.0</ele>
      </trkpt>
      <trkpt lat="43.99743005180479" lon="3.1956130450271294">
        <ele>818.0</ele>
      </trkpt>
      <trkpt lat="43.99745706484438" lon="3.1957659309409783">
        <ele>818.0</ele>
      </trkpt>
      <trkpt lat="43.99751302038734" lon="3.196066338350648">
        <ele>818.0</ele>
      </trkpt>
      <trkpt lat="43.99755739888385" lon="3.1963265126250917">
        <ele>818.0</ele>
      </trkpt>
      <trkpt lat="43.997607565839964" lon="3.1964555382728586">
        <ele>818.0</ele>
      </trkpt>
      <trkpt lat="43.99769439316375" lon="3.196498453617097">
        <ele>818.0</ele>
      </trkpt>
      <trkpt lat="43.997896989758374" lon="3.1965735554695134">
        <ele>818.0</ele>
      </trkpt>
      <trkpt lat="43.99805520757035" lon="3.1966862082481384">
        <ele>818.0</ele>
      </trkpt>
      <trkpt lat="43.99822114287108" lon="3.1967586278915405">
        <ele>818.0</ele>
      </trkpt>
      <trkpt lat="43.99841216084041" lon="3.19674789905548">
        <ele>818.0</ele>
      </trkpt>
      <trkpt lat="43.9986147549844" lon="3.1967559456825256">
        <ele>817.0</ele>
      </trkpt>
      <trkpt lat="43.99875560574353" lon="3.1967720389366163">
        <ele>816.0</ele>
      </trkpt>
      <trkpt lat="43.99889742075664" lon="3.1968605516138884">
        <ele>816.0</ele>
      </trkpt>
      <trkpt lat="43.99903923570966" lon="3.1969490647315983">
        <ele>815.0</ele>
      </trkpt>
      <trkpt lat="43.999189732552786" lon="3.1970617172127858">
        <ele>814.0</ele>
      </trkpt>
      <trkpt lat="43.99934022929288" lon="3.197174370288849">
        <ele>813.0</ele>
      </trkpt>
      <trkpt lat="43.9993404263579" lon="3.197174521312071">
        <ele>812.0</ele>
      </trkpt>
      <trkpt lat="43.999490725511926" lon="3.1972897052764884">
        <ele>812.0</ele>
      </trkpt>
      <trkpt lat="43.99964508021182" lon="3.1973862648010254">
        <ele>811.0</ele>
      </trkpt>
      <trkpt lat="43.99973190455404" lon="3.1973782181739825">
        <ele>811.0</ele>
      </trkpt>
      <trkpt lat="43.99979943451016" lon="3.1973487138748165">
        <ele>810.0</ele>
      </trkpt>
      <trkpt lat="43.999880470356054" lon="3.1973031163215637">
        <ele>810.0</ele>
      </trkpt>
      <trkpt lat="43.9999344941918" lon="3.197238743305206">
        <ele>810.0</ele>
      </trkpt>
      <trkpt lat="43.999996235658145" lon="3.197142183780672">
        <ele>809.0</ele>
      </trkpt>
      <trkpt lat="44.00003675346052" lon="3.1970858573913574">
        <ele>809.0</ele>
      </trkpt>
      <trkpt lat="44.0000907771542" lon="3.1969541495345775">
        <ele>809.0</ele>
      </trkpt>
      <trkpt lat="44.00017953025811" lon="3.1967717593215648">
        <ele>809.0</ele>
      </trkpt>
      <trkpt lat="44.00028564792544" lon="3.196554500391358">
        <ele>809.0</ele>
      </trkpt>
      <trkpt lat="44.00036282429158" lon="3.196297008325929">
        <ele>809.0</ele>
      </trkpt>
      <trkpt lat="44.00041974196148" lon="3.1960918195411874">
        <ele>809.0</ele>
      </trkpt>
      <trkpt lat="44.000476659248356" lon="3.1958866303466507">
        <ele>809.0</ele>
      </trkpt>
      <trkpt lat="44.0005355061414" lon="3.195721674662539">
        <ele>809.0</ele>
      </trkpt>
      <trkpt lat="44.00059435278764" lon="3.1955567186378184">
        <ele>809.0</ele>
      </trkpt>
      <trkpt lat="44.000661881762134" lon="3.195406514932984">
        <ele>809.0</ele>
      </trkpt>
      <trkpt lat="44.000713975489695" lon="3.195374608039856">
        <ele>809.0</ele>
      </trkpt>
      <trkpt lat="44.0007216933178" lon="3.195143938095808">
        <ele>809.0</ele>
      </trkpt>
      <trkpt lat="44.000729410659545" lon="3.1949132680892944">
        <ele>809.0</ele>
      </trkpt>
      <trkpt lat="44.000729410802776" lon="3.194736242294313">
        <ele>809.0</ele>
      </trkpt>
      <trkpt lat="44.000729410659545" lon="3.194559216499329">
        <ele>809.0</ele>
      </trkpt>
      <trkpt lat="44.00071140338332" lon="3.1943428515020806">
        <ele>809.0</ele>
      </trkpt>
      <trkpt lat="44.00069339567932" lon="3.194126486641546">
        <ele>809.0</ele>
      </trkpt>
      <trkpt lat="44.000675387547574" lon="3.1939101219177255">
        <ele>809.0</ele>
      </trkpt>
      <trkpt lat="44.00066188195275" lon="3.193704932879466">
        <ele>809.0</ele>
      </trkpt>
      <trkpt lat="44.00064837597316" lon="3.1934997439384447">
        <ele>809.0</ele>
      </trkpt>
      <trkpt lat="44.00064162334063" lon="3.193259686203171">
        <ele>809.0</ele>
      </trkpt>
      <trkpt lat="44.00063487018133" lon="3.1930196285247794">
        <ele>809.0</ele>
      </trkpt>
      <trkpt lat="44.000656093717474" lon="3.192835897275672">
        <ele>809.0</ele>
      </trkpt>
      <trkpt lat="44.00067731694528" lon="3.1926521658897395">
        <ele>809.0</ele>
      </trkpt>
      <trkpt lat="44.00071494032991" lon="3.1924684346934953">
        <ele>809.0</ele>
      </trkpt>
      <trkpt lat="44.00075256340675" lon="3.1922847032546993">
        <ele>809.0</ele>
      </trkpt>
      <trkpt lat="44.000796939573775" lon="3.192129135252952">
        <ele>809.0</ele>
      </trkpt>
      <trkpt lat="44.00084131552068" lon="3.1919735670089713">
        <ele>809.0</ele>
      </trkpt>
      <trkpt lat="44.00089147982596" lon="3.191793859163134">
        <ele>809.0</ele>
      </trkpt>
      <trkpt lat="44.00094164383742" lon="3.1916141510009757">
        <ele>809.0</ele>
      </trkpt>
      <trkpt lat="44.00100531377554" lon="3.191422373270638">
        <ele>809.0</ele>
      </trkpt>
      <trkpt lat="44.00106898337975" lon="3.1912305951118465">
        <ele>809.0</ele>
      </trkpt>
      <trkpt lat="44.00111914751539" lon="3.19103747623274">
        <ele>809.0</ele>
      </trkpt>
      <trkpt lat="44.001169311311514" lon="3.190844357013703">
        <ele>809.0</ele>
      </trkpt>
      <trkpt lat="44.00119825218107" lon="3.1906579435818188">
        <ele>809.0</ele>
      </trkpt>
      <trkpt lat="44.001227192733424" lon="3.1904715299606323">
        <ele>809.0</ele>
      </trkpt>
      <trkpt lat="44.001246486746034" lon="3.1902515888958614">
        <ele>809.0</ele>
      </trkpt>
      <trkpt lat="44.00126578031665" lon="3.1900316476821895">
        <ele>809.0</ele>
      </trkpt>
      <trkpt lat="44.001277356780534" lon="3.1898251176299905">
        <ele>809.0</ele>
      </trkpt>
      <trkpt lat="44.00128893285456" lon="3.189618587493897">
        <ele>809.0</ele>
      </trkpt>
      <trkpt lat="44.00128700359313" lon="3.1894589960521085">
        <ele>809.0</ele>
      </trkpt>
      <trkpt lat="44.001285074098845" lon="3.1892994046211243">
        <ele>809.0</ele>
      </trkpt>
      <trkpt lat="44.0012522746654" lon="3.189100921154021">
        <ele>809.0</ele>
      </trkpt>
      <trkpt lat="44.001161593784325" lon="3.188883662223815">
        <ele>809.0</ele>
      </trkpt>
      <trkpt lat="44.001080559708356" lon="3.1887535749016473">
        <ele>809.0</ele>
      </trkpt>
      <trkpt lat="44.000999525481475" lon="3.1886234879493704">
        <ele>809.0</ele>
      </trkpt>
      <trkpt lat="44.00092942461794" lon="3.188433050640881">
        <ele>809.0</ele>
      </trkpt>
      <trkpt lat="44.00085932342567" lon="3.188242613800825">
        <ele>809.0</ele>
      </trkpt>
      <trkpt lat="44.0007892219047" lon="3.188052177429199">
        <ele>809.0</ele>
      </trkpt>
      <trkpt lat="44.00073905772543" lon="3.1878979502751084">
        <ele>809.0</ele>
      </trkpt>
      <trkpt lat="44.00068889333016" lon="3.1877437233924866">
        <ele>809.0</ele>
      </trkpt>
      <trkpt lat="44.000671528752" lon="3.1874915957450884">
        <ele>809.0</ele>
      </trkpt>
      <trkpt lat="44.00073326945137" lon="3.1872797012329115">
        <ele>810.0</ele>
      </trkpt>
      <trkpt lat="44.00080562181107" lon="3.187128156615938">
        <ele>810.0</ele>
      </trkpt>
      <trkpt lat="44.0008779739638" lon="3.1869766116142273">
        <ele>810.0</ele>
      </trkpt>
      <trkpt lat="44.000994702014935" lon="3.186814338301151">
        <ele>810.0</ele>
      </trkpt>
      <trkpt lat="44.00111142983313" lon="3.1866520643234244">
        <ele>810.0</ele>
      </trkpt>
      <trkpt lat="44.00123008680881" lon="3.1864844266089785">
        <ele>811.0</ele>
      </trkpt>
      <trkpt lat="44.001348743535665" lon="3.1863167881965624">
        <ele>811.0</ele>
      </trkpt>
      <trkpt lat="44.00144521223906" lon="3.186192065688464">
        <ele>811.0</ele>
      </trkpt>
      <trkpt lat="44.00154168080558" lon="3.186067342758178">
        <ele>811.0</ele>
      </trkpt>
      <trkpt lat="44.00166708969457" lon="3.1858661770820635">
        <ele>812.0</ele>
      </trkpt>
      <trkpt lat="44.00177320470126" lon="3.1856033205986014">
        <ele>812.0</ele>
      </trkpt>
      <trkpt lat="44.00182143885547" lon="3.185426294953427">
        <ele>812.0</ele>
      </trkpt>
      <trkpt lat="44.00186967272449" lon="3.1852492690086374">
        <ele>812.0</ele>
      </trkpt>
      <trkpt lat="44.00191597752505" lon="3.18502798694468">
        <ele>812.0</ele>
      </trkpt>
      <trkpt lat="44.00196228187923" lon="3.1848067045211805">
        <ele>812.0</ele>
      </trkpt>
      <trkpt lat="44.002000869146606" lon="3.1846109033956496">
        <ele>812.0</ele>
      </trkpt>
      <trkpt lat="44.002039456064374" lon="3.184415102005004">
        <ele>812.0</ele>
      </trkpt>
      <trkpt lat="44.002110842096485" lon="3.184162974357605">
        <ele>812.0</ele>
      </trkpt>
      <trkpt lat="44.00212627690279" lon="3.1839054822921753">
        <ele>812.0</ele>
      </trkpt>
      <trkpt lat="44.00212241848584" lon="3.183656036836903">
        <ele>812.0</ele>
      </trkpt>
      <trkpt lat="44.002118559500076" lon="3.1834065914154057">
        <ele>812.0</ele>
      </trkpt>
      <trkpt lat="44.00215907618088" lon="3.1831330062903658">
        <ele>812.0</ele>
      </trkpt>
      <trkpt lat="44.00219959217841" lon="3.1828594207763667">
        <ele>812.0</ele>
      </trkpt>
      <trkpt lat="44.002243967318236" lon="3.1826689840845743">
        <ele>812.0</ele>
      </trkpt>
      <trkpt lat="44.00228834212767" lon="3.1824785470962516">
        <ele>811.0</ele>
      </trkpt>
      <trkpt lat="44.002326929173535" lon="3.18228811038512">
        <ele>811.0</ele>
      </trkpt>
      <trkpt lat="44.00236551588872" lon="3.182097673416137">
        <ele>811.0</ele>
      </trkpt>
      <trkpt lat="44.00236165746927" lon="3.1818562745884544">
        <ele>811.0</ele>
      </trkpt>
      <trkpt lat="44.002357798517146" lon="3.1816148757934566">
        <ele>811.0</ele>
      </trkpt>
      <trkpt lat="44.002338505280605" lon="3.1814056634194765">
        <ele>810.0</ele>
      </trkpt>
      <trkpt lat="44.00231921164417" lon="3.181196451187134">
        <ele>810.0</ele>
      </trkpt>
      <trkpt lat="44.00232499982404" lon="3.181016743201385">
        <ele>810.0</ele>
      </trkpt>
      <trkpt lat="44.002330787708715" lon="3.1808370351791377">
        <ele>809.0</ele>
      </trkpt>
      <trkpt lat="44.00238866852017" lon="3.1805849080438118">
        <ele>809.0</ele>
      </trkpt>
      <trkpt lat="44.002446548752474" lon="3.180332780396411">
        <ele>808.0</ele>
      </trkpt>
      <trkpt lat="44.002504247094855" lon="3.1800814420449615">
        <ele>807.0</ele>
      </trkpt>
      <trkpt lat="44.002504428405594" lon="3.1800806522369394">
        <ele>807.0</ele>
      </trkpt>
      <trkpt lat="44.00255330551898" lon="3.1798231606131275">
        <ele>806.0</ele>
      </trkpt>
      <trkpt lat="44.00260218202766" lon="3.1795656685476965">
        <ele>805.0</ele>
      </trkpt>
      <trkpt lat="44.002651057931615" lon="3.17930817604065">
        <ele>804.0</ele>
      </trkpt>
      <trkpt lat="44.00270700950074" lon="3.1790372737279475">
        <ele>804.0</ele>
      </trkpt>
      <trkpt lat="44.002762960400794" lon="3.1787663708833733">
        <ele>803.0</ele>
      </trkpt>
      <trkpt lat="44.002818910631774" lon="3.1784954675069326">
        <ele>802.0</ele>
      </trkpt>
      <trkpt lat="44.00287486019368" lon="3.178224563598633">
        <ele>802.0</ele>
      </trkpt>
      <trkpt lat="44.002930168097436" lon="3.17796170762531">
        <ele>801.0</ele>
      </trkpt>
      <trkpt lat="44.00298547537135" lon="3.1776988511418494">
        <ele>801.0</ele>
      </trkpt>
      <trkpt lat="44.00304078201538" lon="3.177435994148255">
        <ele>801.0</ele>
      </trkpt>
      <trkpt lat="44.00313242524493" lon="3.1771972786974128">
        <ele>801.0</ele>
      </trkpt>
      <trkpt lat="44.00322406795835" lon="3.176958562478915">
        <ele>800.0</ele>
      </trkpt>
      <trkpt lat="44.003315710155675" lon="3.176719845492762">
        <ele>800.0</ele>
      </trkpt>
      <trkpt lat="44.00340735183688" lon="3.176481127738953">
        <ele>800.0</ele>
      </trkpt>
      <trkpt lat="44.00348452448787" lon="3.1762593990608337">
        <ele>800.0</ele>
      </trkpt>
      <trkpt lat="44.00356169669286" lon="3.176037669782269">
        <ele>800.0</ele>
      </trkpt>
      <trkpt lat="44.00363886845184" lon="3.1758159399032593">
        <ele>800.0</ele>
      </trkpt>
      <trkpt lat="44.00372182862112" lon="3.175547719392179">
        <ele>800.0</ele>
      </trkpt>
      <trkpt lat="44.00380478813671" lon="3.1752794981002803">
        <ele>800.0</ele>
      </trkpt>
      <trkpt lat="44.00386588282634" lon="3.1750667099746184">
        <ele>800.0</ele>
      </trkpt>
      <trkpt lat="44.003926977104186" lon="3.1748539213927693">
        <ele>800.0</ele>
      </trkpt>
      <trkpt lat="44.00398807097029" lon="3.174641132354737">
        <ele>801.0</ele>
      </trkpt>
      <trkpt lat="44.004023762931816" lon="3.1744801999146226">
        <ele>801.0</ele>
      </trkpt>
      <trkpt lat="44.00405945465732" lon="3.174319267272949">
        <ele>801.0</ele>
      </trkpt>
      <trkpt lat="44.00408903744594" lon="3.1741100551869654">
        <ele>801.0</ele>
      </trkpt>
      <trkpt lat="44.00411861983493" lon="3.173900842883802">
        <ele>801.0</ele>
      </trkpt>
      <trkpt lat="44.00414820182432" lon="3.1736916303634644">
        <ele>801.0</ele>
      </trkpt>
      <trkpt lat="44.00419141921189" lon="3.173406244189857">
        <ele>802.0</ele>
      </trkpt>
      <trkpt lat="44.00423463585604" lon="3.1731208575834535">
        <ele>802.0</ele>
      </trkpt>
      <trkpt lat="44.00427785175677" lon="3.1728354705442636">
        <ele>802.0</ele>
      </trkpt>
      <trkpt lat="44.00432106691404" lon="3.1725500830722893">
        <ele>802.0</ele>
      </trkpt>
      <trkpt lat="44.0043642813279" lon="3.1722646951675415">
        <ele>802.0</ele>
      </trkpt>
      <trkpt lat="44.004397079422205" lon="3.171972334553158">
        <ele>802.0</ele>
      </trkpt>
      <trkpt lat="44.00442987673577" lon="3.171679973602295">
        <ele>802.0</ele>
      </trkpt>
      <trkpt lat="44.00447810897742" lon="3.1713876130670826">
        <ele>802.0</ele>
      </trkpt>
      <trkpt lat="44.00452634043907" lon="3.171095252037048">
        <ele>801.0</ele>
      </trkpt>
      <trkpt lat="44.00456685532834" lon="3.1708887220897135">
        <ele>801.0</ele>
      </trkpt>
      <trkpt lat="44.00460736982865" lon="3.1706821918487544">
        <ele>801.0</ele>
      </trkpt>
      <trkpt lat="44.004630521570135" lon="3.1704443695093096">
        <ele>801.0</ele>
      </trkpt>
      <trkpt lat="44.00465367279492" lon="3.1702065469766536">
        <ele>801.0</ele>
      </trkpt>
      <trkpt lat="44.00467682350302" lon="3.1699687242507935">
        <ele>801.0</ele>
      </trkpt>
      <trkpt lat="44.004715409113984" lon="3.169719278981283">
        <ele>801.0</ele>
      </trkpt>
      <trkpt lat="44.004753994157" lon="3.1694698333740234">
        <ele>801.0</ele>
      </trkpt>
      <trkpt lat="44.004757853029034" lon="3.1691962480730265">
        <ele>801.0</ele>
      </trkpt>
      <trkpt lat="44.004761711216865" lon="3.1689226627349862">
        <ele>801.0</ele>
      </trkpt>
      <trkpt lat="44.004773287035626" lon="3.1686973572234938">
        <ele>801.0</ele>
      </trkpt>
      <trkpt lat="44.004784862390444" lon="3.168472051620484">
        <ele>800.0</ele>
      </trkpt>
      <trkpt lat="44.00480029665114" lon="3.1682896614568627">
        <ele>800.0</ele>
      </trkpt>
      <trkpt lat="44.004815730607895" lon="3.168107271194457">
        <ele>800.0</ele>
      </trkpt>
      <trkpt lat="44.004896759763234" lon="3.167888760855541">
        <ele>799.0</ele>
      </trkpt>
      <trkpt lat="44.00497778848585" lon="3.1676702498953087">
        <ele>799.0</ele>
      </trkpt>
      <trkpt lat="44.00504724175715" lon="3.1675441862252307">
        <ele>799.0</ele>
      </trkpt>
      <trkpt lat="44.005116694885935" lon="3.167418122247909">
        <ele>799.0</ele>
      </trkpt>
      <trkpt lat="44.00522087474741" lon="3.1671928175143336">
        <ele>799.0</ele>
      </trkpt>
      <trkpt lat="44.00532505415107" lon="3.1669675119570817">
        <ele>798.0</ele>
      </trkpt>
      <trkpt lat="44.0054292330969" lon="3.166742205576156">
        <ele>798.0</ele>
      </trkpt>
      <trkpt lat="44.005496756624325" lon="3.166597366460951">
        <ele>798.0</ele>
      </trkpt>
      <trkpt lat="44.00556427996258" lon="3.1664525270025474">
        <ele>799.0</ele>
      </trkpt>
      <trkpt lat="44.00568775111352" lon="3.1661950349371186">
        <ele>799.0</ele>
      </trkpt>
      <trkpt lat="44.00583823123129" lon="3.1659804582159268">
        <ele>799.0</ele>
      </trkpt>
      <trkpt lat="44.00593276341562" lon="3.165851712396757">
        <ele>799.0</ele>
      </trkpt>
      <trkpt lat="44.00602729545353" lon="3.165722966150497">
        <ele>799.0</ele>
      </trkpt>
      <trkpt lat="44.00610639358684" lon="3.1655995847070475">
        <ele>800.0</ele>
      </trkpt>
      <trkpt lat="44.006185491584596" lon="3.165476202921127">
        <ele>800.0</ele>
      </trkpt>
      <trkpt lat="44.00631281987145" lon="3.1652616261999347">
        <ele>800.0</ele>
      </trkpt>
      <trkpt lat="44.00636876716171" lon="3.1650953294042585">
        <ele>800.0</ele>
      </trkpt>
      <trkpt lat="44.00642471420093" lon="3.164929032282089">
        <ele>800.0</ele>
      </trkpt>
      <trkpt lat="44.00651731642493" lon="3.1646929982722884">
        <ele>799.0</ele>
      </trkpt>
      <trkpt lat="44.00660991814459" lon="3.1644569634954682">
        <ele>799.0</ele>
      </trkpt>
      <trkpt lat="44.0066832278792" lon="3.1642906665365444">
        <ele>799.0</ele>
      </trkpt>
      <trkpt lat="44.00678354631658" lon="3.1640546321432343">
        <ele>799.0</ele>
      </trkpt>
      <trkpt lat="44.00682791807227" lon="3.163840055589102">
        <ele>798.0</ele>
      </trkpt>
      <trkpt lat="44.00687228940823" lon="3.1636254787008515">
        <ele>798.0</ele>
      </trkpt>
      <trkpt lat="44.00692437778966" lon="3.1634564996873524">
        <ele>797.0</ele>
      </trkpt>
      <trkpt lat="44.00697646591162" lon="3.1632875203649746">
        <ele>797.0</ele>
      </trkpt>
      <trkpt lat="44.00708450061075" lon="3.1631319522421104">
        <ele>797.0</ele>
      </trkpt>
      <trkpt lat="44.007180959997285" lon="3.1628905534307714">
        <ele>797.0</ele>
      </trkpt>
      <trkpt lat="44.00721182707017" lon="3.162734985392162">
        <ele>797.0</ele>
      </trkpt>
      <trkpt lat="44.007242693922365" lon="3.162579417185043">
        <ele>797.0</ele>
      </trkpt>
      <trkpt lat="44.007265844288774" lon="3.1623889804223415">
        <ele>797.0</ele>
      </trkpt>
      <trkpt lat="44.00728899432401" lon="3.1621985435049287">
        <ele>797.0</ele>
      </trkpt>
      <trkpt lat="44.00731407379826" lon="3.1620429754505235">
        <ele>797.0</ele>
      </trkpt>
      <trkpt lat="44.00733915305165" lon="3.1618874072592007">
        <ele>797.0</ele>
      </trkpt>
      <trkpt lat="44.00736423259928" lon="3.1616755128402683">
        <ele>798.0</ele>
      </trkpt>
      <trkpt lat="44.00738931173688" lon="3.1614636182348486">
        <ele>798.0</ele>
      </trkpt>
      <trkpt lat="44.007381595188775" lon="3.1612704991596265">
        <ele>798.0</ele>
      </trkpt>
      <trkpt lat="44.00737387829981" lon="3.1610773801367027">
        <ele>798.0</ele>
      </trkpt>
      <trkpt lat="44.00731600287495" lon="3.160862803415512">
        <ele>799.0</ele>
      </trkpt>
      <trkpt lat="44.00722726044714" lon="3.160626769022201">
        <ele>799.0</ele>
      </trkpt>
      <trkpt lat="44.007165526506" lon="3.160444378809189">
        <ele>799.0</ele>
      </trkpt>
      <trkpt lat="44.00718481836951" lon="3.1601922511617886">
        <ele>799.0</ele>
      </trkpt>
      <trkpt lat="44.00727356086084" lon="3.1599776744405976">
        <ele>799.0</ele>
      </trkpt>
      <trkpt lat="44.00739702845394" lon="3.1598489284078823">
        <ele>800.0</ele>
      </trkpt>
      <trkpt lat="44.00755907927993" lon="3.159741640047286">
        <ele>800.0</ele>
      </trkpt>
      <trkpt lat="44.007740421345964" lon="3.1595699786703326">
        <ele>800.0</ele>
      </trkpt>
      <trkpt lat="44.00789861290828" lon="3.1593983172933813">
        <ele>801.0</ele>
      </trkpt>
      <trkpt lat="44.00803365415204" lon="3.1592320203344575">
        <ele>801.0</ele>
      </trkpt>
      <trkpt lat="44.008079953936296" lon="3.159124731973862">
        <ele>801.0</ele>
      </trkpt>
      <trkpt lat="44.00811853706222" lon="3.158979892687058">
        <ele>801.0</ele>
      </trkpt>
      <trkpt lat="44.0082034198509" lon="3.158802866892075">
        <ele>802.0</ele>
      </trkpt>
      <trkpt lat="44.00826515271184" lon="3.158674120859359">
        <ele>802.0</ele>
      </trkpt>
      <trkpt lat="44.00841176799906" lon="3.1585882901708833">
        <ele>802.0</ele>
      </trkpt>
      <trkpt lat="44.00858539089677" lon="3.158486366228318">
        <ele>802.0</ele>
      </trkpt>
      <trkpt lat="44.00870113921291" lon="3.158303976015304">
        <ele>802.0</ele>
      </trkpt>
    </trkseg>
  </trk>
</gpx>