<?xml version="1.0" encoding="UTF-8"?>
<gpx xmlns="http://www.topografix.com/GPX/1/1" xmlns:xsi="http://www.w3.org/2001/XMLSchema-instance" xsi:schemaLocation="http://www.topografix.com/GPX/1/1 http://www.topografix.com/GPX/1/1/gpx.xsd" version="1.1" creator="gpx.py -- https://github.com/tkrajina/gpxpy">
  <trk>
    <name>[Itinéraire] Gravel N°18 - Initiation Gravel sur la voie verte</name>
    <desc>&lt;ol&gt;
&lt;li&gt;Au d&amp;eacute;part de la station service v&amp;eacute;los, prendre la voie verte en direction de Saint-Jean d'Alcapi&amp;egrave;s. Vous arpentez alors une belle piste ombrag&amp;eacute;e id&amp;eacute;ale pour se mettre en jambes.&lt;/li&gt;
&lt;li&gt;Apr&amp;egrave;s un petit d&amp;eacute;tour dans les ruelles du village pour ceux qui le souhaitent, faites demi tour pour entamer votre redescente vers Saint-Affrique.&lt;/li&gt;
&lt;li&gt;Au carrefour, descendre sur votre gauche, puis passer sous la voie verte afin de rejoindre le monotrace qui vous m&amp;egrave;nera jusqu'&amp;agrave; Vailhauzy. Soyez vigilant au passage sur la travers&amp;eacute;e de la RD999, puis suivre progressivement la direction de Saint-Affrique via une alternance de petites routes et de monotrace.&lt;/li&gt;
&lt;/ol&gt;
&lt;br /&gt;5% de routes et 95% de chemins&lt;br /&gt;Points sensibles :&lt;br /&gt;Km 9,5 : petite descente pierreuse&lt;br /&gt;Km 9,75 : singletrack&lt;br /&gt;Km 10,7 : travers&amp;eacute;e de route d&amp;eacute;partementale&lt;br /&gt;&lt;br /&gt;Temps de roulage en fonction votre niveau : 45min &amp;agrave; 1h15Modifié: 6 jours</desc>
    <trkseg>
      <trkpt lat="43.95095080992254" lon="2.893871332713505">
        <ele>327.0</ele>
      </trkpt>
      <trkpt lat="43.95092458834794" lon="2.893841717846254">
        <ele>327.0</ele>
      </trkpt>
      <trkpt lat="43.95090074472418" lon="2.8938088026201196">
        <ele>327.0</ele>
      </trkpt>
      <trkpt lat="43.95083549280756" lon="2.8938031196594247">
        <ele>327.0</ele>
      </trkpt>
      <trkpt lat="43.95063659764318" lon="2.8939130902290353">
        <ele>327.0</ele>
      </trkpt>
      <trkpt lat="43.95048597756125" lon="2.8940391540527353">
        <ele>327.0</ele>
      </trkpt>
      <trkpt lat="43.95047439138529" lon="2.894098162651063">
        <ele>327.0</ele>
      </trkpt>
      <trkpt lat="43.95035080536787" lon="2.894183993339538">
        <ele>327.0</ele>
      </trkpt>
      <trkpt lat="43.950182674146156" lon="2.894306567928243">
        <ele>327.0</ele>
      </trkpt>
      <trkpt lat="43.950014542803586" lon="2.894429141794437">
        <ele>327.0</ele>
      </trkpt>
      <trkpt lat="43.949846411340154" lon="2.8945517149381255">
        <ele>327.0</ele>
      </trkpt>
      <trkpt lat="43.94967827975586" lon="2.894674287359316">
        <ele>328.0</ele>
      </trkpt>
      <trkpt lat="43.949510148050706" lon="2.894796859058014">
        <ele>328.0</ele>
      </trkpt>
      <trkpt lat="43.9493435810945" lon="2.894915817535926">
        <ele>328.0</ele>
      </trkpt>
      <trkpt lat="43.949205564709374" lon="2.8950105531350387">
        <ele>328.0</ele>
      </trkpt>
      <trkpt lat="43.9490675482533" lon="2.8951052882757646">
        <ele>329.0</ele>
      </trkpt>
      <trkpt lat="43.94892953172632" lon="2.8952000229581065">
        <ele>329.0</ele>
      </trkpt>
      <trkpt lat="43.94874394195539" lon="2.895347028550949">
        <ele>329.0</ele>
      </trkpt>
      <trkpt lat="43.948613689490465" lon="2.8954683891529323">
        <ele>330.0</ele>
      </trkpt>
      <trkpt lat="43.948483436900766" lon="2.895589749200741">
        <ele>330.0</ele>
      </trkpt>
      <trkpt lat="43.9483674758462" lon="2.895716026288165">
        <ele>331.0</ele>
      </trkpt>
      <trkpt lat="43.94825151465364" lon="2.895842302862234">
        <ele>331.0</ele>
      </trkpt>
      <trkpt lat="43.94814806380732" lon="2.8959784435111797">
        <ele>332.0</ele>
      </trkpt>
      <trkpt lat="43.94804461279766" lon="2.8961145836663795">
        <ele>332.0</ele>
      </trkpt>
      <trkpt lat="43.94795189090709" lon="2.8962655348670494">
        <ele>333.0</ele>
      </trkpt>
      <trkpt lat="43.94785916881307" lon="2.896416485577037">
        <ele>333.0</ele>
      </trkpt>
      <trkpt lat="43.947720086459356" lon="2.8966441466357984">
        <ele>334.0</ele>
      </trkpt>
      <trkpt lat="43.94764235405768" lon="2.8967833330950836">
        <ele>334.0</ele>
      </trkpt>
      <trkpt lat="43.94756462148231" lon="2.896922519175076">
        <ele>335.0</ele>
      </trkpt>
      <trkpt lat="43.9475074719866" lon="2.8970901621907768">
        <ele>335.0</ele>
      </trkpt>
      <trkpt lat="43.94745032223566" lon="2.897257804870606">
        <ele>335.0</ele>
      </trkpt>
      <trkpt lat="43.947390457316814" lon="2.8974080087330556">
        <ele>335.0</ele>
      </trkpt>
      <trkpt lat="43.94733059219365" lon="2.8975582122802734">
        <ele>336.0</ele>
      </trkpt>
      <trkpt lat="43.947276520623205" lon="2.8977486493008273">
        <ele>336.0</ele>
      </trkpt>
      <trkpt lat="43.94722244872268" lon="2.897939085960389">
        <ele>336.0</ele>
      </trkpt>
      <trkpt lat="43.94717803273676" lon="2.8981241585265045">
        <ele>336.0</ele>
      </trkpt>
      <trkpt lat="43.947133616438585" lon="2.8983092308044434">
        <ele>336.0</ele>
      </trkpt>
      <trkpt lat="43.94710647870714" lon="2.8984426039555826">
        <ele>335.0</ele>
      </trkpt>
      <trkpt lat="43.947083406828" lon="2.898555994033813">
        <ele>335.0</ele>
      </trkpt>
      <trkpt lat="43.94702547260917" lon="2.8988564014434823">
        <ele>335.0</ele>
      </trkpt>
      <trkpt lat="43.946959813759634" lon="2.8991514444351205">
        <ele>335.0</ele>
      </trkpt>
      <trkpt lat="43.946923122196395" lon="2.8993552924513555">
        <ele>336.0</ele>
      </trkpt>
      <trkpt lat="43.946886430253734" lon="2.899559140205383">
        <ele>336.0</ele>
      </trkpt>
      <trkpt lat="43.94683622067899" lon="2.8998005392291777">
        <ele>336.0</ele>
      </trkpt>
      <trkpt lat="43.94678601057252" lon="2.9000419378280635">
        <ele>337.0</ele>
      </trkpt>
      <trkpt lat="43.9467454565787" lon="2.900235057014415">
        <ele>338.0</ele>
      </trkpt>
      <trkpt lat="43.94670490224459" lon="2.900428175926209">
        <ele>338.0</ele>
      </trkpt>
      <trkpt lat="43.94663538073263" lon="2.9007124900817876">
        <ele>339.0</ele>
      </trkpt>
      <trkpt lat="43.94659675772184" lon="2.9008600116774788">
        <ele>340.0</ele>
      </trkpt>
      <trkpt lat="43.946558134512806" lon="2.9010075330734253">
        <ele>341.0</ele>
      </trkpt>
      <trkpt lat="43.94650019993308" lon="2.901206016742086">
        <ele>342.0</ele>
      </trkpt>
      <trkpt lat="43.94644226499488" lon="2.9014045000076303">
        <ele>343.0</ele>
      </trkpt>
      <trkpt lat="43.94638239913298" lon="2.9016003014711806">
        <ele>343.0</ele>
      </trkpt>
      <trkpt lat="43.946322532922395" lon="2.9017961025238037">
        <ele>344.0</ele>
      </trkpt>
      <trkpt lat="43.94624914862973" lon="2.9020375013351445">
        <ele>346.0</ele>
      </trkpt>
      <trkpt lat="43.946191213768884" lon="2.9022467138507597">
        <ele>347.0</ele>
      </trkpt>
      <trkpt lat="43.946133278509514" lon="2.9024559259414677">
        <ele>348.0</ele>
      </trkpt>
      <trkpt lat="43.9460676189998" lon="2.9027375582121606">
        <ele>349.0</ele>
      </trkpt>
      <trkpt lat="43.94600195876689" lon="2.9030191898345947">
        <ele>350.0</ele>
      </trkpt>
      <trkpt lat="43.94595947319964" lon="2.903279364302791">
        <ele>351.0</ele>
      </trkpt>
      <trkpt lat="43.945916987014115" lon="2.903539538383484">
        <ele>352.0</ele>
      </trkpt>
      <trkpt lat="43.94590540006093" lon="2.9036977887475035">
        <ele>352.0</ele>
      </trkpt>
      <trkpt lat="43.94589381287866" lon="2.903856039047242">
        <ele>353.0</ele>
      </trkpt>
      <trkpt lat="43.945876432565534" lon="2.904110848981285">
        <ele>354.0</ele>
      </trkpt>
      <trkpt lat="43.94585905165851" lon="2.9043656587600712">
        <ele>354.0</ele>
      </trkpt>
      <trkpt lat="43.945870638928135" lon="2.904572188812272">
        <ele>354.0</ele>
      </trkpt>
      <trkpt lat="43.945882225807544" lon="2.9047787189483634">
        <ele>355.0</ele>
      </trkpt>
      <trkpt lat="43.945888019482155" lon="2.9049530625166273">
        <ele>355.0</ele>
      </trkpt>
      <trkpt lat="43.94589381287866" lon="2.9051274061203003">
        <ele>355.0</ele>
      </trkpt>
      <trkpt lat="43.94591505597163" lon="2.905301749641351">
        <ele>355.0</ele>
      </trkpt>
      <trkpt lat="43.94593629878676" lon="2.905476093292236">
        <ele>356.0</ele>
      </trkpt>
      <trkpt lat="43.945961404242254" lon="2.9056665300484914">
        <ele>356.0</ele>
      </trkpt>
      <trkpt lat="43.945986509366314" lon="2.905856966972351">
        <ele>356.0</ele>
      </trkpt>
      <trkpt lat="43.946036719903454" lon="2.9061037302017207">
        <ele>357.0</ele>
      </trkpt>
      <trkpt lat="43.94612169148507" lon="2.9063826799392696">
        <ele>357.0</ele>
      </trkpt>
      <trkpt lat="43.94616803970279" lon="2.9065650700041106">
        <ele>358.0</ele>
      </trkpt>
      <trkpt lat="43.94621438761739" lon="2.906747460365296">
        <ele>358.0</ele>
      </trkpt>
      <trkpt lat="43.94626652922311" lon="2.906908392759105">
        <ele>359.0</ele>
      </trkpt>
      <trkpt lat="43.946318670593456" lon="2.907069325447082">
        <ele>359.0</ele>
      </trkpt>
      <trkpt lat="43.946372743272725" lon="2.9072329400419172">
        <ele>360.0</ele>
      </trkpt>
      <trkpt lat="43.94642681570876" lon="2.9073965549468994">
        <ele>360.0</ele>
      </trkpt>
      <trkpt lat="43.94647702603224" lon="2.9075950382393168">
        <ele>360.0</ele>
      </trkpt>
      <trkpt lat="43.94652723599677" lon="2.907793521881104">
        <ele>360.0</ele>
      </trkpt>
      <trkpt lat="43.94658710200603" lon="2.907992005139928">
        <ele>361.0</ele>
      </trkpt>
      <trkpt lat="43.94664696765693" lon="2.9081904888153076">
        <ele>361.0</ele>
      </trkpt>
      <trkpt lat="43.94670876489912" lon="2.9084801670751372">
        <ele>361.0</ele>
      </trkpt>
      <trkpt lat="43.94677056137575" lon="2.908769845962524">
        <ele>361.0</ele>
      </trkpt>
      <trkpt lat="43.94680918446175" lon="2.9089280961872683">
        <ele>361.0</ele>
      </trkpt>
      <trkpt lat="43.94684780731949" lon="2.909086346626283">
        <ele>362.0</ele>
      </trkpt>
      <trkpt lat="43.9468825681263" lon="2.9092821477650688">
        <ele>362.0</ele>
      </trkpt>
      <trkpt lat="43.946917328583055" lon="2.909477949142456">
        <ele>362.0</ele>
      </trkpt>
      <trkpt lat="43.94696367621832" lon="2.909681796861983">
        <ele>363.0</ele>
      </trkpt>
      <trkpt lat="43.94701002347463" lon="2.90988564491272">
        <ele>363.0</ele>
      </trkpt>
      <trkpt lat="43.94707182020461" lon="2.91011899684425">
        <ele>363.0</ele>
      </trkpt>
      <trkpt lat="43.94713361643859" lon="2.9103523492813115">
        <ele>364.0</ele>
      </trkpt>
      <trkpt lat="43.947199275173176" lon="2.9105105994310607">
        <ele>364.0</ele>
      </trkpt>
      <trkpt lat="43.94726493368119" lon="2.9106688499450692">
        <ele>364.0</ele>
      </trkpt>
      <trkpt lat="43.94732479887794" lon="2.9108244179046876">
        <ele>365.0</ele>
      </trkpt>
      <trkpt lat="43.947384663855416" lon="2.910979986190796">
        <ele>365.0</ele>
      </trkpt>
      <trkpt lat="43.94750439378847" lon="2.9111784696578984">
        <ele>366.0</ele>
      </trkpt>
      <trkpt lat="43.94759901894441" lon="2.911350130750126">
        <ele>366.0</ele>
      </trkpt>
      <trkpt lat="43.94769364383597" lon="2.911521792411804">
        <ele>367.0</ele>
      </trkpt>
      <trkpt lat="43.947786337531134" lon="2.91166126705396">
        <ele>367.0</ele>
      </trkpt>
      <trkpt lat="43.94787903105338" lon="2.9118007421493535">
        <ele>368.0</ele>
      </trkpt>
      <trkpt lat="43.94797751777526" lon="2.9119348523685775">
        <ele>368.0</ele>
      </trkpt>
      <trkpt lat="43.94807600433829" lon="2.912068963050843">
        <ele>369.0</ele>
      </trkpt>
      <trkpt lat="43.94818800841576" lon="2.912184297812047">
        <ele>370.0</ele>
      </trkpt>
      <trkpt lat="43.94830001237888" lon="2.912299633026123">
        <ele>371.0</ele>
      </trkpt>
      <trkpt lat="43.94839656728533" lon="2.9124122856140833">
        <ele>371.0</ele>
      </trkpt>
      <trkpt lat="43.948493122081125" lon="2.9125249385833736">
        <ele>372.0</ele>
      </trkpt>
      <trkpt lat="43.94859160774827" lon="2.9126241801455994">
        <ele>373.0</ele>
      </trkpt>
      <trkpt lat="43.94869009333102" lon="2.9127234220504765">
        <ele>374.0</ele>
      </trkpt>
      <trkpt lat="43.948800165174056" lon="2.912841439019425">
        <ele>375.0</ele>
      </trkpt>
      <trkpt lat="43.94891023689675" lon="2.9129594564437866">
        <ele>376.0</ele>
      </trkpt>
      <trkpt lat="43.949031894780234" lon="2.9130882022019455">
        <ele>377.0</ele>
      </trkpt>
      <trkpt lat="43.94915355252077" lon="2.9132169485092168">
        <ele>379.0</ele>
      </trkpt>
      <trkpt lat="43.94924624391111" lon="2.9133322833094617">
        <ele>380.0</ele>
      </trkpt>
      <trkpt lat="43.949338935184784" lon="2.9134476184844975">
        <ele>381.0</ele>
      </trkpt>
      <trkpt lat="43.949425833104605" lon="2.913562953296455">
        <ele>382.0</ele>
      </trkpt>
      <trkpt lat="43.94951273090717" lon="2.9136782884597783">
        <ele>383.0</ele>
      </trkpt>
      <trkpt lat="43.94959190435183" lon="2.913793623287352">
        <ele>384.0</ele>
      </trkpt>
      <trkpt lat="43.94967107767846" lon="2.9139089584350586">
        <ele>384.0</ele>
      </trkpt>
      <trkpt lat="43.9497541130277" lon="2.914037704280378">
        <ele>385.0</ele>
      </trkpt>
      <trkpt lat="43.9498371482293" lon="2.9141664505004887">
        <ele>386.0</ele>
      </trkpt>
      <trkpt lat="43.949916321280526" lon="2.914313971791572">
        <ele>386.0</ele>
      </trkpt>
      <trkpt lat="43.949995494136296" lon="2.9144614934921274">
        <ele>387.0</ele>
      </trkpt>
      <trkpt lat="43.950068873863856" lon="2.9146143792093193">
        <ele>387.0</ele>
      </trkpt>
      <trkpt lat="43.95014225338073" lon="2.9147672653198247">
        <ele>388.0</ele>
      </trkpt>
      <trkpt lat="43.95022142608265" lon="2.914952337485">
        <ele>388.0</ele>
      </trkpt>
      <trkpt lat="43.95030059847487" lon="2.915137410163879">
        <ele>389.0</ele>
      </trkpt>
      <trkpt lat="43.950372046814955" lon="2.915303706914526">
        <ele>389.0</ele>
      </trkpt>
      <trkpt lat="43.95044349490502" lon="2.915470004081727">
        <ele>389.0</ele>
      </trkpt>
      <trkpt lat="43.95050528790523" lon="2.915609478799422">
        <ele>390.0</ele>
      </trkpt>
      <trkpt lat="43.95056708072971" lon="2.9157489538192745">
        <ele>390.0</ele>
      </trkpt>
      <trkpt lat="43.95063273569606" lon="2.9159232972045923">
        <ele>390.0</ele>
      </trkpt>
      <trkpt lat="43.95069839038687" lon="2.916097640991212">
        <ele>391.0</ele>
      </trkpt>
      <trkpt lat="43.950764045172335" lon="2.916247844523177">
        <ele>391.0</ele>
      </trkpt>
      <trkpt lat="43.95082969975392" lon="2.916398048400879">
        <ele>392.0</ele>
      </trkpt>
      <trkpt lat="43.95089342338813" lon="2.916553616349966">
        <ele>392.0</ele>
      </trkpt>
      <trkpt lat="43.95095714680332" lon="2.916709184646606">
        <ele>393.0</ele>
      </trkpt>
      <trkpt lat="43.951022801314316" lon="2.9168674347963552">
        <ele>393.0</ele>
      </trkpt>
      <trkpt lat="43.95108845559869" lon="2.917025685310364">
        <ele>393.0</ele>
      </trkpt>
      <trkpt lat="43.95117342007127" lon="2.9172214862768246">
        <ele>394.0</ele>
      </trkpt>
      <trkpt lat="43.95125838419735" lon="2.917417287826538">
        <ele>394.0</ele>
      </trkpt>
      <trkpt lat="43.95133369340127" lon="2.9175943133878217">
        <ele>394.0</ele>
      </trkpt>
      <trkpt lat="43.951409002321824" lon="2.917771339416504">
        <ele>395.0</ele>
      </trkpt>
      <trkpt lat="43.951486242342305" lon="2.9179564115879435">
        <ele>395.0</ele>
      </trkpt>
      <trkpt lat="43.95156348205294" lon="2.9181414842605595">
        <ele>395.0</ele>
      </trkpt>
      <trkpt lat="43.95163492894346" lon="2.9183480140960385">
        <ele>396.0</ele>
      </trkpt>
      <trkpt lat="43.951706375446726" lon="2.9185545444488534">
        <ele>396.0</ele>
      </trkpt>
      <trkpt lat="43.951783614976016" lon="2.9187905788421635">
        <ele>397.0</ele>
      </trkpt>
      <trkpt lat="43.95184733779283" lon="2.9190534350319988">
        <ele>397.0</ele>
      </trkpt>
      <trkpt lat="43.951911059979864" lon="2.9193162918090825">
        <ele>398.0</ele>
      </trkpt>
      <trkpt lat="43.9519574037314" lon="2.91952550394228">
        <ele>398.0</ele>
      </trkpt>
      <trkpt lat="43.95200374708375" lon="2.919734716415405">
        <ele>399.0</ele>
      </trkpt>
      <trkpt lat="43.95206553867608" lon="2.9199922082019203">
        <ele>399.0</ele>
      </trkpt>
      <trkpt lat="43.952127329664066" lon="2.920249700546265">
        <ele>399.0</ele>
      </trkpt>
      <trkpt lat="43.952198776079825" lon="2.9205447431683766">
        <ele>400.0</ele>
      </trkpt>
      <trkpt lat="43.95227022170217" lon="2.920839786529541">
        <ele>400.0</ele>
      </trkpt>
      <trkpt lat="43.952310772225196" lon="2.9210248588200103">
        <ele>400.0</ele>
      </trkpt>
      <trkpt lat="43.952351322435824" lon="2.9212099313735957">
        <ele>401.0</ele>
      </trkpt>
      <trkpt lat="43.95239766585445" lon="2.9214245079204657">
        <ele>401.0</ele>
      </trkpt>
      <trkpt lat="43.952444008853085" lon="2.921639084815979">
        <ele>402.0</ele>
      </trkpt>
      <trkpt lat="43.952478766326315" lon="2.921797335051436">
        <ele>402.0</ele>
      </trkpt>
      <trkpt lat="43.95251352357118" lon="2.9219555854797368">
        <ele>403.0</ele>
      </trkpt>
      <trkpt lat="43.95257531436342" lon="2.9222184419631954">
        <ele>403.0</ele>
      </trkpt>
      <trkpt lat="43.95262165750745" lon="2.9223740099596762">
        <ele>404.0</ele>
      </trkpt>
      <trkpt lat="43.952668000431316" lon="2.922529578208924">
        <ele>405.0</ele>
      </trkpt>
      <trkpt lat="43.95274137679923" lon="2.922733426094056">
        <ele>406.0</ele>
      </trkpt>
      <trkpt lat="43.952830200702344" lon="2.922974824905396">
        <ele>407.0</ele>
      </trkpt>
      <trkpt lat="43.952880036385544" lon="2.923085071573513">
        <ele>408.0</ele>
      </trkpt>
      <trkpt lat="43.95293447207138" lon="2.923205494880677">
        <ele>409.0</ele>
      </trkpt>
      <trkpt lat="43.953042605149705" lon="2.9234683513641366">
        <ele>410.0</ele>
      </trkpt>
      <trkpt lat="43.95310439545459" lon="2.923613190494051">
        <ele>411.0</ele>
      </trkpt>
      <trkpt lat="43.95316618556977" lon="2.9237580299377433">
        <ele>411.0</ele>
      </trkpt>
      <trkpt lat="43.95323763043441" lon="2.9239028690431446">
        <ele>412.0</ele>
      </trkpt>
      <trkpt lat="43.953309075110106" lon="2.924047708511353">
        <ele>412.0</ele>
      </trkpt>
      <trkpt lat="43.953397898164745" lon="2.924246191978455">
        <ele>412.0</ele>
      </trkpt>
      <trkpt lat="43.95346934276554" lon="2.924401759906478">
        <ele>412.0</ele>
      </trkpt>
      <trkpt lat="43.95354078714792" lon="2.9245573282241817">
        <ele>411.0</ele>
      </trkpt>
      <trkpt lat="43.95360450786778" lon="2.9247075317612303">
        <ele>411.0</ele>
      </trkpt>
      <trkpt lat="43.953668228383634" lon="2.92485773563385">
        <ele>410.0</ele>
      </trkpt>
      <trkpt lat="43.953764774592365" lon="2.925034761428834">
        <ele>410.0</ele>
      </trkpt>
      <trkpt lat="43.95384587353887" lon="2.9252949353333895">
        <ele>409.0</ele>
      </trkpt>
      <trkpt lat="43.95392697186993" lon="2.9255551099777226">
        <ele>409.0</ele>
      </trkpt>
      <trkpt lat="43.95397717586761" lon="2.9257589576834477">
        <ele>409.0</ele>
      </trkpt>
      <trkpt lat="43.954027379486604" lon="2.9259628057479867">
        <ele>409.0</ele>
      </trkpt>
      <trkpt lat="43.95407179071431" lon="2.926190793336752">
        <ele>409.0</ele>
      </trkpt>
      <trkpt lat="43.954116201467606" lon="2.9264187812805176">
        <ele>409.0</ele>
      </trkpt>
      <trkpt lat="43.954129717961266" lon="2.9265797137832785">
        <ele>409.0</ele>
      </trkpt>
      <trkpt lat="43.95414323421808" lon="2.926740646362305">
        <ele>409.0</ele>
      </trkpt>
      <trkpt lat="43.954149027062996" lon="2.926898896678115">
        <ele>409.0</ele>
      </trkpt>
      <trkpt lat="43.95415481967884" lon="2.927057147026063">
        <ele>410.0</ele>
      </trkpt>
      <trkpt lat="43.95416447434145" lon="2.927215397331157">
        <ele>410.0</ele>
      </trkpt>
      <trkpt lat="43.95417412877501" lon="2.9273736476898193">
        <ele>411.0</ele>
      </trkpt>
      <trkpt lat="43.954172197988086" lon="2.927537262445265">
        <ele>412.0</ele>
      </trkpt>
      <trkpt lat="43.95417026695627" lon="2.9277008771896362">
        <ele>412.0</ele>
      </trkpt>
      <trkpt lat="43.95415288895134" lon="2.927902042927038">
        <ele>413.0</ele>
      </trkpt>
      <trkpt lat="43.95413551057635" lon="2.928103208541871">
        <ele>414.0</ele>
      </trkpt>
      <trkpt lat="43.9541123397589" lon="2.9282641411481345">
        <ele>415.0</ele>
      </trkpt>
      <trkpt lat="43.95408916870484" lon="2.928425073623658">
        <ele>416.0</ele>
      </trkpt>
      <trkpt lat="43.95405055045097" lon="2.9287254810333248">
        <ele>416.0</ele>
      </trkpt>
      <trkpt lat="43.95402931051127" lon="2.9288837314241283">
        <ele>417.0</ele>
      </trkpt>
      <trkpt lat="43.954008070342724" lon="2.929041981697083">
        <ele>417.0</ele>
      </trkpt>
      <trkpt lat="43.95399262317321" lon="2.9292243719594864">
        <ele>418.0</ele>
      </trkpt>
      <trkpt lat="43.953977175699464" lon="2.929406762123108">
        <ele>418.0</ele>
      </trkpt>
      <trkpt lat="43.95395014310486" lon="2.9296347499974162">
        <ele>418.0</ele>
      </trkpt>
      <trkpt lat="43.953923110035156" lon="2.92986273765564">
        <ele>419.0</ele>
      </trkpt>
      <trkpt lat="43.9538999391918" lon="2.9300585389932623">
        <ele>419.0</ele>
      </trkpt>
      <trkpt lat="43.953876767998004" lon="2.9302543401718144">
        <ele>419.0</ele>
      </trkpt>
      <trkpt lat="43.953847804329754" lon="2.930423319425552">
        <ele>419.0</ele>
      </trkpt>
      <trkpt lat="43.95381884040074" lon="2.93059229850769">
        <ele>419.0</ele>
      </trkpt>
      <trkpt lat="43.95379566949806" lon="2.9307773710048943">
        <ele>418.0</ele>
      </trkpt>
      <trkpt lat="43.9537724982823" lon="2.930962443351745">
        <ele>418.0</ele>
      </trkpt>
      <trkpt lat="43.95375318922295" lon="2.931155562466188">
        <ele>418.0</ele>
      </trkpt>
      <trkpt lat="43.95373387982263" lon="2.93134868144989">
        <ele>418.0</ele>
      </trkpt>
      <trkpt lat="43.95369463839039" lon="2.931641054120805">
        <ele>418.0</ele>
      </trkpt>
      <trkpt lat="43.95367177888926" lon="2.9318113685173564">
        <ele>418.0</ele>
      </trkpt>
      <trkpt lat="43.953648919123076" lon="2.9319816827774057">
        <ele>418.0</ele>
      </trkpt>
      <trkpt lat="43.95362188645102" lon="2.932241857175145">
        <ele>417.0</ele>
      </trkpt>
      <trkpt lat="43.95359485316009" lon="2.9325020313262935">
        <ele>417.0</ele>
      </trkpt>
      <trkpt lat="43.95358519872325" lon="2.9327139258743333">
        <ele>417.0</ele>
      </trkpt>
      <trkpt lat="43.95357554387569" lon="2.932925820350648">
        <ele>416.0</ele>
      </trkpt>
      <trkpt lat="43.95357554402786" lon="2.9331082105636597">
        <ele>416.0</ele>
      </trkpt>
      <trkpt lat="43.95357554387569" lon="2.9332906007766733">
        <ele>415.0</ele>
      </trkpt>
      <trkpt lat="43.95358326775558" lon="2.9334810375909455">
        <ele>414.0</ele>
      </trkpt>
      <trkpt lat="43.95359099130372" lon="2.9336714744567876">
        <ele>413.0</ele>
      </trkpt>
      <trkpt lat="43.95361416263378" lon="2.933880686674967">
        <ele>413.0</ele>
      </trkpt>
      <trkpt lat="43.953637333563705" lon="2.93408989906311">
        <ele>412.0</ele>
      </trkpt>
      <trkpt lat="43.95366243580602" lon="2.934301793482043">
        <ele>412.0</ele>
      </trkpt>
      <trkpt lat="43.95368753763791" lon="2.9345136880874634">
        <ele>412.0</ele>
      </trkpt>
      <trkpt lat="43.95372808727498" lon="2.9347416756916633">
        <ele>412.0</ele>
      </trkpt>
      <trkpt lat="43.95376863643747" lon="2.9349696636199947">
        <ele>412.0</ele>
      </trkpt>
      <trkpt lat="43.95380146227656" lon="2.935165464765409">
        <ele>413.0</ele>
      </trkpt>
      <trkpt lat="43.95383428776554" lon="2.9353612661361685">
        <ele>413.0</ele>
      </trkpt>
      <trkpt lat="43.95387097536813" lon="2.9355356096100076">
        <ele>414.0</ele>
      </trkpt>
      <trkpt lat="43.953907662693425" lon="2.935709953308105">
        <ele>415.0</ele>
      </trkpt>
      <trkpt lat="43.95396365940406" lon="2.9358869789293105">
        <ele>416.0</ele>
      </trkpt>
      <trkpt lat="43.9540196558298" lon="2.9360640048980713">
        <ele>417.0</ele>
      </trkpt>
      <trkpt lat="43.95414709603859" lon="2.9363000392913823">
        <ele>418.0</ele>
      </trkpt>
      <trkpt lat="43.95423205602594" lon="2.936450242996216">
        <ele>419.0</ele>
      </trkpt>
      <trkpt lat="43.954274536097394" lon="2.93662458645235">
        <ele>420.0</ele>
      </trkpt>
      <trkpt lat="43.95431701589182" lon="2.9367989301681514">
        <ele>421.0</ele>
      </trkpt>
      <trkpt lat="43.9543575650275" lon="2.936989366872837">
        <ele>422.0</ele>
      </trkpt>
      <trkpt lat="43.954398113832326" lon="2.937179803848266">
        <ele>423.0</ele>
      </trkpt>
      <trkpt lat="43.95441935386537" lon="2.937340736329238">
        <ele>423.0</ele>
      </trkpt>
      <trkpt lat="43.954440593661765" lon="2.937501668930054">
        <ele>424.0</ele>
      </trkpt>
      <trkpt lat="43.95445990284205" lon="2.9377001523299695">
        <ele>424.0</ele>
      </trkpt>
      <trkpt lat="43.95447921166216" lon="2.9378986358642583">
        <ele>425.0</ele>
      </trkpt>
      <trkpt lat="43.954485004498785" lon="2.9380729794325218">
        <ele>425.0</ele>
      </trkpt>
      <trkpt lat="43.954490797057375" lon="2.938247323036193">
        <ele>425.0</ele>
      </trkpt>
      <trkpt lat="43.95449079722798" lon="2.9384404420852652">
        <ele>425.0</ele>
      </trkpt>
      <trkpt lat="43.954490797057375" lon="2.9386335611343393">
        <ele>426.0</ele>
      </trkpt>
      <trkpt lat="43.954481142731304" lon="2.938826680216096">
        <ele>426.0</ele>
      </trkpt>
      <trkpt lat="43.95447148806409" lon="2.9390197992324825">
        <ele>426.0</ele>
      </trkpt>
      <trkpt lat="43.9544405941022" lon="2.939243316892503">
        <ele>427.0</ele>
      </trkpt>
      <trkpt lat="43.95440969968381" lon="2.9394668343104122">
        <ele>427.0</ele>
      </trkpt>
      <trkpt lat="43.95437880480892" lon="2.939690351486206">
        <ele>428.0</ele>
      </trkpt>
      <trkpt lat="43.954322808894304" lon="2.9399532082276987">
        <ele>428.0</ele>
      </trkpt>
      <trkpt lat="43.9542668123494" lon="2.940216064453126">
        <ele>429.0</ele>
      </trkpt>
      <trkpt lat="43.954206954591136" lon="2.9405111077543657">
        <ele>429.0</ele>
      </trkpt>
      <trkpt lat="43.95414709603859" lon="2.9408061504364014">
        <ele>430.0</ele>
      </trkpt>
      <trkpt lat="43.954108477989585" lon="2.941004634037877">
        <ele>430.0</ele>
      </trkpt>
      <trkpt lat="43.95406985958104" lon="2.941203117370606">
        <ele>430.0</ele>
      </trkpt>
      <trkpt lat="43.9540273796976" lon="2.9414257408846285">
        <ele>431.0</ele>
      </trkpt>
      <trkpt lat="43.95398489936178" lon="2.9416483640670776">
        <ele>431.0</ele>
      </trkpt>
      <trkpt lat="43.95393276487054" lon="2.9418924453105104">
        <ele>432.0</ele>
      </trkpt>
      <trkpt lat="43.953880629835815" lon="2.9421365261077885">
        <ele>432.0</ele>
      </trkpt>
      <trkpt lat="43.95385000928014" lon="2.9422977104925216">
        <ele>432.0</ele>
      </trkpt>
      <trkpt lat="43.95384394252537" lon="2.9423296452810637">
        <ele>433.0</ele>
      </trkpt>
      <trkpt lat="43.953807254874526" lon="2.9425227642059326">
        <ele>434.0</ele>
      </trkpt>
      <trkpt lat="43.95376863666787" lon="2.9427534343373773">
        <ele>434.0</ele>
      </trkpt>
      <trkpt lat="43.953730017975296" lon="2.9429841041564937">
        <ele>435.0</ele>
      </trkpt>
      <trkpt lat="43.953706847107995" lon="2.9432067275951597">
        <ele>436.0</ele>
      </trkpt>
      <trkpt lat="43.95368367578758" lon="2.9434293508529668">
        <ele>436.0</ele>
      </trkpt>
      <trkpt lat="43.95367788332732" lon="2.943692207363119">
        <ele>437.0</ele>
      </trkpt>
      <trkpt lat="43.95367209023498" lon="2.9439550638198857">
        <ele>437.0</ele>
      </trkpt>
      <trkpt lat="43.953683676149204" lon="2.94423669570925">
        <ele>438.0</ele>
      </trkpt>
      <trkpt lat="43.95369526133786" lon="2.9445183277130136">
        <ele>438.0</ele>
      </trkpt>
      <trkpt lat="43.95373194920981" lon="2.944783866234706">
        <ele>438.0</ele>
      </trkpt>
      <trkpt lat="43.95376863643746" lon="2.945049405097962">
        <ele>438.0</ele>
      </trkpt>
      <trkpt lat="43.95381497875085" lon="2.945263981644831">
        <ele>438.0</ele>
      </trkpt>
      <trkpt lat="43.95386132064428" lon="2.9454785585403447">
        <ele>438.0</ele>
      </trkpt>
      <trkpt lat="43.95390669723446" lon="2.9456394910812382">
        <ele>439.0</ele>
      </trkpt>
      <trkpt lat="43.953946992817016" lon="2.9457760675697005">
        <ele>439.0</ele>
      </trkpt>
      <trkpt lat="43.954005387745376" lon="2.94597399073357">
        <ele>439.0</ele>
      </trkpt>
      <trkpt lat="43.95405235206567" lon="2.946175608193716">
        <ele>440.0</ele>
      </trkpt>
      <trkpt lat="43.95411722994013" lon="2.9463996847234073">
        <ele>440.0</ele>
      </trkpt>
      <trkpt lat="43.95416686273913" lon="2.946613228359616">
        <ele>441.0</ele>
      </trkpt>
      <trkpt lat="43.95422603004994" lon="2.946847858836836">
        <ele>442.0</ele>
      </trkpt>
      <trkpt lat="43.95426898704526" lon="2.9470455879349444">
        <ele>443.0</ele>
      </trkpt>
      <trkpt lat="43.95431194368399" lon="2.947243317330858">
        <ele>444.0</ele>
      </trkpt>
      <trkpt lat="43.95435109263466" lon="2.9474463243835136">
        <ele>445.0</ele>
      </trkpt>
      <trkpt lat="43.95439024120919" lon="2.9476493317148167">
        <ele>446.0</ele>
      </trkpt>
      <trkpt lat="43.95442081594777" lon="2.9478497102338026">
        <ele>447.0</ele>
      </trkpt>
      <trkpt lat="43.95443803484491" lon="2.9480060644084265">
        <ele>448.0</ele>
      </trkpt>
      <trkpt lat="43.95445525351857" lon="2.948162418677444">
        <ele>449.0</ele>
      </trkpt>
      <trkpt lat="43.95446102577823" lon="2.9482837122356123">
        <ele>449.0</ele>
      </trkpt>
      <trkpt lat="43.954468738285385" lon="2.9484801565929653">
        <ele>450.0</ele>
      </trkpt>
      <trkpt lat="43.95447645043952" lon="2.948676601003437">
        <ele>450.0</ele>
      </trkpt>
      <trkpt lat="43.954476530168115" lon="2.94884668299539">
        <ele>450.0</ele>
      </trkpt>
      <trkpt lat="43.95447660963206" lon="2.949016764987819">
        <ele>449.0</ele>
      </trkpt>
      <trkpt lat="43.95446217899534" lon="2.9491870966662543">
        <ele>449.0</ele>
      </trkpt>
      <trkpt lat="43.95444774809334" lon="2.949357428258508">
        <ele>449.0</ele>
      </trkpt>
      <trkpt lat="43.95442737470922" lon="2.949649671936928">
        <ele>449.0</ele>
      </trkpt>
      <trkpt lat="43.9544056610665" lon="2.949857877718248">
        <ele>449.0</ele>
      </trkpt>
      <trkpt lat="43.95438394702748" lon="2.950066083341058">
        <ele>449.0</ele>
      </trkpt>
      <trkpt lat="43.95436108257673" lon="2.9502682225666215">
        <ele>449.0</ele>
      </trkpt>
      <trkpt lat="43.95433821775247" lon="2.950470361630136">
        <ele>450.0</ele>
      </trkpt>
      <trkpt lat="43.954311621450714" lon="2.9506312370603682">
        <ele>450.0</ele>
      </trkpt>
      <trkpt lat="43.9542850249126" lon="2.9507921123405834">
        <ele>450.0</ele>
      </trkpt>
      <trkpt lat="43.95421848479574" lon="2.9510875046963747">
        <ele>451.0</ele>
      </trkpt>
      <trkpt lat="43.9541709718612" lon="2.9513348882550106">
        <ele>451.0</ele>
      </trkpt>
      <trkpt lat="43.95412343639745" lon="2.9515326974218397">
        <ele>452.0</ele>
      </trkpt>
      <trkpt lat="43.95409016660661" lon="2.9516830297478585">
        <ele>452.0</ele>
      </trkpt>
      <trkpt lat="43.954056896609636" lon="2.9518333618985175">
        <ele>453.0</ele>
      </trkpt>
      <trkpt lat="43.95401696956266" lon="2.9520074316663933">
        <ele>454.0</ele>
      </trkpt>
      <trkpt lat="43.953975149991884" lon="2.952210508764507">
        <ele>454.0</ele>
      </trkpt>
      <trkpt lat="43.953903715222864" lon="2.952480528216982">
        <ele>455.0</ele>
      </trkpt>
      <trkpt lat="43.953845826730934" lon="2.952698443975605">
        <ele>455.0</ele>
      </trkpt>
      <trkpt lat="43.95379255581949" lon="2.952854065220374">
        <ele>455.0</ele>
      </trkpt>
      <trkpt lat="43.953739284688154" lon="2.9530096861744846">
        <ele>456.0</ele>
      </trkpt>
      <trkpt lat="43.953657456509134" lon="2.9532054110612074">
        <ele>457.0</ele>
      </trkpt>
      <trkpt lat="43.953548984538514" lon="2.9534612782037453">
        <ele>457.0</ele>
      </trkpt>
      <trkpt lat="43.95346144724515" lon="2.9536723003559526">
        <ele>458.0</ele>
      </trkpt>
      <trkpt lat="43.953373909548866" lon="2.953883321860509">
        <ele>458.0</ele>
      </trkpt>
      <trkpt lat="43.95330349423521" lon="2.9540429098387433">
        <ele>459.0</ele>
      </trkpt>
      <trkpt lat="43.95323307869143" lon="2.954202497422987">
        <ele>460.0</ele>
      </trkpt>
      <trkpt lat="43.953153811433694" lon="2.954390107966487">
        <ele>460.0</ele>
      </trkpt>
      <trkpt lat="43.95307454385763" lon="2.9545777179885886">
        <ele>461.0</ele>
      </trkpt>
      <trkpt lat="43.952995275963225" lon="2.954765327489292">
        <ele>461.0</ele>
      </trkpt>
      <trkpt lat="43.9529171915571" lon="2.955001191940061">
        <ele>462.0</ele>
      </trkpt>
      <trkpt lat="43.952858204763395" lon="2.9551620867042794">
        <ele>463.0</ele>
      </trkpt>
      <trkpt lat="43.952799217734906" lon="2.9553229811357515">
        <ele>463.0</ele>
      </trkpt>
      <trkpt lat="43.95271607650989" lon="2.9555789525153386">
        <ele>464.0</ele>
      </trkpt>
      <trkpt lat="43.95263293468946" lon="2.95583492314878">
        <ele>464.0</ele>
      </trkpt>
      <trkpt lat="43.95254979227364" lon="2.956090893036072">
        <ele>465.0</ele>
      </trkpt>
      <trkpt lat="43.95246664926243" lon="2.956346862177215">
        <ele>465.0</ele>
      </trkpt>
      <trkpt lat="43.952395296799985" lon="2.9565539083155428">
        <ele>466.0</ele>
      </trkpt>
      <trkpt lat="43.952323943948294" lon="2.956760953935919">
        <ele>466.0</ele>
      </trkpt>
      <trkpt lat="43.95225608124756" lon="2.9569633380082463">
        <ele>467.0</ele>
      </trkpt>
      <trkpt lat="43.95218821817479" lon="2.9571657215990474">
        <ele>467.0</ele>
      </trkpt>
      <trkpt lat="43.95212035472998" lon="2.9573681047083213">
        <ele>468.0</ele>
      </trkpt>
      <trkpt lat="43.95205946518281" lon="2.957543498697832">
        <ele>468.0</ele>
      </trkpt>
      <trkpt lat="43.951998575356384" lon="2.9577188923129154">
        <ele>469.0</ele>
      </trkpt>
      <trkpt lat="43.951951017736626" lon="2.957889002084146">
        <ele>469.0</ele>
      </trkpt>
      <trkpt lat="43.951903459853455" lon="2.958059111571742">
        <ele>470.0</ele>
      </trkpt>
      <trkpt lat="43.95183305713998" lon="2.958267471231483">
        <ele>470.0</ele>
      </trkpt>
      <trkpt lat="43.9517810663607" lon="2.958470543361274">
        <ele>471.0</ele>
      </trkpt>
      <trkpt lat="43.951729075205726" lon="2.958673615120906">
        <ele>471.0</ele>
      </trkpt>
      <trkpt lat="43.951677083675015" lon="2.9588766865103806">
        <ele>471.0</ele>
      </trkpt>
      <trkpt lat="43.95164001619397" lon="2.9590863388240267">
        <ele>472.0</ele>
      </trkpt>
      <trkpt lat="43.95160294831159" lon="2.9592959908652143">
        <ele>472.0</ele>
      </trkpt>
      <trkpt lat="43.951555422434545" lon="2.95955838597701">
        <ele>472.0</ele>
      </trkpt>
      <trkpt lat="43.95150789592889" lon="2.9598207806515915">
        <ele>472.0</ele>
      </trkpt>
      <trkpt lat="43.951468913994034" lon="2.9600093387342694">
        <ele>473.0</ele>
      </trkpt>
      <trkpt lat="43.951429931734765" lon="2.9601978965592446">
        <ele>473.0</ele>
      </trkpt>
      <trkpt lat="43.95139094389403" lon="2.9603719517941522">
        <ele>473.0</ele>
      </trkpt>
      <trkpt lat="43.95135195577701" lon="2.9605460067911453">
        <ele>474.0</ele>
      </trkpt>
      <trkpt lat="43.951279094073364" lon="2.9608160637820293">
        <ele>474.0</ele>
      </trkpt>
      <trkpt lat="43.9512062317056" lon="2.961086120083055">
        <ele>474.0</ele>
      </trkpt>
      <trkpt lat="43.951168186974414" lon="2.961237760773467">
        <ele>474.0</ele>
      </trkpt>
      <trkpt lat="43.9511301420337" lon="2.9613894012616164">
        <ele>473.0</ele>
      </trkpt>
      <trkpt lat="43.95108005065925" lon="2.96156553960074">
        <ele>474.0</ele>
      </trkpt>
      <trkpt lat="43.95102995900242" lon="2.9617416776305356">
        <ele>474.0</ele>
      </trkpt>
      <trkpt lat="43.950982071811346" lon="2.961922887872965">
        <ele>474.0</ele>
      </trkpt>
      <trkpt lat="43.950934184321135" lon="2.9621040978111606">
        <ele>474.0</ele>
      </trkpt>
      <trkpt lat="43.95088472452898" lon="2.962301888037648">
        <ele>474.0</ele>
      </trkpt>
      <trkpt lat="43.95083526438034" lon="2.962499677921164">
        <ele>473.0</ele>
      </trkpt>
      <trkpt lat="43.95078505473694" lon="2.9626886784879543">
        <ele>473.0</ele>
      </trkpt>
      <trkpt lat="43.95073219095889" lon="2.9629863152670457">
        <ele>473.0</ele>
      </trkpt>
      <trkpt lat="43.95067932637197" lon="2.9632839514945064">
        <ele>473.0</ele>
      </trkpt>
      <trkpt lat="43.950629886456866" lon="2.9635476586287783">
        <ele>474.0</ele>
      </trkpt>
      <trkpt lat="43.95061280611603" lon="2.9637401524643296">
        <ele>475.0</ele>
      </trkpt>
      <trkpt lat="43.95059572543632" lon="2.96393264618461">
        <ele>476.0</ele>
      </trkpt>
      <trkpt lat="43.95058292277207" lon="2.9641296994143906">
        <ele>476.0</ele>
      </trkpt>
      <trkpt lat="43.95057011975263" lon="2.9643267525557224">
        <ele>477.0</ele>
      </trkpt>
      <trkpt lat="43.95056481666784" lon="2.9645975847746486">
        <ele>478.0</ele>
      </trkpt>
      <trkpt lat="43.95055951291197" lon="2.9648684169432165">
        <ele>480.0</ele>
      </trkpt>
      <trkpt lat="43.950554208485016" lon="2.9651392490614237">
        <ele>481.0</ele>
      </trkpt>
      <trkpt lat="43.9505552175723" lon="2.9653172290469483">
        <ele>482.0</ele>
      </trkpt>
      <trkpt lat="43.95055622636974" lon="2.9654952090387687">
        <ele>484.0</ele>
      </trkpt>
      <trkpt lat="43.95055437127026" lon="2.965653415137883">
        <ele>485.0</ele>
      </trkpt>
      <trkpt lat="43.950552515941745" lon="2.9658116212267056">
        <ele>486.0</ele>
      </trkpt>
      <trkpt lat="43.95055447516814" lon="2.9659856455272986">
        <ele>486.0</ele>
      </trkpt>
      <trkpt lat="43.95055643411745" lon="2.966159669839845">
        <ele>486.0</ele>
      </trkpt>
      <trkpt lat="43.95055366476402" lon="2.966445231461272">
        <ele>487.0</ele>
      </trkpt>
      <trkpt lat="43.95055089466451" lon="2.9667307930549716">
        <ele>487.0</ele>
      </trkpt>
      <trkpt lat="43.95056492137158" lon="2.966983942067681">
        <ele>487.0</ele>
      </trkpt>
      <trkpt lat="43.95057894749244" lon="2.967237091204877">
        <ele>487.0</ele>
      </trkpt>
      <trkpt lat="43.95059077712023" lon="2.9674479953282855">
        <ele>488.0</ele>
      </trkpt>
      <trkpt lat="43.95060260634113" lon="2.9676588995391637">
        <ele>489.0</ele>
      </trkpt>
      <trkpt lat="43.95062552422252" lon="2.9678579613885803">
        <ele>489.0</ele>
      </trkpt>
      <trkpt lat="43.95064844174166" lon="2.9680570233979373">
        <ele>490.0</ele>
      </trkpt>
      <trkpt lat="43.95067707927664" lon="2.9682753306971588">
        <ele>491.0</ele>
      </trkpt>
      <trkpt lat="43.950705716376085" lon="2.9684936382155587">
        <ele>491.0</ele>
      </trkpt>
      <trkpt lat="43.95072484362479" lon="2.9687652136695464">
        <ele>492.0</ele>
      </trkpt>
      <trkpt lat="43.95074680290903" lon="2.968949774738797">
        <ele>493.0</ele>
      </trkpt>
      <trkpt lat="43.95076876188193" lon="2.9691343359501348">
        <ele>494.0</ele>
      </trkpt>
      <trkpt lat="43.95079741499324" lon="2.9694159265004134">
        <ele>495.0</ele>
      </trkpt>
      <trkpt lat="43.95082606737957" lon="2.969697517333561">
        <ele>495.0</ele>
      </trkpt>
      <trkpt lat="43.95085662701216" lon="2.9699901818524164">
        <ele>495.0</ele>
      </trkpt>
      <trkpt lat="43.95086267793375" lon="2.97024777731461">
        <ele>496.0</ele>
      </trkpt>
      <trkpt lat="43.95086139070117" lon="2.9704273067554796">
        <ele>496.0</ele>
      </trkpt>
      <trkpt lat="43.950860103173696" lon="2.970606836188247">
        <ele>496.0</ele>
      </trkpt>
      <trkpt lat="43.95086326136662" lon="2.9707939543849777">
        <ele>497.0</ele>
      </trkpt>
      <trkpt lat="43.95086641923921" lon="2.970981072602426">
        <ele>497.0</ele>
      </trkpt>
      <trkpt lat="43.95086436083956" lon="2.9710758323511834">
        <ele>497.0</ele>
      </trkpt>
      <trkpt lat="43.9508446689049" lon="2.97127158073287">
        <ele>498.0</ele>
      </trkpt>
      <trkpt lat="43.95082497661991" lon="2.971467328979413">
        <ele>498.0</ele>
      </trkpt>
      <trkpt lat="43.95080266549617" lon="2.9716891050338745">
        <ele>499.0</ele>
      </trkpt>
      <trkpt lat="43.950781424507845" lon="2.971911728465003">
        <ele>499.0</ele>
      </trkpt>
      <trkpt lat="43.95076018306632" lon="2.9721343517303467">
        <ele>500.0</ele>
      </trkpt>
      <trkpt lat="43.95073121801509" lon="2.972375750664257">
        <ele>500.0</ele>
      </trkpt>
      <trkpt lat="43.95070225243121" lon="2.9726171493530273">
        <ele>501.0</ele>
      </trkpt>
      <trkpt lat="43.95068294246443" lon="2.972855866036158">
        <ele>501.0</ele>
      </trkpt>
      <trkpt lat="43.95066363197646" lon="2.9730945825576773">
        <ele>502.0</ele>
      </trkpt>
      <trkpt lat="43.950617287544794" lon="2.973285019552445">
        <ele>502.0</ele>
      </trkpt>
      <trkpt lat="43.95057094278258" lon="2.9734754562377925">
        <ele>502.0</ele>
      </trkpt>
      <trkpt lat="43.95050721914591" lon="2.973732948590853">
        <ele>502.0</ele>
      </trkpt>
      <trkpt lat="43.95044349490502" lon="2.973990440368652">
        <ele>503.0</ele>
      </trkpt>
      <trkpt lat="43.95038942618559" lon="2.974191606235434">
        <ele>502.0</ele>
      </trkpt>
      <trkpt lat="43.950335357097615" lon="2.9743927717208867">
        <ele>502.0</ele>
      </trkpt>
      <trkpt lat="43.95026934511221" lon="2.9745506838694906">
        <ele>502.0</ele>
      </trkpt>
      <trkpt lat="43.950335357097615" lon="2.9743927717208867">
        <ele>502.0</ele>
      </trkpt>
      <trkpt lat="43.95038942618559" lon="2.974191606235434">
        <ele>502.0</ele>
      </trkpt>
      <trkpt lat="43.95044349490502" lon="2.973990440368652">
        <ele>503.0</ele>
      </trkpt>
      <trkpt lat="43.95050721914591" lon="2.973732948590853">
        <ele>502.0</ele>
      </trkpt>
      <trkpt lat="43.95057094278258" lon="2.9734754562377925">
        <ele>502.0</ele>
      </trkpt>
      <trkpt lat="43.950617287544794" lon="2.973285019552445">
        <ele>502.0</ele>
      </trkpt>
      <trkpt lat="43.95066363197646" lon="2.9730945825576773">
        <ele>502.0</ele>
      </trkpt>
      <trkpt lat="43.95068294246443" lon="2.972855866036158">
        <ele>501.0</ele>
      </trkpt>
      <trkpt lat="43.95070225243121" lon="2.9726171493530273">
        <ele>501.0</ele>
      </trkpt>
      <trkpt lat="43.95073121801509" lon="2.972375750664257">
        <ele>500.0</ele>
      </trkpt>
      <trkpt lat="43.95076018306632" lon="2.9721343517303467">
        <ele>500.0</ele>
      </trkpt>
      <trkpt lat="43.950781424507845" lon="2.971911728465003">
        <ele>499.0</ele>
      </trkpt>
      <trkpt lat="43.95080266549617" lon="2.9716891050338745">
        <ele>499.0</ele>
      </trkpt>
      <trkpt lat="43.95082497661991" lon="2.971467328979413">
        <ele>498.0</ele>
      </trkpt>
      <trkpt lat="43.9508446689049" lon="2.97127158073287">
        <ele>498.0</ele>
      </trkpt>
      <trkpt lat="43.95086436083956" lon="2.9710758323511834">
        <ele>497.0</ele>
      </trkpt>
      <trkpt lat="43.95086641923921" lon="2.970981072602426">
        <ele>497.0</ele>
      </trkpt>
      <trkpt lat="43.95086326136662" lon="2.9707939543849777">
        <ele>497.0</ele>
      </trkpt>
      <trkpt lat="43.950860103173696" lon="2.970606836188247">
        <ele>496.0</ele>
      </trkpt>
      <trkpt lat="43.95086139070117" lon="2.9704273067554796">
        <ele>496.0</ele>
      </trkpt>
      <trkpt lat="43.95086267793375" lon="2.97024777731461">
        <ele>496.0</ele>
      </trkpt>
      <trkpt lat="43.95085662701216" lon="2.9699901818524164">
        <ele>495.0</ele>
      </trkpt>
      <trkpt lat="43.95082606737957" lon="2.969697517333561">
        <ele>495.0</ele>
      </trkpt>
      <trkpt lat="43.95079741499324" lon="2.9694159265004134">
        <ele>495.0</ele>
      </trkpt>
      <trkpt lat="43.95076876188193" lon="2.9691343359501348">
        <ele>494.0</ele>
      </trkpt>
      <trkpt lat="43.95074680290903" lon="2.968949774738797">
        <ele>493.0</ele>
      </trkpt>
      <trkpt lat="43.95072484362479" lon="2.9687652136695464">
        <ele>492.0</ele>
      </trkpt>
      <trkpt lat="43.950705716376085" lon="2.9684936382155587">
        <ele>491.0</ele>
      </trkpt>
      <trkpt lat="43.95067707927664" lon="2.9682753306971588">
        <ele>491.0</ele>
      </trkpt>
      <trkpt lat="43.95064844174166" lon="2.9680570233979373">
        <ele>490.0</ele>
      </trkpt>
      <trkpt lat="43.95062552422252" lon="2.9678579613885803">
        <ele>489.0</ele>
      </trkpt>
      <trkpt lat="43.95060260634113" lon="2.9676588995391637">
        <ele>489.0</ele>
      </trkpt>
      <trkpt lat="43.95059077712023" lon="2.9674479953282855">
        <ele>488.0</ele>
      </trkpt>
      <trkpt lat="43.95057894749244" lon="2.967237091204877">
        <ele>487.0</ele>
      </trkpt>
      <trkpt lat="43.95056492137158" lon="2.966983942067681">
        <ele>487.0</ele>
      </trkpt>
      <trkpt lat="43.95055089466451" lon="2.9667307930549716">
        <ele>487.0</ele>
      </trkpt>
      <trkpt lat="43.95055366476402" lon="2.966445231461272">
        <ele>487.0</ele>
      </trkpt>
      <trkpt lat="43.95055643411745" lon="2.966159669839845">
        <ele>486.0</ele>
      </trkpt>
      <trkpt lat="43.95055447516814" lon="2.9659856455272986">
        <ele>486.0</ele>
      </trkpt>
      <trkpt lat="43.950552515941745" lon="2.9658116212267056">
        <ele>486.0</ele>
      </trkpt>
      <trkpt lat="43.95055437127026" lon="2.965653415137883">
        <ele>485.0</ele>
      </trkpt>
      <trkpt lat="43.95055622636974" lon="2.9654952090387687">
        <ele>484.0</ele>
      </trkpt>
      <trkpt lat="43.9505552175723" lon="2.9653172290469483">
        <ele>482.0</ele>
      </trkpt>
      <trkpt lat="43.950554208485016" lon="2.9651392490614237">
        <ele>481.0</ele>
      </trkpt>
      <trkpt lat="43.95055951291197" lon="2.9648684169432165">
        <ele>480.0</ele>
      </trkpt>
      <trkpt lat="43.95056481666784" lon="2.9645975847746486">
        <ele>478.0</ele>
      </trkpt>
      <trkpt lat="43.95057011975263" lon="2.9643267525557224">
        <ele>477.0</ele>
      </trkpt>
      <trkpt lat="43.95058292277207" lon="2.9641296994143906">
        <ele>476.0</ele>
      </trkpt>
      <trkpt lat="43.95059572543632" lon="2.96393264618461">
        <ele>476.0</ele>
      </trkpt>
      <trkpt lat="43.95061280611603" lon="2.9637401524643296">
        <ele>475.0</ele>
      </trkpt>
      <trkpt lat="43.950629886456866" lon="2.9635476586287783">
        <ele>474.0</ele>
      </trkpt>
      <trkpt lat="43.95067932637197" lon="2.9632839514945064">
        <ele>473.0</ele>
      </trkpt>
      <trkpt lat="43.95073219095889" lon="2.9629863152670457">
        <ele>473.0</ele>
      </trkpt>
      <trkpt lat="43.95078505473694" lon="2.9626886784879543">
        <ele>473.0</ele>
      </trkpt>
      <trkpt lat="43.95083526438034" lon="2.962499677921164">
        <ele>473.0</ele>
      </trkpt>
      <trkpt lat="43.95088472452898" lon="2.962301888037648">
        <ele>474.0</ele>
      </trkpt>
      <trkpt lat="43.950934184321135" lon="2.9621040978111606">
        <ele>474.0</ele>
      </trkpt>
      <trkpt lat="43.950982071811346" lon="2.961922887872965">
        <ele>474.0</ele>
      </trkpt>
      <trkpt lat="43.95102995900242" lon="2.9617416776305356">
        <ele>474.0</ele>
      </trkpt>
      <trkpt lat="43.95108005065925" lon="2.96156553960074">
        <ele>474.0</ele>
      </trkpt>
      <trkpt lat="43.9511301420337" lon="2.9613894012616164">
        <ele>473.0</ele>
      </trkpt>
      <trkpt lat="43.951168186974414" lon="2.961237760773467">
        <ele>474.0</ele>
      </trkpt>
      <trkpt lat="43.9512062317056" lon="2.961086120083055">
        <ele>474.0</ele>
      </trkpt>
      <trkpt lat="43.951279094073364" lon="2.9608160637820293">
        <ele>474.0</ele>
      </trkpt>
      <trkpt lat="43.95135195577701" lon="2.9605460067911453">
        <ele>474.0</ele>
      </trkpt>
      <trkpt lat="43.95139094389403" lon="2.9603719517941522">
        <ele>473.0</ele>
      </trkpt>
      <trkpt lat="43.951429931734765" lon="2.9601978965592446">
        <ele>473.0</ele>
      </trkpt>
      <trkpt lat="43.951468913994034" lon="2.9600093387342694">
        <ele>473.0</ele>
      </trkpt>
      <trkpt lat="43.95150789592889" lon="2.9598207806515915">
        <ele>472.0</ele>
      </trkpt>
      <trkpt lat="43.951555422434545" lon="2.95955838597701">
        <ele>472.0</ele>
      </trkpt>
      <trkpt lat="43.95160294831159" lon="2.9592959908652143">
        <ele>472.0</ele>
      </trkpt>
      <trkpt lat="43.95164001619397" lon="2.9590863388240267">
        <ele>472.0</ele>
      </trkpt>
      <trkpt lat="43.951677083675015" lon="2.9588766865103806">
        <ele>471.0</ele>
      </trkpt>
      <trkpt lat="43.951729075205726" lon="2.958673615120906">
        <ele>471.0</ele>
      </trkpt>
      <trkpt lat="43.9517810663607" lon="2.958470543361274">
        <ele>471.0</ele>
      </trkpt>
      <trkpt lat="43.95183305713998" lon="2.958267471231483">
        <ele>470.0</ele>
      </trkpt>
      <trkpt lat="43.951903459853455" lon="2.958059111571742">
        <ele>470.0</ele>
      </trkpt>
      <trkpt lat="43.951951017736626" lon="2.957889002084146">
        <ele>469.0</ele>
      </trkpt>
      <trkpt lat="43.951998575356384" lon="2.9577188923129154">
        <ele>469.0</ele>
      </trkpt>
      <trkpt lat="43.95205946518281" lon="2.957543498697832">
        <ele>468.0</ele>
      </trkpt>
      <trkpt lat="43.95212035472998" lon="2.9573681047083213">
        <ele>468.0</ele>
      </trkpt>
      <trkpt lat="43.95218821817479" lon="2.9571657215990474">
        <ele>467.0</ele>
      </trkpt>
      <trkpt lat="43.95225608124756" lon="2.9569633380082463">
        <ele>467.0</ele>
      </trkpt>
      <trkpt lat="43.952323943948294" lon="2.956760953935919">
        <ele>466.0</ele>
      </trkpt>
      <trkpt lat="43.952395296799985" lon="2.9565539083155428">
        <ele>466.0</ele>
      </trkpt>
      <trkpt lat="43.95246664926243" lon="2.956346862177215">
        <ele>465.0</ele>
      </trkpt>
      <trkpt lat="43.95254979227364" lon="2.956090893036072">
        <ele>465.0</ele>
      </trkpt>
      <trkpt lat="43.95263293468946" lon="2.95583492314878">
        <ele>464.0</ele>
      </trkpt>
      <trkpt lat="43.95271607650989" lon="2.9555789525153386">
        <ele>464.0</ele>
      </trkpt>
      <trkpt lat="43.952799217734906" lon="2.9553229811357515">
        <ele>463.0</ele>
      </trkpt>
      <trkpt lat="43.952858204763395" lon="2.9551620867042794">
        <ele>463.0</ele>
      </trkpt>
      <trkpt lat="43.9529171915571" lon="2.955001191940061">
        <ele>462.0</ele>
      </trkpt>
      <trkpt lat="43.952995275963225" lon="2.954765327489292">
        <ele>461.0</ele>
      </trkpt>
      <trkpt lat="43.95307454385763" lon="2.9545777179885886">
        <ele>461.0</ele>
      </trkpt>
      <trkpt lat="43.953153811433694" lon="2.954390107966487">
        <ele>460.0</ele>
      </trkpt>
      <trkpt lat="43.95323307869143" lon="2.954202497422987">
        <ele>460.0</ele>
      </trkpt>
      <trkpt lat="43.95330349423521" lon="2.9540429098387433">
        <ele>459.0</ele>
      </trkpt>
      <trkpt lat="43.953373909548866" lon="2.953883321860509">
        <ele>458.0</ele>
      </trkpt>
      <trkpt lat="43.95346144724515" lon="2.9536723003559526">
        <ele>458.0</ele>
      </trkpt>
      <trkpt lat="43.953548984538514" lon="2.9534612782037453">
        <ele>457.0</ele>
      </trkpt>
      <trkpt lat="43.953657456509134" lon="2.9532054110612074">
        <ele>457.0</ele>
      </trkpt>
      <trkpt lat="43.953739284688154" lon="2.9530096861744846">
        <ele>456.0</ele>
      </trkpt>
      <trkpt lat="43.95379255581949" lon="2.952854065220374">
        <ele>455.0</ele>
      </trkpt>
      <trkpt lat="43.953845826730934" lon="2.952698443975605">
        <ele>455.0</ele>
      </trkpt>
      <trkpt lat="43.953903715222864" lon="2.952480528216982">
        <ele>455.0</ele>
      </trkpt>
      <trkpt lat="43.953975149991884" lon="2.952210508764507">
        <ele>454.0</ele>
      </trkpt>
      <trkpt lat="43.95401696956266" lon="2.9520074316663933">
        <ele>454.0</ele>
      </trkpt>
      <trkpt lat="43.954056896609636" lon="2.9518333618985175">
        <ele>453.0</ele>
      </trkpt>
      <trkpt lat="43.95409016660661" lon="2.9516830297478585">
        <ele>452.0</ele>
      </trkpt>
      <trkpt lat="43.95412343639745" lon="2.9515326974218397">
        <ele>452.0</ele>
      </trkpt>
      <trkpt lat="43.9541709718612" lon="2.9513348882550106">
        <ele>451.0</ele>
      </trkpt>
      <trkpt lat="43.95421848479574" lon="2.9510875046963747">
        <ele>451.0</ele>
      </trkpt>
      <trkpt lat="43.9542850249126" lon="2.9507921123405834">
        <ele>450.0</ele>
      </trkpt>
      <trkpt lat="43.954311621450714" lon="2.9506312370603682">
        <ele>450.0</ele>
      </trkpt>
      <trkpt lat="43.95433821775247" lon="2.950470361630136">
        <ele>450.0</ele>
      </trkpt>
      <trkpt lat="43.95436108257673" lon="2.9502682225666215">
        <ele>449.0</ele>
      </trkpt>
      <trkpt lat="43.95438394702748" lon="2.950066083341058">
        <ele>449.0</ele>
      </trkpt>
      <trkpt lat="43.9544056610665" lon="2.949857877718248">
        <ele>449.0</ele>
      </trkpt>
      <trkpt lat="43.95442737470922" lon="2.949649671936928">
        <ele>449.0</ele>
      </trkpt>
      <trkpt lat="43.95444774809334" lon="2.949357428258508">
        <ele>449.0</ele>
      </trkpt>
      <trkpt lat="43.95446217899534" lon="2.9491870966662543">
        <ele>449.0</ele>
      </trkpt>
      <trkpt lat="43.95447660963206" lon="2.949016764987819">
        <ele>449.0</ele>
      </trkpt>
      <trkpt lat="43.954476530168115" lon="2.94884668299539">
        <ele>450.0</ele>
      </trkpt>
      <trkpt lat="43.95447645043952" lon="2.948676601003437">
        <ele>450.0</ele>
      </trkpt>
      <trkpt lat="43.954468738285385" lon="2.9484801565929653">
        <ele>450.0</ele>
      </trkpt>
      <trkpt lat="43.95446102577823" lon="2.9482837122356123">
        <ele>449.0</ele>
      </trkpt>
      <trkpt lat="43.95445525351857" lon="2.948162418677444">
        <ele>449.0</ele>
      </trkpt>
      <trkpt lat="43.95443803484491" lon="2.9480060644084265">
        <ele>448.0</ele>
      </trkpt>
      <trkpt lat="43.95442081594777" lon="2.9478497102338026">
        <ele>447.0</ele>
      </trkpt>
      <trkpt lat="43.95439024120919" lon="2.9476493317148167">
        <ele>446.0</ele>
      </trkpt>
      <trkpt lat="43.95435109263466" lon="2.9474463243835136">
        <ele>445.0</ele>
      </trkpt>
      <trkpt lat="43.95431194368399" lon="2.947243317330858">
        <ele>444.0</ele>
      </trkpt>
      <trkpt lat="43.95426898704526" lon="2.9470455879349444">
        <ele>443.0</ele>
      </trkpt>
      <trkpt lat="43.95422603004994" lon="2.946847858836836">
        <ele>442.0</ele>
      </trkpt>
      <trkpt lat="43.95416686273913" lon="2.946613228359616">
        <ele>440.0</ele>
      </trkpt>
      <trkpt lat="43.95411722994013" lon="2.9463996847234073">
        <ele>439.0</ele>
      </trkpt>
      <trkpt lat="43.95405235206567" lon="2.946175608193716">
        <ele>439.0</ele>
      </trkpt>
      <trkpt lat="43.954005387745376" lon="2.94597399073357">
        <ele>438.0</ele>
      </trkpt>
      <trkpt lat="43.95393153734986" lon="2.945904841892621">
        <ele>437.0</ele>
      </trkpt>
      <trkpt lat="43.95393148474402" lon="2.9459047101062574">
        <ele>436.0</ele>
      </trkpt>
      <trkpt lat="43.95389152871933" lon="2.945804613799501">
        <ele>435.0</ele>
      </trkpt>
      <trkpt lat="43.95392737675522" lon="2.9457852291826256">
        <ele>435.0</ele>
      </trkpt>
      <trkpt lat="43.953946992817016" lon="2.9457760675697005">
        <ele>434.0</ele>
      </trkpt>
      <trkpt lat="43.95402552305974" lon="2.945739390229358">
        <ele>433.0</ele>
      </trkpt>
      <trkpt lat="43.954097448038176" lon="2.945744079414228">
        <ele>432.0</ele>
      </trkpt>
      <trkpt lat="43.95421008776489" lon="2.9457233205253366">
        <ele>431.0</ele>
      </trkpt>
      <trkpt lat="43.954210441322004" lon="2.94572322580195">
        <ele>430.0</ele>
      </trkpt>
      <trkpt lat="43.954356116782066" lon="2.945684197007323">
        <ele>429.0</ele>
      </trkpt>
      <trkpt lat="43.95447014715518" lon="2.9456576023626853">
        <ele>429.0</ele>
      </trkpt>
      <trkpt lat="43.95459457474342" lon="2.9455917363976236">
        <ele>429.0</ele>
      </trkpt>
      <trkpt lat="43.95467574129538" lon="2.945479801384026">
        <ele>429.0</ele>
      </trkpt>
      <trkpt lat="43.95475161102638" lon="2.9453677862924788">
        <ele>429.0</ele>
      </trkpt>
      <trkpt lat="43.954820505058635" lon="2.945309710628702">
        <ele>430.0</ele>
      </trkpt>
      <trkpt lat="43.95487962558699" lon="2.9452545558967764">
        <ele>430.0</ele>
      </trkpt>
      <trkpt lat="43.95490206232581" lon="2.9451440681087155">
        <ele>432.0</ele>
      </trkpt>
      <trkpt lat="43.9549007144627" lon="2.9450337289946775">
        <ele>432.0</ele>
      </trkpt>
      <trkpt lat="43.954877715949515" lon="2.9449103797277014">
        <ele>433.0</ele>
      </trkpt>
      <trkpt lat="43.95483629667416" lon="2.9447832810136547">
        <ele>433.0</ele>
      </trkpt>
      <trkpt lat="43.954817202339115" lon="2.9446943025335695">
        <ele>433.0</ele>
      </trkpt>
      <trkpt lat="43.95486304461928" lon="2.944639082400247">
        <ele>433.0</ele>
      </trkpt>
      <trkpt lat="43.95479424784998" lon="2.944390935641323">
        <ele>433.0</ele>
      </trkpt>
      <trkpt lat="43.954755465985" lon="2.944197252323599">
        <ele>432.0</ele>
      </trkpt>
      <trkpt lat="43.954728731511906" lon="2.9439725251700968">
        <ele>432.0</ele>
      </trkpt>
      <trkpt lat="43.95472146135325" lon="2.9437259781730654">
        <ele>432.0</ele>
      </trkpt>
      <trkpt lat="43.954732266051984" lon="2.9434195750018852">
        <ele>431.0</ele>
      </trkpt>
      <trkpt lat="43.95476661750324" lon="2.94317379311796">
        <ele>431.0</ele>
      </trkpt>
      <trkpt lat="43.954750405262025" lon="2.9429949641370055">
        <ele>431.0</ele>
      </trkpt>
      <trkpt lat="43.95467335205336" lon="2.9427899117765026">
        <ele>431.0</ele>
      </trkpt>
      <trkpt lat="43.95459442964463" lon="2.942677674638092">
        <ele>431.0</ele>
      </trkpt>
      <trkpt lat="43.95455902296242" lon="2.942597894691948">
        <ele>432.0</ele>
      </trkpt>
      <trkpt lat="43.95453196570188" lon="2.942314185528901">
        <ele>432.0</ele>
      </trkpt>
      <trkpt lat="43.95453192339811" lon="2.9423137419587033">
        <ele>433.0</ele>
      </trkpt>
      <trkpt lat="43.95453491127895" lon="2.9421571864479694">
        <ele>433.0</ele>
      </trkpt>
      <trkpt lat="43.954469581428505" lon="2.9419200363127347">
        <ele>434.0</ele>
      </trkpt>
      <trkpt lat="43.95439893254735" lon="2.9416826773309492">
        <ele>434.0</ele>
      </trkpt>
      <trkpt lat="43.954372653420116" lon="2.9415211924438815">
        <ele>435.0</ele>
      </trkpt>
      <trkpt lat="43.95434637405473" lon="2.9413597077056024">
        <ele>435.0</ele>
      </trkpt>
      <trkpt lat="43.95434452960896" lon="2.9411981290182734">
        <ele>435.0</ele>
      </trkpt>
      <trkpt lat="43.9543555368351" lon="2.941023561412428">
        <ele>436.0</ele>
      </trkpt>
      <trkpt lat="43.9543665437825" lon="2.9408489937392113">
        <ele>436.0</ele>
      </trkpt>
      <trkpt lat="43.95438479469618" lon="2.940663295443984">
        <ele>435.0</ele>
      </trkpt>
      <trkpt lat="43.95440304529457" lon="2.9404775970299313">
        <ele>435.0</ele>
      </trkpt>
      <trkpt lat="43.95443475761528" lon="2.9403164415971146">
        <ele>435.0</ele>
      </trkpt>
      <trkpt lat="43.95446646969901" lon="2.9401552859851146">
        <ele>434.0</ele>
      </trkpt>
      <trkpt lat="43.95452416011385" lon="2.9398841605854176">
        <ele>433.0</ele>
      </trkpt>
      <trkpt lat="43.95463595292472" lon="2.9396625399109304">
        <ele>433.0</ele>
      </trkpt>
      <trkpt lat="43.95475488002894" lon="2.9394250891271674">
        <ele>432.0</ele>
      </trkpt>
      <trkpt lat="43.954825047661174" lon="2.939286574867933">
        <ele>431.0</ele>
      </trkpt>
      <trkpt lat="43.954895215120786" lon="2.939148060267927">
        <ele>431.0</ele>
      </trkpt>
      <trkpt lat="43.95494988826079" lon="2.9389798961686626">
        <ele>430.0</ele>
      </trkpt>
      <trkpt lat="43.95500456114382" lon="2.9388117317470406">
        <ele>430.0</ele>
      </trkpt>
      <trkpt lat="43.95509254050319" lon="2.9385907919785974">
        <ele>430.0</ele>
      </trkpt>
      <trkpt lat="43.95513764352596" lon="2.9383435282326795">
        <ele>430.0</ele>
      </trkpt>
      <trkpt lat="43.95519439327521" lon="2.9381885752615813">
        <ele>431.0</ele>
      </trkpt>
      <trkpt lat="43.95525114280674" lon="2.9380336219821652">
        <ele>431.0</ele>
      </trkpt>
      <trkpt lat="43.95530069690203" lon="2.9378892347751115">
        <ele>431.0</ele>
      </trkpt>
      <trkpt lat="43.95534226053302" lon="2.937633598370704">
        <ele>432.0</ele>
      </trkpt>
      <trkpt lat="43.955345840271434" lon="2.937504605332016">
        <ele>432.0</ele>
      </trkpt>
      <trkpt lat="43.95532308386876" lon="2.9373405950574907">
        <ele>432.0</ele>
      </trkpt>
      <trkpt lat="43.95530032722028" lon="2.937176584913826">
        <ele>432.0</ele>
      </trkpt>
      <trkpt lat="43.9552388594725" lon="2.9370111734450184">
        <ele>431.0</ele>
      </trkpt>
      <trkpt lat="43.95517739147662" lon="2.9368457623327004">
        <ele>431.0</ele>
      </trkpt>
      <trkpt lat="43.95509261337593" lon="2.9366165828193043">
        <ele>430.0</ele>
      </trkpt>
      <trkpt lat="43.95500895120064" lon="2.9364449829783363">
        <ele>429.0</ele>
      </trkpt>
      <trkpt lat="43.954948377842875" lon="2.936331737434419">
        <ele>428.0</ele>
      </trkpt>
      <trkpt lat="43.95484941492032" lon="2.9360843043272493">
        <ele>428.0</ele>
      </trkpt>
      <trkpt lat="43.954750641964026" lon="2.9358373484233953">
        <ele>427.0</ele>
      </trkpt>
      <trkpt lat="43.9547504514434" lon="2.9358368720786205">
        <ele>426.0</ele>
      </trkpt>
      <trkpt lat="43.954695584817394" lon="2.935667180674427">
        <ele>426.0</ele>
      </trkpt>
      <trkpt lat="43.95464071792969" lon="2.9354974895966675">
        <ele>425.0</ele>
      </trkpt>
      <trkpt lat="43.95458517373003" lon="2.9353523456420283">
        <ele>425.0</ele>
      </trkpt>
      <trkpt lat="43.95452962933945" lon="2.9352072019700497">
        <ele>424.0</ele>
      </trkpt>
      <trkpt lat="43.95449520324237" lon="2.935052671795765">
        <ele>424.0</ele>
      </trkpt>
      <trkpt lat="43.954461713837546" lon="2.934795609165453">
        <ele>424.0</ele>
      </trkpt>
      <trkpt lat="43.954451482985476" lon="2.9345532954245424">
        <ele>423.0</ele>
      </trkpt>
      <trkpt lat="43.95445678713054" lon="2.934370726363831">
        <ele>422.0</ele>
      </trkpt>
      <trkpt lat="43.954475637360225" lon="2.9341890989977966">
        <ele>421.0</ele>
      </trkpt>
      <trkpt lat="43.95447904071629" lon="2.933973948182404">
        <ele>421.0</ele>
      </trkpt>
      <trkpt lat="43.9544586859808" lon="2.9337204041120244">
        <ele>420.0</ele>
      </trkpt>
      <trkpt lat="43.954437069169565" lon="2.9334138861429544">
        <ele>420.0</ele>
      </trkpt>
      <trkpt lat="43.954436960595345" lon="2.9332358935098655">
        <ele>419.0</ele>
      </trkpt>
      <trkpt lat="43.95448926363681" lon="2.933100689518286">
        <ele>419.0</ele>
      </trkpt>
      <trkpt lat="43.95452970714539" lon="2.9330413110699824">
        <ele>419.0</ele>
      </trkpt>
      <trkpt lat="43.95456059967354" lon="2.9329390935567337">
        <ele>419.0</ele>
      </trkpt>
      <trkpt lat="43.95456055515962" lon="2.9328665778828">
        <ele>420.0</ele>
      </trkpt>
      <trkpt lat="43.954560472073425" lon="2.9327314350362252">
        <ele>420.0</ele>
      </trkpt>
      <trkpt lat="43.95454818228083" lon="2.9326089541786766">
        <ele>421.0</ele>
      </trkpt>
      <trkpt lat="43.95450786470038" lon="2.932372214942684">
        <ele>422.0</ele>
      </trkpt>
      <trkpt lat="43.95452572697849" lon="2.932257363559292">
        <ele>423.0</ele>
      </trkpt>
      <trkpt lat="43.954570505850626" lon="2.9322331361506033">
        <ele>424.0</ele>
      </trkpt>
      <trkpt lat="43.95471015158393" lon="2.932190685326298">
        <ele>425.0</ele>
      </trkpt>
      <trkpt lat="43.95483158702486" lon="2.9321839485999313">
        <ele>425.0</ele>
      </trkpt>
      <trkpt lat="43.954926813266304" lon="2.932150873482757">
        <ele>426.0</ele>
      </trkpt>
      <trkpt lat="43.954945839275" lon="2.9321132742675267">
        <ele>427.0</ele>
      </trkpt>
      <trkpt lat="43.95499332729602" lon="2.9318956689201863">
        <ele>428.0</ele>
      </trkpt>
      <trkpt lat="43.95502182113588" lon="2.9317670832540363">
        <ele>429.0</ele>
      </trkpt>
      <trkpt lat="43.95504074065006" lon="2.931559400201362">
        <ele>429.0</ele>
      </trkpt>
      <trkpt lat="43.95505965976986" lon="2.9313517170109216">
        <ele>430.0</ele>
      </trkpt>
      <trkpt lat="43.95509349447043" lon="2.93112113664602">
        <ele>431.0</ele>
      </trkpt>
      <trkpt lat="43.95512732868527" lon="2.9308905560075824">
        <ele>432.0</ele>
      </trkpt>
      <trkpt lat="43.95515451971305" lon="2.9307385089502573">
        <ele>433.0</ele>
      </trkpt>
      <trkpt lat="43.95514406730398" lon="2.930527344891658">
        <ele>435.0</ele>
      </trkpt>
      <trkpt lat="43.95513361448704" lon="2.9303161809104457">
        <ele>436.0</ele>
      </trkpt>
      <trkpt lat="43.95512316126221" lon="2.930105017006627">
        <ele>437.0</ele>
      </trkpt>
      <trkpt lat="43.95509207098397" lon="2.929894098289652">
        <ele>438.0</ele>
      </trkpt>
      <trkpt lat="43.955060980299294" lon="2.929683179802596">
        <ele>439.0</ele>
      </trkpt>
      <trkpt lat="43.95506320428123" lon="2.9294392583689173">
        <ele>440.0</ele>
      </trkpt>
      <trkpt lat="43.95504402069134" lon="2.9292316216599095">
        <ele>442.0</ele>
      </trkpt>
      <trkpt lat="43.95504155194337" lon="2.929096480633151">
        <ele>443.0</ele>
      </trkpt>
      <trkpt lat="43.95507150915656" lon="2.928970548519145">
        <ele>443.0</ele>
      </trkpt>
      <trkpt lat="43.955101007474745" lon="2.9289058533083963">
        <ele>444.0</ele>
      </trkpt>
      <trkpt lat="43.955264358115855" lon="2.928855293019492">
        <ele>444.0</ele>
      </trkpt>
      <trkpt lat="43.95542770874921" lon="2.928804732441011">
        <ele>445.0</ele>
      </trkpt>
      <trkpt lat="43.955443597267454" lon="2.928653635324618">
        <ele>445.0</ele>
      </trkpt>
      <trkpt lat="43.955425671639446" lon="2.9285228215200885">
        <ele>445.0</ele>
      </trkpt>
      <trkpt lat="43.95536727320349" lon="2.9283313536146625">
        <ele>445.0</ele>
      </trkpt>
      <trkpt lat="43.95533137726213" lon="2.928059790674108">
        <ele>445.0</ele>
      </trkpt>
      <trkpt lat="43.955312866806" lon="2.9278979507364262">
        <ele>444.0</ele>
      </trkpt>
      <trkpt lat="43.955294356110436" lon="2.927736110903782">
        <ele>444.0</ele>
      </trkpt>
      <trkpt lat="43.9552381392936" lon="2.927496256572663">
        <ele>444.0</ele>
      </trkpt>
      <trkpt lat="43.95521417213084" lon="2.9272622563144566">
        <ele>444.0</ele>
      </trkpt>
      <trkpt lat="43.95516642798597" lon="2.9270810259427678">
        <ele>444.0</ele>
      </trkpt>
      <trkpt lat="43.955147222270625" lon="2.926847020045826">
        <ele>444.0</ele>
      </trkpt>
      <trkpt lat="43.955166176662914" lon="2.9267052589403155">
        <ele>444.0</ele>
      </trkpt>
      <trkpt lat="43.95517910237912" lon="2.9264511048991744">
        <ele>444.0</ele>
      </trkpt>
      <trkpt lat="43.95519197340006" lon="2.926198014652704">
        <ele>445.0</ele>
      </trkpt>
      <trkpt lat="43.95519202750445" lon="2.926196950742854">
        <ele>445.0</ele>
      </trkpt>
      <trkpt lat="43.955256178624325" lon="2.9259892065229853">
        <ele>446.0</ele>
      </trkpt>
      <trkpt lat="43.95526798392948" lon="2.9258408617327163">
        <ele>446.0</ele>
      </trkpt>
      <trkpt lat="43.95523691232545" lon="2.9256694992743864">
        <ele>447.0</ele>
      </trkpt>
      <trkpt lat="43.95516538980113" lon="2.925541040494429">
        <ele>447.0</ele>
      </trkpt>
      <trkpt lat="43.955122407389744" lon="2.9253631016860617">
        <ele>447.0</ele>
      </trkpt>
      <trkpt lat="43.95502942017284" lon="2.925185228730048">
        <ele>448.0</ele>
      </trkpt>
      <trkpt lat="43.95498452037416" lon="2.9249916110011265">
        <ele>448.0</ele>
      </trkpt>
      <trkpt lat="43.95494723067142" lon="2.92478122338552">
        <ele>448.0</ele>
      </trkpt>
      <trkpt lat="43.9549041810513" lon="2.924507696420582">
        <ele>448.0</ele>
      </trkpt>
      <trkpt lat="43.95482070571205" lon="2.924313331995965">
        <ele>448.0</ele>
      </trkpt>
      <trkpt lat="43.95467293394676" lon="2.9241124613175855">
        <ele>448.0</ele>
      </trkpt>
      <trkpt lat="43.954606112316064" lon="2.923898299012081">
        <ele>448.0</ele>
      </trkpt>
      <trkpt lat="43.95459527943633" lon="2.923729549472119">
        <ele>448.0</ele>
      </trkpt>
      <trkpt lat="43.95458444629615" lon="2.923560799996251">
        <ele>448.0</ele>
      </trkpt>
      <trkpt lat="43.95457001272285" lon="2.9233515125248553">
        <ele>447.0</ele>
      </trkpt>
      <trkpt lat="43.95455557874894" lon="2.923142225159374">
        <ele>446.0</ele>
      </trkpt>
      <trkpt lat="43.95449348733267" lon="2.9228852078809346">
        <ele>445.0</ele>
      </trkpt>
      <trkpt lat="43.95441722485084" lon="2.9227930184566455">
        <ele>443.0</ele>
      </trkpt>
      <trkpt lat="43.954416695078066" lon="2.9226013507468527">
        <ele>442.0</ele>
      </trkpt>
      <trkpt lat="43.95436459885364" lon="2.9224535853653664">
        <ele>440.0</ele>
      </trkpt>
      <trkpt lat="43.95415154173346" lon="2.9225346305824313">
        <ele>439.0</ele>
      </trkpt>
      <trkpt lat="43.95393848457981" lon="2.9226156751940877">
        <ele>437.0</ele>
      </trkpt>
      <trkpt lat="43.953843191257356" lon="2.9225498819010594">
        <ele>436.0</ele>
      </trkpt>
      <trkpt lat="43.95378118276896" lon="2.9224115288531207">
        <ele>436.0</ele>
      </trkpt>
      <trkpt lat="43.95374625607321" lon="2.922184143890902">
        <ele>435.0</ele>
      </trkpt>
      <trkpt lat="43.953733029273884" lon="2.922001227164687">
        <ele>435.0</ele>
      </trkpt>
      <trkpt lat="43.953719802168585" lon="2.9218183105233004">
        <ele>434.0</ele>
      </trkpt>
      <trkpt lat="43.95370304434868" lon="2.9216930809212087">
        <ele>435.0</ele>
      </trkpt>
      <trkpt lat="43.95362823991483" lon="2.9214949193231043">
        <ele>435.0</ele>
      </trkpt>
      <trkpt lat="43.953553435125" lon="2.9212967582447193">
        <ele>436.0</ele>
      </trkpt>
      <trkpt lat="43.95344302782732" lon="2.9210408090195235">
        <ele>436.0</ele>
      </trkpt>
      <trkpt lat="43.95336780524022" lon="2.920764136754652">
        <ele>437.0</ele>
      </trkpt>
      <trkpt lat="43.95328785307939" lon="2.9204905757261557">
        <ele>437.0</ele>
      </trkpt>
      <trkpt lat="43.95328538793555" lon="2.9203752157959584">
        <ele>438.0</ele>
      </trkpt>
      <trkpt lat="43.95331732727789" lon="2.9200923660026525">
        <ele>438.0</ele>
      </trkpt>
      <trkpt lat="43.95334926588888" lon="2.9198095158926107">
        <ele>438.0</ele>
      </trkpt>
      <trkpt lat="43.9533383968908" lon="2.919600228868212">
        <ele>438.0</ele>
      </trkpt>
      <trkpt lat="43.953327527492036" lon="2.91939094192357">
        <ele>438.0</ele>
      </trkpt>
      <trkpt lat="43.9532940244396" lon="2.9191652066411615">
        <ele>438.0</ele>
      </trkpt>
      <trkpt lat="43.95326052092163" lon="2.9189394716239105">
        <ele>438.0</ele>
      </trkpt>
      <trkpt lat="43.95320327021393" lon="2.9188011171350317">
        <ele>438.0</ele>
      </trkpt>
      <trkpt lat="43.95311977990171" lon="2.9186001746906856">
        <ele>437.0</ele>
      </trkpt>
      <trkpt lat="43.953036289224166" lon="2.9183992328345427">
        <ele>437.0</ele>
      </trkpt>
      <trkpt lat="43.95296942191348" lon="2.9181389383238616">
        <ele>437.0</ele>
      </trkpt>
      <trkpt lat="43.952877425791506" lon="2.918040307324968">
        <ele>437.0</ele>
      </trkpt>
      <trkpt lat="43.95280313801362" lon="2.9178309641244042">
        <ele>437.0</ele>
      </trkpt>
      <trkpt lat="43.952728849837996" lon="2.9176216214690864">
        <ele>438.0</ele>
      </trkpt>
      <trkpt lat="43.95265456126467" lon="2.9174122793590156">
        <ele>438.0</ele>
      </trkpt>
      <trkpt lat="43.95264379104671" lon="2.917223731430778">
        <ele>439.0</ele>
      </trkpt>
      <trkpt lat="43.95263302050357" lon="2.917035183573738">
        <ele>440.0</ele>
      </trkpt>
      <trkpt lat="43.95261732807816" lon="2.916867795596725">
        <ele>442.0</ele>
      </trkpt>
      <trkpt lat="43.95260163539655" lon="2.9167004077118053">
        <ele>443.0</ele>
      </trkpt>
      <trkpt lat="43.95265621096904" lon="2.9164498274586403">
        <ele>445.0</ele>
      </trkpt>
      <trkpt lat="43.95270605648441" lon="2.916242102491293">
        <ele>446.0</ele>
      </trkpt>
      <trkpt lat="43.952735961197085" lon="2.9160401858715224">
        <ele>447.0</ele>
      </trkpt>
      <trkpt lat="43.952785083367125" lon="2.915770675798365">
        <ele>447.0</ele>
      </trkpt>
      <trkpt lat="43.95276841017499" lon="2.915464639663696">
        <ele>447.0</ele>
      </trkpt>
      <trkpt lat="43.952729791156855" lon="2.915311753646344">
        <ele>448.0</ele>
      </trkpt>
      <trkpt lat="43.9526911719257" lon="2.9151588678359976">
        <ele>447.0</ele>
      </trkpt>
      <trkpt lat="43.952613933575925" lon="2.914901375770569">
        <ele>447.0</ele>
      </trkpt>
      <trkpt lat="43.95256372866874" lon="2.9147565363562924">
        <ele>446.0</ele>
      </trkpt>
      <trkpt lat="43.95251352357115" lon="2.9146116971969596">
        <ele>446.0</ele>
      </trkpt>
      <trkpt lat="43.95241697532964" lon="2.9143488407135023">
        <ele>445.0</ele>
      </trkpt>
      <trkpt lat="43.95230497917299" lon="2.914096713066101">
        <ele>445.0</ele>
      </trkpt>
      <trkpt lat="43.95220393730678" lon="2.9138500911817053">
        <ele>445.0</ele>
      </trkpt>
      <trkpt lat="43.95208871013532" lon="2.9136461019515987">
        <ele>445.0</ele>
      </trkpt>
      <trkpt lat="43.951923826476964" lon="2.9135163357260647">
        <ele>445.0</ele>
      </trkpt>
      <trkpt lat="43.95173866292499" lon="2.913366180920242">
        <ele>446.0</ele>
      </trkpt>
      <trkpt lat="43.95155349918689" lon="2.9132160270891885">
        <ele>446.0</ele>
      </trkpt>
      <trkpt lat="43.95140426478416" lon="2.913093894648088">
        <ele>447.0</ele>
      </trkpt>
      <trkpt lat="43.951255030258025" lon="2.9129717628459924">
        <ele>448.0</ele>
      </trkpt>
      <trkpt lat="43.95113835765836" lon="2.912851768283708">
        <ele>448.0</ele>
      </trkpt>
      <trkpt lat="43.95102168493496" lon="2.912731774212257">
        <ele>449.0</ele>
      </trkpt>
      <trkpt lat="43.95090108161117" lon="2.9125972022614426">
        <ele>449.0</ele>
      </trkpt>
      <trkpt lat="43.950780478130234" lon="2.912462630879632">
        <ele>448.0</ele>
      </trkpt>
      <trkpt lat="43.95066363197642" lon="2.9123318195343018">
        <ele>448.0</ele>
      </trkpt>
      <trkpt lat="43.950528460187094" lon="2.9122406244277954">
        <ele>448.0</ele>
      </trkpt>
      <trkpt lat="43.95046606221972" lon="2.9120994861470697">
        <ele>447.0</ele>
      </trkpt>
      <trkpt lat="43.95043190872067" lon="2.9121741056769683">
        <ele>446.0</ele>
      </trkpt>
      <trkpt lat="43.9503836329287" lon="2.912131190332729">
        <ele>445.0</ele>
      </trkpt>
      <trkpt lat="43.95027356397636" lon="2.911999762091">
        <ele>444.0</ele>
      </trkpt>
      <trkpt lat="43.95015383962132" lon="2.9118307829230616">
        <ele>443.0</ele>
      </trkpt>
      <trkpt lat="43.950082391101" lon="2.911720812353451">
        <ele>443.0</ele>
      </trkpt>
      <trkpt lat="43.94998970100068" lon="2.9115116000502894">
        <ele>442.0</ele>
      </trkpt>
      <trkpt lat="43.94987576922101" lon="2.91126483682092">
        <ele>442.0</ele>
      </trkpt>
      <trkpt lat="43.94979852721225" lon="2.911079764398892">
        <ele>441.0</ele>
      </trkpt>
      <trkpt lat="43.949732871425915" lon="2.910867869886715">
        <ele>441.0</ele>
      </trkpt>
      <trkpt lat="43.94969231928632" lon="2.9106586575835545">
        <ele>441.0</ele>
      </trkpt>
      <trkpt lat="43.94966721556701" lon="2.910433352026303">
        <ele>441.0</ele>
      </trkpt>
      <trkpt lat="43.94966721556701" lon="2.9102911949485133">
        <ele>441.0</ele>
      </trkpt>
      <trkpt lat="43.94965369817528" lon="2.910229504141171">
        <ele>440.0</ele>
      </trkpt>
      <trkpt lat="43.949626663382624" lon="2.9101329446166346">
        <ele>440.0</ele>
      </trkpt>
      <trkpt lat="43.949605421751194" lon="2.9100363850920985">
        <ele>439.0</ele>
      </trkpt>
      <trkpt lat="43.94960532471199" lon="2.9100360211694953">
        <ele>438.0</ele>
      </trkpt>
      <trkpt lat="43.94958611117061" lon="2.909963965448697">
        <ele>437.0</ele>
      </trkpt>
      <trkpt lat="43.94954362787118" lon="2.9099049568503674">
        <ele>436.0</ele>
      </trkpt>
      <trkpt lat="43.949468316493025" lon="2.909824490579923">
        <ele>434.0</ele>
      </trkpt>
      <trkpt lat="43.94938528076035" lon="2.9097252488463714">
        <ele>432.0</ele>
      </trkpt>
      <trkpt lat="43.949315762383314" lon="2.909575045141537">
        <ele>430.0</ele>
      </trkpt>
      <trkpt lat="43.949248174994345" lon="2.909422159227688">
        <ele>428.0</ele>
      </trkpt>
      <trkpt lat="43.949170932169956" lon="2.909339010748227">
        <ele>426.0</ele>
      </trkpt>
      <trkpt lat="43.94899520437059" lon="2.909159302744227">
        <ele>424.0</ele>
      </trkpt>
      <trkpt lat="43.94891023689664" lon="2.909041285547573">
        <ele>423.0</ele>
      </trkpt>
      <trkpt lat="43.948831062550234" lon="2.9089125395148585">
        <ele>421.0</ele>
      </trkpt>
      <trkpt lat="43.94876733678017" lon="2.908748924764951">
        <ele>420.0</ele>
      </trkpt>
      <trkpt lat="43.948740301584365" lon="2.908665776285489">
        <ele>418.0</ele>
      </trkpt>
      <trkpt lat="43.948701679854715" lon="2.908585310015041">
        <ele>417.0</ele>
      </trkpt>
      <trkpt lat="43.94865340265739" lon="2.908523619207699">
        <ele>416.0</ele>
      </trkpt>
      <trkpt lat="43.94862443632015" lon="2.908472657236416">
        <ele>416.0</ele>
      </trkpt>
      <trkpt lat="43.94859933214979" lon="2.908394873174985">
        <ele>416.0</ele>
      </trkpt>
      <trkpt lat="43.9485954699688" lon="2.9082714915603">
        <ele>416.0</ele>
      </trkpt>
      <trkpt lat="43.9485954699688" lon="2.908156156572659">
        <ele>415.0</ele>
      </trkpt>
      <trkpt lat="43.94861671196121" lon="2.90801399949487">
        <ele>415.0</ele>
      </trkpt>
      <trkpt lat="43.94865726483463" lon="2.907869160208064">
        <ele>415.0</ele>
      </trkpt>
      <trkpt lat="43.948672713541" lon="2.907708227667172">
        <ele>415.0</ele>
      </trkpt>
      <trkpt lat="43.948692024418364" lon="2.907549977335293">
        <ele>415.0</ele>
      </trkpt>
      <trkpt lat="43.94870361094181" lon="2.9074185490935616">
        <ele>414.0</ele>
      </trkpt>
      <trkpt lat="43.94866112701162" lon="2.9071986079543426">
        <ele>413.0</ele>
      </trkpt>
      <trkpt lat="43.94861671196121" lon="2.9070430398314784">
        <ele>412.0</ele>
      </trkpt>
      <trkpt lat="43.948558779236826" lon="2.906823098692256">
        <ele>411.0</ele>
      </trkpt>
      <trkpt lat="43.948493122081025" lon="2.9066004753440216">
        <ele>409.0</ele>
      </trkpt>
      <trkpt lat="43.948404291695894" lon="2.9063724875777557">
        <ele>408.0</ele>
      </trkpt>
      <trkpt lat="43.9483608420876" lon="2.9062236248640523">
        <ele>406.0</ele>
      </trkpt>
      <trkpt lat="43.948317392277666" lon="2.906074762377103">
        <ele>405.0</ele>
      </trkpt>
      <trkpt lat="43.94823242383481" lon="2.9058065414756133">
        <ele>403.0</ele>
      </trkpt>
      <trkpt lat="43.94820152618907" lon="2.905683159860929">
        <ele>402.0</ele>
      </trkpt>
      <trkpt lat="43.94821311280809" lon="2.9055490494101845">
        <ele>401.0</ele>
      </trkpt>
      <trkpt lat="43.94826332146446" lon="2.9053773880332305">
        <ele>400.0</ele>
      </trkpt>
      <trkpt lat="43.94832318557616" lon="2.9051815867751434">
        <ele>400.0</ele>
      </trkpt>
      <trkpt lat="43.948440982523245" lon="2.904956281217892">
        <ele>399.0</ele>
      </trkpt>
      <trkpt lat="43.94857809015123" lon="2.9047604799598052">
        <ele>398.0</ele>
      </trkpt>
      <trkpt lat="43.94864954047992" lon="2.904604911836942">
        <ele>397.0</ele>
      </trkpt>
      <trkpt lat="43.94870361115136" lon="2.9043782653899983">
        <ele>396.0</ele>
      </trkpt>
      <trkpt lat="43.948757681354536" lon="2.904151618513425">
        <ele>395.0</ele>
      </trkpt>
      <trkpt lat="43.948829131677755" lon="2.9039155844157345">
        <ele>394.0</ele>
      </trkpt>
      <trkpt lat="43.948900581494186" lon="2.903679549726803">
        <ele>392.0</ele>
      </trkpt>
      <trkpt lat="43.94901354979063" lon="2.9034247403749673">
        <ele>391.0</ele>
      </trkpt>
      <trkpt lat="43.9491265175005" lon="2.9031699300139735">
        <ele>389.0</ele>
      </trkpt>
      <trkpt lat="43.94919796726454" lon="2.902995586646361">
        <ele>387.0</ele>
      </trkpt>
      <trkpt lat="43.949269416753445" lon="2.902821242842037">
        <ele>385.0</ele>
      </trkpt>
      <trkpt lat="43.94933603865143" lon="2.9026696982096736">
        <ele>383.0</ele>
      </trkpt>
      <trkpt lat="43.94940266034189" lon="2.902518153223355">
        <ele>382.0</ele>
      </trkpt>
      <trkpt lat="43.949450936930674" lon="2.902300894293147">
        <ele>380.0</ele>
      </trkpt>
      <trkpt lat="43.9494953513577" lon="2.902099728617032">
        <ele>378.0</ele>
      </trkpt>
      <trkpt lat="43.94955907634723" lon="2.9018046856253927">
        <ele>377.0</ele>
      </trkpt>
      <trkpt lat="43.949624732325546" lon="2.90153378251489">
        <ele>375.0</ele>
      </trkpt>
      <trkpt lat="43.949676870844925" lon="2.9012360573142364">
        <ele>373.0</ele>
      </trkpt>
      <trkpt lat="43.94970969877807" lon="2.900965154203732">
        <ele>372.0</ele>
      </trkpt>
      <trkpt lat="43.949729009318574" lon="2.900704979929287">
        <ele>370.0</ele>
      </trkpt>
      <trkpt lat="43.949734802593746" lon="2.90054672961348">
        <ele>369.0</ele>
      </trkpt>
      <trkpt lat="43.94974059563982" lon="2.9003884792655312">
        <ele>367.0</ele>
      </trkpt>
      <trkpt lat="43.949736733532966" lon="2.900144398245176">
        <ele>366.0</ele>
      </trkpt>
      <trkpt lat="43.94972514721098" lon="2.899878859552701">
        <ele>365.0</ele>
      </trkpt>
      <trkpt lat="43.94971744396603" lon="2.8996140417580953">
        <ele>363.0</ele>
      </trkpt>
      <trkpt lat="43.949717422995064" lon="2.8996133208602264">
        <ele>362.0</ele>
      </trkpt>
      <trkpt lat="43.94975218195884" lon="2.899393379721006">
        <ele>361.0</ele>
      </trkpt>
      <trkpt lat="43.94979466523254" lon="2.899219036264871">
        <ele>360.0</ele>
      </trkpt>
      <trkpt lat="43.9498371482292" lon="2.89904469254907">
        <ele>358.0</ele>
      </trkpt>
      <trkpt lat="43.94989797638895" lon="2.898869008045922">
        <ele>357.0</ele>
      </trkpt>
      <trkpt lat="43.94995880426847" lon="2.8986933231681187">
        <ele>356.0</ele>
      </trkpt>
      <trkpt lat="43.95005535650333" lon="2.898438513311703">
        <ele>355.0</ele>
      </trkpt>
      <trkpt lat="43.95016542591097" lon="2.8982534412467627">
        <ele>353.0</ele>
      </trkpt>
      <trkpt lat="43.950275495012356" lon="2.8980683684676487">
        <ele>352.0</ele>
      </trkpt>
      <trkpt lat="43.95036818468288" lon="2.8979275527231643">
        <ele>351.0</ele>
      </trkpt>
      <trkpt lat="43.95046087417703" lon="2.8977867365210837">
        <ele>350.0</ele>
      </trkpt>
      <trkpt lat="43.950558391109176" lon="2.8976526262995908">
        <ele>348.0</ele>
      </trkpt>
      <trkpt lat="43.95065590788237" lon="2.8975185156195953">
        <ele>347.0</ele>
      </trkpt>
      <trkpt lat="43.95068101118407" lon="2.8974085450499842">
        <ele>346.0</ele>
      </trkpt>
      <trkpt lat="43.95080266549607" lon="2.8972395658820465">
        <ele>344.0</ele>
      </trkpt>
      <trkpt lat="43.95089535432857" lon="2.8971376419394796">
        <ele>343.0</ele>
      </trkpt>
      <trkpt lat="43.95101507718991" lon="2.8969525695174525">
        <ele>341.0</ele>
      </trkpt>
      <trkpt lat="43.9511116277088" lon="2.8967487216323207">
        <ele>340.0</ele>
      </trkpt>
      <trkpt lat="43.951170523559355" lon="2.896573037123226">
        <ele>339.0</ele>
      </trkpt>
      <trkpt lat="43.95122941912955" lon="2.8963973522513697">
        <ele>337.0</ele>
      </trkpt>
      <trkpt lat="43.95128928043595" lon="2.896181434652244">
        <ele>336.0</ele>
      </trkpt>
      <trkpt lat="43.95134914131792" lon="2.895965516599973">
        <ele>335.0</ele>
      </trkpt>
      <trkpt lat="43.951410933320815" lon="2.8957133889525704">
        <ele>334.0</ele>
      </trkpt>
      <trkpt lat="43.95141096493718" lon="2.895713056450583">
        <ele>333.0</ele>
      </trkpt>
      <trkpt lat="43.951437967301885" lon="2.895429074796994">
        <ele>332.0</ele>
      </trkpt>
      <trkpt lat="43.951434105305445" lon="2.895291745662689">
        <ele>331.0</ele>
      </trkpt>
      <trkpt lat="43.95141085808606" lon="2.8951632268127194">
        <ele>331.0</ele>
      </trkpt>
      <trkpt lat="43.951410899999885" lon="2.895163200000001">
        <ele>330.0</ele>
      </trkpt>
      <trkpt lat="43.95133755531038" lon="2.894983291625976">
        <ele>330.0</ele>
      </trkpt>
      <trkpt lat="43.95126803921679" lon="2.8947928547859205">
        <ele>330.0</ele>
      </trkpt>
      <trkpt lat="43.95119273002365" lon="2.894586324691773">
        <ele>330.0</ele>
      </trkpt>
      <trkpt lat="43.95110969670011" lon="2.8943315148353577">
        <ele>329.0</ele>
      </trkpt>
      <trkpt lat="43.95102473224894" lon="2.8940606117248544">
        <ele>329.0</ele>
      </trkpt>
      <trkpt lat="43.95095080992254" lon="2.893871332713505">
        <ele>329.0</ele>
      </trkpt>
    </trkseg>
  </trk>
</gpx>