<?xml version="1.0" encoding="UTF-8" standalone="no" ?>
<gpx xmlns="http://www.topografix.com/GPX/1/1"
     creator="TourInSoft"
     version="1.1"
     xmlns:xsi="http://www.w3.org/2001/XMLSchema-instance"
     xsi:schemaLocation="http://www.topografix.com/GPX/1/1 http://www.topografix.com/GPX/1/1/gpx.xsd">
<trk>
<trkseg>
<trkpt lat="44.3632977111279" lon="3.74359630725212"></trkpt><trkpt lat="44.36329" lon="3.74359"></trkpt><trkpt lat="44.36303" lon="3.74475"></trkpt><trkpt lat="44.36301" lon="3.74492"></trkpt><trkpt lat="44.36306" lon="3.74623"></trkpt><trkpt lat="44.36336" lon="3.74705"></trkpt><trkpt lat="44.36341" lon="3.74692"></trkpt><trkpt lat="44.36341" lon="3.74687"></trkpt><trkpt lat="44.36338" lon="3.74662"></trkpt><trkpt lat="44.36338" lon="3.74641"></trkpt><trkpt lat="44.36338" lon="3.74641"></trkpt><trkpt lat="44.36338" lon="3.74632"></trkpt><trkpt lat="44.36341" lon="3.74618"></trkpt><trkpt lat="44.36351" lon="3.74584"></trkpt><trkpt lat="44.36377" lon="3.74532"></trkpt><trkpt lat="44.36384" lon="3.74528"></trkpt><trkpt lat="44.36391" lon="3.7453"></trkpt><trkpt lat="44.36397" lon="3.74535"></trkpt><trkpt lat="44.36399" lon="3.74541"></trkpt><trkpt lat="44.36399" lon="3.74556"></trkpt><trkpt lat="44.36363" lon="3.74712"></trkpt><trkpt lat="44.36363" lon="3.7472"></trkpt><trkpt lat="44.36366" lon="3.74728"></trkpt><trkpt lat="44.36372" lon="3.74728"></trkpt><trkpt lat="44.36374" lon="3.74724"></trkpt><trkpt lat="44.3638" lon="3.7469"></trkpt><trkpt lat="44.36388" lon="3.74668"></trkpt><trkpt lat="44.36393" lon="3.7466"></trkpt><trkpt lat="44.36399" lon="3.74656"></trkpt><trkpt lat="44.36436" lon="3.74646"></trkpt><trkpt lat="44.36464" lon="3.74644"></trkpt><trkpt lat="44.36489" lon="3.74648"></trkpt><trkpt lat="44.36509" lon="3.74655"></trkpt><trkpt lat="44.36544" lon="3.74671"></trkpt><trkpt lat="44.36582" lon="3.74682"></trkpt><trkpt lat="44.36581" lon="3.74682"></trkpt><trkpt lat="44.36682" lon="3.74696"></trkpt><trkpt lat="44.36718" lon="3.74726"></trkpt><trkpt lat="44.36759" lon="3.7481"></trkpt><trkpt lat="44.36785" lon="3.74839"></trkpt><trkpt lat="44.36836" lon="3.74857"></trkpt><trkpt lat="44.3689" lon="3.74863"></trkpt><trkpt lat="44.36955" lon="3.74865"></trkpt><trkpt lat="44.37012" lon="3.74894"></trkpt><trkpt lat="44.37031" lon="3.74913"></trkpt><trkpt lat="44.37071" lon="3.74978"></trkpt><trkpt lat="44.37109" lon="3.74994"></trkpt><trkpt lat="44.3715" lon="3.75049"></trkpt><trkpt lat="44.3718" lon="3.75078"></trkpt><trkpt lat="44.37228" lon="3.75105"></trkpt><trkpt lat="44.37318" lon="3.75116"></trkpt><trkpt lat="44.37356" lon="3.75132"></trkpt><trkpt lat="44.37411" lon="3.75136"></trkpt><trkpt lat="44.37447" lon="3.75145"></trkpt><trkpt lat="44.37495" lon="3.75142"></trkpt><trkpt lat="44.3757" lon="3.75181"></trkpt><trkpt lat="44.37617" lon="3.75198"></trkpt><trkpt lat="44.37666" lon="3.752"></trkpt><trkpt lat="44.37727" lon="3.75198"></trkpt><trkpt lat="44.37817" lon="3.75219"></trkpt><trkpt lat="44.37849" lon="3.75232"></trkpt><trkpt lat="44.37892" lon="3.75223"></trkpt><trkpt lat="44.37946" lon="3.75233"></trkpt><trkpt lat="44.38018" lon="3.75273"></trkpt><trkpt lat="44.38046" lon="3.75281"></trkpt><trkpt lat="44.38237" lon="3.75278"></trkpt><trkpt lat="44.38247" lon="3.75287"></trkpt><trkpt lat="44.38252" lon="3.75296"></trkpt><trkpt lat="44.38254" lon="3.75309"></trkpt><trkpt lat="44.38253" lon="3.75347"></trkpt><trkpt lat="44.38249" lon="3.75435"></trkpt><trkpt lat="44.3825" lon="3.75493"></trkpt><trkpt lat="44.38282" lon="3.75577"></trkpt><trkpt lat="44.38303" lon="3.75579"></trkpt><trkpt lat="44.38318" lon="3.75558"></trkpt><trkpt lat="44.38323" lon="3.75541"></trkpt><trkpt lat="44.38323" lon="3.75519"></trkpt><trkpt lat="44.38328" lon="3.75501"></trkpt><trkpt lat="44.38341" lon="3.75478"></trkpt><trkpt lat="44.38355" lon="3.75445"></trkpt><trkpt lat="44.38362" lon="3.75411"></trkpt><trkpt lat="44.38373" lon="3.75392"></trkpt><trkpt lat="44.384" lon="3.75351"></trkpt><trkpt lat="44.3841" lon="3.75341"></trkpt><trkpt lat="44.38419" lon="3.75335"></trkpt><trkpt lat="44.3843" lon="3.75332"></trkpt><trkpt lat="44.38444" lon="3.7533"></trkpt><trkpt lat="44.38481" lon="3.75334"></trkpt><trkpt lat="44.38556" lon="3.75328"></trkpt><trkpt lat="44.38626" lon="3.75313"></trkpt><trkpt lat="44.38626" lon="3.75313"></trkpt><trkpt lat="44.38718" lon="3.75289"></trkpt><trkpt lat="44.38733" lon="3.75287"></trkpt><trkpt lat="44.38745" lon="3.75289"></trkpt><trkpt lat="44.38757" lon="3.75296"></trkpt><trkpt lat="44.38769" lon="3.75305"></trkpt><trkpt lat="44.38794" lon="3.75328"></trkpt><trkpt lat="44.38808" lon="3.75335"></trkpt><trkpt lat="44.38819" lon="3.75335"></trkpt><trkpt lat="44.38829" lon="3.75331"></trkpt><trkpt lat="44.38858" lon="3.75315"></trkpt><trkpt lat="44.3887" lon="3.75312"></trkpt><trkpt lat="44.38881" lon="3.75312"></trkpt><trkpt lat="44.38894" lon="3.75319"></trkpt><trkpt lat="44.38906" lon="3.75335"></trkpt><trkpt lat="44.38916" lon="3.75344"></trkpt><trkpt lat="44.38926" lon="3.75347"></trkpt><trkpt lat="44.3894" lon="3.75347"></trkpt><trkpt lat="44.38978" lon="3.75338"></trkpt><trkpt lat="44.39027" lon="3.75314"></trkpt><trkpt lat="44.39059" lon="3.75294"></trkpt><trkpt lat="44.39082" lon="3.75263"></trkpt><trkpt lat="44.39145" lon="3.75151"></trkpt><trkpt lat="44.39153" lon="3.75138"></trkpt><trkpt lat="44.3917" lon="3.75125"></trkpt><trkpt lat="44.39181" lon="3.7512"></trkpt><trkpt lat="44.39193" lon="3.75118"></trkpt><trkpt lat="44.39214" lon="3.75123"></trkpt><trkpt lat="44.39236" lon="3.75141"></trkpt><trkpt lat="44.39248" lon="3.75164"></trkpt><trkpt lat="44.39254" lon="3.75184"></trkpt><trkpt lat="44.39264" lon="3.75206"></trkpt><trkpt lat="44.39271" lon="3.75213"></trkpt><trkpt lat="44.39289" lon="3.75222"></trkpt><trkpt lat="44.39307" lon="3.75222"></trkpt><trkpt lat="44.39349" lon="3.75214"></trkpt><trkpt lat="44.39412" lon="3.75188"></trkpt><trkpt lat="44.39509" lon="3.75142"></trkpt><trkpt lat="44.39609" lon="3.75115"></trkpt><trkpt lat="44.39618" lon="3.75114"></trkpt><trkpt lat="44.39625" lon="3.75115"></trkpt><trkpt lat="44.39638" lon="3.75125"></trkpt><trkpt lat="44.39645" lon="3.75134"></trkpt><trkpt lat="44.39679" lon="3.75191"></trkpt><trkpt lat="44.39685" lon="3.75199"></trkpt><trkpt lat="44.39698" lon="3.75206"></trkpt><trkpt lat="44.39713" lon="3.75206"></trkpt><trkpt lat="44.39729" lon="3.75196"></trkpt><trkpt lat="44.39745" lon="3.75171"></trkpt><trkpt lat="44.39757" lon="3.7516"></trkpt><trkpt lat="44.39767" lon="3.75156"></trkpt><trkpt lat="44.3978" lon="3.75155"></trkpt><trkpt lat="44.39812" lon="3.75161"></trkpt><trkpt lat="44.39822" lon="3.75162"></trkpt><trkpt lat="44.39832" lon="3.75157"></trkpt><trkpt lat="44.3984" lon="3.75144"></trkpt><trkpt lat="44.39842" lon="3.7513"></trkpt><trkpt lat="44.39841" lon="3.75107"></trkpt><trkpt lat="44.39842" lon="3.75088"></trkpt><trkpt lat="44.39846" lon="3.75074"></trkpt><trkpt lat="44.39851" lon="3.7506"></trkpt><trkpt lat="44.39868" lon="3.75026"></trkpt><trkpt lat="44.39879" lon="3.75013"></trkpt><trkpt lat="44.39895" lon="3.75004"></trkpt><trkpt lat="44.39975" lon="3.74967"></trkpt><trkpt lat="44.39988" lon="3.74955"></trkpt><trkpt lat="44.40004" lon="3.74943"></trkpt><trkpt lat="44.40018" lon="3.74938"></trkpt><trkpt lat="44.40054" lon="3.74929"></trkpt><trkpt lat="44.40067" lon="3.74928"></trkpt><trkpt lat="44.40087" lon="3.74931"></trkpt><trkpt lat="44.4011" lon="3.7494"></trkpt><trkpt lat="44.40119" lon="3.7494"></trkpt><trkpt lat="44.40148" lon="3.74923"></trkpt><trkpt lat="44.4016" lon="3.74908"></trkpt><trkpt lat="44.40174" lon="3.74867"></trkpt><trkpt lat="44.40183" lon="3.7485"></trkpt><trkpt lat="44.40195" lon="3.74839"></trkpt><trkpt lat="44.40207" lon="3.74832"></trkpt><trkpt lat="44.40223" lon="3.74826"></trkpt><trkpt lat="44.40282" lon="3.74815"></trkpt><trkpt lat="44.40307" lon="3.74804"></trkpt><trkpt lat="44.40324" lon="3.74792"></trkpt><trkpt lat="44.40335" lon="3.7478"></trkpt><trkpt lat="44.40343" lon="3.74767"></trkpt><trkpt lat="44.40382" lon="3.74684"></trkpt><trkpt lat="44.40392" lon="3.74662"></trkpt><trkpt lat="44.40397" lon="3.74638"></trkpt><trkpt lat="44.40396" lon="3.74595"></trkpt><trkpt lat="44.40397" lon="3.74582"></trkpt><trkpt lat="44.40412" lon="3.74542"></trkpt><trkpt lat="44.40413" lon="3.74532"></trkpt><trkpt lat="44.40418" lon="3.74498"></trkpt><trkpt lat="44.4042" lon="3.74466"></trkpt><trkpt lat="44.40418" lon="3.74457"></trkpt><trkpt lat="44.40406" lon="3.74429"></trkpt><trkpt lat="44.40406" lon="3.74424"></trkpt><trkpt lat="44.40408" lon="3.74419"></trkpt><trkpt lat="44.40411" lon="3.74415"></trkpt><trkpt lat="44.40416" lon="3.74416"></trkpt><trkpt lat="44.4042" lon="3.7442"></trkpt><trkpt lat="44.40441" lon="3.74477"></trkpt><trkpt lat="44.40454" lon="3.74502"></trkpt><trkpt lat="44.4046" lon="3.7451"></trkpt><trkpt lat="44.40487" lon="3.74529"></trkpt><trkpt lat="44.40511" lon="3.74543"></trkpt><trkpt lat="44.40533" lon="3.74547"></trkpt><trkpt lat="44.40546" lon="3.74546"></trkpt><trkpt lat="44.40555" lon="3.74542"></trkpt><trkpt lat="44.40583" lon="3.74523"></trkpt><trkpt lat="44.40594" lon="3.74521"></trkpt><trkpt lat="44.40599" lon="3.74524"></trkpt><trkpt lat="44.40608" lon="3.74535"></trkpt><trkpt lat="44.40609" lon="3.74547"></trkpt><trkpt lat="44.40606" lon="3.74564"></trkpt><trkpt lat="44.40582" lon="3.74625"></trkpt><trkpt lat="44.40566" lon="3.74705"></trkpt><trkpt lat="44.40565" lon="3.74727"></trkpt><trkpt lat="44.40568" lon="3.74743"></trkpt><trkpt lat="44.40576" lon="3.74766"></trkpt><trkpt lat="44.40589" lon="3.74792"></trkpt><trkpt lat="44.40595" lon="3.74809"></trkpt><trkpt lat="44.40599" lon="3.74841"></trkpt><trkpt lat="44.40602" lon="3.74856"></trkpt><trkpt lat="44.40625" lon="3.74897"></trkpt><trkpt lat="44.40625" lon="3.74896"></trkpt><trkpt lat="44.40629" lon="3.74907"></trkpt><trkpt lat="44.40641" lon="3.74955"></trkpt><trkpt lat="44.40647" lon="3.74973"></trkpt><trkpt lat="44.40657" lon="3.7499"></trkpt><trkpt lat="44.40691" lon="3.75023"></trkpt><trkpt lat="44.40711" lon="3.75039"></trkpt><trkpt lat="44.40731" lon="3.75051"></trkpt><trkpt lat="44.40748" lon="3.75055"></trkpt><trkpt lat="44.40762" lon="3.75056"></trkpt><trkpt lat="44.40806" lon="3.7505"></trkpt><trkpt lat="44.40817" lon="3.75051"></trkpt><trkpt lat="44.4087" lon="3.75074"></trkpt><trkpt lat="44.40876" lon="3.75081"></trkpt><trkpt lat="44.4088" lon="3.75092"></trkpt><trkpt lat="44.4088" lon="3.75106"></trkpt><trkpt lat="44.40854" lon="3.75235"></trkpt><trkpt lat="44.40824" lon="3.75352"></trkpt><trkpt lat="44.40817" lon="3.75389"></trkpt><trkpt lat="44.40817" lon="3.75412"></trkpt><trkpt lat="44.40819" lon="3.75434"></trkpt><trkpt lat="44.40818" lon="3.75456"></trkpt><trkpt lat="44.40814" lon="3.75474"></trkpt><trkpt lat="44.40793" lon="3.75535"></trkpt><trkpt lat="44.40771" lon="3.7561"></trkpt><trkpt lat="44.40765" lon="3.75625"></trkpt><trkpt lat="44.40753" lon="3.75636"></trkpt><trkpt lat="44.4058" lon="3.75722"></trkpt><trkpt lat="44.40565" lon="3.75734"></trkpt><trkpt lat="44.4051" lon="3.75805"></trkpt><trkpt lat="44.40496" lon="3.75833"></trkpt><trkpt lat="44.40483" lon="3.75866"></trkpt><trkpt lat="44.4048" lon="3.75883"></trkpt><trkpt lat="44.4047" lon="3.75965"></trkpt><trkpt lat="44.40461" lon="3.75987"></trkpt><trkpt lat="44.40451" lon="3.75997"></trkpt><trkpt lat="44.40438" lon="3.76007"></trkpt><trkpt lat="44.40428" lon="3.76011"></trkpt><trkpt lat="44.40405" lon="3.76012"></trkpt><trkpt lat="44.40395" lon="3.76016"></trkpt><trkpt lat="44.40387" lon="3.76021"></trkpt><trkpt lat="44.40368" lon="3.76042"></trkpt><trkpt lat="44.4036" lon="3.76053"></trkpt><trkpt lat="44.40315" lon="3.76149"></trkpt><trkpt lat="44.40311" lon="3.76168"></trkpt><trkpt lat="44.40315" lon="3.76194"></trkpt><trkpt lat="44.40326" lon="3.76222"></trkpt><trkpt lat="44.40333" lon="3.76235"></trkpt><trkpt lat="44.40344" lon="3.76249"></trkpt><trkpt lat="44.4038" lon="3.76288"></trkpt><trkpt lat="44.40403" lon="3.76305"></trkpt><trkpt lat="44.40445" lon="3.76313"></trkpt><trkpt lat="44.40466" lon="3.76304"></trkpt><trkpt lat="44.40479" lon="3.76301"></trkpt><trkpt lat="44.4049" lon="3.763"></trkpt><trkpt lat="44.405" lon="3.76302"></trkpt><trkpt lat="44.40519" lon="3.76314"></trkpt><trkpt lat="44.40535" lon="3.7632"></trkpt><trkpt lat="44.40594" lon="3.76324"></trkpt><trkpt lat="44.4061" lon="3.76327"></trkpt><trkpt lat="44.40631" lon="3.76342"></trkpt><trkpt lat="44.40638" lon="3.76353"></trkpt><trkpt lat="44.40642" lon="3.76364"></trkpt><trkpt lat="44.40644" lon="3.76376"></trkpt><trkpt lat="44.40643" lon="3.76391"></trkpt><trkpt lat="44.40638" lon="3.76408"></trkpt><trkpt lat="44.40588" lon="3.76526"></trkpt><trkpt lat="44.40585" lon="3.76546"></trkpt><trkpt lat="44.40587" lon="3.76561"></trkpt><trkpt lat="44.40591" lon="3.76572"></trkpt><trkpt lat="44.406" lon="3.76583"></trkpt><trkpt lat="44.40608" lon="3.76588"></trkpt><trkpt lat="44.40681" lon="3.76597"></trkpt><trkpt lat="44.40717" lon="3.76609"></trkpt><trkpt lat="44.40739" lon="3.76623"></trkpt><trkpt lat="44.40755" lon="3.76637"></trkpt><trkpt lat="44.40817" lon="3.76696"></trkpt><trkpt lat="44.40827" lon="3.76711"></trkpt><trkpt lat="44.40838" lon="3.76736"></trkpt><trkpt lat="44.40847" lon="3.76763"></trkpt><trkpt lat="44.4086" lon="3.7682"></trkpt><trkpt lat="44.4088" lon="3.76924"></trkpt><trkpt lat="44.40886" lon="3.76953"></trkpt><trkpt lat="44.40921" lon="3.77019"></trkpt><trkpt lat="44.40967" lon="3.77086"></trkpt><trkpt lat="44.4098" lon="3.77099"></trkpt><trkpt lat="44.40995" lon="3.77106"></trkpt><trkpt lat="44.41097" lon="3.77133"></trkpt><trkpt lat="44.41177" lon="3.77126"></trkpt><trkpt lat="44.41219" lon="3.77119"></trkpt><trkpt lat="44.41248" lon="3.77114"></trkpt><trkpt lat="44.41279" lon="3.77119"></trkpt><trkpt lat="44.41292" lon="3.77125"></trkpt><trkpt lat="44.41394" lon="3.77204"></trkpt><trkpt lat="44.41405" lon="3.77215"></trkpt><trkpt lat="44.41412" lon="3.77226"></trkpt><trkpt lat="44.4142" lon="3.77241"></trkpt><trkpt lat="44.41437" lon="3.77311"></trkpt><trkpt lat="44.41444" lon="3.77329"></trkpt><trkpt lat="44.41451" lon="3.77339"></trkpt><trkpt lat="44.41462" lon="3.77346"></trkpt><trkpt lat="44.41475" lon="3.77346"></trkpt><trkpt lat="44.41481" lon="3.77343"></trkpt><trkpt lat="44.41551" lon="3.7729"></trkpt><trkpt lat="44.41551" lon="3.7729"></trkpt><trkpt lat="44.41598" lon="3.77253"></trkpt><trkpt lat="44.41703" lon="3.77206"></trkpt><trkpt lat="44.41722" lon="3.77193"></trkpt><trkpt lat="44.41777" lon="3.7714"></trkpt><trkpt lat="44.41819" lon="3.77111"></trkpt><trkpt lat="44.4189" lon="3.77076"></trkpt><trkpt lat="44.41936" lon="3.77049"></trkpt><trkpt lat="44.41951" lon="3.77042"></trkpt><trkpt lat="44.42032" lon="3.77026"></trkpt><trkpt lat="44.42123" lon="3.77016"></trkpt><trkpt lat="44.42211" lon="3.77014"></trkpt><trkpt lat="44.42245" lon="3.77011"></trkpt><trkpt lat="44.42268" lon="3.76999"></trkpt><trkpt lat="44.42324" lon="3.76963"></trkpt><trkpt lat="44.42324" lon="3.76963"></trkpt><trkpt lat="44.42347" lon="3.76946"></trkpt><trkpt lat="44.42368" lon="3.76925"></trkpt><trkpt lat="44.42384" lon="3.76899"></trkpt><trkpt lat="44.42455" lon="3.77136"></trkpt><trkpt lat="44.42472" lon="3.77179"></trkpt><trkpt lat="44.42493" lon="3.77198"></trkpt><trkpt lat="44.42509" lon="3.77205"></trkpt><trkpt lat="44.42663" lon="3.77262"></trkpt><trkpt lat="44.42692" lon="3.77303"></trkpt><trkpt lat="44.42692" lon="3.77302"></trkpt><trkpt lat="44.42735" lon="3.77364"></trkpt><trkpt lat="44.42772" lon="3.77423"></trkpt><trkpt lat="44.42776" lon="3.77445"></trkpt><trkpt lat="44.42775" lon="3.77467"></trkpt><trkpt lat="44.42719" lon="3.77574"></trkpt><trkpt lat="44.42716" lon="3.77593"></trkpt><trkpt lat="44.42718" lon="3.77626"></trkpt><trkpt lat="44.42705" lon="3.77751"></trkpt><trkpt lat="44.42687" lon="3.77895"></trkpt><trkpt lat="44.42666" lon="3.78032"></trkpt><trkpt lat="44.42667" lon="3.78052"></trkpt><trkpt lat="44.42671" lon="3.78074"></trkpt><trkpt lat="44.42711" lon="3.78227"></trkpt><trkpt lat="44.42702" lon="3.78343"></trkpt><trkpt lat="44.42675" lon="3.78442"></trkpt><trkpt lat="44.42604" lon="3.78553"></trkpt><trkpt lat="44.42549" lon="3.78622"></trkpt><trkpt lat="44.42525" lon="3.78639"></trkpt><trkpt lat="44.42451" lon="3.7864"></trkpt><trkpt lat="44.42423" lon="3.78654"></trkpt><trkpt lat="44.42415" lon="3.78694"></trkpt><trkpt lat="44.42434" lon="3.78799"></trkpt><trkpt lat="44.42454" lon="3.78875"></trkpt><trkpt lat="44.42469" lon="3.78944"></trkpt><trkpt lat="44.42462" lon="3.7899"></trkpt><trkpt lat="44.42462" lon="3.7899"></trkpt><trkpt lat="44.42449" lon="3.79069"></trkpt><trkpt lat="44.42426" lon="3.79125"></trkpt><trkpt lat="44.42387" lon="3.79167"></trkpt><trkpt lat="44.42319" lon="3.79227"></trkpt><trkpt lat="44.4229" lon="3.79241"></trkpt><trkpt lat="44.4228" lon="3.79253"></trkpt><trkpt lat="44.42281" lon="3.79285"></trkpt><trkpt lat="44.42298" lon="3.79304"></trkpt><trkpt lat="44.42405" lon="3.79328"></trkpt><trkpt lat="44.42426" lon="3.79326"></trkpt><trkpt lat="44.42493" lon="3.79329"></trkpt><trkpt lat="44.4255" lon="3.79342"></trkpt><trkpt lat="44.42584" lon="3.79365"></trkpt><trkpt lat="44.42601" lon="3.79406"></trkpt><trkpt lat="44.42606" lon="3.7945"></trkpt><trkpt lat="44.42604" lon="3.79506"></trkpt><trkpt lat="44.42586" lon="3.79559"></trkpt><trkpt lat="44.42518" lon="3.79712"></trkpt><trkpt lat="44.4248" lon="3.79803"></trkpt><trkpt lat="44.42437" lon="3.79888"></trkpt><trkpt lat="44.42415" lon="3.79939"></trkpt><trkpt lat="44.42409" lon="3.79959"></trkpt><trkpt lat="44.42408" lon="3.80008"></trkpt><trkpt lat="44.42413" lon="3.80044"></trkpt><trkpt lat="44.42422" lon="3.80083"></trkpt><trkpt lat="44.42428" lon="3.80151"></trkpt><trkpt lat="44.42427" lon="3.80182"></trkpt><trkpt lat="44.42404" lon="3.80291"></trkpt><trkpt lat="44.42385" lon="3.80368"></trkpt><trkpt lat="44.4237" lon="3.80438"></trkpt><trkpt lat="44.42359" lon="3.80481"></trkpt><trkpt lat="44.42353" lon="3.80522"></trkpt><trkpt lat="44.42352" lon="3.80552"></trkpt><trkpt lat="44.42355" lon="3.80587"></trkpt><trkpt lat="44.42418" lon="3.80824"></trkpt><trkpt lat="44.42418" lon="3.80823"></trkpt><trkpt lat="44.42438" lon="3.80902"></trkpt><trkpt lat="44.42454" lon="3.80991"></trkpt><trkpt lat="44.42455" lon="3.81007"></trkpt><trkpt lat="44.42451" lon="3.81027"></trkpt><trkpt lat="44.4244" lon="3.81052"></trkpt><trkpt lat="44.42389" lon="3.81145"></trkpt><trkpt lat="44.42341" lon="3.81223"></trkpt><trkpt lat="44.42255" lon="3.81351"></trkpt><trkpt lat="44.4223" lon="3.81407"></trkpt><trkpt lat="44.42215" lon="3.8151"></trkpt><trkpt lat="44.42206" lon="3.81592"></trkpt><trkpt lat="44.42197" lon="3.81703"></trkpt><trkpt lat="44.42184" lon="3.81819"></trkpt><trkpt lat="44.42172" lon="3.81909"></trkpt><trkpt lat="44.42151" lon="3.81969"></trkpt><trkpt lat="44.42114" lon="3.8203"></trkpt><trkpt lat="44.4204" lon="3.82055"></trkpt><trkpt lat="44.41984" lon="3.8205"></trkpt><trkpt lat="44.41951" lon="3.8205"></trkpt><trkpt lat="44.41933" lon="3.82048"></trkpt><trkpt lat="44.41908" lon="3.82034"></trkpt><trkpt lat="44.41892" lon="3.82028"></trkpt><trkpt lat="44.41875" lon="3.82034"></trkpt><trkpt lat="44.41841" lon="3.82071"></trkpt><trkpt lat="44.4178" lon="3.82145"></trkpt><trkpt lat="44.41729" lon="3.8221"></trkpt><trkpt lat="44.41703" lon="3.82279"></trkpt><trkpt lat="44.41675" lon="3.82318"></trkpt><trkpt lat="44.41667" lon="3.82333"></trkpt><trkpt lat="44.4166" lon="3.8236"></trkpt><trkpt lat="44.4166" lon="3.82379"></trkpt><trkpt lat="44.41665" lon="3.824"></trkpt><trkpt lat="44.41692" lon="3.8244"></trkpt><trkpt lat="44.41853" lon="3.8263"></trkpt><trkpt lat="44.41874" lon="3.82669"></trkpt><trkpt lat="44.41881" lon="3.82699"></trkpt><trkpt lat="44.41893" lon="3.82778"></trkpt><trkpt lat="44.41896" lon="3.82798"></trkpt><trkpt lat="44.41931" lon="3.82936"></trkpt><trkpt lat="44.41932" lon="3.82996"></trkpt><trkpt lat="44.41923" lon="3.83053"></trkpt><trkpt lat="44.41891" lon="3.83116"></trkpt><trkpt lat="44.41863" lon="3.83146"></trkpt><trkpt lat="44.41803" lon="3.83216"></trkpt><trkpt lat="44.41734" lon="3.83324"></trkpt><trkpt lat="44.41682" lon="3.83384"></trkpt><trkpt lat="44.41623" lon="3.83444"></trkpt><trkpt lat="44.41584" lon="3.83489"></trkpt><trkpt lat="44.41565" lon="3.83507"></trkpt><trkpt lat="44.41541" lon="3.83519"></trkpt><trkpt lat="44.41516" lon="3.83516"></trkpt><trkpt lat="44.41479" lon="3.83496"></trkpt><trkpt lat="44.41467" lon="3.83497"></trkpt><trkpt lat="44.41458" lon="3.83507"></trkpt><trkpt lat="44.4144" lon="3.83574"></trkpt><trkpt lat="44.4144" lon="3.83574"></trkpt><trkpt lat="44.41432" lon="3.83601"></trkpt><trkpt lat="44.41421" lon="3.8363"></trkpt><trkpt lat="44.41363" lon="3.8375"></trkpt><trkpt lat="44.41324" lon="3.83872"></trkpt><trkpt lat="44.41317" lon="3.83907"></trkpt><trkpt lat="44.41289" lon="3.8402"></trkpt><trkpt lat="44.41274" lon="3.84102"></trkpt><trkpt lat="44.41261" lon="3.84181"></trkpt><trkpt lat="44.4126" lon="3.84247"></trkpt><trkpt lat="44.41268" lon="3.84313"></trkpt><trkpt lat="44.41282" lon="3.84376"></trkpt><trkpt lat="44.41354" lon="3.84536"></trkpt><trkpt lat="44.41364" lon="3.84622"></trkpt><trkpt lat="44.41372" lon="3.8473"></trkpt><trkpt lat="44.41379" lon="3.84783"></trkpt><trkpt lat="44.41412" lon="3.84866"></trkpt><trkpt lat="44.41421" lon="3.84952"></trkpt><trkpt lat="44.41403" lon="3.85038"></trkpt><trkpt lat="44.4139" lon="3.85117"></trkpt><trkpt lat="44.41367" lon="3.85236"></trkpt><trkpt lat="44.4134" lon="3.85335"></trkpt><trkpt lat="44.41311" lon="3.85404"></trkpt><trkpt lat="44.41289" lon="3.85447"></trkpt><trkpt lat="44.41271" lon="3.85477"></trkpt><trkpt lat="44.41248" lon="3.855"></trkpt><trkpt lat="44.41243" lon="3.85511"></trkpt><trkpt lat="44.41229" lon="3.85527"></trkpt><trkpt lat="44.41193" lon="3.85552"></trkpt><trkpt lat="44.41161" lon="3.8558"></trkpt><trkpt lat="44.41125" lon="3.856"></trkpt><trkpt lat="44.41078" lon="3.85611"></trkpt><trkpt lat="44.41059" lon="3.8562"></trkpt><trkpt lat="44.41055" lon="3.85624"></trkpt><trkpt lat="44.41055" lon="3.85624"></trkpt><trkpt lat="44.41025" lon="3.85651"></trkpt><trkpt lat="44.40975" lon="3.85713"></trkpt><trkpt lat="44.40963" lon="3.85738"></trkpt><trkpt lat="44.40949" lon="3.85759"></trkpt><trkpt lat="44.4092" lon="3.858"></trkpt><trkpt lat="44.40862" lon="3.85875"></trkpt><trkpt lat="44.40838" lon="3.85913"></trkpt><trkpt lat="44.40817" lon="3.85939"></trkpt><trkpt lat="44.40764" lon="3.85942"></trkpt><trkpt lat="44.40715" lon="3.85949"></trkpt><trkpt lat="44.40654" lon="3.85887"></trkpt><trkpt lat="44.40629" lon="3.85848"></trkpt><trkpt lat="44.40607" lon="3.85821"></trkpt><trkpt lat="44.40583" lon="3.85798"></trkpt><trkpt lat="44.40569" lon="3.85778"></trkpt><trkpt lat="44.40554" lon="3.85763"></trkpt><trkpt lat="44.40547" lon="3.85747"></trkpt><trkpt lat="44.40542" lon="3.85725"></trkpt><trkpt lat="44.40534" lon="3.85713"></trkpt><trkpt lat="44.40524" lon="3.85707"></trkpt><trkpt lat="44.40511" lon="3.85702"></trkpt><trkpt lat="44.4048" lon="3.85695"></trkpt><trkpt lat="44.40452" lon="3.85678"></trkpt><trkpt lat="44.40414" lon="3.8565"></trkpt><trkpt lat="44.40404" lon="3.85648"></trkpt><trkpt lat="44.40372" lon="3.85654"></trkpt><trkpt lat="44.40339" lon="3.85657"></trkpt><trkpt lat="44.40329" lon="3.85654"></trkpt><trkpt lat="44.40305" lon="3.85634"></trkpt><trkpt lat="44.4028" lon="3.85624"></trkpt><trkpt lat="44.40263" lon="3.85624"></trkpt><trkpt lat="44.40249" lon="3.85629"></trkpt><trkpt lat="44.40219" lon="3.85655"></trkpt><trkpt lat="44.40213" lon="3.85672"></trkpt><trkpt lat="44.40192" lon="3.85756"></trkpt><trkpt lat="44.40192" lon="3.85799"></trkpt><trkpt lat="44.40189" lon="3.85824"></trkpt><trkpt lat="44.40174" lon="3.85863"></trkpt><trkpt lat="44.40136" lon="3.85998"></trkpt><trkpt lat="44.40089" lon="3.8608"></trkpt><trkpt lat="44.39992" lon="3.86124"></trkpt><trkpt lat="44.39923" lon="3.86209"></trkpt><trkpt lat="44.39923" lon="3.86209"></trkpt><trkpt lat="44.3992" lon="3.86213"></trkpt><trkpt lat="44.39897" lon="3.86345"></trkpt><trkpt lat="44.39901" lon="3.86451"></trkpt><trkpt lat="44.39857" lon="3.86562"></trkpt><trkpt lat="44.3984" lon="3.86636"></trkpt><trkpt lat="44.39855" lon="3.86747"></trkpt><trkpt lat="44.39862" lon="3.86817"></trkpt><trkpt lat="44.39892" lon="3.86925"></trkpt><trkpt lat="44.3987" lon="3.87274"></trkpt><trkpt lat="44.39845" lon="3.87323"></trkpt><trkpt lat="44.39795" lon="3.87355"></trkpt><trkpt lat="44.39743" lon="3.87352"></trkpt><trkpt lat="44.39635" lon="3.87316"></trkpt><trkpt lat="44.39627" lon="3.8736"></trkpt><trkpt lat="44.3958" lon="3.8743"></trkpt><trkpt lat="44.39564" lon="3.87496"></trkpt><trkpt lat="44.39598" lon="3.87536"></trkpt><trkpt lat="44.39643" lon="3.87634"></trkpt><trkpt lat="44.39677" lon="3.87743"></trkpt><trkpt lat="44.39689" lon="3.87787"></trkpt><trkpt lat="44.39727" lon="3.87822"></trkpt><trkpt lat="44.39738" lon="3.87844"></trkpt><trkpt lat="44.39739" lon="3.87896"></trkpt><trkpt lat="44.39684" lon="3.88039"></trkpt><trkpt lat="44.39648" lon="3.88145"></trkpt><trkpt lat="44.39642" lon="3.8819"></trkpt><trkpt lat="44.39619" lon="3.88245"></trkpt><trkpt lat="44.39619" lon="3.88245"></trkpt><trkpt lat="44.39605" lon="3.88279"></trkpt><trkpt lat="44.39586" lon="3.88318"></trkpt><trkpt lat="44.39643" lon="3.88383"></trkpt><trkpt lat="44.3966" lon="3.8841"></trkpt><trkpt lat="44.39655" lon="3.88432"></trkpt><trkpt lat="44.39601" lon="3.8859"></trkpt><trkpt lat="44.39647" lon="3.88714"></trkpt><trkpt lat="44.39649" lon="3.88785"></trkpt><trkpt lat="44.39649" lon="3.88859"></trkpt><trkpt lat="44.39653" lon="3.88867"></trkpt><trkpt lat="44.39604" lon="3.88973"></trkpt><trkpt lat="44.39597" lon="3.89003"></trkpt><trkpt lat="44.39583" lon="3.89031"></trkpt><trkpt lat="44.39548" lon="3.89066"></trkpt><trkpt lat="44.39481" lon="3.89191"></trkpt><trkpt lat="44.3946" lon="3.89209"></trkpt><trkpt lat="44.39412" lon="3.89237"></trkpt><trkpt lat="44.39366" lon="3.89276"></trkpt><trkpt lat="44.39207" lon="3.89398"></trkpt><trkpt lat="44.39164" lon="3.89441"></trkpt><trkpt lat="44.39149" lon="3.89459"></trkpt><trkpt lat="44.3914" lon="3.89462"></trkpt><trkpt lat="44.39137" lon="3.89452"></trkpt><trkpt lat="44.39172" lon="3.89396"></trkpt><trkpt lat="44.39213" lon="3.89288"></trkpt><trkpt lat="44.39215" lon="3.8925"></trkpt><trkpt lat="44.39229" lon="3.89204"></trkpt><trkpt lat="44.39265" lon="3.89024"></trkpt><trkpt lat="44.39271" lon="3.89003"></trkpt><trkpt lat="44.39271" lon="3.89003"></trkpt><trkpt lat="44.39292" lon="3.88926"></trkpt><trkpt lat="44.39294" lon="3.88889"></trkpt><trkpt lat="44.39289" lon="3.88858"></trkpt><trkpt lat="44.39268" lon="3.88829"></trkpt><trkpt lat="44.39243" lon="3.88807"></trkpt><trkpt lat="44.39223" lon="3.888"></trkpt><trkpt lat="44.39163" lon="3.88787"></trkpt><trkpt lat="44.39137" lon="3.88776"></trkpt><trkpt lat="44.39122" lon="3.88755"></trkpt><trkpt lat="44.39115" lon="3.88724"></trkpt><trkpt lat="44.39103" lon="3.88686"></trkpt><trkpt lat="44.39067" lon="3.88604"></trkpt><trkpt lat="44.39049" lon="3.88543"></trkpt><trkpt lat="44.39054" lon="3.88477"></trkpt><trkpt lat="44.39082" lon="3.88372"></trkpt><trkpt lat="44.39104" lon="3.88273"></trkpt><trkpt lat="44.39098" lon="3.88215"></trkpt><trkpt lat="44.39081" lon="3.88172"></trkpt><trkpt lat="44.39044" lon="3.88123"></trkpt><trkpt lat="44.38968" lon="3.88066"></trkpt><trkpt lat="44.38928" lon="3.88012"></trkpt><trkpt lat="44.38901" lon="3.87957"></trkpt><trkpt lat="44.38873" lon="3.87926"></trkpt><trkpt lat="44.38868" lon="3.87912"></trkpt><trkpt lat="44.38866" lon="3.87846"></trkpt><trkpt lat="44.38859" lon="3.87826"></trkpt><trkpt lat="44.38798" lon="3.87763"></trkpt><trkpt lat="44.38789" lon="3.87748"></trkpt><trkpt lat="44.3876" lon="3.87685"></trkpt><trkpt lat="44.38748" lon="3.87651"></trkpt><trkpt lat="44.38732" lon="3.87631"></trkpt><trkpt lat="44.38732" lon="3.8763"></trkpt><trkpt lat="44.38691" lon="3.87593"></trkpt><trkpt lat="44.38677" lon="3.87586"></trkpt><trkpt lat="44.38661" lon="3.87588"></trkpt><trkpt lat="44.38639" lon="3.87596"></trkpt><trkpt lat="44.38626" lon="3.87592"></trkpt><trkpt lat="44.38617" lon="3.87583"></trkpt><trkpt lat="44.38608" lon="3.87559"></trkpt><trkpt lat="44.38596" lon="3.87517"></trkpt><trkpt lat="44.386" lon="3.87465"></trkpt><trkpt lat="44.38608" lon="3.87438"></trkpt><trkpt lat="44.38614" lon="3.87387"></trkpt><trkpt lat="44.38623" lon="3.87358"></trkpt><trkpt lat="44.3863" lon="3.87344"></trkpt><trkpt lat="44.3864" lon="3.87294"></trkpt><trkpt lat="44.38646" lon="3.87184"></trkpt><trkpt lat="44.38642" lon="3.87167"></trkpt><trkpt lat="44.38623" lon="3.87146"></trkpt><trkpt lat="44.38601" lon="3.87126"></trkpt><trkpt lat="44.38596" lon="3.87118"></trkpt><trkpt lat="44.38592" lon="3.87101"></trkpt><trkpt lat="44.38589" lon="3.87056"></trkpt><trkpt lat="44.38585" lon="3.87037"></trkpt><trkpt lat="44.38578" lon="3.87007"></trkpt><trkpt lat="44.38575" lon="3.86944"></trkpt><trkpt lat="44.38568" lon="3.86903"></trkpt><trkpt lat="44.38569" lon="3.8686"></trkpt><trkpt lat="44.38583" lon="3.86826"></trkpt><trkpt lat="44.38584" lon="3.86808"></trkpt><trkpt lat="44.38579" lon="3.86792"></trkpt><trkpt lat="44.38542" lon="3.86741"></trkpt><trkpt lat="44.38464" lon="3.86653"></trkpt><trkpt lat="44.3842" lon="3.86562"></trkpt><trkpt lat="44.38416" lon="3.86547"></trkpt><trkpt lat="44.38428" lon="3.86487"></trkpt><trkpt lat="44.38423" lon="3.86445"></trkpt><trkpt lat="44.38391" lon="3.86379"></trkpt><trkpt lat="44.38377" lon="3.86326"></trkpt><trkpt lat="44.38353" lon="3.8627"></trkpt><trkpt lat="44.38341" lon="3.86226"></trkpt><trkpt lat="44.38353" lon="3.86129"></trkpt><trkpt lat="44.38334" lon="3.8612"></trkpt><trkpt lat="44.38283" lon="3.86118"></trkpt><trkpt lat="44.38212" lon="3.86135"></trkpt><trkpt lat="44.38098" lon="3.86147"></trkpt><trkpt lat="44.38036" lon="3.86118"></trkpt><trkpt lat="44.37948" lon="3.86098"></trkpt><trkpt lat="44.37903" lon="3.86029"></trkpt><trkpt lat="44.37879" lon="3.86"></trkpt><trkpt lat="44.37812" lon="3.85946"></trkpt><trkpt lat="44.37806" lon="3.85937"></trkpt><trkpt lat="44.37806" lon="3.85936"></trkpt><trkpt lat="44.37697" lon="3.8577"></trkpt><trkpt lat="44.37672" lon="3.85747"></trkpt><trkpt lat="44.37646" lon="3.85734"></trkpt><trkpt lat="44.37598" lon="3.85723"></trkpt><trkpt lat="44.37519" lon="3.85709"></trkpt><trkpt lat="44.37481" lon="3.85708"></trkpt><trkpt lat="44.37453" lon="3.85716"></trkpt><trkpt lat="44.3743" lon="3.85718"></trkpt><trkpt lat="44.37387" lon="3.857"></trkpt><trkpt lat="44.37365" lon="3.85687"></trkpt><trkpt lat="44.37336" lon="3.85659"></trkpt><trkpt lat="44.37297" lon="3.85631"></trkpt><trkpt lat="44.37267" lon="3.85606"></trkpt><trkpt lat="44.37244" lon="3.85565"></trkpt><trkpt lat="44.37234" lon="3.8553"></trkpt><trkpt lat="44.37234" lon="3.85486"></trkpt><trkpt lat="44.37218" lon="3.85445"></trkpt><trkpt lat="44.37145" lon="3.85336"></trkpt><trkpt lat="44.37137" lon="3.85304"></trkpt><trkpt lat="44.37135" lon="3.85261"></trkpt><trkpt lat="44.37137" lon="3.85245"></trkpt><trkpt lat="44.37146" lon="3.85239"></trkpt><trkpt lat="44.37162" lon="3.85254"></trkpt><trkpt lat="44.37184" lon="3.85281"></trkpt><trkpt lat="44.37208" lon="3.85304"></trkpt><trkpt lat="44.37239" lon="3.85313"></trkpt><trkpt lat="44.37269" lon="3.85308"></trkpt><trkpt lat="44.37292" lon="3.85288"></trkpt><trkpt lat="44.37313" lon="3.85261"></trkpt><trkpt lat="44.37324" lon="3.85225"></trkpt><trkpt lat="44.37328" lon="3.85172"></trkpt><trkpt lat="44.37334" lon="3.85131"></trkpt><trkpt lat="44.37331" lon="3.85078"></trkpt><trkpt lat="44.37335" lon="3.85032"></trkpt><trkpt lat="44.37342" lon="3.85014"></trkpt><trkpt lat="44.37355" lon="3.85015"></trkpt><trkpt lat="44.37368" lon="3.85037"></trkpt><trkpt lat="44.37393" lon="3.85066"></trkpt><trkpt lat="44.37421" lon="3.85086"></trkpt><trkpt lat="44.37437" lon="3.85109"></trkpt><trkpt lat="44.37459" lon="3.85149"></trkpt><trkpt lat="44.375" lon="3.85181"></trkpt><trkpt lat="44.37544" lon="3.85184"></trkpt><trkpt lat="44.37567" lon="3.85171"></trkpt><trkpt lat="44.37567" lon="3.85172"></trkpt><trkpt lat="44.37623" lon="3.85143"></trkpt><trkpt lat="44.37795" lon="3.8502"></trkpt><trkpt lat="44.37857" lon="3.84958"></trkpt><trkpt lat="44.37872" lon="3.84925"></trkpt><trkpt lat="44.37892" lon="3.84864"></trkpt><trkpt lat="44.379" lon="3.84726"></trkpt><trkpt lat="44.37914" lon="3.84676"></trkpt><trkpt lat="44.37916" lon="3.8463"></trkpt><trkpt lat="44.37912" lon="3.8457"></trkpt><trkpt lat="44.37913" lon="3.8453"></trkpt><trkpt lat="44.37918" lon="3.84479"></trkpt><trkpt lat="44.37916" lon="3.84451"></trkpt><trkpt lat="44.3791" lon="3.8443"></trkpt><trkpt lat="44.37889" lon="3.84327"></trkpt><trkpt lat="44.37863" lon="3.84267"></trkpt><trkpt lat="44.37828" lon="3.84212"></trkpt><trkpt lat="44.37826" lon="3.84193"></trkpt><trkpt lat="44.37826" lon="3.84156"></trkpt><trkpt lat="44.37817" lon="3.84124"></trkpt><trkpt lat="44.378" lon="3.84107"></trkpt><trkpt lat="44.37778" lon="3.84105"></trkpt><trkpt lat="44.37709" lon="3.84122"></trkpt><trkpt lat="44.37685" lon="3.84119"></trkpt><trkpt lat="44.37665" lon="3.84115"></trkpt><trkpt lat="44.37643" lon="3.84102"></trkpt><trkpt lat="44.37647" lon="3.84073"></trkpt><trkpt lat="44.37655" lon="3.84048"></trkpt><trkpt lat="44.37677" lon="3.84016"></trkpt><trkpt lat="44.37693" lon="3.83971"></trkpt><trkpt lat="44.37705" lon="3.83925"></trkpt><trkpt lat="44.37709" lon="3.83891"></trkpt><trkpt lat="44.37707" lon="3.83866"></trkpt><trkpt lat="44.37699" lon="3.83849"></trkpt><trkpt lat="44.37689" lon="3.83838"></trkpt><trkpt lat="44.3765" lon="3.83825"></trkpt><trkpt lat="44.37627" lon="3.83808"></trkpt><trkpt lat="44.37601" lon="3.83775"></trkpt><trkpt lat="44.37562" lon="3.83719"></trkpt><trkpt lat="44.37559" lon="3.83697"></trkpt><trkpt lat="44.37562" lon="3.83678"></trkpt><trkpt lat="44.37573" lon="3.83655"></trkpt><trkpt lat="44.37575" lon="3.83631"></trkpt><trkpt lat="44.37562" lon="3.83593"></trkpt><trkpt lat="44.37547" lon="3.83557"></trkpt><trkpt lat="44.37532" lon="3.8354"></trkpt><trkpt lat="44.3745" lon="3.83486"></trkpt><trkpt lat="44.37414" lon="3.83479"></trkpt><trkpt lat="44.37383" lon="3.83482"></trkpt><trkpt lat="44.37367" lon="3.83489"></trkpt><trkpt lat="44.37353" lon="3.83502"></trkpt><trkpt lat="44.37344" lon="3.83506"></trkpt><trkpt lat="44.37334" lon="3.83499"></trkpt><trkpt lat="44.37323" lon="3.83479"></trkpt><trkpt lat="44.37323" lon="3.83462"></trkpt><trkpt lat="44.37326" lon="3.83446"></trkpt><trkpt lat="44.37331" lon="3.83432"></trkpt><trkpt lat="44.37347" lon="3.83413"></trkpt><trkpt lat="44.37387" lon="3.83345"></trkpt><trkpt lat="44.374" lon="3.83318"></trkpt><trkpt lat="44.37423" lon="3.83259"></trkpt><trkpt lat="44.37439" lon="3.83227"></trkpt><trkpt lat="44.37461" lon="3.83169"></trkpt><trkpt lat="44.37465" lon="3.83118"></trkpt><trkpt lat="44.37463" lon="3.8307"></trkpt><trkpt lat="44.37455" lon="3.8302"></trkpt><trkpt lat="44.37454" lon="3.8302"></trkpt><trkpt lat="44.3745" lon="3.82994"></trkpt><trkpt lat="44.37411" lon="3.82918"></trkpt><trkpt lat="44.37386" lon="3.82879"></trkpt><trkpt lat="44.3738" lon="3.82855"></trkpt><trkpt lat="44.37378" lon="3.82838"></trkpt><trkpt lat="44.37382" lon="3.82821"></trkpt><trkpt lat="44.37391" lon="3.82807"></trkpt><trkpt lat="44.37416" lon="3.82784"></trkpt><trkpt lat="44.3748" lon="3.82764"></trkpt><trkpt lat="44.37507" lon="3.82748"></trkpt><trkpt lat="44.37522" lon="3.82734"></trkpt><trkpt lat="44.37535" lon="3.82714"></trkpt><trkpt lat="44.37546" lon="3.82681"></trkpt><trkpt lat="44.37554" lon="3.8264"></trkpt><trkpt lat="44.3757" lon="3.82605"></trkpt><trkpt lat="44.37577" lon="3.82584"></trkpt><trkpt lat="44.3758" lon="3.82559"></trkpt><trkpt lat="44.3758" lon="3.82529"></trkpt><trkpt lat="44.3757" lon="3.82496"></trkpt><trkpt lat="44.37556" lon="3.82472"></trkpt><trkpt lat="44.37537" lon="3.82447"></trkpt><trkpt lat="44.37479" lon="3.82385"></trkpt><trkpt lat="44.3741" lon="3.82314"></trkpt><trkpt lat="44.3738" lon="3.82286"></trkpt><trkpt lat="44.37368" lon="3.82278"></trkpt><trkpt lat="44.37369" lon="3.82265"></trkpt><trkpt lat="44.37372" lon="3.82211"></trkpt><trkpt lat="44.37372" lon="3.82184"></trkpt><trkpt lat="44.3737" lon="3.8218"></trkpt><trkpt lat="44.3732" lon="3.82157"></trkpt><trkpt lat="44.37293" lon="3.82121"></trkpt><trkpt lat="44.37272" lon="3.82062"></trkpt><trkpt lat="44.3727" lon="3.82041"></trkpt><trkpt lat="44.3728" lon="3.81953"></trkpt><trkpt lat="44.37298" lon="3.81937"></trkpt><trkpt lat="44.37336" lon="3.81915"></trkpt><trkpt lat="44.37349" lon="3.81897"></trkpt><trkpt lat="44.37357" lon="3.81892"></trkpt><trkpt lat="44.37374" lon="3.81893"></trkpt><trkpt lat="44.37422" lon="3.81886"></trkpt><trkpt lat="44.37467" lon="3.81891"></trkpt><trkpt lat="44.37488" lon="3.81878"></trkpt><trkpt lat="44.37488" lon="3.81878"></trkpt><trkpt lat="44.37518" lon="3.8186"></trkpt><trkpt lat="44.37583" lon="3.81842"></trkpt><trkpt lat="44.37632" lon="3.81789"></trkpt><trkpt lat="44.3768" lon="3.81727"></trkpt><trkpt lat="44.3776" lon="3.8164"></trkpt><trkpt lat="44.37791" lon="3.8156"></trkpt><trkpt lat="44.3785" lon="3.81477"></trkpt><trkpt lat="44.37902" lon="3.81423"></trkpt><trkpt lat="44.3793" lon="3.81379"></trkpt><trkpt lat="44.38009" lon="3.8129"></trkpt><trkpt lat="44.38038" lon="3.81272"></trkpt><trkpt lat="44.38048" lon="3.81263"></trkpt><trkpt lat="44.38126" lon="3.81217"></trkpt><trkpt lat="44.38161" lon="3.81202"></trkpt><trkpt lat="44.38182" lon="3.81197"></trkpt><trkpt lat="44.38279" lon="3.81055"></trkpt><trkpt lat="44.38463" lon="3.80883"></trkpt><trkpt lat="44.3848" lon="3.80875"></trkpt><trkpt lat="44.38515" lon="3.80823"></trkpt><trkpt lat="44.38534" lon="3.80802"></trkpt><trkpt lat="44.38573" lon="3.80753"></trkpt><trkpt lat="44.38608" lon="3.80702"></trkpt><trkpt lat="44.38629" lon="3.80659"></trkpt><trkpt lat="44.38639" lon="3.8063"></trkpt><trkpt lat="44.38642" lon="3.80604"></trkpt><trkpt lat="44.3864" lon="3.80554"></trkpt><trkpt lat="44.3863" lon="3.80506"></trkpt><trkpt lat="44.3863" lon="3.80462"></trkpt><trkpt lat="44.38628" lon="3.80442"></trkpt><trkpt lat="44.38631" lon="3.80423"></trkpt><trkpt lat="44.38643" lon="3.80394"></trkpt><trkpt lat="44.38675" lon="3.80359"></trkpt><trkpt lat="44.38712" lon="3.80331"></trkpt><trkpt lat="44.38712" lon="3.80331"></trkpt><trkpt lat="44.38726" lon="3.8032"></trkpt><trkpt lat="44.38821" lon="3.80272"></trkpt><trkpt lat="44.3883" lon="3.80262"></trkpt><trkpt lat="44.38851" lon="3.80216"></trkpt><trkpt lat="44.38855" lon="3.802"></trkpt><trkpt lat="44.38856" lon="3.80175"></trkpt><trkpt lat="44.3885" lon="3.80152"></trkpt><trkpt lat="44.38838" lon="3.80136"></trkpt><trkpt lat="44.38825" lon="3.80127"></trkpt><trkpt lat="44.38806" lon="3.80118"></trkpt><trkpt lat="44.38789" lon="3.80114"></trkpt><trkpt lat="44.38703" lon="3.80101"></trkpt><trkpt lat="44.3869" lon="3.80096"></trkpt><trkpt lat="44.38677" lon="3.80087"></trkpt><trkpt lat="44.38667" lon="3.80074"></trkpt><trkpt lat="44.38658" lon="3.80056"></trkpt><trkpt lat="44.38646" lon="3.80015"></trkpt><trkpt lat="44.38632" lon="3.7998"></trkpt><trkpt lat="44.3859" lon="3.79932"></trkpt><trkpt lat="44.38582" lon="3.79913"></trkpt><trkpt lat="44.3856" lon="3.79846"></trkpt><trkpt lat="44.38534" lon="3.79775"></trkpt><trkpt lat="44.38528" lon="3.79763"></trkpt><trkpt lat="44.38521" lon="3.79756"></trkpt><trkpt lat="44.38496" lon="3.79747"></trkpt><trkpt lat="44.3842" lon="3.79722"></trkpt><trkpt lat="44.3829" lon="3.79702"></trkpt><trkpt lat="44.38269" lon="3.79696"></trkpt><trkpt lat="44.38243" lon="3.79687"></trkpt><trkpt lat="44.38217" lon="3.79656"></trkpt><trkpt lat="44.38148" lon="3.79567"></trkpt><trkpt lat="44.38096" lon="3.79491"></trkpt><trkpt lat="44.38077" lon="3.79467"></trkpt><trkpt lat="44.38065" lon="3.79458"></trkpt><trkpt lat="44.38028" lon="3.79438"></trkpt><trkpt lat="44.38" lon="3.79411"></trkpt><trkpt lat="44.37895" lon="3.79298"></trkpt><trkpt lat="44.37774" lon="3.79174"></trkpt><trkpt lat="44.37761" lon="3.79165"></trkpt><trkpt lat="44.37736" lon="3.79155"></trkpt><trkpt lat="44.37685" lon="3.79141"></trkpt><trkpt lat="44.37672" lon="3.79141"></trkpt><trkpt lat="44.37642" lon="3.79145"></trkpt><trkpt lat="44.3763" lon="3.79144"></trkpt><trkpt lat="44.3754" lon="3.79127"></trkpt><trkpt lat="44.37479" lon="3.79107"></trkpt><trkpt lat="44.37442" lon="3.79104"></trkpt><trkpt lat="44.37411" lon="3.7911"></trkpt><trkpt lat="44.37391" lon="3.7911"></trkpt><trkpt lat="44.37332" lon="3.79067"></trkpt><trkpt lat="44.37325" lon="3.79059"></trkpt><trkpt lat="44.37323" lon="3.79054"></trkpt><trkpt lat="44.37324" lon="3.79015"></trkpt><trkpt lat="44.37323" lon="3.79004"></trkpt><trkpt lat="44.37318" lon="3.78993"></trkpt><trkpt lat="44.37253" lon="3.78914"></trkpt><trkpt lat="44.37228" lon="3.78881"></trkpt><trkpt lat="44.37216" lon="3.78857"></trkpt><trkpt lat="44.37205" lon="3.78831"></trkpt><trkpt lat="44.37201" lon="3.78811"></trkpt><trkpt lat="44.37196" lon="3.78728"></trkpt><trkpt lat="44.37198" lon="3.78666"></trkpt><trkpt lat="44.37203" lon="3.78632"></trkpt><trkpt lat="44.37226" lon="3.7851"></trkpt><trkpt lat="44.3723" lon="3.7843"></trkpt><trkpt lat="44.37233" lon="3.78412"></trkpt><trkpt lat="44.37262" lon="3.78335"></trkpt><trkpt lat="44.37275" lon="3.78289"></trkpt><trkpt lat="44.37291" lon="3.78257"></trkpt><trkpt lat="44.37291" lon="3.78257"></trkpt><trkpt lat="44.37309" lon="3.7821"></trkpt><trkpt lat="44.37316" lon="3.78173"></trkpt><trkpt lat="44.37316" lon="3.78125"></trkpt><trkpt lat="44.37323" lon="3.78058"></trkpt><trkpt lat="44.37328" lon="3.78026"></trkpt><trkpt lat="44.37337" lon="3.77995"></trkpt><trkpt lat="44.37365" lon="3.7793"></trkpt><trkpt lat="44.37389" lon="3.77886"></trkpt><trkpt lat="44.37427" lon="3.77832"></trkpt><trkpt lat="44.37438" lon="3.77811"></trkpt><trkpt lat="44.3744" lon="3.778"></trkpt><trkpt lat="44.37439" lon="3.7779"></trkpt><trkpt lat="44.37433" lon="3.77769"></trkpt><trkpt lat="44.37407" lon="3.77698"></trkpt><trkpt lat="44.37401" lon="3.77685"></trkpt><trkpt lat="44.37396" lon="3.77664"></trkpt><trkpt lat="44.37378" lon="3.77625"></trkpt><trkpt lat="44.37386" lon="3.77586"></trkpt><trkpt lat="44.37392" lon="3.77538"></trkpt><trkpt lat="44.37391" lon="3.77506"></trkpt><trkpt lat="44.37383" lon="3.77467"></trkpt><trkpt lat="44.37372" lon="3.77443"></trkpt><trkpt lat="44.3736" lon="3.7743"></trkpt><trkpt lat="44.3727" lon="3.7735"></trkpt><trkpt lat="44.37236" lon="3.77332"></trkpt><trkpt lat="44.3718" lon="3.7731"></trkpt><trkpt lat="44.37152" lon="3.77302"></trkpt><trkpt lat="44.37044" lon="3.77291"></trkpt><trkpt lat="44.37005" lon="3.77299"></trkpt><trkpt lat="44.3698" lon="3.77294"></trkpt><trkpt lat="44.36908" lon="3.77244"></trkpt><trkpt lat="44.36831" lon="3.77188"></trkpt><trkpt lat="44.36811" lon="3.77171"></trkpt><trkpt lat="44.36802" lon="3.77154"></trkpt><trkpt lat="44.36798" lon="3.77136"></trkpt><trkpt lat="44.36801" lon="3.77114"></trkpt><trkpt lat="44.36809" lon="3.77085"></trkpt><trkpt lat="44.3682" lon="3.77055"></trkpt><trkpt lat="44.3682" lon="3.7704"></trkpt><trkpt lat="44.36813" lon="3.7701"></trkpt><trkpt lat="44.3681" lon="3.7698"></trkpt><trkpt lat="44.36813" lon="3.76955"></trkpt><trkpt lat="44.3681" lon="3.76928"></trkpt><trkpt lat="44.36811" lon="3.76904"></trkpt><trkpt lat="44.36815" lon="3.7687"></trkpt><trkpt lat="44.36827" lon="3.76819"></trkpt><trkpt lat="44.36832" lon="3.76758"></trkpt><trkpt lat="44.36836" lon="3.76744"></trkpt><trkpt lat="44.36856" lon="3.76708"></trkpt><trkpt lat="44.36864" lon="3.76682"></trkpt><trkpt lat="44.36865" lon="3.76654"></trkpt><trkpt lat="44.36863" lon="3.76635"></trkpt><trkpt lat="44.36796" lon="3.76546"></trkpt><trkpt lat="44.36789" lon="3.76529"></trkpt><trkpt lat="44.36791" lon="3.7651"></trkpt><trkpt lat="44.36796" lon="3.76493"></trkpt><trkpt lat="44.3681" lon="3.76471"></trkpt><trkpt lat="44.36831" lon="3.76447"></trkpt><trkpt lat="44.36839" lon="3.76428"></trkpt><trkpt lat="44.36849" lon="3.76398"></trkpt><trkpt lat="44.36861" lon="3.76326"></trkpt><trkpt lat="44.36863" lon="3.76304"></trkpt><trkpt lat="44.36862" lon="3.76286"></trkpt><trkpt lat="44.36856" lon="3.76267"></trkpt><trkpt lat="44.36854" lon="3.76254"></trkpt><trkpt lat="44.36855" lon="3.76241"></trkpt><trkpt lat="44.36861" lon="3.76227"></trkpt><trkpt lat="44.36863" lon="3.76214"></trkpt><trkpt lat="44.3686" lon="3.762"></trkpt><trkpt lat="44.36853" lon="3.76187"></trkpt><trkpt lat="44.36843" lon="3.76182"></trkpt><trkpt lat="44.36771" lon="3.76171"></trkpt><trkpt lat="44.3675" lon="3.76158"></trkpt><trkpt lat="44.36746" lon="3.76141"></trkpt><trkpt lat="44.36751" lon="3.76015"></trkpt><trkpt lat="44.36751" lon="3.75983"></trkpt><trkpt lat="44.36745" lon="3.75953"></trkpt><trkpt lat="44.36737" lon="3.75935"></trkpt><trkpt lat="44.36727" lon="3.7593"></trkpt><trkpt lat="44.36711" lon="3.75939"></trkpt><trkpt lat="44.36665" lon="3.7599"></trkpt><trkpt lat="44.36642" lon="3.76008"></trkpt><trkpt lat="44.36605" lon="3.76043"></trkpt><trkpt lat="44.36585" lon="3.76057"></trkpt><trkpt lat="44.36507" lon="3.76091"></trkpt><trkpt lat="44.36468" lon="3.7612"></trkpt><trkpt lat="44.36457" lon="3.76129"></trkpt><trkpt lat="44.36457" lon="3.76129"></trkpt><trkpt lat="44.36447" lon="3.76138"></trkpt><trkpt lat="44.36423" lon="3.76155"></trkpt><trkpt lat="44.36396" lon="3.76159"></trkpt><trkpt lat="44.36386" lon="3.76166"></trkpt><trkpt lat="44.3629" lon="3.76291"></trkpt><trkpt lat="44.36278" lon="3.76312"></trkpt><trkpt lat="44.3627" lon="3.76321"></trkpt><trkpt lat="44.36245" lon="3.76343"></trkpt><trkpt lat="44.36237" lon="3.76347"></trkpt><trkpt lat="44.36229" lon="3.76348"></trkpt><trkpt lat="44.36221" lon="3.76345"></trkpt><trkpt lat="44.36215" lon="3.7634"></trkpt><trkpt lat="44.36191" lon="3.7629"></trkpt><trkpt lat="44.36159" lon="3.76248"></trkpt><trkpt lat="44.36152" lon="3.76207"></trkpt><trkpt lat="44.36144" lon="3.76181"></trkpt><trkpt lat="44.36138" lon="3.7611"></trkpt><trkpt lat="44.3614" lon="3.76086"></trkpt><trkpt lat="44.36145" lon="3.76043"></trkpt><trkpt lat="44.36147" lon="3.75991"></trkpt><trkpt lat="44.36144" lon="3.75925"></trkpt><trkpt lat="44.36139" lon="3.75867"></trkpt><trkpt lat="44.36139" lon="3.75842"></trkpt><trkpt lat="44.36146" lon="3.75764"></trkpt><trkpt lat="44.36151" lon="3.75739"></trkpt><trkpt lat="44.36165" lon="3.75696"></trkpt><trkpt lat="44.36181" lon="3.75668"></trkpt><trkpt lat="44.36194" lon="3.75656"></trkpt><trkpt lat="44.36234" lon="3.75636"></trkpt><trkpt lat="44.3626" lon="3.75629"></trkpt><trkpt lat="44.36288" lon="3.75631"></trkpt><trkpt lat="44.36301" lon="3.75629"></trkpt><trkpt lat="44.36315" lon="3.75623"></trkpt><trkpt lat="44.3633" lon="3.75609"></trkpt><trkpt lat="44.36359" lon="3.75574"></trkpt><trkpt lat="44.36375" lon="3.75536"></trkpt><trkpt lat="44.36378" lon="3.75523"></trkpt><trkpt lat="44.36374" lon="3.75499"></trkpt><trkpt lat="44.36374" lon="3.75486"></trkpt><trkpt lat="44.36391" lon="3.75407"></trkpt><trkpt lat="44.36404" lon="3.75367"></trkpt><trkpt lat="44.36409" lon="3.75339"></trkpt><trkpt lat="44.36412" lon="3.75212"></trkpt><trkpt lat="44.36402" lon="3.75074"></trkpt><trkpt lat="44.36398" lon="3.7506"></trkpt><trkpt lat="44.36394" lon="3.75034"></trkpt><trkpt lat="44.36391" lon="3.74976"></trkpt><trkpt lat="44.36391" lon="3.74955"></trkpt><trkpt lat="44.36397" lon="3.74928"></trkpt><trkpt lat="44.36399" lon="3.74904"></trkpt><trkpt lat="44.36401" lon="3.74812"></trkpt><trkpt lat="44.36401" lon="3.74812"></trkpt><trkpt lat="44.36409" lon="3.74746"></trkpt><trkpt lat="44.36412" lon="3.74728"></trkpt><trkpt lat="44.36417" lon="3.74714"></trkpt><trkpt lat="44.36417" lon="3.74714"></trkpt><trkpt lat="44.36423" lon="3.74703"></trkpt><trkpt lat="44.36443" lon="3.74685"></trkpt><trkpt lat="44.36462" lon="3.74672"></trkpt><trkpt lat="44.36478" lon="3.74665"></trkpt><trkpt lat="44.36487" lon="3.74662"></trkpt><trkpt lat="44.36496" lon="3.74663"></trkpt><trkpt lat="44.36509" lon="3.7467"></trkpt><trkpt lat="44.36514" lon="3.7467"></trkpt><trkpt lat="44.36518" lon="3.74668"></trkpt><trkpt lat="44.36521" lon="3.7466"></trkpt><trkpt lat="44.36489" lon="3.74648"></trkpt><trkpt lat="44.36464" lon="3.74644"></trkpt><trkpt lat="44.36436" lon="3.74646"></trkpt><trkpt lat="44.36399" lon="3.74656"></trkpt><trkpt lat="44.36393" lon="3.7466"></trkpt><trkpt lat="44.36388" lon="3.74668"></trkpt><trkpt lat="44.3638" lon="3.7469"></trkpt><trkpt lat="44.36374" lon="3.74724"></trkpt><trkpt lat="44.36372" lon="3.74728"></trkpt><trkpt lat="44.36366" lon="3.74728"></trkpt><trkpt lat="44.36363" lon="3.7472"></trkpt><trkpt lat="44.36363" lon="3.74712"></trkpt><trkpt lat="44.36399" lon="3.74556"></trkpt><trkpt lat="44.36399" lon="3.74541"></trkpt><trkpt lat="44.36397" lon="3.74535"></trkpt><trkpt lat="44.36391" lon="3.7453"></trkpt><trkpt lat="44.36384" lon="3.74528"></trkpt><trkpt lat="44.36377" lon="3.74532"></trkpt><trkpt lat="44.36359" lon="3.74568"></trkpt><trkpt lat="44.36359" lon="3.74568"></trkpt><trkpt lat="44.36351" lon="3.74584"></trkpt><trkpt lat="44.36341" lon="3.74618"></trkpt><trkpt lat="44.36338" lon="3.74632"></trkpt><trkpt lat="44.36338" lon="3.74662"></trkpt><trkpt lat="44.36341" lon="3.74687"></trkpt><trkpt lat="44.36341" lon="3.74692"></trkpt><trkpt lat="44.36336" lon="3.74705"></trkpt><trkpt lat="44.36306" lon="3.74623"></trkpt><trkpt lat="44.36301" lon="3.74492"></trkpt><trkpt lat="44.36303" lon="3.74475"></trkpt><trkpt lat="44.36329" lon="3.74359"></trkpt>
</trkseg>
</trk>

</gpx>