<?xml version="1.0" encoding="UTF-8"?>
<gpx xmlns="http://www.topografix.com/GPX/1/1" xmlns:xsi="http://www.w3.org/2001/XMLSchema-instance" xsi:schemaLocation="http://www.topografix.com/GPX/1/1 http://www.topografix.com/GPX/1/1/gpx.xsd" version="1.1" creator="gpx.py -- https://github.com/tkrajina/gpxpy">
  <trk>
    <name>[Itinéraire] Gravel N°16 - Randonnée gravel jusqu’au Combalou</name>
    <desc>&lt;ol&gt;
&lt;li&gt;Au d&amp;eacute;part de l'office de toursime, suivre la route en direction du coeur de village, puis au feu prendre la premi&amp;egrave;re &amp;agrave; droite. Apr&amp;egrave;s quelques hectom&amp;egrave;tres, vous rejoingnez ainsi la piste du Combalou.&lt;/li&gt;
&lt;li&gt;A ce point, poursuivre votre chemin tout droit vers le sommet.&lt;/li&gt;
&lt;li&gt;Apr&amp;egrave;s une pause bien m&amp;eacute;rit&amp;eacute;e pour profiter du panorama grandiose sur les alentours, il est temps de faire demi tour afin de rejoindre Lauras. De retour au point "2", prendre alors le chemin en contrebas sur votre gauche.&lt;/li&gt;
&lt;li&gt;Apr&amp;egrave;s environ 2km de descente sur une belle piste, suivre la route sur votre droite afin de regagner Roquefort au prix d'une derni&amp;egrave;re ascension par la route.&lt;/li&gt;
&lt;/ol&gt;
&lt;br /&gt;37% de routes et 63% de chemins&lt;br /&gt;Point d&amp;rsquo;int&amp;eacute;r&amp;ecirc;t :&lt;br /&gt;Km 5 : La vue 360&amp;deg; depuis Le Combalou&lt;br /&gt;Points sensibles :&lt;br /&gt;Km 7,5 : descente qui secoue sur 2km (r&amp;eacute;duisez votre vitesse pour &amp;eacute;viter chutes et&amp;nbsp;&lt;br /&gt;crevaisons)&lt;br /&gt;Temps de roulage en fonction votre niveau : 1h &amp;agrave; 1h30Modifié: 6 jours</desc>
    <trkseg>
      <trkpt lat="43.98124043811248" lon="2.981602598589872">
        <ele>551.0</ele>
      </trkpt>
      <trkpt lat="43.98120843060369" lon="2.981588551774621">
        <ele>551.0</ele>
      </trkpt>
      <trkpt lat="43.98116198467494" lon="2.981581243548048">
        <ele>552.0</ele>
      </trkpt>
      <trkpt lat="43.981070586566744" lon="2.981501310000524">
        <ele>552.0</ele>
      </trkpt>
      <trkpt lat="43.981034727588074" lon="2.9815703630447388">
        <ele>553.0</ele>
      </trkpt>
      <trkpt lat="43.98095752608475" lon="2.9817339777946477">
        <ele>553.0</ele>
      </trkpt>
      <trkpt lat="43.98083207342766" lon="2.981921732425689">
        <ele>554.0</ele>
      </trkpt>
      <trkpt lat="43.98070083036428" lon="2.982055842876434">
        <ele>554.0</ele>
      </trkpt>
      <trkpt lat="43.98050203517155" lon="2.982173860073088">
        <ele>555.0</ele>
      </trkpt>
      <trkpt lat="43.98030709943331" lon="2.9823213815689082">
        <ele>556.0</ele>
      </trkpt>
      <trkpt lat="43.98021831659304" lon="2.982430011203159">
        <ele>556.0</ele>
      </trkpt>
      <trkpt lat="43.98012953364941" lon="2.982538640499114">
        <ele>556.0</ele>
      </trkpt>
      <trkpt lat="43.98005812120647" lon="2.9826687277992656">
        <ele>556.0</ele>
      </trkpt>
      <trkpt lat="43.97998670861171" lon="2.9827988147735596">
        <ele>557.0</ele>
      </trkpt>
      <trkpt lat="43.97993579024808" lon="2.9829308114390485">
        <ele>557.0</ele>
      </trkpt>
      <trkpt lat="43.979886344866216" lon="2.9830589890480037">
        <ele>557.0</ele>
      </trkpt>
      <trkpt lat="43.97980335187148" lon="2.983311117062388">
        <ele>557.0</ele>
      </trkpt>
      <trkpt lat="43.9797203582994" lon="2.9835632443428044">
        <ele>557.0</ele>
      </trkpt>
      <trkpt lat="43.97964840462613" lon="2.9838085001167447">
        <ele>558.0</ele>
      </trkpt>
      <trkpt lat="43.9795764504058" lon="2.9840537552716913">
        <ele>559.0</ele>
      </trkpt>
      <trkpt lat="43.97950449563839" lon="2.984299009807641">
        <ele>559.0</ele>
      </trkpt>
      <trkpt lat="43.97943426734012" lon="2.9845294002855347">
        <ele>560.0</ele>
      </trkpt>
      <trkpt lat="43.97936403855928" lon="2.9847597901958967">
        <ele>561.0</ele>
      </trkpt>
      <trkpt lat="43.97929380929588" lon="2.9849901795387277">
        <ele>562.0</ele>
      </trkpt>
      <trkpt lat="43.979253277330685" lon="2.984957993030549">
        <ele>563.0</ele>
      </trkpt>
      <trkpt lat="43.97924748704767" lon="2.9848694801330566">
        <ele>563.0</ele>
      </trkpt>
      <trkpt lat="43.979255207424906" lon="2.984628081321718">
        <ele>564.0</ele>
      </trkpt>
      <trkpt lat="43.97924555708298" lon="2.984459102125179">
        <ele>565.0</ele>
      </trkpt>
      <trkpt lat="43.97923591098156" lon="2.9842902018058433">
        <ele>566.0</ele>
      </trkpt>
      <trkpt lat="43.97923590648" lon="2.98429012298584">
        <ele>566.0</ele>
      </trkpt>
      <trkpt lat="43.97923880177867" lon="2.9841050505732096">
        <ele>567.0</ele>
      </trkpt>
      <trkpt lat="43.97924169676412" lon="2.983919978141785">
        <ele>567.0</ele>
      </trkpt>
      <trkpt lat="43.97924362685873" lon="2.9836705327034">
        <ele>567.0</ele>
      </trkpt>
      <trkpt lat="43.97929380929588" lon="2.9833969473838815">
        <ele>568.0</ele>
      </trkpt>
      <trkpt lat="43.97937294305296" lon="2.9831635951995863">
        <ele>568.0</ele>
      </trkpt>
      <trkpt lat="43.979422160406045" lon="2.983022779347852">
        <ele>568.0</ele>
      </trkpt>
      <trkpt lat="43.979471377579216" lon="2.9828819632530212">
        <ele>569.0</ele>
      </trkpt>
      <trkpt lat="43.97953121031545" lon="2.9827371241182044">
        <ele>569.0</ele>
      </trkpt>
      <trkpt lat="43.97959104286192" lon="2.982592284679414">
        <ele>570.0</ele>
      </trkpt>
      <trkpt lat="43.97964798036386" lon="2.9824434222277376">
        <ele>570.0</ele>
      </trkpt>
      <trkpt lat="43.979704917665025" lon="2.9822945594787598">
        <ele>571.0</ele>
      </trkpt>
      <trkpt lat="43.979745449420186" lon="2.982137650362928">
        <ele>572.0</ele>
      </trkpt>
      <trkpt lat="43.97978598095115" lon="2.981980741024018">
        <ele>573.0</ele>
      </trkpt>
      <trkpt lat="43.97981879224977" lon="2.9817742109298715">
        <ele>574.0</ele>
      </trkpt>
      <trkpt lat="43.979822652401374" lon="2.981573045253754">
        <ele>575.0</ele>
      </trkpt>
      <trkpt lat="43.97983037270379" lon="2.9813638329505925">
        <ele>576.0</ele>
      </trkpt>
      <trkpt lat="43.979816862173884" lon="2.9812404513359074">
        <ele>578.0</ele>
      </trkpt>
      <trkpt lat="43.97983037270379" lon="2.9811465740203857">
        <ele>579.0</ele>
      </trkpt>
      <trkpt lat="43.97985241849551" lon="2.9810685436251436">
        <ele>579.0</ele>
      </trkpt>
      <trkpt lat="43.9798809087446" lon="2.9809660908830344">
        <ele>580.0</ele>
      </trkpt>
      <trkpt lat="43.97994142195846" lon="2.9807953872179254">
        <ele>581.0</ele>
      </trkpt>
      <trkpt lat="43.979980159698464" lon="2.980697033983569">
        <ele>581.0</ele>
      </trkpt>
      <trkpt lat="43.98004263998351" lon="2.9805486189689296">
        <ele>582.0</ele>
      </trkpt>
      <trkpt lat="43.980081308037605" lon="2.9804002118143247">
        <ele>582.0</ele>
      </trkpt>
      <trkpt lat="43.98008835866634" lon="2.9802533413571917">
        <ele>583.0</ele>
      </trkpt>
      <trkpt lat="43.98007529542714" lon="2.9800704495528776">
        <ele>583.0</ele>
      </trkpt>
      <trkpt lat="43.98000612199545" lon="2.9798610963152266">
        <ele>583.0</ele>
      </trkpt>
      <trkpt lat="43.979936903609214" lon="2.9797173870297216">
        <ele>584.0</ele>
      </trkpt>
      <trkpt lat="43.979900143463446" lon="2.9797069194485664">
        <ele>584.0</ele>
      </trkpt>
      <trkpt lat="43.97980335164091" lon="2.9795104265213017">
        <ele>585.0</ele>
      </trkpt>
      <trkpt lat="43.97967210630347" lon="2.979263663291932">
        <ele>585.0</ele>
      </trkpt>
      <trkpt lat="43.9795968331347" lon="2.9791375993018074">
        <ele>585.0</ele>
      </trkpt>
      <trkpt lat="43.97952155982388" lon="2.9790115356445312">
        <ele>585.0</ele>
      </trkpt>
      <trkpt lat="43.97945593688" lon="2.9788184165954585">
        <ele>585.0</ele>
      </trkpt>
      <trkpt lat="43.97944049628921" lon="2.978660166220727">
        <ele>584.0</ele>
      </trkpt>
      <trkpt lat="43.97942505546953" lon="2.978501915931702">
        <ele>583.0</ele>
      </trkpt>
      <trkpt lat="43.97941347493647" lon="2.9781961441040044">
        <ele>582.0</ele>
      </trkpt>
      <trkpt lat="43.97936715278161" lon="2.977917194366455">
        <ele>581.0</ele>
      </trkpt>
      <trkpt lat="43.97934785187311" lon="2.9776328802108774">
        <ele>581.0</ele>
      </trkpt>
      <trkpt lat="43.97935303303325" lon="2.977457682318465">
        <ele>580.0</ele>
      </trkpt>
      <trkpt lat="43.97935364232134" lon="2.977437078972673">
        <ele>579.0</ele>
      </trkpt>
      <trkpt lat="43.979359432418995" lon="2.977241277694703">
        <ele>579.0</ele>
      </trkpt>
      <trkpt lat="43.97935171205531" lon="2.976946234703064">
        <ele>578.0</ele>
      </trkpt>
      <trkpt lat="43.979293809295875" lon="2.9766887426376343">
        <ele>578.0</ele>
      </trkpt>
      <trkpt lat="43.97922046571952" lon="2.976415157318116">
        <ele>577.0</ele>
      </trkpt>
      <trkpt lat="43.97918958418662" lon="2.9761844873428354">
        <ele>577.0</ele>
      </trkpt>
      <trkpt lat="43.979181863948014" lon="2.976004779314506">
        <ele>577.0</ele>
      </trkpt>
      <trkpt lat="43.97917414341414" lon="2.9758250713348393">
        <ele>576.0</ele>
      </trkpt>
      <trkpt lat="43.97913168126908" lon="2.975631952285766">
        <ele>576.0</ele>
      </trkpt>
      <trkpt lat="43.97902745587521" lon="2.9754602909088135">
        <ele>576.0</ele>
      </trkpt>
      <trkpt lat="43.97888462818645" lon="2.9752939939498897">
        <ele>575.0</ele>
      </trkpt>
      <trkpt lat="43.978766891498964" lon="2.975213527513292">
        <ele>575.0</ele>
      </trkpt>
      <trkpt lat="43.97864915476028" lon="2.9751330614089966">
        <ele>576.0</ele>
      </trkpt>
      <trkpt lat="43.97853913809556" lon="2.9750472305549143">
        <ele>576.0</ele>
      </trkpt>
      <trkpt lat="43.9784291213705" lon="2.974961400032044">
        <ele>577.0</ele>
      </trkpt>
      <trkpt lat="43.97823996920823" lon="2.9748862981796265">
        <ele>577.0</ele>
      </trkpt>
      <trkpt lat="43.978070117773534" lon="2.9748219251632695">
        <ele>578.0</ele>
      </trkpt>
      <trkpt lat="43.97790876224907" lon="2.9747578601888205">
        <ele>578.0</ele>
      </trkpt>
      <trkpt lat="43.97790798640535" lon="2.974757552146911">
        <ele>579.0</ele>
      </trkpt>
      <trkpt lat="43.97773813402097" lon="2.974698543548583">
        <ele>579.0</ele>
      </trkpt>
      <trkpt lat="43.97760688411844" lon="2.9746019840240483">
        <ele>579.0</ele>
      </trkpt>
      <trkpt lat="43.977498795745596" lon="2.9744893312454233">
        <ele>579.0</ele>
      </trkpt>
      <trkpt lat="43.97741772933684" lon="2.9743874073028564">
        <ele>578.0</ele>
      </trkpt>
      <trkpt lat="43.97736754531405" lon="2.974194288253784">
        <ele>578.0</ele>
      </trkpt>
      <trkpt lat="43.97731350093439" lon="2.973936796188355">
        <ele>578.0</ele>
      </trkpt>
      <trkpt lat="43.9772401549119" lon="2.973695397377015">
        <ele>578.0</ele>
      </trkpt>
      <trkpt lat="43.97713978652372" lon="2.973561286926271">
        <ele>578.0</ele>
      </trkpt>
      <trkpt lat="43.97701239563291" lon="2.97354519367218">
        <ele>578.0</ele>
      </trkpt>
      <trkpt lat="43.97686570275341" lon="2.973588109016418">
        <ele>578.0</ele>
      </trkpt>
      <trkpt lat="43.97666110418469" lon="2.973690032958984">
        <ele>579.0</ele>
      </trkpt>
      <trkpt lat="43.976491248233614" lon="2.9738026857376094">
        <ele>580.0</ele>
      </trkpt>
      <trkpt lat="43.97635227469573" lon="2.973899245497481">
        <ele>581.0</ele>
      </trkpt>
      <trkpt lat="43.97621330108376" lon="2.9739958047866826">
        <ele>582.0</ele>
      </trkpt>
      <trkpt lat="43.97607432690026" lon="2.9740977289776582">
        <ele>583.0</ele>
      </trkpt>
      <trkpt lat="43.97593535263294" lon="2.974199652671815">
        <ele>583.0</ele>
      </trkpt>
      <trkpt lat="43.97582726116825" lon="2.9743069412357865">
        <ele>584.0</ele>
      </trkpt>
      <trkpt lat="43.97571916960502" lon="2.9744142293930067">
        <ele>584.0</ele>
      </trkpt>
      <trkpt lat="43.97562458925757" lon="2.9745215179315565">
        <ele>584.0</ele>
      </trkpt>
      <trkpt lat="43.97553000881002" lon="2.9746288061141977">
        <ele>584.0</ele>
      </trkpt>
      <trkpt lat="43.975425777060245" lon="2.9747441413126583">
        <ele>584.0</ele>
      </trkpt>
      <trkpt lat="43.97532154519514" lon="2.9748594760894775">
        <ele>583.0</ele>
      </trkpt>
      <trkpt lat="43.97515940632204" lon="2.97505259513855">
        <ele>583.0</ele>
      </trkpt>
      <trkpt lat="43.97508412742339" lon="2.9751706124910067">
        <ele>583.0</ele>
      </trkpt>
      <trkpt lat="43.975008848400655" lon="2.9752886295318612">
        <ele>583.0</ele>
      </trkpt>
      <trkpt lat="43.974933569333" lon="2.975425422372207">
        <ele>582.0</ele>
      </trkpt>
      <trkpt lat="43.974858290097515" lon="2.9755622148513794">
        <ele>582.0</ele>
      </trkpt>
      <trkpt lat="43.974784941042316" lon="2.975787520408631">
        <ele>583.0</ele>
      </trkpt>
      <trkpt lat="43.97478441114275" lon="2.975791202105337">
        <ele>583.0</ele>
      </trkpt>
      <trkpt lat="43.974754057202496" lon="2.9760020971298213">
        <ele>584.0</ele>
      </trkpt>
      <trkpt lat="43.974754057202496" lon="2.9761952161788936">
        <ele>584.0</ele>
      </trkpt>
      <trkpt lat="43.974754057202496" lon="2.9764419794082646">
        <ele>585.0</ele>
      </trkpt>
      <trkpt lat="43.974738615276586" lon="2.9766941070556645">
        <ele>586.0</ele>
      </trkpt>
      <trkpt lat="43.97469808039814" lon="2.976908683929387">
        <ele>587.0</ele>
      </trkpt>
      <trkpt lat="43.97465754509956" lon="2.9771232604980464">
        <ele>588.0</ele>
      </trkpt>
      <trkpt lat="43.974597707701605" lon="2.977340519656235">
        <ele>589.0</ele>
      </trkpt>
      <trkpt lat="43.974537869874055" lon="2.9775577783584595">
        <ele>590.0</ele>
      </trkpt>
      <trkpt lat="43.97448575325522" lon="2.9777133466235046">
        <ele>590.0</ele>
      </trkpt>
      <trkpt lat="43.97443363641664" lon="2.977868914604187">
        <ele>591.0</ele>
      </trkpt>
      <trkpt lat="43.974344845062376" lon="2.9781344537101315">
        <ele>592.0</ele>
      </trkpt>
      <trkpt lat="43.97425605306782" lon="2.9783999919891357">
        <ele>592.0</ele>
      </trkpt>
      <trkpt lat="43.97415181936337" lon="2.9786735778087405">
        <ele>593.0</ele>
      </trkpt>
      <trkpt lat="43.97404758498071" lon="2.9789471626281743">
        <ele>594.0</ele>
      </trkpt>
      <trkpt lat="43.97395107192089" lon="2.979191244061637">
        <ele>595.0</ele>
      </trkpt>
      <trkpt lat="43.9738545583216" lon="2.979435324668884">
        <ele>595.0</ele>
      </trkpt>
      <trkpt lat="43.97375611462613" lon="2.9796579484014467">
        <ele>596.0</ele>
      </trkpt>
      <trkpt lat="43.973657670482986" lon="2.9798805713653564">
        <ele>597.0</ele>
      </trkpt>
      <trkpt lat="43.97357659894359" lon="2.980073690688986">
        <ele>598.0</ele>
      </trkpt>
      <trkpt lat="43.973495527066945" lon="2.9802668094635005">
        <ele>598.0</ele>
      </trkpt>
      <trkpt lat="43.97341252500096" lon="2.9804491999419915">
        <ele>598.0</ele>
      </trkpt>
      <trkpt lat="43.97332952263473" lon="2.980631589889527">
        <ele>599.0</ele>
      </trkpt>
      <trkpt lat="43.97325231120853" lon="2.9808112981368495">
        <ele>599.0</ele>
      </trkpt>
      <trkpt lat="43.97317509949046" lon="2.980991005897523">
        <ele>600.0</ele>
      </trkpt>
      <trkpt lat="43.97309402724016" lon="2.981151938667214">
        <ele>600.0</ele>
      </trkpt>
      <trkpt lat="43.973012954756825" lon="2.98131287097931">
        <ele>601.0</ele>
      </trkpt>
      <trkpt lat="43.972942751384046" lon="2.9814633766075556">
        <ele>602.0</ele>
      </trkpt>
      <trkpt lat="43.97287783380717" lon="2.981602549552917">
        <ele>603.0</ele>
      </trkpt>
      <trkpt lat="43.972790970311706" lon="2.9818117621747615">
        <ele>604.0</ele>
      </trkpt>
      <trkpt lat="43.97270410642033" lon="2.982020974159241">
        <ele>605.0</ele>
      </trkpt>
      <trkpt lat="43.97264619728822" lon="2.982195317922255">
        <ele>607.0</ele>
      </trkpt>
      <trkpt lat="43.97258828788007" lon="2.9823696613311776">
        <ele>608.0</ele>
      </trkpt>
      <trkpt lat="43.9725187966475" lon="2.982659339904785">
        <ele>610.0</ele>
      </trkpt>
      <trkpt lat="43.97251877852423" lon="2.9826594104166544">
        <ele>611.0</ele>
      </trkpt>
      <trkpt lat="43.97248019046224" lon="2.9828095437113067">
        <ele>613.0</ele>
      </trkpt>
      <trkpt lat="43.972441584071525" lon="2.9829597473144527">
        <ele>614.0</ele>
      </trkpt>
      <trkpt lat="43.972396221717986" lon="2.9831072689276223">
        <ele>615.0</ele>
      </trkpt>
      <trkpt lat="43.97235085916658" lon="2.983254790306092">
        <ele>617.0</ele>
      </trkpt>
      <trkpt lat="43.97230002774992" lon="2.9834568504121064">
        <ele>618.0</ele>
      </trkpt>
      <trkpt lat="43.97224919596132" lon="2.9836589101578945">
        <ele>620.0</ele>
      </trkpt>
      <trkpt lat="43.97219836380083" lon="2.9838609695434575">
        <ele>621.0</ele>
      </trkpt>
      <trkpt lat="43.97213852390928" lon="2.9840701820661573">
        <ele>622.0</ele>
      </trkpt>
      <trkpt lat="43.9720786836195" lon="2.9842793941497816">
        <ele>624.0</ele>
      </trkpt>
      <trkpt lat="43.97201305259751" lon="2.9844805600574196">
        <ele>625.0</ele>
      </trkpt>
      <trkpt lat="43.97194742120788" lon="2.984681725502015">
        <ele>627.0</ele>
      </trkpt>
      <trkpt lat="43.97186441695251" lon="2.9848480227029905">
        <ele>628.0</ele>
      </trkpt>
      <trkpt lat="43.97178141244821" lon="2.985014319419861">
        <ele>629.0</ele>
      </trkpt>
      <trkpt lat="43.97161926390949" lon="2.9851591587066655">
        <ele>630.0</ele>
      </trkpt>
      <trkpt lat="43.97143781144836" lon="2.9851377010345463">
        <ele>631.0</ele>
      </trkpt>
      <trkpt lat="43.971312338555" lon="2.985081374521301">
        <ele>632.0</ele>
      </trkpt>
      <trkpt lat="43.9711868656418" lon="2.98502504825592">
        <ele>633.0</ele>
      </trkpt>
      <trkpt lat="43.97104208856595" lon="2.9849660395077846">
        <ele>634.0</ele>
      </trkpt>
      <trkpt lat="43.97089731147046" lon="2.9849070310592656">
        <ele>635.0</ele>
      </trkpt>
      <trkpt lat="43.9707390210624" lon="2.984839975647768">
        <ele>636.0</ele>
      </trkpt>
      <trkpt lat="43.97058073062776" lon="2.984772920608521">
        <ele>637.0</ele>
      </trkpt>
      <trkpt lat="43.97042436976955" lon="2.984695136333816">
        <ele>638.0</ele>
      </trkpt>
      <trkpt lat="43.970268008870235" lon="2.984617352485656">
        <ele>639.0</ele>
      </trkpt>
      <trkpt lat="43.970163767844426" lon="2.984550297137713">
        <ele>640.0</ele>
      </trkpt>
      <trkpt lat="43.97005952678382" lon="2.984483242034912">
        <ele>641.0</ele>
      </trkpt>
      <trkpt lat="43.96990123434058" lon="2.984365224838257">
        <ele>642.0</ele>
      </trkpt>
      <trkpt lat="43.96976610631133" lon="2.9842203855514526">
        <ele>643.0</ele>
      </trkpt>
      <trkpt lat="43.96962711716052" lon="2.9839843511581416">
        <ele>643.0</ele>
      </trkpt>
      <trkpt lat="43.969544109658294" lon="2.983820736170084">
        <ele>644.0</ele>
      </trkpt>
      <trkpt lat="43.969461101915236" lon="2.9836571216583256">
        <ele>645.0</ele>
      </trkpt>
      <trkpt lat="43.96938581594016" lon="2.9834425446538613">
        <ele>645.0</ele>
      </trkpt>
      <trkpt lat="43.969310529547265" lon="2.983227968215942">
        <ele>645.0</ele>
      </trkpt>
      <trkpt lat="43.96922752169601" lon="2.9830107089695046">
        <ele>646.0</ele>
      </trkpt>
      <trkpt lat="43.969144513417035" lon="2.98279345035553">
        <ele>646.0</ele>
      </trkpt>
      <trkpt lat="43.9690634357952" lon="2.9825600978394773">
        <ele>647.0</ele>
      </trkpt>
      <trkpt lat="43.96898235767912" lon="2.982326745986939">
        <ele>648.0</ele>
      </trkpt>
      <trkpt lat="43.96893216652769" lon="2.982128262519836">
        <ele>649.0</ele>
      </trkpt>
      <trkpt lat="43.96888197533384" lon="2.9820317029953007">
        <ele>650.0</ele>
      </trkpt>
      <trkpt lat="43.968820201498495" lon="2.9820531606674203">
        <ele>651.0</ele>
      </trkpt>
      <trkpt lat="43.96878159281884" lon="2.982165813446045">
        <ele>653.0</ele>
      </trkpt>
      <trkpt lat="43.9688008971618" lon="2.982342839241028">
        <ele>655.0</ele>
      </trkpt>
      <trkpt lat="43.9688144103111" lon="2.9825010895354094">
        <ele>656.0</ele>
      </trkpt>
      <trkpt lat="43.96882792323143" lon="2.982659339904785">
        <ele>658.0</ele>
      </trkpt>
      <trkpt lat="43.96884722755932" lon="2.982922196388245">
        <ele>660.0</ele>
      </trkpt>
      <trkpt lat="43.96888969705874" lon="2.9832065105438224">
        <ele>662.0</ele>
      </trkpt>
      <trkpt lat="43.9689707751095" lon="2.9834961891174316">
        <ele>664.0</ele>
      </trkpt>
      <trkpt lat="43.96905764455802" lon="2.9837509985857067">
        <ele>666.0</ele>
      </trkpt>
      <trkpt lat="43.969144513417035" lon="2.9840058088302612">
        <ele>667.0</ele>
      </trkpt>
      <trkpt lat="43.9692120783176" lon="2.9842042920622087">
        <ele>669.0</ele>
      </trkpt>
      <trkpt lat="43.9692796428605" lon="2.984402775764464">
        <ele>671.0</ele>
      </trkpt>
      <trkpt lat="43.96935685968043" lon="2.984603941168204">
        <ele>674.0</ele>
      </trkpt>
      <trkpt lat="43.96943407613369" lon="2.9848051071167">
        <ele>676.0</ele>
      </trkpt>
      <trkpt lat="43.96950164061711" lon="2.984947264026069">
        <ele>678.0</ele>
      </trkpt>
      <trkpt lat="43.96956920491835" lon="2.9850894212722787">
        <ele>680.0</ele>
      </trkpt>
      <trkpt lat="43.96968116853562" lon="2.9852932691574092">
        <ele>682.0</ele>
      </trkpt>
      <trkpt lat="43.969854904765164" lon="2.9854756593704224">
        <ele>684.0</ele>
      </trkpt>
      <trkpt lat="43.96999196292004" lon="2.9856204983091263">
        <ele>686.0</ele>
      </trkpt>
      <trkpt lat="43.97012902089398" lon="2.98576533794403">
        <ele>688.0</ele>
      </trkpt>
      <trkpt lat="43.970225540317976" lon="2.985861897305139">
        <ele>690.0</ele>
      </trkpt>
      <trkpt lat="43.97032205966211" lon="2.985958456993103">
        <ele>691.0</ele>
      </trkpt>
      <trkpt lat="43.97043209141641" lon="2.9860550163313317">
        <ele>692.0</ele>
      </trkpt>
      <trkpt lat="43.97054212309248" lon="2.9861515760421757">
        <ele>693.0</ele>
      </trkpt>
      <trkpt lat="43.97063285072921" lon="2.986245453208342">
        <ele>694.0</ele>
      </trkpt>
      <trkpt lat="43.97072357829011" lon="2.9863393306732173">
        <ele>695.0</ele>
      </trkpt>
      <trkpt lat="43.9708818685417" lon="2.9865324497222905">
        <ele>696.0</ele>
      </trkpt>
      <trkpt lat="43.97098224750703" lon="2.9867845773696904">
        <ele>698.0</ele>
      </trkpt>
      <trkpt lat="43.97102085475623" lon="2.9870420694351205">
        <ele>700.0</ele>
      </trkpt>
      <trkpt lat="43.97103243692607" lon="2.9872995615005506">
        <ele>702.0</ele>
      </trkpt>
      <trkpt lat="43.971042088942305" lon="2.9875141381854244">
        <ele>704.0</ele>
      </trkpt>
      <trkpt lat="43.971051740537476" lon="2.987728714942933">
        <ele>706.0</ele>
      </trkpt>
      <trkpt lat="43.9710671834222" lon="2.988013029098511">
        <ele>708.0</ele>
      </trkpt>
      <trkpt lat="43.97113667635325" lon="2.988275885581971">
        <ele>710.0</ele>
      </trkpt>
      <trkpt lat="43.97120037819591" lon="2.9884207247069803">
        <ele>712.0</ele>
      </trkpt>
      <trkpt lat="43.97126407984906" lon="2.988565564155577">
        <ele>715.0</ele>
      </trkpt>
      <trkpt lat="43.9713663884729" lon="2.988664805711084">
        <ele>718.0</ele>
      </trkpt>
      <trkpt lat="43.97146869701275" lon="2.9887640476226807">
        <ele>721.0</ele>
      </trkpt>
      <trkpt lat="43.97160768185405" lon="2.988957166671754">
        <ele>724.0</ele>
      </trkpt>
      <trkpt lat="43.971665592108565" lon="2.989182472229005">
        <ele>727.0</ele>
      </trkpt>
      <trkpt lat="43.9716771741527" lon="2.989397048950196">
        <ele>729.0</ele>
      </trkpt>
      <trkpt lat="43.97166945279021" lon="2.989665269851683">
        <ele>731.0</ele>
      </trkpt>
      <trkpt lat="43.97166945279021" lon="2.9899495840072627">
        <ele>733.0</ele>
      </trkpt>
      <trkpt lat="43.97173894501689" lon="2.9902124404907235">
        <ele>734.0</ele>
      </trkpt>
      <trkpt lat="43.97181615850638" lon="2.9903706908226018">
        <ele>736.0</ele>
      </trkpt>
      <trkpt lat="43.97188565056112" lon="2.9904565215110788">
        <ele>737.0</ele>
      </trkpt>
      <trkpt lat="43.972007261461215" lon="2.990542352199555">
        <ele>738.0</ele>
      </trkpt>
      <trkpt lat="43.97212501146026" lon="2.99052357673645">
        <ele>739.0</ele>
      </trkpt>
      <trkpt lat="43.97221766703329" lon="2.9904377460479745">
        <ele>739.0</ele>
      </trkpt>
      <trkpt lat="43.972279437335004" lon="2.99030363559723">
        <ele>739.0</ele>
      </trkpt>
      <trkpt lat="43.97238367457342" lon="2.990030050277711">
        <ele>739.0</ele>
      </trkpt>
      <trkpt lat="43.972433862875214" lon="2.9898905755316876">
        <ele>739.0</ele>
      </trkpt>
      <trkpt lat="43.97248405100054" lon="2.9897511005401607">
        <ele>739.0</ele>
      </trkpt>
      <trkpt lat="43.97255933325966" lon="2.989603579239092">
        <ele>739.0</ele>
      </trkpt>
      <trkpt lat="43.972634615323045" lon="2.989456057548523">
        <ele>739.0</ele>
      </trkpt>
      <trkpt lat="43.97278131865478" lon="2.989236116409302">
        <ele>740.0</ele>
      </trkpt>
      <trkpt lat="43.97287204291614" lon="2.989099323967174">
        <ele>740.0</ele>
      </trkpt>
      <trkpt lat="43.97296276701112" lon="2.9889625310897836">
        <ele>741.0</ele>
      </trkpt>
      <trkpt lat="43.973105608944245" lon="2.9887533187866215">
        <ele>741.0</ele>
      </trkpt>
      <trkpt lat="43.97321467045882" lon="2.988603115369056">
        <ele>741.0</ele>
      </trkpt>
      <trkpt lat="43.97332373177394" lon="2.988452911376954">
        <ele>741.0</ele>
      </trkpt>
      <trkpt lat="43.973440514015316" lon="2.988296002470921">
        <ele>742.0</ele>
      </trkpt>
      <trkpt lat="43.97355729603944" lon="2.9881390929222116">
        <ele>742.0</ele>
      </trkpt>
      <trkpt lat="43.97367697324115" lon="2.987980842590333">
        <ele>743.0</ele>
      </trkpt>
      <trkpt lat="43.97378506857077" lon="2.987841088106508">
        <ele>744.0</ele>
      </trkpt>
      <trkpt lat="43.973932734177176" lon="2.987646628456488">
        <ele>746.0</ele>
      </trkpt>
      <trkpt lat="43.97408039945038" lon="2.9874521677993484">
        <ele>747.0</ele>
      </trkpt>
      <trkpt lat="43.97423675047581" lon="2.987242062578674">
        <ele>748.0</ele>
      </trkpt>
      <trkpt lat="43.9743931011117" lon="2.9870319562058425">
        <ele>750.0</ele>
      </trkpt>
      <trkpt lat="43.97454945135804" lon="2.9868218486808478">
        <ele>751.0</ele>
      </trkpt>
      <trkpt lat="43.97468649874693" lon="2.986636776258821">
        <ele>753.0</ele>
      </trkpt>
      <trkpt lat="43.97477142936439" lon="2.9864758437179266">
        <ele>754.0</ele>
      </trkpt>
      <trkpt lat="43.97483319700988" lon="2.986336368849153">
        <ele>755.0</ele>
      </trkpt>
      <trkpt lat="43.97483321597576" lon="2.9863358944813347">
        <ele>756.0</ele>
      </trkpt>
      <trkpt lat="43.974842848198676" lon="2.9860949700378123">
        <ele>757.0</ele>
      </trkpt>
      <trkpt lat="43.97483030183416" lon="2.9858951454222367">
        <ele>757.0</ele>
      </trkpt>
      <trkpt lat="43.974817755104546" lon="2.9856953208945938">
        <ele>758.0</ele>
      </trkpt>
      <trkpt lat="43.97480327843124" lon="2.9855343883128422">
        <ele>759.0</ele>
      </trkpt>
      <trkpt lat="43.97478880152119" lon="2.985373455812806">
        <ele>760.0</ele>
      </trkpt>
      <trkpt lat="43.974773359726655" lon="2.98520849991372">
        <ele>761.0</ele>
      </trkpt>
      <trkpt lat="43.97475791768339" lon="2.985043544103975">
        <ele>762.0</ele>
      </trkpt>
      <trkpt lat="43.97476370840416" lon="2.9848987048171702">
        <ele>763.0</ele>
      </trkpt>
      <trkpt lat="43.974810034150345" lon="2.984831649591798">
        <ele>764.0</ele>
      </trkpt>
      <trkpt lat="43.97486601104545" lon="2.9848236029647524">
        <ele>764.0</ele>
      </trkpt>
      <trkpt lat="43.974949011172036" lon="2.9848960226081545">
        <ele>765.0</ele>
      </trkpt>
      <trkpt lat="43.97506096464742" lon="2.9849845355056472">
        <ele>766.0</ele>
      </trkpt>
      <trkpt lat="43.97519608062969" lon="2.9850650017760936">
        <ele>767.0</ele>
      </trkpt>
      <trkpt lat="43.975292591857404" lon="2.9851240103744208">
        <ele>767.0</ele>
      </trkpt>
      <trkpt lat="43.97537366116749" lon="2.9851535146735846">
        <ele>768.0</ele>
      </trkpt>
      <trkpt lat="43.975435428186586" lon="2.9851615613006293">
        <ele>769.0</ele>
      </trkpt>
      <trkpt lat="43.97547789297491" lon="2.9851269721984863">
        <ele>770.0</ele>
      </trkpt>
      <trkpt lat="43.975493334708624" lon="2.9850786924362187">
        <ele>770.0</ele>
      </trkpt>
      <trkpt lat="43.97548175340862" lon="2.9850330948829655">
        <ele>771.0</ele>
      </trkpt>
      <trkpt lat="43.97545473036674" lon="2.9849740862846375">
        <ele>772.0</ele>
      </trkpt>
      <trkpt lat="43.97541419578068" lon="2.984928488731385">
        <ele>773.0</ele>
      </trkpt>
      <trkpt lat="43.97533698696921" lon="2.984821200370788">
        <ele>774.0</ele>
      </trkpt>
      <trkpt lat="43.97524433626288" lon="2.984697818756104">
        <ele>776.0</ele>
      </trkpt>
      <trkpt lat="43.97516712723053" lon="2.9845958948135376">
        <ele>777.0</ele>
      </trkpt>
      <trkpt lat="43.97508991809779" lon="2.9844403266906725">
        <ele>778.0</ele>
      </trkpt>
      <trkpt lat="43.97501656932869" lon="2.9843008518219003">
        <ele>778.0</ele>
      </trkpt>
      <trkpt lat="43.97493163906183" lon="2.9841023683547983">
        <ele>779.0</ele>
      </trkpt>
      <trkpt lat="43.97488145293791" lon="2.9839146137237553">
        <ele>779.0</ele>
      </trkpt>
      <trkpt lat="43.97489689482674" lon="2.9837536811828596">
        <ele>779.0</ele>
      </trkpt>
      <trkpt lat="43.974977964677024" lon="2.983641028404234">
        <ele>779.0</ele>
      </trkpt>
      <trkpt lat="43.97508605763853" lon="2.9836034774780273">
        <ele>779.0</ele>
      </trkpt>
      <trkpt lat="43.97530996386147" lon="2.9835766553878775">
        <ele>778.0</ele>
      </trkpt>
      <trkpt lat="43.97548754405863" lon="2.983571290969849">
        <ele>778.0</ele>
      </trkpt>
      <trkpt lat="43.975632310131026" lon="2.9835256934165955">
        <ele>777.0</ele>
      </trkpt>
      <trkpt lat="43.975730750858304" lon="2.9835015535354623">
        <ele>777.0</ele>
      </trkpt>
      <trkpt lat="43.97579637791932" lon="2.9833996295928955">
        <ele>776.0</ele>
      </trkpt>
      <trkpt lat="43.975836912244354" lon="2.9832467436790466">
        <ele>776.0</ele>
      </trkpt>
      <trkpt lat="43.97586007470332" lon="2.983154207468033">
        <ele>776.0</ele>
      </trkpt>
      <trkpt lat="43.975878411643606" lon="2.983025461435318">
        <ele>776.0</ele>
      </trkpt>
      <trkpt lat="43.97586490021441" lon="2.9829342663288125">
        <ele>776.0</ele>
      </trkpt>
      <trkpt lat="43.97585235388468" lon="2.98286184668541">
        <ele>775.0</ele>
      </trkpt>
      <trkpt lat="43.975839807552184" lon="2.9827304184436807">
        <ele>775.0</ele>
      </trkpt>
      <trkpt lat="43.9758513887822" lon="2.982601672410966">
        <ele>775.0</ele>
      </trkpt>
      <trkpt lat="43.97585235388483" lon="2.9824849963188176">
        <ele>774.0</ele>
      </trkpt>
      <trkpt lat="43.97588034184753" lon="2.9823468625545484">
        <ele>774.0</ele>
      </trkpt>
      <trkpt lat="43.975901574086414" lon="2.982285171747206">
        <ele>773.0</ele>
      </trkpt>
      <trkpt lat="43.97596141035519" lon="2.9821993410587315">
        <ele>772.0</ele>
      </trkpt>
      <trkpt lat="43.97602607206168" lon="2.9820799827575692">
        <ele>772.0</ele>
      </trkpt>
      <trkpt lat="43.97605309484355" lon="2.9819954931735984">
        <ele>771.0</ele>
      </trkpt>
      <trkpt lat="43.97608108271182" lon="2.9818546772003187">
        <ele>771.0</ele>
      </trkpt>
      <trkpt lat="43.976103279977195" lon="2.9817393422126783">
        <ele>770.0</ele>
      </trkpt>
      <trkpt lat="43.976121616842455" lon="2.9816333949565883">
        <ele>770.0</ele>
      </trkpt>
      <trkpt lat="43.97615539526351" lon="2.981519401073456">
        <ele>770.0</ele>
      </trkpt>
      <trkpt lat="43.9762026850207" lon="2.98142284154892">
        <ele>770.0</ele>
      </trkpt>
      <trkpt lat="43.97625962569884" lon="2.981341034173967">
        <ele>769.0</ele>
      </trkpt>
      <trkpt lat="43.97630305499282" lon="2.9812914133071904">
        <ele>770.0</ele>
      </trkpt>
      <trkpt lat="43.97634455406637" lon="2.981229722499848">
        <ele>770.0</ele>
      </trkpt>
      <trkpt lat="43.97639473895372" lon="2.981174737215041">
        <ele>770.0</ele>
      </trkpt>
      <trkpt lat="43.976439133241904" lon="2.9811063408851624">
        <ele>770.0</ele>
      </trkpt>
      <trkpt lat="43.9764758067592" lon="2.98105537891388">
        <ele>770.0</ele>
      </trkpt>
      <trkpt lat="43.97651055007048" lon="2.9809963703155513">
        <ele>771.0</ele>
      </trkpt>
      <trkpt lat="43.976551083907864" lon="2.9809212684631357">
        <ele>771.0</ele>
      </trkpt>
      <trkpt lat="43.976567490453284" lon="2.980838119983673">
        <ele>771.0</ele>
      </trkpt>
      <trkpt lat="43.97657424608828" lon="2.9807616770267495">
        <ele>772.0</ele>
      </trkpt>
      <trkpt lat="43.97657038572554" lon="2.980662435293199">
        <ele>772.0</ele>
      </trkpt>
      <trkpt lat="43.97656169990834" lon="2.9805296659469613">
        <ele>773.0</ele>
      </trkpt>
      <trkpt lat="43.97655204899889" lon="2.9804357886314405">
        <ele>773.0</ele>
      </trkpt>
      <trkpt lat="43.97654915372575" lon="2.9803727567195897">
        <ele>773.0</ele>
      </trkpt>
      <trkpt lat="43.97655011881679" lon="2.980319112539292">
        <ele>772.0</ele>
      </trkpt>
      <trkpt lat="43.97655880463569" lon="2.980256080627441">
        <ele>772.0</ele>
      </trkpt>
      <trkpt lat="43.97657038572554" lon="2.9802131652832036">
        <ele>771.0</ele>
      </trkpt>
      <trkpt lat="43.976581966813086" lon="2.9801689088344587">
        <ele>771.0</ele>
      </trkpt>
      <trkpt lat="43.97661767515222" lon="2.980143427848816">
        <ele>770.0</ele>
      </trkpt>
      <trkpt lat="43.976656278737934" lon="2.980099171400071">
        <ele>770.0</ele>
      </trkpt>
      <trkpt lat="43.97668909176609" lon="2.9800361394882215">
        <ele>770.0</ele>
      </trkpt>
      <trkpt lat="43.976716114246244" lon="2.979950308799744">
        <ele>770.0</ele>
      </trkpt>
      <trkpt lat="43.97673059056979" lon="2.9798859357833867">
        <ele>770.0</ele>
      </trkpt>
      <trkpt lat="43.97674410180198" lon="2.9798282682895665">
        <ele>770.0</ele>
      </trkpt>
      <trkpt lat="43.976744101802" lon="2.979757189750672">
        <ele>770.0</ele>
      </trkpt>
      <trkpt lat="43.97673059056979" lon="2.979702204465866">
        <ele>770.0</ele>
      </trkpt>
      <trkpt lat="43.97671128880424" lon="2.979665994644166">
        <ele>771.0</ele>
      </trkpt>
      <trkpt lat="43.97668523141081" lon="2.9796190559864044">
        <ele>771.0</ele>
      </trkpt>
      <trkpt lat="43.976667859808785" lon="2.979572117328644">
        <ele>772.0</ele>
      </trkpt>
      <trkpt lat="43.97666785980879" lon="2.9795198142528534">
        <ele>772.0</ele>
      </trkpt>
      <trkpt lat="43.97667847578838" lon="2.979475557804107">
        <ele>772.0</ele>
      </trkpt>
      <trkpt lat="43.976691987032396" lon="2.9794339835643764">
        <ele>772.0</ele>
      </trkpt>
      <trkpt lat="43.97670453318478" lon="2.9794004559516907">
        <ele>773.0</ele>
      </trkpt>
      <trkpt lat="43.97672383495259" lon="2.979365587234497">
        <ele>773.0</ele>
      </trkpt>
      <trkpt lat="43.97674120653822" lon="2.9793374240398407">
        <ele>773.0</ele>
      </trkpt>
      <trkpt lat="43.97676822899462" lon="2.9792891442775726">
        <ele>773.0</ele>
      </trkpt>
      <trkpt lat="43.97678367039278" lon="2.979244887828827">
        <ele>774.0</ele>
      </trkpt>
      <trkpt lat="43.976821308784025" lon="2.9791322350502023">
        <ele>774.0</ele>
      </trkpt>
      <trkpt lat="43.97683868034105" lon="2.9790262877941145">
        <ele>774.0</ele>
      </trkpt>
      <trkpt lat="43.97685219154864" lon="2.978933751583099">
        <ele>774.0</ele>
      </trkpt>
      <trkpt lat="43.97686087732332" lon="2.978829145431518">
        <ele>775.0</ele>
      </trkpt>
      <trkpt lat="43.97686956309666" lon="2.9787473380565634">
        <ele>775.0</ele>
      </trkpt>
      <trkpt lat="43.97687535361157" lon="2.978656142950059">
        <ele>775.0</ele>
      </trkpt>
      <trkpt lat="43.97688500446848" lon="2.978606522083283">
        <ele>775.0</ele>
      </trkpt>
      <trkpt lat="43.97688693463978" lon="2.9785448312759386">
        <ele>776.0</ele>
      </trkpt>
      <trkpt lat="43.97689835583673" lon="2.978478701476406">
        <ele>776.0</ele>
      </trkpt>
      <trkpt lat="43.97688693463978" lon="2.9785448312759386">
        <ele>776.0</ele>
      </trkpt>
      <trkpt lat="43.97688500446848" lon="2.978606522083283">
        <ele>775.0</ele>
      </trkpt>
      <trkpt lat="43.97687535361157" lon="2.978656142950059">
        <ele>775.0</ele>
      </trkpt>
      <trkpt lat="43.97686956309666" lon="2.9787473380565634">
        <ele>775.0</ele>
      </trkpt>
      <trkpt lat="43.97686087732332" lon="2.978829145431518">
        <ele>775.0</ele>
      </trkpt>
      <trkpt lat="43.97685219154864" lon="2.978933751583099">
        <ele>774.0</ele>
      </trkpt>
      <trkpt lat="43.97683868034105" lon="2.9790262877941145">
        <ele>774.0</ele>
      </trkpt>
      <trkpt lat="43.976821308784025" lon="2.9791322350502023">
        <ele>774.0</ele>
      </trkpt>
      <trkpt lat="43.97678367039278" lon="2.979244887828827">
        <ele>774.0</ele>
      </trkpt>
      <trkpt lat="43.97676822899462" lon="2.9792891442775726">
        <ele>773.0</ele>
      </trkpt>
      <trkpt lat="43.97674120653822" lon="2.9793374240398407">
        <ele>773.0</ele>
      </trkpt>
      <trkpt lat="43.97672383495259" lon="2.979365587234497">
        <ele>773.0</ele>
      </trkpt>
      <trkpt lat="43.97670453318478" lon="2.9794004559516907">
        <ele>773.0</ele>
      </trkpt>
      <trkpt lat="43.976691987032396" lon="2.9794339835643764">
        <ele>772.0</ele>
      </trkpt>
      <trkpt lat="43.97667847578838" lon="2.979475557804107">
        <ele>772.0</ele>
      </trkpt>
      <trkpt lat="43.97666785980879" lon="2.9795198142528534">
        <ele>772.0</ele>
      </trkpt>
      <trkpt lat="43.976667859808785" lon="2.979572117328644">
        <ele>772.0</ele>
      </trkpt>
      <trkpt lat="43.97668523141081" lon="2.9796190559864044">
        <ele>771.0</ele>
      </trkpt>
      <trkpt lat="43.97671128880424" lon="2.979665994644166">
        <ele>771.0</ele>
      </trkpt>
      <trkpt lat="43.97673059056979" lon="2.979702204465866">
        <ele>770.0</ele>
      </trkpt>
      <trkpt lat="43.976744101802" lon="2.979757189750672">
        <ele>770.0</ele>
      </trkpt>
      <trkpt lat="43.97674410180198" lon="2.9798282682895665">
        <ele>770.0</ele>
      </trkpt>
      <trkpt lat="43.97673059056979" lon="2.9798859357833867">
        <ele>770.0</ele>
      </trkpt>
      <trkpt lat="43.976716114246244" lon="2.979950308799744">
        <ele>770.0</ele>
      </trkpt>
      <trkpt lat="43.97668909176609" lon="2.9800361394882215">
        <ele>770.0</ele>
      </trkpt>
      <trkpt lat="43.976656278737934" lon="2.980099171400071">
        <ele>770.0</ele>
      </trkpt>
      <trkpt lat="43.97661767515222" lon="2.980143427848816">
        <ele>770.0</ele>
      </trkpt>
      <trkpt lat="43.976581966813086" lon="2.9801689088344587">
        <ele>771.0</ele>
      </trkpt>
      <trkpt lat="43.97657038572554" lon="2.9802131652832036">
        <ele>771.0</ele>
      </trkpt>
      <trkpt lat="43.97655880463569" lon="2.980256080627441">
        <ele>772.0</ele>
      </trkpt>
      <trkpt lat="43.97655011881679" lon="2.980319112539292">
        <ele>772.0</ele>
      </trkpt>
      <trkpt lat="43.97654915372575" lon="2.9803727567195897">
        <ele>773.0</ele>
      </trkpt>
      <trkpt lat="43.97655204899889" lon="2.9804357886314405">
        <ele>773.0</ele>
      </trkpt>
      <trkpt lat="43.97656169990834" lon="2.9805296659469613">
        <ele>773.0</ele>
      </trkpt>
      <trkpt lat="43.97657038572554" lon="2.980662435293199">
        <ele>772.0</ele>
      </trkpt>
      <trkpt lat="43.97657424608828" lon="2.9807616770267495">
        <ele>772.0</ele>
      </trkpt>
      <trkpt lat="43.976567490453284" lon="2.980838119983673">
        <ele>771.0</ele>
      </trkpt>
      <trkpt lat="43.976551083907864" lon="2.9809212684631357">
        <ele>771.0</ele>
      </trkpt>
      <trkpt lat="43.97651055007048" lon="2.9809963703155513">
        <ele>771.0</ele>
      </trkpt>
      <trkpt lat="43.9764758067592" lon="2.98105537891388">
        <ele>770.0</ele>
      </trkpt>
      <trkpt lat="43.976439133241904" lon="2.9811063408851624">
        <ele>770.0</ele>
      </trkpt>
      <trkpt lat="43.97639473895372" lon="2.981174737215041">
        <ele>770.0</ele>
      </trkpt>
      <trkpt lat="43.97634455406637" lon="2.981229722499848">
        <ele>770.0</ele>
      </trkpt>
      <trkpt lat="43.97630305499282" lon="2.9812914133071904">
        <ele>770.0</ele>
      </trkpt>
      <trkpt lat="43.97625962569884" lon="2.981341034173967">
        <ele>769.0</ele>
      </trkpt>
      <trkpt lat="43.9762026850207" lon="2.98142284154892">
        <ele>770.0</ele>
      </trkpt>
      <trkpt lat="43.97615539526351" lon="2.981519401073456">
        <ele>770.0</ele>
      </trkpt>
      <trkpt lat="43.976121616842455" lon="2.9816333949565883">
        <ele>770.0</ele>
      </trkpt>
      <trkpt lat="43.976103279977195" lon="2.9817393422126783">
        <ele>770.0</ele>
      </trkpt>
      <trkpt lat="43.97608108271182" lon="2.9818546772003187">
        <ele>771.0</ele>
      </trkpt>
      <trkpt lat="43.97605309484355" lon="2.9819954931735984">
        <ele>771.0</ele>
      </trkpt>
      <trkpt lat="43.97602607206168" lon="2.9820799827575692">
        <ele>772.0</ele>
      </trkpt>
      <trkpt lat="43.97596141035519" lon="2.9821993410587315">
        <ele>772.0</ele>
      </trkpt>
      <trkpt lat="43.975901574086414" lon="2.982285171747206">
        <ele>773.0</ele>
      </trkpt>
      <trkpt lat="43.97588034184753" lon="2.9823468625545484">
        <ele>774.0</ele>
      </trkpt>
      <trkpt lat="43.97585235388483" lon="2.9824849963188176">
        <ele>774.0</ele>
      </trkpt>
      <trkpt lat="43.9758513887822" lon="2.982601672410966">
        <ele>775.0</ele>
      </trkpt>
      <trkpt lat="43.975839807552184" lon="2.9827304184436807">
        <ele>775.0</ele>
      </trkpt>
      <trkpt lat="43.97585235388468" lon="2.98286184668541">
        <ele>775.0</ele>
      </trkpt>
      <trkpt lat="43.97586490021441" lon="2.9829342663288125">
        <ele>776.0</ele>
      </trkpt>
      <trkpt lat="43.975878411643606" lon="2.983025461435318">
        <ele>776.0</ele>
      </trkpt>
      <trkpt lat="43.97586007470332" lon="2.983154207468033">
        <ele>776.0</ele>
      </trkpt>
      <trkpt lat="43.975836912244354" lon="2.9832467436790466">
        <ele>776.0</ele>
      </trkpt>
      <trkpt lat="43.97579637791932" lon="2.9833996295928955">
        <ele>776.0</ele>
      </trkpt>
      <trkpt lat="43.975730750858304" lon="2.9835015535354623">
        <ele>777.0</ele>
      </trkpt>
      <trkpt lat="43.975632310131026" lon="2.9835256934165955">
        <ele>777.0</ele>
      </trkpt>
      <trkpt lat="43.97548754405863" lon="2.983571290969849">
        <ele>778.0</ele>
      </trkpt>
      <trkpt lat="43.97530996386147" lon="2.9835766553878775">
        <ele>778.0</ele>
      </trkpt>
      <trkpt lat="43.97508605763853" lon="2.9836034774780273">
        <ele>779.0</ele>
      </trkpt>
      <trkpt lat="43.974977964677024" lon="2.983641028404234">
        <ele>779.0</ele>
      </trkpt>
      <trkpt lat="43.97489689482674" lon="2.9837536811828596">
        <ele>779.0</ele>
      </trkpt>
      <trkpt lat="43.97488145293791" lon="2.9839146137237553">
        <ele>779.0</ele>
      </trkpt>
      <trkpt lat="43.97493163906183" lon="2.9841023683547983">
        <ele>779.0</ele>
      </trkpt>
      <trkpt lat="43.97501656932869" lon="2.9843008518219003">
        <ele>778.0</ele>
      </trkpt>
      <trkpt lat="43.97508991809779" lon="2.9844403266906725">
        <ele>778.0</ele>
      </trkpt>
      <trkpt lat="43.97516712723053" lon="2.9845958948135376">
        <ele>777.0</ele>
      </trkpt>
      <trkpt lat="43.97524433626288" lon="2.984697818756104">
        <ele>776.0</ele>
      </trkpt>
      <trkpt lat="43.97533698696921" lon="2.984821200370788">
        <ele>775.0</ele>
      </trkpt>
      <trkpt lat="43.97541419578068" lon="2.984928488731385">
        <ele>773.0</ele>
      </trkpt>
      <trkpt lat="43.97545473036674" lon="2.9849740862846375">
        <ele>770.0</ele>
      </trkpt>
      <trkpt lat="43.97548175340862" lon="2.9850330948829655">
        <ele>767.0</ele>
      </trkpt>
      <trkpt lat="43.975493334708624" lon="2.9850786924362187">
        <ele>765.0</ele>
      </trkpt>
      <trkpt lat="43.97547789297491" lon="2.9851269721984863">
        <ele>762.0</ele>
      </trkpt>
      <trkpt lat="43.9755145670856" lon="2.9851913452148438">
        <ele>760.0</ele>
      </trkpt>
      <trkpt lat="43.97555317138845" lon="2.985200732946395">
        <ele>758.0</ele>
      </trkpt>
      <trkpt lat="43.975564752674394" lon="2.985211461782455">
        <ele>756.0</ele>
      </trkpt>
      <trkpt lat="43.97556668288848" lon="2.985238283872605">
        <ele>754.0</ele>
      </trkpt>
      <trkpt lat="43.97555027606665" lon="2.9852758347988115">
        <ele>753.0</ele>
      </trkpt>
      <trkpt lat="43.975499125357416" lon="2.9853549599647518">
        <ele>751.0</ele>
      </trkpt>
      <trkpt lat="43.9754759627577" lon="2.98542469739914">
        <ele>751.0</ele>
      </trkpt>
      <trkpt lat="43.97542770731239" lon="2.9854729771614084">
        <ele>752.0</ele>
      </trkpt>
      <trkpt lat="43.97539682380688" lon="2.985548079013824">
        <ele>752.0</ele>
      </trkpt>
      <trkpt lat="43.975371730946904" lon="2.985633909702301">
        <ele>753.0</ele>
      </trkpt>
      <trkpt lat="43.975308033639" lon="2.985684871673584">
        <ele>753.0</ele>
      </trkpt>
      <trkpt lat="43.97526170828132" lon="2.9857546091079716">
        <ele>754.0</ele>
      </trkpt>
      <trkpt lat="43.97525205716062" lon="2.9858618974685656">
        <ele>754.0</ele>
      </trkpt>
      <trkpt lat="43.975205731759225" lon="2.985966503620146">
        <ele>754.0</ele>
      </trkpt>
      <trkpt lat="43.975116941305664" lon="2.9861488938331613">
        <ele>753.0</ele>
      </trkpt>
      <trkpt lat="43.975028150719275" lon="2.9862910509109493">
        <ele>753.0</ele>
      </trkpt>
      <trkpt lat="43.97495287163991" lon="2.9864814877510075">
        <ele>752.0</ele>
      </trkpt>
      <trkpt lat="43.974914266946804" lon="2.986591458320618">
        <ele>751.0</ele>
      </trkpt>
      <trkpt lat="43.97491423491837" lon="2.9865915263885516">
        <ele>750.0</ele>
      </trkpt>
      <trkpt lat="43.974881452937936" lon="2.986661195755006">
        <ele>748.0</ele>
      </trkpt>
      <trkpt lat="43.97485442962295" lon="2.986744344234466">
        <ele>747.0</ele>
      </trkpt>
      <trkpt lat="43.97486601104524" lon="2.9868435859680167">
        <ele>745.0</ele>
      </trkpt>
      <trkpt lat="43.97489496459102" lon="2.9869213700294495">
        <ele>744.0</ele>
      </trkpt>
      <trkpt lat="43.97489110411909" lon="2.986991107463837">
        <ele>743.0</ele>
      </trkpt>
      <trkpt lat="43.974822489011395" lon="2.987154084143438">
        <ele>742.0</ele>
      </trkpt>
      <trkpt lat="43.974726799571876" lon="2.9873251243654693">
        <ele>741.0</ele>
      </trkpt>
      <trkpt lat="43.97463110987015" lon="2.9874961640134634">
        <ele>741.0</ele>
      </trkpt>
      <trkpt lat="43.97454368978686" lon="2.98761648590272">
        <ele>741.0</ele>
      </trkpt>
      <trkpt lat="43.97445626957561" lon="2.9877368074230564">
        <ele>741.0</ele>
      </trkpt>
      <trkpt lat="43.97436993810262" lon="2.9876321554183964">
        <ele>741.0</ele>
      </trkpt>
      <trkpt lat="43.974281146399214" lon="2.9875946044921875">
        <ele>741.0</ele>
      </trkpt>
      <trkpt lat="43.9741595401554" lon="2.9876214265823373">
        <ele>741.0</ele>
      </trkpt>
      <trkpt lat="43.97403600339873" lon="2.987707257270813">
        <ele>742.0</ele>
      </trkpt>
      <trkpt lat="43.97394142039578" lon="2.9878064990043653">
        <ele>742.0</ele>
      </trkpt>
      <trkpt lat="43.97384683724211" lon="2.9879271984100355">
        <ele>742.0</ele>
      </trkpt>
      <trkpt lat="43.97375225393783" lon="2.9879888892173776">
        <ele>742.0</ele>
      </trkpt>
      <trkpt lat="43.97367697324115" lon="2.987980842590333">
        <ele>742.0</ele>
      </trkpt>
      <trkpt lat="43.97355729603944" lon="2.9881390929222116">
        <ele>742.0</ele>
      </trkpt>
      <trkpt lat="43.973440514015316" lon="2.988296002470921">
        <ele>741.0</ele>
      </trkpt>
      <trkpt lat="43.97332373177394" lon="2.988452911376954">
        <ele>741.0</ele>
      </trkpt>
      <trkpt lat="43.97321467045882" lon="2.988603115369056">
        <ele>741.0</ele>
      </trkpt>
      <trkpt lat="43.973105608944245" lon="2.9887533187866215">
        <ele>741.0</ele>
      </trkpt>
      <trkpt lat="43.97296276701112" lon="2.9889625310897836">
        <ele>741.0</ele>
      </trkpt>
      <trkpt lat="43.97287204291614" lon="2.989099323967174">
        <ele>740.0</ele>
      </trkpt>
      <trkpt lat="43.97278131865478" lon="2.989236116409302">
        <ele>740.0</ele>
      </trkpt>
      <trkpt lat="43.972634615323045" lon="2.989456057548523">
        <ele>739.0</ele>
      </trkpt>
      <trkpt lat="43.97255933325966" lon="2.989603579239092">
        <ele>739.0</ele>
      </trkpt>
      <trkpt lat="43.97248405100054" lon="2.9897511005401607">
        <ele>739.0</ele>
      </trkpt>
      <trkpt lat="43.972433862875214" lon="2.9898905755316876">
        <ele>739.0</ele>
      </trkpt>
      <trkpt lat="43.97238367457342" lon="2.990030050277711">
        <ele>739.0</ele>
      </trkpt>
      <trkpt lat="43.972279437335004" lon="2.99030363559723">
        <ele>739.0</ele>
      </trkpt>
      <trkpt lat="43.97221766703329" lon="2.9904377460479745">
        <ele>739.0</ele>
      </trkpt>
      <trkpt lat="43.97212501146026" lon="2.99052357673645">
        <ele>739.0</ele>
      </trkpt>
      <trkpt lat="43.972007261461215" lon="2.990542352199555">
        <ele>738.0</ele>
      </trkpt>
      <trkpt lat="43.97188565056112" lon="2.9904565215110788">
        <ele>737.0</ele>
      </trkpt>
      <trkpt lat="43.97181615850638" lon="2.9903706908226018">
        <ele>736.0</ele>
      </trkpt>
      <trkpt lat="43.97173894501689" lon="2.9902124404907235">
        <ele>734.0</ele>
      </trkpt>
      <trkpt lat="43.97166945279021" lon="2.9899495840072627">
        <ele>733.0</ele>
      </trkpt>
      <trkpt lat="43.97166945279021" lon="2.989665269851683">
        <ele>731.0</ele>
      </trkpt>
      <trkpt lat="43.9716771741527" lon="2.989397048950196">
        <ele>729.0</ele>
      </trkpt>
      <trkpt lat="43.971665592108565" lon="2.989182472229005">
        <ele>727.0</ele>
      </trkpt>
      <trkpt lat="43.97160768185405" lon="2.988957166671754">
        <ele>724.0</ele>
      </trkpt>
      <trkpt lat="43.97146869701275" lon="2.9887640476226807">
        <ele>721.0</ele>
      </trkpt>
      <trkpt lat="43.9713663884729" lon="2.988664805711084">
        <ele>718.0</ele>
      </trkpt>
      <trkpt lat="43.97126407984906" lon="2.988565564155577">
        <ele>715.0</ele>
      </trkpt>
      <trkpt lat="43.97120037819591" lon="2.9884207247069803">
        <ele>712.0</ele>
      </trkpt>
      <trkpt lat="43.97113667635325" lon="2.988275885581971">
        <ele>710.0</ele>
      </trkpt>
      <trkpt lat="43.9710671834222" lon="2.988013029098511">
        <ele>708.0</ele>
      </trkpt>
      <trkpt lat="43.971051740537476" lon="2.987728714942933">
        <ele>706.0</ele>
      </trkpt>
      <trkpt lat="43.971042088942305" lon="2.9875141381854244">
        <ele>704.0</ele>
      </trkpt>
      <trkpt lat="43.97103243692607" lon="2.9872995615005506">
        <ele>702.0</ele>
      </trkpt>
      <trkpt lat="43.97102085475623" lon="2.9870420694351205">
        <ele>700.0</ele>
      </trkpt>
      <trkpt lat="43.97098224750703" lon="2.9867845773696904">
        <ele>698.0</ele>
      </trkpt>
      <trkpt lat="43.9708818685417" lon="2.9865324497222905">
        <ele>696.0</ele>
      </trkpt>
      <trkpt lat="43.97072357829011" lon="2.9863393306732173">
        <ele>695.0</ele>
      </trkpt>
      <trkpt lat="43.97063285072921" lon="2.986245453208342">
        <ele>694.0</ele>
      </trkpt>
      <trkpt lat="43.97054212309248" lon="2.9861515760421757">
        <ele>693.0</ele>
      </trkpt>
      <trkpt lat="43.97043209141641" lon="2.9860550163313317">
        <ele>692.0</ele>
      </trkpt>
      <trkpt lat="43.97032205966211" lon="2.985958456993103">
        <ele>691.0</ele>
      </trkpt>
      <trkpt lat="43.970225540317976" lon="2.985861897305139">
        <ele>690.0</ele>
      </trkpt>
      <trkpt lat="43.97012902089398" lon="2.98576533794403">
        <ele>688.0</ele>
      </trkpt>
      <trkpt lat="43.96999196292004" lon="2.9856204983091263">
        <ele>686.0</ele>
      </trkpt>
      <trkpt lat="43.969854904765164" lon="2.9854756593704224">
        <ele>684.0</ele>
      </trkpt>
      <trkpt lat="43.96968116853562" lon="2.9852932691574092">
        <ele>682.0</ele>
      </trkpt>
      <trkpt lat="43.96956920491835" lon="2.9850894212722787">
        <ele>680.0</ele>
      </trkpt>
      <trkpt lat="43.96950164061711" lon="2.984947264026069">
        <ele>678.0</ele>
      </trkpt>
      <trkpt lat="43.96943407613369" lon="2.9848051071167">
        <ele>676.0</ele>
      </trkpt>
      <trkpt lat="43.96935685968043" lon="2.984603941168204">
        <ele>674.0</ele>
      </trkpt>
      <trkpt lat="43.9692796428605" lon="2.984402775764464">
        <ele>671.0</ele>
      </trkpt>
      <trkpt lat="43.9692120783176" lon="2.9842042920622087">
        <ele>669.0</ele>
      </trkpt>
      <trkpt lat="43.969144513417035" lon="2.9840058088302612">
        <ele>667.0</ele>
      </trkpt>
      <trkpt lat="43.96905764455802" lon="2.9837509985857067">
        <ele>666.0</ele>
      </trkpt>
      <trkpt lat="43.9689707751095" lon="2.9834961891174316">
        <ele>664.0</ele>
      </trkpt>
      <trkpt lat="43.96888969705874" lon="2.9832065105438224">
        <ele>662.0</ele>
      </trkpt>
      <trkpt lat="43.96884722755932" lon="2.982922196388245">
        <ele>660.0</ele>
      </trkpt>
      <trkpt lat="43.96882792323143" lon="2.982659339904785">
        <ele>658.0</ele>
      </trkpt>
      <trkpt lat="43.9688144103111" lon="2.9825010895354094">
        <ele>656.0</ele>
      </trkpt>
      <trkpt lat="43.9688008971618" lon="2.982342839241028">
        <ele>655.0</ele>
      </trkpt>
      <trkpt lat="43.96878159281884" lon="2.982165813446045">
        <ele>653.0</ele>
      </trkpt>
      <trkpt lat="43.968820201498495" lon="2.9820531606674203">
        <ele>651.0</ele>
      </trkpt>
      <trkpt lat="43.96888197533384" lon="2.9820317029953007">
        <ele>650.0</ele>
      </trkpt>
      <trkpt lat="43.96893216652769" lon="2.982128262519836">
        <ele>649.0</ele>
      </trkpt>
      <trkpt lat="43.96898235767912" lon="2.982326745986939">
        <ele>648.0</ele>
      </trkpt>
      <trkpt lat="43.9690634357952" lon="2.9825600978394773">
        <ele>647.0</ele>
      </trkpt>
      <trkpt lat="43.969144513417035" lon="2.98279345035553">
        <ele>646.0</ele>
      </trkpt>
      <trkpt lat="43.96922752169601" lon="2.9830107089695046">
        <ele>646.0</ele>
      </trkpt>
      <trkpt lat="43.969310529547265" lon="2.983227968215942">
        <ele>645.0</ele>
      </trkpt>
      <trkpt lat="43.96938581594016" lon="2.9834425446538613">
        <ele>645.0</ele>
      </trkpt>
      <trkpt lat="43.969461101915236" lon="2.9836571216583256">
        <ele>645.0</ele>
      </trkpt>
      <trkpt lat="43.969544109658294" lon="2.983820736170084">
        <ele>644.0</ele>
      </trkpt>
      <trkpt lat="43.96962711716052" lon="2.9839843511581416">
        <ele>643.0</ele>
      </trkpt>
      <trkpt lat="43.96976610631133" lon="2.9842203855514526">
        <ele>643.0</ele>
      </trkpt>
      <trkpt lat="43.96990123434058" lon="2.984365224838257">
        <ele>642.0</ele>
      </trkpt>
      <trkpt lat="43.97005952678382" lon="2.984483242034912">
        <ele>641.0</ele>
      </trkpt>
      <trkpt lat="43.970163767844426" lon="2.984550297137713">
        <ele>640.0</ele>
      </trkpt>
      <trkpt lat="43.970268008870235" lon="2.984617352485656">
        <ele>639.0</ele>
      </trkpt>
      <trkpt lat="43.97042436976955" lon="2.984695136333816">
        <ele>638.0</ele>
      </trkpt>
      <trkpt lat="43.97058073062776" lon="2.984772920608521">
        <ele>637.0</ele>
      </trkpt>
      <trkpt lat="43.9707390210624" lon="2.984839975647768">
        <ele>636.0</ele>
      </trkpt>
      <trkpt lat="43.97089731147046" lon="2.9849070310592656">
        <ele>635.0</ele>
      </trkpt>
      <trkpt lat="43.97104208856595" lon="2.9849660395077846">
        <ele>634.0</ele>
      </trkpt>
      <trkpt lat="43.9711868656418" lon="2.98502504825592">
        <ele>633.0</ele>
      </trkpt>
      <trkpt lat="43.971312338555" lon="2.985081374521301">
        <ele>632.0</ele>
      </trkpt>
      <trkpt lat="43.97143781144836" lon="2.9851377010345463">
        <ele>631.0</ele>
      </trkpt>
      <trkpt lat="43.97161926390949" lon="2.9851591587066655">
        <ele>630.0</ele>
      </trkpt>
      <trkpt lat="43.97178141244821" lon="2.985014319419861">
        <ele>629.0</ele>
      </trkpt>
      <trkpt lat="43.97186441695251" lon="2.9848480227029905">
        <ele>628.0</ele>
      </trkpt>
      <trkpt lat="43.97194742120788" lon="2.984681725502015">
        <ele>627.0</ele>
      </trkpt>
      <trkpt lat="43.97201305259751" lon="2.9844805600574196">
        <ele>625.0</ele>
      </trkpt>
      <trkpt lat="43.9720786836195" lon="2.9842793941497816">
        <ele>624.0</ele>
      </trkpt>
      <trkpt lat="43.97213852390928" lon="2.9840701820661573">
        <ele>622.0</ele>
      </trkpt>
      <trkpt lat="43.97219836380083" lon="2.9838609695434575">
        <ele>621.0</ele>
      </trkpt>
      <trkpt lat="43.97224919596132" lon="2.9836589101578945">
        <ele>619.0</ele>
      </trkpt>
      <trkpt lat="43.97230002774992" lon="2.9834568504121064">
        <ele>617.0</ele>
      </trkpt>
      <trkpt lat="43.97235085916658" lon="2.983254790306092">
        <ele>615.0</ele>
      </trkpt>
      <trkpt lat="43.97235085916658" lon="2.9830962603591615">
        <ele>614.0</ele>
      </trkpt>
      <trkpt lat="43.97237788362088" lon="2.9829085057281195">
        <ele>612.0</ele>
      </trkpt>
      <trkpt lat="43.97239268694931" lon="2.9828224191831048">
        <ele>610.0</ele>
      </trkpt>
      <trkpt lat="43.97240394300356" lon="2.9827569609880293">
        <ele>608.0</ele>
      </trkpt>
      <trkpt lat="43.972430002176566" lon="2.982605416109436">
        <ele>607.0</ele>
      </trkpt>
      <trkpt lat="43.972458956909996" lon="2.9824015682243057">
        <ele>604.0</ele>
      </trkpt>
      <trkpt lat="43.97252072696075" lon="2.9821869915031134">
        <ele>602.0</ele>
      </trkpt>
      <trkpt lat="43.97258635756926" lon="2.9820877497695624">
        <ele>601.0</ele>
      </trkpt>
      <trkpt lat="43.97259986974439" lon="2.9820046012901016">
        <ele>599.0</ele>
      </trkpt>
      <trkpt lat="43.972540030088425" lon="2.981948554515839">
        <ele>598.0</ele>
      </trkpt>
      <trkpt lat="43.97249370257144" lon="2.9819834232330322">
        <ele>597.0</ele>
      </trkpt>
      <trkpt lat="43.972445444702615" lon="2.9820799827575666">
        <ele>596.0</ele>
      </trkpt>
      <trkpt lat="43.972343137891464" lon="2.982321381568909">
        <ele>596.0</ele>
      </trkpt>
      <trkpt lat="43.972236970259566" lon="2.9825896024703975">
        <ele>595.0</ele>
      </trkpt>
      <trkpt lat="43.972109568850776" lon="2.9828175902366625">
        <ele>594.0</ele>
      </trkpt>
      <trkpt lat="43.97201305245005" lon="2.9830160737037668">
        <ele>593.0</ele>
      </trkpt>
      <trkpt lat="43.97194356054438" lon="2.983120679855347">
        <ele>593.0</ele>
      </trkpt>
      <trkpt lat="43.971870207889125" lon="2.9831555485725394">
        <ele>591.0</ele>
      </trkpt>
      <trkpt lat="43.97180843716176" lon="2.9831260442733765">
        <ele>590.0</ele>
      </trkpt>
      <trkpt lat="43.971787203459385" lon="2.9830348491668683">
        <ele>588.0</ele>
      </trkpt>
      <trkpt lat="43.971816158506165" lon="2.9828578233718868">
        <ele>586.0</ele>
      </trkpt>
      <trkpt lat="43.971835461862895" lon="2.9826888442039494">
        <ele>584.0</ele>
      </trkpt>
      <trkpt lat="43.971806506825494" lon="2.9825547337532043">
        <ele>581.0</ele>
      </trkpt>
      <trkpt lat="43.97176210907406" lon="2.982407212257385">
        <ele>579.0</ele>
      </trkpt>
      <trkpt lat="43.9717563180606" lon="2.982171177864076">
        <ele>576.0</ele>
      </trkpt>
      <trkpt lat="43.97175635539817" lon="2.982169673390248">
        <ele>574.0</ele>
      </trkpt>
      <trkpt lat="43.971762109074085" lon="2.98193782567978">
        <ele>572.0</ele>
      </trkpt>
      <trkpt lat="43.97181036749797" lon="2.981728613376617">
        <ele>569.0</ele>
      </trkpt>
      <trkpt lat="43.97184704387389" lon="2.9815998673439026">
        <ele>567.0</ele>
      </trkpt>
      <trkpt lat="43.9718759988915" lon="2.981479167938232">
        <ele>566.0</ele>
      </trkpt>
      <trkpt lat="43.9718856505609" lon="2.9813611507415776">
        <ele>564.0</ele>
      </trkpt>
      <trkpt lat="43.971856695548" lon="2.9812002182006836">
        <ele>562.0</ele>
      </trkpt>
      <trkpt lat="43.97181808884214" lon="2.9810607433319096">
        <ele>561.0</ele>
      </trkpt>
      <trkpt lat="43.97178141244833" lon="2.980835437774659">
        <ele>559.0</ele>
      </trkpt>
      <trkpt lat="43.971777551773975" lon="2.9805591702461247">
        <ele>558.0</ele>
      </trkpt>
      <trkpt lat="43.97176596974942" lon="2.9802668094635005">
        <ele>556.0</ele>
      </trkpt>
      <trkpt lat="43.97178720345941" lon="2.9800173640251164">
        <ele>554.0</ele>
      </trkpt>
      <trkpt lat="43.971808437296836" lon="2.9798430205040662">
        <ele>552.0</ele>
      </trkpt>
      <trkpt lat="43.971829670856536" lon="2.979668676853181">
        <ele>550.0</ele>
      </trkpt>
      <trkpt lat="43.971868277554876" lon="2.9794460535049447">
        <ele>548.0</ele>
      </trkpt>
      <trkpt lat="43.97190495389501" lon="2.979201972484589">
        <ele>546.0</ele>
      </trkpt>
      <trkpt lat="43.971935839216506" lon="2.9790034890174866">
        <ele>544.0</ele>
      </trkpt>
      <trkpt lat="43.971952247153155" lon="2.978842556522898">
        <ele>542.0</ele>
      </trkpt>
      <trkpt lat="43.97196865485308" lon="2.9786816239357">
        <ele>539.0</ele>
      </trkpt>
      <trkpt lat="43.97198795829168" lon="2.9785099626168545">
        <ele>537.0</ele>
      </trkpt>
      <trkpt lat="43.97200726146101" lon="2.978338301181794">
        <ele>535.0</ele>
      </trkpt>
      <trkpt lat="43.97198602782974" lon="2.9781478643417363">
        <ele>533.0</ele>
      </trkpt>
      <trkpt lat="43.97193776954858" lon="2.9778501391410837">
        <ele>531.0</ele>
      </trkpt>
      <trkpt lat="43.97193776954858" lon="2.977630198001862">
        <ele>529.0</ele>
      </trkpt>
      <trkpt lat="43.97196093352845" lon="2.9775014519691467">
        <ele>527.0</ele>
      </trkpt>
      <trkpt lat="43.97203621640054" lon="2.977345883846283">
        <ele>525.0</ele>
      </trkpt>
      <trkpt lat="43.97209026558321" lon="2.9772332310676575">
        <ele>523.0</ele>
      </trkpt>
      <trkpt lat="43.972107638524285" lon="2.9770535230636597">
        <ele>521.0</ele>
      </trkpt>
      <trkpt lat="43.972107638524285" lon="2.9768657684326163">
        <ele>520.0</ele>
      </trkpt>
      <trkpt lat="43.97213466308926" lon="2.976562678813935">
        <ele>518.0</ele>
      </trkpt>
      <trkpt lat="43.97218292121039" lon="2.976299822330475">
        <ele>517.0</ele>
      </trkpt>
      <trkpt lat="43.97219836380093" lon="2.9760637879371643">
        <ele>515.0</ele>
      </trkpt>
      <trkpt lat="43.972206085094626" lon="2.9758867621421814">
        <ele>514.0</ele>
      </trkpt>
      <trkpt lat="43.97219836380094" lon="2.9757043719291683">
        <ele>513.0</ele>
      </trkpt>
      <trkpt lat="43.972152036017384" lon="2.9755729436874385">
        <ele>511.0</ele>
      </trkpt>
      <trkpt lat="43.97207096230932" lon="2.9755005240440364">
        <ele>510.0</ele>
      </trkpt>
      <trkpt lat="43.97199374915109" lon="2.975444197654724">
        <ele>509.0</ele>
      </trkpt>
      <trkpt lat="43.97191460555967" lon="2.975374460220337">
        <ele>508.0</ele>
      </trkpt>
      <trkpt lat="43.97184897420882" lon="2.975264489650726">
        <ele>507.0</ele>
      </trkpt>
      <trkpt lat="43.97183739219818" lon="2.975090146064757">
        <ele>506.0</ele>
      </trkpt>
      <trkpt lat="43.97186634722055" lon="2.9748460650444035">
        <ele>505.0</ele>
      </trkpt>
      <trkpt lat="43.97190109322868" lon="2.9745644330978385">
        <ele>504.0</ele>
      </trkpt>
      <trkpt lat="43.97193583921653" lon="2.974298894405366">
        <ele>503.0</ele>
      </trkpt>
      <trkpt lat="43.97193583921653" lon="2.9740494489669804">
        <ele>502.0</ele>
      </trkpt>
      <trkpt lat="43.97196672452198" lon="2.973824143409729">
        <ele>501.0</ele>
      </trkpt>
      <trkpt lat="43.972001470471426" lon="2.9736176133155823">
        <ele>501.0</ele>
      </trkpt>
      <trkpt lat="43.972011122120435" lon="2.9734352231025696">
        <ele>500.0</ele>
      </trkpt>
      <trkpt lat="43.972022704097206" lon="2.9732206463813764">
        <ele>499.0</ele>
      </trkpt>
      <trkpt lat="43.97202463442642" lon="2.973006069660185">
        <ele>499.0</ele>
      </trkpt>
      <trkpt lat="43.972055519685696" lon="2.9727083444595324">
        <ele>498.0</ele>
      </trkpt>
      <trkpt lat="43.97211535982987" lon="2.9724428057670593">
        <ele>498.0</ele>
      </trkpt>
      <trkpt lat="43.97215879225287" lon="2.972284555555709">
        <ele>497.0</ele>
      </trkpt>
      <trkpt lat="43.97220222444793" lon="2.972126305103302">
        <ele>497.0</ele>
      </trkpt>
      <trkpt lat="43.972236970259566" lon="2.9719600081443796">
        <ele>496.0</ele>
      </trkpt>
      <trkpt lat="43.97225434315777" lon="2.971812486648561">
        <ele>495.0</ele>
      </trkpt>
      <trkpt lat="43.97227943733507" lon="2.9716944694519047">
        <ele>494.0</ele>
      </trkpt>
      <trkpt lat="43.97231611342137" lon="2.9715925455093384">
        <ele>493.0</ele>
      </trkpt>
      <trkpt lat="43.972414559646104" lon="2.9714933037757874">
        <ele>492.0</ele>
      </trkpt>
      <trkpt lat="43.97248984194318" lon="2.971407473087311">
        <ele>491.0</ele>
      </trkpt>
      <trkpt lat="43.97251686633428" lon="2.971332371234894">
        <ele>490.0</ele>
      </trkpt>
      <trkpt lat="43.97251879664738" lon="2.9711848497390747">
        <ele>489.0</ele>
      </trkpt>
      <trkpt lat="43.972518796647364" lon="2.971015870571137">
        <ele>488.0</ele>
      </trkpt>
      <trkpt lat="43.97251107539435" lon="2.970809340476988">
        <ele>487.0</ele>
      </trkpt>
      <trkpt lat="43.97251879664743" lon="2.9705652594566345">
        <ele>486.0</ele>
      </trkpt>
      <trkpt lat="43.97258249694704" lon="2.9702916741371155">
        <ele>485.0</ele>
      </trkpt>
      <trkpt lat="43.97265005779622" lon="2.9700368642807016">
        <ele>484.0</ele>
      </trkpt>
      <trkpt lat="43.97273692163226" lon="2.969824969768524">
        <ele>484.0</ele>
      </trkpt>
      <trkpt lat="43.972762015605646" lon="2.969605028629304">
        <ele>483.0</ele>
      </trkpt>
      <trkpt lat="43.97277166713107" lon="2.969347536563874">
        <ele>483.0</ele>
      </trkpt>
      <trkpt lat="43.97275429438418" lon="2.9691597819328304">
        <ele>482.0</ele>
      </trkpt>
      <trkpt lat="43.972773597435946" lon="2.9688996076583862">
        <ele>482.0</ele>
      </trkpt>
      <trkpt lat="43.97277371183586" lon="2.9688991265932914">
        <ele>481.0</ele>
      </trkpt>
      <trkpt lat="43.972810273314074" lon="2.9687453807392203">
        <ele>481.0</ele>
      </trkpt>
      <trkpt lat="43.97284694897546" lon="2.968591153621674">
        <ele>480.0</ele>
      </trkpt>
      <trkpt lat="43.97292609132435" lon="2.9683792591094966">
        <ele>480.0</ele>
      </trkpt>
      <trkpt lat="43.97302453653796" lon="2.9682156443595886">
        <ele>479.0</ele>
      </trkpt>
      <trkpt lat="43.97314035422743" lon="2.968054711818695">
        <ele>478.0</ele>
      </trkpt>
      <trkpt lat="43.973233008216354" lon="2.9678723216056824">
        <ele>477.0</ele>
      </trkpt>
      <trkpt lat="43.97326775342497" lon="2.9677623510360713">
        <ele>476.0</ele>
      </trkpt>
      <trkpt lat="43.973312150050795" lon="2.967609465122221">
        <ele>475.0</ele>
      </trkpt>
      <trkpt lat="43.97331408033815" lon="2.9673707485198975">
        <ele>474.0</ele>
      </trkpt>
      <trkpt lat="43.973309254734026" lon="2.9672124981746273">
        <ele>473.0</ele>
      </trkpt>
      <trkpt lat="43.97330442890088" lon="2.967054247856141">
        <ele>472.0</ele>
      </trkpt>
      <trkpt lat="43.97331601062541" lon="2.9668235778808594">
        <ele>470.0</ele>
      </trkpt>
      <trkpt lat="43.97335654664348" lon="2.9665634036064157">
        <ele>469.0</ele>
      </trkpt>
      <trkpt lat="43.973422176328334" lon="2.9662925004959106">
        <ele>468.0</ele>
      </trkpt>
      <trkpt lat="43.97343954887982" lon="2.9661315679550175">
        <ele>466.0</ele>
      </trkpt>
      <trkpt lat="43.973437618596535" lon="2.965823113918305">
        <ele>465.0</ele>
      </trkpt>
      <trkpt lat="43.97346271227386" lon="2.9656058549880964">
        <ele>464.0</ele>
      </trkpt>
      <trkpt lat="43.97348780605359" lon="2.9654449225180213">
        <ele>464.0</ele>
      </trkpt>
      <trkpt lat="43.973512899596805" lon="2.9652839899063106">
        <ele>463.0</ele>
      </trkpt>
      <trkpt lat="43.97356212181248" lon="2.9651391507445277">
        <ele>462.0</ele>
      </trkpt>
      <trkpt lat="43.97361134383767" lon="2.964994311332703">
        <ele>462.0</ele>
      </trkpt>
      <trkpt lat="43.973634507164746" lon="2.9648172855377206">
        <ele>462.0</ele>
      </trkpt>
      <trkpt lat="43.973653809930376" lon="2.964597344398499">
        <ele>462.0</ele>
      </trkpt>
      <trkpt lat="43.973669252138436" lon="2.964329123497009">
        <ele>462.0</ele>
      </trkpt>
      <trkpt lat="43.973686624725715" lon="2.9641735554215405">
        <ele>462.0</ele>
      </trkpt>
      <trkpt lat="43.973703997091796" lon="2.964017987251282">
        <ele>462.0</ele>
      </trkpt>
      <trkpt lat="43.97373874202481" lon="2.963717579841614">
        <ele>462.0</ele>
      </trkpt>
      <trkpt lat="43.97374646311828" lon="2.9634922742843637">
        <ele>463.0</ele>
      </trkpt>
      <trkpt lat="43.97375032366483" lon="2.963384985923767">
        <ele>463.0</ele>
      </trkpt>
      <trkpt lat="43.973819813456366" lon="2.9633578842185666">
        <ele>463.0</ele>
      </trkpt>
      <trkpt lat="43.97392018745613" lon="2.963406163980836">
        <ele>463.0</ele>
      </trkpt>
      <trkpt lat="43.97400125863976" lon="2.9634517615340896">
        <ele>462.0</ele>
      </trkpt>
      <trkpt lat="43.97410356259451" lon="2.9635295455955206">
        <ele>462.0</ele>
      </trkpt>
      <trkpt lat="43.97425219255435" lon="2.9637065713905026">
        <ele>462.0</ele>
      </trkpt>
      <trkpt lat="43.97433229817444" lon="2.9638326350371123">
        <ele>461.0</ele>
      </trkpt>
      <trkpt lat="43.974412403652885" lon="2.9639586990379043">
        <ele>461.0</ele>
      </trkpt>
      <trkpt lat="43.97452049764389" lon="2.964202780058259">
        <ele>460.0</ele>
      </trkpt>
      <trkpt lat="43.97462678251168" lon="2.9643467310303544">
        <ele>460.0</ele>
      </trkpt>
      <trkpt lat="43.97467298704658" lon="2.964409310152405">
        <ele>460.0</ele>
      </trkpt>
      <trkpt lat="43.97480038295623" lon="2.964479047586793">
        <ele>459.0</ele>
      </trkpt>
      <trkpt lat="43.97495480187421" lon="2.9644924586318675">
        <ele>459.0</ele>
      </trkpt>
      <trkpt lat="43.97507447625947" lon="2.964465636541719">
        <ele>459.0</ele>
      </trkpt>
      <trkpt lat="43.97517098768482" lon="2.9644039457343756">
        <ele>459.0</ele>
      </trkpt>
      <trkpt lat="43.97530996386177" lon="2.964299339582795">
        <ele>459.0</ele>
      </trkpt>
      <trkpt lat="43.97543253276717" lon="2.96420694337791">
        <ele>459.0</ele>
      </trkpt>
      <trkpt lat="43.975555101603206" lon="2.9641145467758188">
        <ele>459.0</ele>
      </trkpt>
      <trkpt lat="43.97563907207425" lon="2.9643090171644113">
        <ele>460.0</ele>
      </trkpt>
      <trkpt lat="43.97575198315078" lon="2.9644954204559335">
        <ele>460.0</ele>
      </trkpt>
      <trkpt lat="43.975929561903634" lon="2.9646778101009463">
        <ele>460.0</ele>
      </trkpt>
      <trkpt lat="43.976107140370495" lon="2.964860200881958">
        <ele>461.0</ele>
      </trkpt>
      <trkpt lat="43.97627699727036" lon="2.9650090630388526">
        <ele>461.0</ele>
      </trkpt>
      <trkpt lat="43.97644685398427" lon="2.9651579260826115">
        <ele>462.0</ele>
      </trkpt>
      <trkpt lat="43.976623465532676" lon="2.9653148348239924">
        <ele>462.0</ele>
      </trkpt>
      <trkpt lat="43.976800076873985" lon="2.965471744537354">
        <ele>462.0</ele>
      </trkpt>
      <trkpt lat="43.976930363398274" lon="2.96559646697157">
        <ele>462.0</ele>
      </trkpt>
      <trkpt lat="43.97706064979014" lon="2.965721189975739">
        <ele>463.0</ele>
      </trkpt>
      <trkpt lat="43.97719962146357" lon="2.965859323403346">
        <ele>463.0</ele>
      </trkpt>
      <trkpt lat="43.9773385929737" lon="2.9659974575042725">
        <ele>463.0</ele>
      </trkpt>
      <trkpt lat="43.977517132041" lon="2.9661718005443496">
        <ele>464.0</ele>
      </trkpt>
      <trkpt lat="43.97769567084879" lon="2.9663461446762094">
        <ele>464.0</ele>
      </trkpt>
      <trkpt lat="43.977846221854676" lon="2.966489642479628">
        <ele>464.0</ele>
      </trkpt>
      <trkpt lat="43.97799677268537" lon="2.966633141040802">
        <ele>465.0</ele>
      </trkpt>
      <trkpt lat="43.978129951728086" lon="2.9667735093235423">
        <ele>466.0</ele>
      </trkpt>
      <trkpt lat="43.978263130600844" lon="2.9669138782619884">
        <ele>466.0</ele>
      </trkpt>
      <trkpt lat="43.97839630930371" lon="2.967054247856141">
        <ele>467.0</ele>
      </trkpt>
      <trkpt lat="43.97853238269387" lon="2.967201768999911">
        <ele>468.0</ele>
      </trkpt>
      <trkpt lat="43.978668455895715" lon="2.9673492908477783">
        <ele>469.0</ele>
      </trkpt>
      <trkpt lat="43.97877557707869" lon="2.967492788760488">
        <ele>470.0</ele>
      </trkpt>
      <trkpt lat="43.978882698080014" lon="2.967636287212372">
        <ele>471.0</ele>
      </trkpt>
      <trkpt lat="43.9789898189027" lon="2.9677985605529136">
        <ele>471.0</ele>
      </trkpt>
      <trkpt lat="43.97909693949121" lon="2.967960834503175">
        <ele>472.0</ele>
      </trkpt>
      <trkpt lat="43.97921564052868" lon="2.9681539531502157">
        <ele>473.0</ele>
      </trkpt>
      <trkpt lat="43.97933434123324" lon="2.968347072601318">
        <ele>473.0</ele>
      </trkpt>
      <trkpt lat="43.97940478958419" lon="2.968489229503469">
        <ele>473.0</ele>
      </trkpt>
      <trkpt lat="43.9794752377532" lon="2.9686313867568974">
        <ele>473.0</ele>
      </trkpt>
      <trkpt lat="43.97952735007996" lon="2.968829870223998">
        <ele>474.0</ele>
      </trkpt>
      <trkpt lat="43.97954665093012" lon="2.9690578579902644">
        <ele>474.0</ele>
      </trkpt>
      <trkpt lat="43.97955533660999" lon="2.96931400891217">
        <ele>475.0</ele>
      </trkpt>
      <trkpt lat="43.97956402168991" lon="2.96957015991211">
        <ele>475.0</ele>
      </trkpt>
      <trkpt lat="43.97959200800528" lon="2.9697243868547676">
        <ele>476.0</ele>
      </trkpt>
      <trkpt lat="43.97961999410356" lon="2.9698786139488216">
        <ele>477.0</ele>
      </trkpt>
      <trkpt lat="43.97972807861502" lon="2.970001995563508">
        <ele>478.0</ele>
      </trkpt>
      <trkpt lat="43.97987090427482" lon="2.97007441520691">
        <ele>479.0</ele>
      </trkpt>
      <trkpt lat="43.979872226625545" lon="2.9700744418396403">
        <ele>481.0</ele>
      </trkpt>
      <trkpt lat="43.98000407924266" lon="2.9700770974159245">
        <ele>482.0</ele>
      </trkpt>
      <trkpt lat="43.980136288729774" lon="2.9700516164893673">
        <ele>483.0</ele>
      </trkpt>
      <trkpt lat="43.98026849822105" lon="2.9700261354446424">
        <ele>484.0</ele>
      </trkpt>
      <trkpt lat="43.980453783522336" lon="2.9699778558392635">
        <ele>485.0</ele>
      </trkpt>
      <trkpt lat="43.98063906882216" lon="2.9699295759201054">
        <ele>485.0</ele>
      </trkpt>
      <trkpt lat="43.98075197649209" lon="2.969881296253442">
        <ele>486.0</ele>
      </trkpt>
      <trkpt lat="43.98086488414806" lon="2.969833016395569">
        <ele>486.0</ele>
      </trkpt>
      <trkpt lat="43.980979721433634" lon="2.969764620203445">
        <ele>486.0</ele>
      </trkpt>
      <trkpt lat="43.98109455868404" lon="2.969696223735809">
        <ele>486.0</ele>
      </trkpt>
      <trkpt lat="43.98120360543042" lon="2.969655990677532">
        <ele>486.0</ele>
      </trkpt>
      <trkpt lat="43.98131265216886" lon="2.9696157574653625">
        <ele>486.0</ele>
      </trkpt>
      <trkpt lat="43.98150565458458" lon="2.9696586728096013">
        <ele>486.0</ele>
      </trkpt>
      <trkpt lat="43.98167356617586" lon="2.9697793722152723">
        <ele>487.0</ele>
      </trkpt>
      <trkpt lat="43.981825072098296" lon="2.969922870016262">
        <ele>487.0</ele>
      </trkpt>
      <trkpt lat="43.98197657784571" lon="2.9700663685798654">
        <ele>488.0</ele>
      </trkpt>
      <trkpt lat="43.98210781808902" lon="2.970227301120758">
        <ele>489.0</ele>
      </trkpt>
      <trkpt lat="43.98218308809763" lon="2.970506250858306">
        <ele>490.0</ele>
      </trkpt>
      <trkpt lat="43.982185983252606" lon="2.9706913232709367">
        <ele>492.0</ele>
      </trkpt>
      <trkpt lat="43.98218887809433" lon="2.9708763957023616">
        <ele>493.0</ele>
      </trkpt>
      <trkpt lat="43.98212325809854" lon="2.971045374870301">
        <ele>495.0</ele>
      </trkpt>
      <trkpt lat="43.98197464783997" lon="2.9712706804275517">
        <ele>497.0</ele>
      </trkpt>
      <trkpt lat="43.9817816469489" lon="2.971418201923371">
        <ele>498.0</ele>
      </trkpt>
      <trkpt lat="43.98162338575004" lon="2.971549630165101">
        <ele>500.0</ele>
      </trkpt>
      <trkpt lat="43.98147284421814" lon="2.9717668890953064">
        <ele>501.0</ele>
      </trkpt>
      <trkpt lat="43.981389853210416" lon="2.9720404744148254">
        <ele>503.0</ele>
      </trkpt>
      <trkpt lat="43.98136765806682" lon="2.9722215235938085">
        <ele>504.0</ele>
      </trkpt>
      <trkpt lat="43.98134546262378" lon="2.9724025726318364">
        <ele>505.0</ele>
      </trkpt>
      <trkpt lat="43.981338707766064" lon="2.972629219320447">
        <ele>507.0</ele>
      </trkpt>
      <trkpt lat="43.981331952438644" lon="2.972855865955353">
        <ele>508.0</ele>
      </trkpt>
      <trkpt lat="43.98136765806001" lon="2.973036914950481">
        <ele>508.0</ele>
      </trkpt>
      <trkpt lat="43.981403363382356" lon="2.9732179641723633">
        <ele>509.0</ele>
      </trkpt>
      <trkpt lat="43.98155969514854" lon="2.973403036594391">
        <ele>510.0</ele>
      </trkpt>
      <trkpt lat="43.981706376431326" lon="2.973494231700897">
        <ele>511.0</ele>
      </trkpt>
      <trkpt lat="43.98192253766121" lon="2.9735478758811955">
        <ele>511.0</ele>
      </trkpt>
      <trkpt lat="43.98210974809043" lon="2.9735344648361206">
        <ele>512.0</ele>
      </trkpt>
      <trkpt lat="43.98232397785726" lon="2.9735344648361206">
        <ele>513.0</ele>
      </trkpt>
      <trkpt lat="43.982480307199246" lon="2.9736256599426274">
        <ele>513.0</ele>
      </trkpt>
      <trkpt lat="43.98260189640286" lon="2.9737731814384456">
        <ele>514.0</ele>
      </trkpt>
      <trkpt lat="43.982688745681564" lon="2.97405481338501">
        <ele>514.0</ele>
      </trkpt>
      <trkpt lat="43.98269260564654" lon="2.9742586612701416">
        <ele>515.0</ele>
      </trkpt>
      <trkpt lat="43.98268681588864" lon="2.9744625091759755">
        <ele>515.0</ele>
      </trkpt>
      <trkpt lat="43.98268102575079" lon="2.9746663570404057">
        <ele>515.0</ele>
      </trkpt>
      <trkpt lat="43.982648216033965" lon="2.9749667644500737">
        <ele>516.0</ele>
      </trkpt>
      <trkpt lat="43.98257873657376" lon="2.975243031978607">
        <ele>516.0</ele>
      </trkpt>
      <trkpt lat="43.982480307199246" lon="2.975374460220337">
        <ele>516.0</ele>
      </trkpt>
      <trkpt lat="43.98236643771929" lon="2.975457608699798">
        <ele>517.0</ele>
      </trkpt>
      <trkpt lat="43.982185018096594" lon="2.9755192995071407">
        <ele>517.0</ele>
      </trkpt>
      <trkpt lat="43.98200263262802" lon="2.9755313694863177">
        <ele>518.0</ele>
      </trkpt>
      <trkpt lat="43.98182024717732" lon="2.9755434393882765">
        <ele>519.0</ele>
      </trkpt>
      <trkpt lat="43.981703481291035" lon="2.9755514860317995">
        <ele>520.0</ele>
      </trkpt>
      <trkpt lat="43.98158671541205" lon="2.975559532642364">
        <ele>522.0</ele>
      </trkpt>
      <trkpt lat="43.981397573309046" lon="2.9755192995071407">
        <ele>523.0</ele>
      </trkpt>
      <trkpt lat="43.98123352099706" lon="2.975462973117827">
        <ele>524.0</ele>
      </trkpt>
      <trkpt lat="43.981103243712525" lon="2.9753932355241">
        <ele>526.0</ele>
      </trkpt>
      <trkpt lat="43.98097296639333" lon="2.975323498249054">
        <ele>527.0</ele>
      </trkpt>
      <trkpt lat="43.98083207342759" lon="2.9752537608146663">
        <ele>528.0</ele>
      </trkpt>
      <trkpt lat="43.98073364115724" lon="2.9752457141876225">
        <ele>529.0</ele>
      </trkpt>
      <trkpt lat="43.980613978177395" lon="2.9752591252326965">
        <ele>529.0</ele>
      </trkpt>
      <trkpt lat="43.98044606358934" lon="2.975379824638366">
        <ele>530.0</ele>
      </trkpt>
      <trkpt lat="43.980372721436325" lon="2.9755514860153203">
        <ele>530.0</ele>
      </trkpt>
      <trkpt lat="43.980337980384874" lon="2.9757633805274963">
        <ele>530.0</ele>
      </trkpt>
      <trkpt lat="43.98034956073766" lon="2.975977957248688">
        <ele>530.0</ele>
      </trkpt>
      <trkpt lat="43.980350732263794" lon="2.975985012158445">
        <ele>530.0</ele>
      </trkpt>
      <trkpt lat="43.98038140685539" lon="2.97616973508614">
        <ele>530.0</ele>
      </trkpt>
      <trkpt lat="43.9804132526374" lon="2.976361513137817">
        <ele>531.0</ele>
      </trkpt>
      <trkpt lat="43.98045088890054" lon="2.976562678681149">
        <ele>531.0</ele>
      </trkpt>
      <trkpt lat="43.98048852479441" lon="2.9767638444900513">
        <ele>532.0</ele>
      </trkpt>
      <trkpt lat="43.98053774123159" lon="2.9769113658585327">
        <ele>532.0</ele>
      </trkpt>
      <trkpt lat="43.980586957471154" lon="2.97705888748169">
        <ele>533.0</ele>
      </trkpt>
      <trkpt lat="43.98067670489433" lon="2.9772654172507518">
        <ele>533.0</ele>
      </trkpt>
      <trkpt lat="43.98076645193212" lon="2.9774719476699825">
        <ele>534.0</ele>
      </trkpt>
      <trkpt lat="43.98086391915891" lon="2.977630197731344">
        <ele>534.0</ele>
      </trkpt>
      <trkpt lat="43.98096138616217" lon="2.9777884483337407">
        <ele>535.0</ele>
      </trkpt>
      <trkpt lat="43.98105692303661" lon="2.9779466984004586">
        <ele>536.0</ele>
      </trkpt>
      <trkpt lat="43.981152459687316" lon="2.978104948997496">
        <ele>536.0</ele>
      </trkpt>
      <trkpt lat="43.981213255745494" lon="2.978251129232939">
        <ele>537.0</ele>
      </trkpt>
      <trkpt lat="43.98127405161042" lon="2.978397309780121">
        <ele>537.0</ele>
      </trkpt>
      <trkpt lat="43.98132230230453" lon="2.9786118865013127">
        <ele>537.0</ele>
      </trkpt>
      <trkpt lat="43.98134160257119" lon="2.9789122939109793">
        <ele>537.0</ele>
      </trkpt>
      <trkpt lat="43.9813030020316" lon="2.9791831970214857">
        <ele>538.0</ele>
      </trkpt>
      <trkpt lat="43.98126343655922" lon="2.9793454707794917">
        <ele>538.0</ele>
      </trkpt>
      <trkpt lat="43.981223870846925" lon="2.9795077443122864">
        <ele>539.0</ele>
      </trkpt>
      <trkpt lat="43.98118720055997" lon="2.979767918754061">
        <ele>540.0</ele>
      </trkpt>
      <trkpt lat="43.981150529654784" lon="2.980028092861175">
        <ele>541.0</ele>
      </trkpt>
      <trkpt lat="43.981137984625455" lon="2.980229258581554">
        <ele>543.0</ele>
      </trkpt>
      <trkpt lat="43.98112543922615" lon="2.9804304242134094">
        <ele>544.0</ele>
      </trkpt>
      <trkpt lat="43.98111675440688" lon="2.980699986260466">
        <ele>545.0</ele>
      </trkpt>
      <trkpt lat="43.98110806892317" lon="2.980969548225401">
        <ele>546.0</ele>
      </trkpt>
      <trkpt lat="43.9810926286496" lon="2.981264591217041">
        <ele>546.0</ele>
      </trkpt>
      <trkpt lat="43.981070586566744" lon="2.981501310000524">
        <ele>547.0</ele>
      </trkpt>
      <trkpt lat="43.98116198467494" lon="2.981581243548048">
        <ele>548.0</ele>
      </trkpt>
      <trkpt lat="43.98120843060369" lon="2.981588551774621">
        <ele>549.0</ele>
      </trkpt>
      <trkpt lat="43.98124415210052" lon="2.9816042285117197">
        <ele>550.0</ele>
      </trkpt>
    </trkseg>
  </trk>
</gpx>