<?xml version="1.0" encoding="UTF-8" standalone="no" ?>
<gpx xmlns="http://www.topografix.com/GPX/1/1"
     creator="TourInSoft"
     version="1.1"
     xmlns:xsi="http://www.w3.org/2001/XMLSchema-instance"
     xsi:schemaLocation="http://www.topografix.com/GPX/1/1 http://www.topografix.com/GPX/1/1/gpx.xsd">
<trk>
<trkseg>
<trkpt lat="44.5160913799293" lon="3.49909560852831"></trkpt><trkpt lat="44.51609" lon="3.49909"></trkpt><trkpt lat="44.51613" lon="3.49931"></trkpt><trkpt lat="44.51513" lon="3.49978"></trkpt><trkpt lat="44.51511" lon="3.49992"></trkpt><trkpt lat="44.51507" lon="3.5"></trkpt><trkpt lat="44.51495" lon="3.50081"></trkpt><trkpt lat="44.51491" lon="3.50088"></trkpt><trkpt lat="44.51433" lon="3.50106"></trkpt><trkpt lat="44.51424" lon="3.50109"></trkpt><trkpt lat="44.51395" lon="3.50126"></trkpt><trkpt lat="44.5136" lon="3.50135"></trkpt><trkpt lat="44.51343" lon="3.50146"></trkpt><trkpt lat="44.51329" lon="3.50159"></trkpt><trkpt lat="44.51286" lon="3.50205"></trkpt><trkpt lat="44.51286" lon="3.50205"></trkpt><trkpt lat="44.51226" lon="3.50277"></trkpt><trkpt lat="44.51216" lon="3.50287"></trkpt><trkpt lat="44.51202" lon="3.50295"></trkpt><trkpt lat="44.51171" lon="3.50302"></trkpt><trkpt lat="44.51094" lon="3.50305"></trkpt><trkpt lat="44.51014" lon="3.50294"></trkpt><trkpt lat="44.51009" lon="3.50296"></trkpt><trkpt lat="44.51007" lon="3.50301"></trkpt><trkpt lat="44.51008" lon="3.50312"></trkpt><trkpt lat="44.51011" lon="3.50322"></trkpt><trkpt lat="44.51032" lon="3.5034"></trkpt><trkpt lat="44.51057" lon="3.5037"></trkpt><trkpt lat="44.51078" lon="3.50391"></trkpt><trkpt lat="44.51085" lon="3.504"></trkpt><trkpt lat="44.51086" lon="3.50408"></trkpt><trkpt lat="44.51084" lon="3.50416"></trkpt><trkpt lat="44.51079" lon="3.5042"></trkpt><trkpt lat="44.51073" lon="3.50422"></trkpt><trkpt lat="44.5106" lon="3.50419"></trkpt><trkpt lat="44.51012" lon="3.50401"></trkpt><trkpt lat="44.51012" lon="3.50401"></trkpt><trkpt lat="44.50992" lon="3.50394"></trkpt><trkpt lat="44.50945" lon="3.50393"></trkpt><trkpt lat="44.50905" lon="3.50376"></trkpt><trkpt lat="44.50895" lon="3.50376"></trkpt><trkpt lat="44.50888" lon="3.50381"></trkpt><trkpt lat="44.50886" lon="3.50392"></trkpt><trkpt lat="44.50891" lon="3.50403"></trkpt><trkpt lat="44.50926" lon="3.50435"></trkpt><trkpt lat="44.50967" lon="3.50459"></trkpt><trkpt lat="44.50982" lon="3.50473"></trkpt><trkpt lat="44.50998" lon="3.50492"></trkpt><trkpt lat="44.51023" lon="3.50524"></trkpt><trkpt lat="44.51048" lon="3.50566"></trkpt><trkpt lat="44.51091" lon="3.50612"></trkpt><trkpt lat="44.51124" lon="3.50638"></trkpt><trkpt lat="44.51151" lon="3.50655"></trkpt><trkpt lat="44.51176" lon="3.5068"></trkpt><trkpt lat="44.51181" lon="3.50689"></trkpt><trkpt lat="44.51183" lon="3.50698"></trkpt><trkpt lat="44.51182" lon="3.50709"></trkpt><trkpt lat="44.51177" lon="3.50732"></trkpt><trkpt lat="44.51157" lon="3.50797"></trkpt><trkpt lat="44.51136" lon="3.50854"></trkpt><trkpt lat="44.51103" lon="3.50924"></trkpt><trkpt lat="44.51076" lon="3.5097"></trkpt><trkpt lat="44.51073" lon="3.5099"></trkpt><trkpt lat="44.51074" lon="3.51006"></trkpt><trkpt lat="44.51088" lon="3.51039"></trkpt><trkpt lat="44.51088" lon="3.51046"></trkpt><trkpt lat="44.51088" lon="3.51053"></trkpt><trkpt lat="44.51081" lon="3.51071"></trkpt><trkpt lat="44.51076" lon="3.51094"></trkpt><trkpt lat="44.51075" lon="3.51119"></trkpt><trkpt lat="44.51076" lon="3.51164"></trkpt><trkpt lat="44.51096" lon="3.51263"></trkpt><trkpt lat="44.51102" lon="3.51322"></trkpt><trkpt lat="44.51104" lon="3.51363"></trkpt><trkpt lat="44.51135" lon="3.51438"></trkpt><trkpt lat="44.51141" lon="3.51458"></trkpt><trkpt lat="44.51148" lon="3.51488"></trkpt><trkpt lat="44.51152" lon="3.51525"></trkpt><trkpt lat="44.5116" lon="3.51702"></trkpt><trkpt lat="44.5116" lon="3.51701"></trkpt><trkpt lat="44.51165" lon="3.51803"></trkpt><trkpt lat="44.51163" lon="3.51846"></trkpt><trkpt lat="44.51157" lon="3.51878"></trkpt><trkpt lat="44.51139" lon="3.51937"></trkpt><trkpt lat="44.51131" lon="3.51999"></trkpt><trkpt lat="44.51125" lon="3.52078"></trkpt><trkpt lat="44.51125" lon="3.52078"></trkpt><trkpt lat="44.51124" lon="3.52108"></trkpt><trkpt lat="44.51128" lon="3.52131"></trkpt><trkpt lat="44.51149" lon="3.52198"></trkpt><trkpt lat="44.51155" lon="3.52244"></trkpt><trkpt lat="44.51153" lon="3.52263"></trkpt><trkpt lat="44.51148" lon="3.52284"></trkpt><trkpt lat="44.51144" lon="3.52293"></trkpt><trkpt lat="44.51158" lon="3.5235"></trkpt><trkpt lat="44.51165" lon="3.52369"></trkpt><trkpt lat="44.512" lon="3.52451"></trkpt><trkpt lat="44.51205" lon="3.52458"></trkpt><trkpt lat="44.51224" lon="3.52477"></trkpt><trkpt lat="44.51238" lon="3.52496"></trkpt><trkpt lat="44.51259" lon="3.52533"></trkpt><trkpt lat="44.51265" lon="3.52546"></trkpt><trkpt lat="44.5127" lon="3.52564"></trkpt><trkpt lat="44.51275" lon="3.5259"></trkpt><trkpt lat="44.51315" lon="3.52693"></trkpt><trkpt lat="44.51328" lon="3.52744"></trkpt><trkpt lat="44.51329" lon="3.52767"></trkpt><trkpt lat="44.51329" lon="3.52767"></trkpt><trkpt lat="44.51329" lon="3.52784"></trkpt><trkpt lat="44.51322" lon="3.52838"></trkpt><trkpt lat="44.51328" lon="3.52889"></trkpt><trkpt lat="44.5133" lon="3.52925"></trkpt><trkpt lat="44.5133" lon="3.52955"></trkpt><trkpt lat="44.51321" lon="3.53019"></trkpt><trkpt lat="44.51319" lon="3.53079"></trkpt><trkpt lat="44.51325" lon="3.5311"></trkpt><trkpt lat="44.51332" lon="3.53131"></trkpt><trkpt lat="44.51352" lon="3.5316"></trkpt><trkpt lat="44.51378" lon="3.53186"></trkpt><trkpt lat="44.514" lon="3.53206"></trkpt><trkpt lat="44.51429" lon="3.53241"></trkpt><trkpt lat="44.51435" lon="3.53252"></trkpt><trkpt lat="44.51436" lon="3.53263"></trkpt><trkpt lat="44.51435" lon="3.53289"></trkpt><trkpt lat="44.51431" lon="3.53302"></trkpt><trkpt lat="44.51355" lon="3.53429"></trkpt><trkpt lat="44.51342" lon="3.53461"></trkpt><trkpt lat="44.51313" lon="3.53544"></trkpt><trkpt lat="44.51313" lon="3.53544"></trkpt><trkpt lat="44.51302" lon="3.53582"></trkpt><trkpt lat="44.51301" lon="3.53594"></trkpt><trkpt lat="44.51306" lon="3.53656"></trkpt><trkpt lat="44.51347" lon="3.54018"></trkpt><trkpt lat="44.51349" lon="3.54067"></trkpt><trkpt lat="44.51359" lon="3.54123"></trkpt><trkpt lat="44.51359" lon="3.54122"></trkpt><trkpt lat="44.51362" lon="3.54165"></trkpt><trkpt lat="44.51344" lon="3.54239"></trkpt><trkpt lat="44.51349" lon="3.54241"></trkpt><trkpt lat="44.5135" lon="3.54276"></trkpt><trkpt lat="44.51349" lon="3.54312"></trkpt><trkpt lat="44.51328" lon="3.54396"></trkpt><trkpt lat="44.51316" lon="3.54467"></trkpt><trkpt lat="44.51295" lon="3.54719"></trkpt><trkpt lat="44.51303" lon="3.54815"></trkpt><trkpt lat="44.51306" lon="3.54836"></trkpt><trkpt lat="44.51342" lon="3.54974"></trkpt><trkpt lat="44.51342" lon="3.54973"></trkpt><trkpt lat="44.51373" lon="3.55069"></trkpt><trkpt lat="44.51402" lon="3.55137"></trkpt><trkpt lat="44.51417" lon="3.55169"></trkpt><trkpt lat="44.51426" lon="3.55181"></trkpt><trkpt lat="44.51477" lon="3.55222"></trkpt><trkpt lat="44.51507" lon="3.55257"></trkpt><trkpt lat="44.51521" lon="3.55277"></trkpt><trkpt lat="44.5156" lon="3.55361"></trkpt><trkpt lat="44.51575" lon="3.55392"></trkpt><trkpt lat="44.51587" lon="3.55412"></trkpt><trkpt lat="44.51613" lon="3.55464"></trkpt><trkpt lat="44.5162" lon="3.55473"></trkpt><trkpt lat="44.5162" lon="3.55472"></trkpt><trkpt lat="44.51662" lon="3.55527"></trkpt><trkpt lat="44.51671" lon="3.55544"></trkpt><trkpt lat="44.51673" lon="3.55552"></trkpt><trkpt lat="44.51674" lon="3.55559"></trkpt><trkpt lat="44.5167" lon="3.55572"></trkpt><trkpt lat="44.5165" lon="3.5559"></trkpt><trkpt lat="44.51644" lon="3.55598"></trkpt><trkpt lat="44.51631" lon="3.55627"></trkpt><trkpt lat="44.51614" lon="3.5566"></trkpt><trkpt lat="44.51589" lon="3.55718"></trkpt><trkpt lat="44.51582" lon="3.5574"></trkpt><trkpt lat="44.51565" lon="3.55802"></trkpt><trkpt lat="44.51554" lon="3.55858"></trkpt><trkpt lat="44.51555" lon="3.55891"></trkpt><trkpt lat="44.5156" lon="3.55929"></trkpt><trkpt lat="44.51581" lon="3.55972"></trkpt><trkpt lat="44.51625" lon="3.56045"></trkpt><trkpt lat="44.51678" lon="3.56098"></trkpt><trkpt lat="44.5177" lon="3.56219"></trkpt><trkpt lat="44.518" lon="3.56278"></trkpt><trkpt lat="44.51811" lon="3.56303"></trkpt><trkpt lat="44.51877" lon="3.56395"></trkpt><trkpt lat="44.51892" lon="3.56421"></trkpt><trkpt lat="44.51918" lon="3.56479"></trkpt><trkpt lat="44.51933" lon="3.56548"></trkpt><trkpt lat="44.51937" lon="3.56606"></trkpt><trkpt lat="44.51938" lon="3.56697"></trkpt><trkpt lat="44.51932" lon="3.5678"></trkpt><trkpt lat="44.51922" lon="3.56998"></trkpt><trkpt lat="44.51919" lon="3.5704"></trkpt><trkpt lat="44.51915" lon="3.5707"></trkpt><trkpt lat="44.51908" lon="3.57104"></trkpt><trkpt lat="44.51873" lon="3.57239"></trkpt><trkpt lat="44.51864" lon="3.57287"></trkpt><trkpt lat="44.51844" lon="3.57337"></trkpt><trkpt lat="44.51826" lon="3.57371"></trkpt><trkpt lat="44.51796" lon="3.57419"></trkpt><trkpt lat="44.51747" lon="3.57491"></trkpt><trkpt lat="44.51723" lon="3.57538"></trkpt><trkpt lat="44.51714" lon="3.57562"></trkpt><trkpt lat="44.51667" lon="3.5765"></trkpt><trkpt lat="44.51641" lon="3.57707"></trkpt><trkpt lat="44.51621" lon="3.5778"></trkpt><trkpt lat="44.51585" lon="3.57877"></trkpt><trkpt lat="44.51559" lon="3.57983"></trkpt><trkpt lat="44.51538" lon="3.58111"></trkpt><trkpt lat="44.51531" lon="3.5818"></trkpt><trkpt lat="44.51532" lon="3.58214"></trkpt><trkpt lat="44.51526" lon="3.58233"></trkpt><trkpt lat="44.51448" lon="3.58338"></trkpt><trkpt lat="44.51448" lon="3.58338"></trkpt><trkpt lat="44.51358" lon="3.58445"></trkpt><trkpt lat="44.5131" lon="3.58518"></trkpt><trkpt lat="44.51276" lon="3.58583"></trkpt><trkpt lat="44.51262" lon="3.58612"></trkpt><trkpt lat="44.51247" lon="3.58656"></trkpt><trkpt lat="44.51244" lon="3.58688"></trkpt><trkpt lat="44.51245" lon="3.58719"></trkpt><trkpt lat="44.51258" lon="3.58804"></trkpt><trkpt lat="44.51267" lon="3.58844"></trkpt><trkpt lat="44.51287" lon="3.58909"></trkpt><trkpt lat="44.51292" lon="3.58936"></trkpt><trkpt lat="44.51294" lon="3.58959"></trkpt><trkpt lat="44.51293" lon="3.58984"></trkpt><trkpt lat="44.51289" lon="3.59009"></trkpt><trkpt lat="44.51275" lon="3.59069"></trkpt><trkpt lat="44.51257" lon="3.59128"></trkpt><trkpt lat="44.51246" lon="3.59157"></trkpt><trkpt lat="44.51237" lon="3.59176"></trkpt><trkpt lat="44.51228" lon="3.59192"></trkpt><trkpt lat="44.51194" lon="3.59243"></trkpt><trkpt lat="44.5117" lon="3.59282"></trkpt><trkpt lat="44.51126" lon="3.59337"></trkpt><trkpt lat="44.51114" lon="3.59363"></trkpt><trkpt lat="44.51063" lon="3.59509"></trkpt><trkpt lat="44.51023" lon="3.59648"></trkpt><trkpt lat="44.50985" lon="3.59794"></trkpt><trkpt lat="44.50905" lon="3.6009"></trkpt><trkpt lat="44.50887" lon="3.6016"></trkpt><trkpt lat="44.50864" lon="3.60259"></trkpt><trkpt lat="44.50837" lon="3.6039"></trkpt><trkpt lat="44.50831" lon="3.60433"></trkpt><trkpt lat="44.50811" lon="3.60535"></trkpt><trkpt lat="44.50782" lon="3.60624"></trkpt><trkpt lat="44.50735" lon="3.60757"></trkpt><trkpt lat="44.50692" lon="3.6087"></trkpt><trkpt lat="44.50667" lon="3.60903"></trkpt><trkpt lat="44.50593" lon="3.60973"></trkpt><trkpt lat="44.50528" lon="3.61039"></trkpt><trkpt lat="44.50498" lon="3.61063"></trkpt><trkpt lat="44.50478" lon="3.61083"></trkpt><trkpt lat="44.50442" lon="3.61135"></trkpt><trkpt lat="44.50429" lon="3.61159"></trkpt><trkpt lat="44.50414" lon="3.61187"></trkpt><trkpt lat="44.50397" lon="3.61232"></trkpt><trkpt lat="44.50369" lon="3.61331"></trkpt><trkpt lat="44.50336" lon="3.61461"></trkpt><trkpt lat="44.50296" lon="3.61643"></trkpt><trkpt lat="44.50289" lon="3.61699"></trkpt><trkpt lat="44.50288" lon="3.61751"></trkpt><trkpt lat="44.50297" lon="3.61828"></trkpt><trkpt lat="44.5031" lon="3.61899"></trkpt><trkpt lat="44.50312" lon="3.61917"></trkpt><trkpt lat="44.50311" lon="3.61931"></trkpt><trkpt lat="44.50306" lon="3.6196"></trkpt><trkpt lat="44.50283" lon="3.62039"></trkpt><trkpt lat="44.50275" lon="3.62062"></trkpt><trkpt lat="44.50254" lon="3.62107"></trkpt><trkpt lat="44.50145" lon="3.62296"></trkpt><trkpt lat="44.50123" lon="3.62347"></trkpt><trkpt lat="44.50081" lon="3.62456"></trkpt><trkpt lat="44.50081" lon="3.62456"></trkpt><trkpt lat="44.50067" lon="3.62498"></trkpt><trkpt lat="44.50056" lon="3.62575"></trkpt><trkpt lat="44.50053" lon="3.62624"></trkpt><trkpt lat="44.50057" lon="3.62673"></trkpt><trkpt lat="44.50052" lon="3.62709"></trkpt><trkpt lat="44.50047" lon="3.62725"></trkpt><trkpt lat="44.49999" lon="3.62815"></trkpt><trkpt lat="44.49989" lon="3.6283"></trkpt><trkpt lat="44.49959" lon="3.62862"></trkpt><trkpt lat="44.4993" lon="3.6287"></trkpt><trkpt lat="44.49918" lon="3.62867"></trkpt><trkpt lat="44.49906" lon="3.6285"></trkpt><trkpt lat="44.49829" lon="3.62719"></trkpt><trkpt lat="44.49816" lon="3.62701"></trkpt><trkpt lat="44.498" lon="3.62686"></trkpt><trkpt lat="44.49781" lon="3.62684"></trkpt><trkpt lat="44.49759" lon="3.62694"></trkpt><trkpt lat="44.49744" lon="3.62707"></trkpt><trkpt lat="44.49727" lon="3.62725"></trkpt><trkpt lat="44.49669" lon="3.62804"></trkpt><trkpt lat="44.49656" lon="3.62825"></trkpt><trkpt lat="44.49624" lon="3.62898"></trkpt><trkpt lat="44.49624" lon="3.62898"></trkpt><trkpt lat="44.49617" lon="3.62914"></trkpt><trkpt lat="44.49613" lon="3.62933"></trkpt><trkpt lat="44.49609" lon="3.62971"></trkpt><trkpt lat="44.49612" lon="3.62989"></trkpt><trkpt lat="44.49604" lon="3.62974"></trkpt><trkpt lat="44.49595" lon="3.62964"></trkpt><trkpt lat="44.49579" lon="3.62952"></trkpt><trkpt lat="44.49565" lon="3.62922"></trkpt><trkpt lat="44.49568" lon="3.62957"></trkpt><trkpt lat="44.49567" lon="3.6297"></trkpt><trkpt lat="44.49564" lon="3.62979"></trkpt><trkpt lat="44.49558" lon="3.62985"></trkpt><trkpt lat="44.49542" lon="3.62987"></trkpt><trkpt lat="44.49531" lon="3.62984"></trkpt><trkpt lat="44.49505" lon="3.62965"></trkpt><trkpt lat="44.49497" lon="3.62962"></trkpt><trkpt lat="44.4949" lon="3.62963"></trkpt><trkpt lat="44.49475" lon="3.62969"></trkpt><trkpt lat="44.49465" lon="3.62976"></trkpt><trkpt lat="44.4946" lon="3.62984"></trkpt><trkpt lat="44.49454" lon="3.63004"></trkpt><trkpt lat="44.49402" lon="3.63118"></trkpt><trkpt lat="44.49384" lon="3.63138"></trkpt><trkpt lat="44.49372" lon="3.63144"></trkpt><trkpt lat="44.4936" lon="3.63145"></trkpt><trkpt lat="44.49342" lon="3.63139"></trkpt><trkpt lat="44.49322" lon="3.63136"></trkpt><trkpt lat="44.49295" lon="3.63136"></trkpt><trkpt lat="44.49266" lon="3.6314"></trkpt><trkpt lat="44.4926" lon="3.63144"></trkpt><trkpt lat="44.49255" lon="3.63154"></trkpt><trkpt lat="44.49257" lon="3.63161"></trkpt><trkpt lat="44.49262" lon="3.63164"></trkpt><trkpt lat="44.49296" lon="3.63167"></trkpt><trkpt lat="44.49323" lon="3.63178"></trkpt><trkpt lat="44.49349" lon="3.63196"></trkpt><trkpt lat="44.49367" lon="3.63193"></trkpt><trkpt lat="44.49383" lon="3.63183"></trkpt><trkpt lat="44.49402" lon="3.63177"></trkpt><trkpt lat="44.49451" lon="3.63183"></trkpt><trkpt lat="44.49463" lon="3.6318"></trkpt><trkpt lat="44.49468" lon="3.63173"></trkpt><trkpt lat="44.49485" lon="3.63129"></trkpt><trkpt lat="44.49494" lon="3.63116"></trkpt><trkpt lat="44.49506" lon="3.63106"></trkpt><trkpt lat="44.49532" lon="3.63106"></trkpt><trkpt lat="44.49553" lon="3.63121"></trkpt><trkpt lat="44.49562" lon="3.63132"></trkpt><trkpt lat="44.49575" lon="3.63163"></trkpt><trkpt lat="44.49575" lon="3.63162"></trkpt><trkpt lat="44.49599" lon="3.6323"></trkpt><trkpt lat="44.49609" lon="3.63255"></trkpt><trkpt lat="44.49612" lon="3.63274"></trkpt><trkpt lat="44.49619" lon="3.6352"></trkpt><trkpt lat="44.49623" lon="3.63542"></trkpt><trkpt lat="44.4963" lon="3.63568"></trkpt><trkpt lat="44.49645" lon="3.63596"></trkpt><trkpt lat="44.49669" lon="3.63627"></trkpt><trkpt lat="44.49675" lon="3.63639"></trkpt><trkpt lat="44.49681" lon="3.63651"></trkpt><trkpt lat="44.49685" lon="3.63664"></trkpt><trkpt lat="44.49681" lon="3.63699"></trkpt><trkpt lat="44.49672" lon="3.6377"></trkpt><trkpt lat="44.49672" lon="3.63836"></trkpt><trkpt lat="44.49686" lon="3.63951"></trkpt><trkpt lat="44.49693" lon="3.63986"></trkpt><trkpt lat="44.49703" lon="3.64019"></trkpt><trkpt lat="44.49726" lon="3.64067"></trkpt><trkpt lat="44.4975" lon="3.64094"></trkpt><trkpt lat="44.4976" lon="3.64114"></trkpt><trkpt lat="44.49765" lon="3.64138"></trkpt><trkpt lat="44.49762" lon="3.64168"></trkpt><trkpt lat="44.49743" lon="3.64216"></trkpt><trkpt lat="44.49735" lon="3.64263"></trkpt><trkpt lat="44.49743" lon="3.64331"></trkpt><trkpt lat="44.49743" lon="3.64349"></trkpt><trkpt lat="44.49733" lon="3.64407"></trkpt><trkpt lat="44.4972" lon="3.64614"></trkpt><trkpt lat="44.49713" lon="3.64643"></trkpt><trkpt lat="44.49685" lon="3.64683"></trkpt><trkpt lat="44.49663" lon="3.64704"></trkpt><trkpt lat="44.49642" lon="3.6473"></trkpt><trkpt lat="44.49622" lon="3.6476"></trkpt><trkpt lat="44.49622" lon="3.6476"></trkpt><trkpt lat="44.4961" lon="3.64788"></trkpt><trkpt lat="44.49608" lon="3.64815"></trkpt><trkpt lat="44.49617" lon="3.64836"></trkpt><trkpt lat="44.49644" lon="3.6488"></trkpt><trkpt lat="44.49672" lon="3.64919"></trkpt><trkpt lat="44.49682" lon="3.64945"></trkpt><trkpt lat="44.49689" lon="3.65038"></trkpt><trkpt lat="44.49696" lon="3.6511"></trkpt><trkpt lat="44.497" lon="3.65177"></trkpt><trkpt lat="44.49694" lon="3.65266"></trkpt><trkpt lat="44.49681" lon="3.65329"></trkpt><trkpt lat="44.49676" lon="3.65368"></trkpt><trkpt lat="44.49676" lon="3.65404"></trkpt><trkpt lat="44.49684" lon="3.65459"></trkpt><trkpt lat="44.49699" lon="3.65473"></trkpt><trkpt lat="44.49712" lon="3.6548"></trkpt><trkpt lat="44.49726" lon="3.65491"></trkpt><trkpt lat="44.49749" lon="3.6552"></trkpt><trkpt lat="44.498" lon="3.6559"></trkpt><trkpt lat="44.49813" lon="3.65603"></trkpt><trkpt lat="44.49824" lon="3.6561"></trkpt><trkpt lat="44.49847" lon="3.65618"></trkpt><trkpt lat="44.49863" lon="3.65629"></trkpt><trkpt lat="44.499" lon="3.65669"></trkpt><trkpt lat="44.49941" lon="3.65707"></trkpt><trkpt lat="44.49991" lon="3.65742"></trkpt><trkpt lat="44.50025" lon="3.6576"></trkpt><trkpt lat="44.50064" lon="3.65785"></trkpt><trkpt lat="44.5009" lon="3.65812"></trkpt><trkpt lat="44.50099" lon="3.65826"></trkpt><trkpt lat="44.50116" lon="3.65873"></trkpt><trkpt lat="44.50138" lon="3.65914"></trkpt><trkpt lat="44.50154" lon="3.65953"></trkpt><trkpt lat="44.50185" lon="3.66065"></trkpt><trkpt lat="44.50188" lon="3.66079"></trkpt><trkpt lat="44.50189" lon="3.661"></trkpt><trkpt lat="44.50185" lon="3.66137"></trkpt><trkpt lat="44.50186" lon="3.66154"></trkpt><trkpt lat="44.50191" lon="3.66177"></trkpt><trkpt lat="44.502" lon="3.66203"></trkpt><trkpt lat="44.50205" lon="3.66225"></trkpt><trkpt lat="44.50205" lon="3.6628"></trkpt><trkpt lat="44.5021" lon="3.66299"></trkpt><trkpt lat="44.50215" lon="3.66306"></trkpt><trkpt lat="44.50224" lon="3.66314"></trkpt><trkpt lat="44.50305" lon="3.66368"></trkpt><trkpt lat="44.50328" lon="3.66387"></trkpt><trkpt lat="44.5034" lon="3.66407"></trkpt><trkpt lat="44.5035" lon="3.66437"></trkpt><trkpt lat="44.50355" lon="3.66463"></trkpt><trkpt lat="44.50355" lon="3.66462"></trkpt><trkpt lat="44.50357" lon="3.66482"></trkpt><trkpt lat="44.50359" lon="3.66588"></trkpt><trkpt lat="44.50358" lon="3.66613"></trkpt><trkpt lat="44.50352" lon="3.66641"></trkpt><trkpt lat="44.50352" lon="3.66654"></trkpt><trkpt lat="44.50356" lon="3.66665"></trkpt><trkpt lat="44.50356" lon="3.66676"></trkpt><trkpt lat="44.50349" lon="3.66696"></trkpt><trkpt lat="44.50332" lon="3.6673"></trkpt><trkpt lat="44.50323" lon="3.66743"></trkpt><trkpt lat="44.50311" lon="3.66768"></trkpt><trkpt lat="44.50308" lon="3.66781"></trkpt><trkpt lat="44.50312" lon="3.66787"></trkpt><trkpt lat="44.50315" lon="3.66788"></trkpt><trkpt lat="44.50322" lon="3.66783"></trkpt><trkpt lat="44.50334" lon="3.66765"></trkpt><trkpt lat="44.50375" lon="3.66724"></trkpt><trkpt lat="44.50393" lon="3.66703"></trkpt><trkpt lat="44.50423" lon="3.66648"></trkpt><trkpt lat="44.50435" lon="3.66629"></trkpt><trkpt lat="44.50442" lon="3.66625"></trkpt><trkpt lat="44.50459" lon="3.66621"></trkpt><trkpt lat="44.50478" lon="3.66618"></trkpt><trkpt lat="44.50496" lon="3.66611"></trkpt><trkpt lat="44.50496" lon="3.66615"></trkpt><trkpt lat="44.50463" lon="3.6663"></trkpt><trkpt lat="44.50458" lon="3.66635"></trkpt><trkpt lat="44.50456" lon="3.66639"></trkpt><trkpt lat="44.50456" lon="3.66646"></trkpt><trkpt lat="44.50458" lon="3.66653"></trkpt><trkpt lat="44.50472" lon="3.66684"></trkpt><trkpt lat="44.50451" lon="3.66705"></trkpt><trkpt lat="44.50433" lon="3.66728"></trkpt><trkpt lat="44.50463" lon="3.66783"></trkpt><trkpt lat="44.50441" lon="3.66802"></trkpt><trkpt lat="44.50427" lon="3.66823"></trkpt><trkpt lat="44.50425" lon="3.66838"></trkpt><trkpt lat="44.50425" lon="3.66851"></trkpt><trkpt lat="44.50431" lon="3.66867"></trkpt><trkpt lat="44.50439" lon="3.66881"></trkpt><trkpt lat="44.50473" lon="3.66909"></trkpt><trkpt lat="44.50492" lon="3.66923"></trkpt><trkpt lat="44.50503" lon="3.66925"></trkpt><trkpt lat="44.5055" lon="3.66922"></trkpt><trkpt lat="44.50573" lon="3.66926"></trkpt><trkpt lat="44.50592" lon="3.66932"></trkpt><trkpt lat="44.5063" lon="3.66951"></trkpt><trkpt lat="44.50671" lon="3.66992"></trkpt><trkpt lat="44.50705" lon="3.67039"></trkpt><trkpt lat="44.50723" lon="3.6707"></trkpt><trkpt lat="44.5073" lon="3.6709"></trkpt><trkpt lat="44.50732" lon="3.67118"></trkpt><trkpt lat="44.50729" lon="3.67147"></trkpt><trkpt lat="44.5072" lon="3.67201"></trkpt><trkpt lat="44.5071" lon="3.67227"></trkpt><trkpt lat="44.50692" lon="3.67257"></trkpt><trkpt lat="44.50616" lon="3.67321"></trkpt><trkpt lat="44.50542" lon="3.67372"></trkpt><trkpt lat="44.50522" lon="3.67393"></trkpt><trkpt lat="44.50509" lon="3.67414"></trkpt><trkpt lat="44.50499" lon="3.67443"></trkpt><trkpt lat="44.505" lon="3.67473"></trkpt><trkpt lat="44.50507" lon="3.67518"></trkpt><trkpt lat="44.5053" lon="3.6763"></trkpt><trkpt lat="44.50531" lon="3.67659"></trkpt><trkpt lat="44.50526" lon="3.67688"></trkpt><trkpt lat="44.50515" lon="3.67726"></trkpt><trkpt lat="44.50496" lon="3.6776"></trkpt><trkpt lat="44.50454" lon="3.67824"></trkpt><trkpt lat="44.50401" lon="3.67883"></trkpt><trkpt lat="44.50381" lon="3.67908"></trkpt><trkpt lat="44.50371" lon="3.67928"></trkpt><trkpt lat="44.50364" lon="3.67951"></trkpt><trkpt lat="44.50359" lon="3.67987"></trkpt><trkpt lat="44.5035" lon="3.68094"></trkpt><trkpt lat="44.50344" lon="3.68114"></trkpt><trkpt lat="44.50344" lon="3.68114"></trkpt><trkpt lat="44.50337" lon="3.6813"></trkpt><trkpt lat="44.50324" lon="3.68146"></trkpt><trkpt lat="44.50275" lon="3.68182"></trkpt><trkpt lat="44.50257" lon="3.68205"></trkpt><trkpt lat="44.50248" lon="3.68221"></trkpt><trkpt lat="44.50244" lon="3.68238"></trkpt><trkpt lat="44.50242" lon="3.68262"></trkpt><trkpt lat="44.50246" lon="3.68293"></trkpt><trkpt lat="44.50255" lon="3.68336"></trkpt><trkpt lat="44.50265" lon="3.68376"></trkpt><trkpt lat="44.50269" lon="3.68406"></trkpt><trkpt lat="44.5027" lon="3.68426"></trkpt><trkpt lat="44.50267" lon="3.68447"></trkpt><trkpt lat="44.50245" lon="3.68519"></trkpt><trkpt lat="44.50229" lon="3.68554"></trkpt><trkpt lat="44.50165" lon="3.68664"></trkpt><trkpt lat="44.50149" lon="3.68688"></trkpt><trkpt lat="44.50134" lon="3.68702"></trkpt><trkpt lat="44.5008" lon="3.68742"></trkpt><trkpt lat="44.50062" lon="3.68748"></trkpt><trkpt lat="44.50049" lon="3.68747"></trkpt><trkpt lat="44.50005" lon="3.68731"></trkpt><trkpt lat="44.4998" lon="3.68724"></trkpt><trkpt lat="44.49959" lon="3.68726"></trkpt><trkpt lat="44.49948" lon="3.6873"></trkpt><trkpt lat="44.49936" lon="3.68739"></trkpt><trkpt lat="44.49925" lon="3.68751"></trkpt><trkpt lat="44.49919" lon="3.68762"></trkpt><trkpt lat="44.49913" lon="3.68776"></trkpt><trkpt lat="44.49907" lon="3.68804"></trkpt><trkpt lat="44.49902" lon="3.68841"></trkpt><trkpt lat="44.49896" lon="3.6887"></trkpt><trkpt lat="44.49889" lon="3.68892"></trkpt><trkpt lat="44.4983" lon="3.69007"></trkpt><trkpt lat="44.49815" lon="3.69056"></trkpt><trkpt lat="44.49813" lon="3.69079"></trkpt><trkpt lat="44.49813" lon="3.69127"></trkpt><trkpt lat="44.49817" lon="3.69186"></trkpt><trkpt lat="44.49825" lon="3.69261"></trkpt><trkpt lat="44.49838" lon="3.69331"></trkpt><trkpt lat="44.49855" lon="3.69394"></trkpt><trkpt lat="44.49857" lon="3.69413"></trkpt><trkpt lat="44.49856" lon="3.69432"></trkpt><trkpt lat="44.4985" lon="3.69468"></trkpt><trkpt lat="44.49849" lon="3.69491"></trkpt><trkpt lat="44.49851" lon="3.6951"></trkpt><trkpt lat="44.49861" lon="3.69541"></trkpt><trkpt lat="44.49872" lon="3.6956"></trkpt><trkpt lat="44.49934" lon="3.69628"></trkpt><trkpt lat="44.49972" lon="3.69661"></trkpt><trkpt lat="44.4999" lon="3.69672"></trkpt><trkpt lat="44.50072" lon="3.69684"></trkpt><trkpt lat="44.50095" lon="3.6969"></trkpt><trkpt lat="44.50117" lon="3.69702"></trkpt><trkpt lat="44.50136" lon="3.69716"></trkpt><trkpt lat="44.50148" lon="3.6973"></trkpt><trkpt lat="44.50156" lon="3.69749"></trkpt><trkpt lat="44.50159" lon="3.69774"></trkpt><trkpt lat="44.5016" lon="3.69796"></trkpt><trkpt lat="44.50157" lon="3.69814"></trkpt><trkpt lat="44.5015" lon="3.69834"></trkpt><trkpt lat="44.50137" lon="3.69857"></trkpt><trkpt lat="44.50124" lon="3.69875"></trkpt><trkpt lat="44.50115" lon="3.69894"></trkpt><trkpt lat="44.50112" lon="3.69908"></trkpt><trkpt lat="44.50112" lon="3.69931"></trkpt><trkpt lat="44.50124" lon="3.69987"></trkpt><trkpt lat="44.50124" lon="3.69986"></trkpt><trkpt lat="44.50149" lon="3.70126"></trkpt><trkpt lat="44.5015" lon="3.70142"></trkpt><trkpt lat="44.50147" lon="3.70156"></trkpt><trkpt lat="44.50137" lon="3.70175"></trkpt><trkpt lat="44.50124" lon="3.70204"></trkpt><trkpt lat="44.5011" lon="3.70241"></trkpt><trkpt lat="44.50107" lon="3.70253"></trkpt><trkpt lat="44.50107" lon="3.70264"></trkpt><trkpt lat="44.50115" lon="3.70286"></trkpt><trkpt lat="44.50144" lon="3.70385"></trkpt><trkpt lat="44.50208" lon="3.70468"></trkpt><trkpt lat="44.50242" lon="3.70493"></trkpt><trkpt lat="44.50253" lon="3.70504"></trkpt><trkpt lat="44.50271" lon="3.70531"></trkpt><trkpt lat="44.50234" lon="3.70566"></trkpt><trkpt lat="44.50229" lon="3.70568"></trkpt><trkpt lat="44.50212" lon="3.70564"></trkpt><trkpt lat="44.50202" lon="3.70566"></trkpt><trkpt lat="44.50197" lon="3.70572"></trkpt><trkpt lat="44.50191" lon="3.70587"></trkpt><trkpt lat="44.50183" lon="3.70622"></trkpt><trkpt lat="44.50172" lon="3.70655"></trkpt><trkpt lat="44.5016" lon="3.7068"></trkpt><trkpt lat="44.50145" lon="3.70704"></trkpt><trkpt lat="44.50122" lon="3.70735"></trkpt><trkpt lat="44.50113" lon="3.7074"></trkpt><trkpt lat="44.50065" lon="3.70733"></trkpt><trkpt lat="44.50051" lon="3.70725"></trkpt><trkpt lat="44.50024" lon="3.70693"></trkpt><trkpt lat="44.50005" lon="3.70682"></trkpt><trkpt lat="44.49992" lon="3.70665"></trkpt><trkpt lat="44.49983" lon="3.7066"></trkpt><trkpt lat="44.4996" lon="3.70654"></trkpt><trkpt lat="44.49946" lon="3.70662"></trkpt><trkpt lat="44.4992" lon="3.70645"></trkpt><trkpt lat="44.4991" lon="3.70633"></trkpt><trkpt lat="44.4986" lon="3.70607"></trkpt><trkpt lat="44.49844" lon="3.70581"></trkpt><trkpt lat="44.49835" lon="3.7057"></trkpt><trkpt lat="44.4983" lon="3.70555"></trkpt><trkpt lat="44.49824" lon="3.70546"></trkpt><trkpt lat="44.49819" lon="3.70517"></trkpt><trkpt lat="44.49809" lon="3.7049"></trkpt><trkpt lat="44.49782" lon="3.70466"></trkpt><trkpt lat="44.4977" lon="3.70468"></trkpt><trkpt lat="44.49765" lon="3.70473"></trkpt><trkpt lat="44.49743" lon="3.70503"></trkpt><trkpt lat="44.4972" lon="3.70542"></trkpt><trkpt lat="44.49694" lon="3.70576"></trkpt><trkpt lat="44.4967" lon="3.706"></trkpt><trkpt lat="44.4967" lon="3.706"></trkpt><trkpt lat="44.49648" lon="3.70622"></trkpt><trkpt lat="44.49628" lon="3.70633"></trkpt><trkpt lat="44.49604" lon="3.7064"></trkpt><trkpt lat="44.49577" lon="3.70643"></trkpt><trkpt lat="44.49568" lon="3.70647"></trkpt><trkpt lat="44.49521" lon="3.70681"></trkpt><trkpt lat="44.49484" lon="3.70705"></trkpt><trkpt lat="44.4947" lon="3.70704"></trkpt><trkpt lat="44.49454" lon="3.70699"></trkpt><trkpt lat="44.49436" lon="3.70697"></trkpt><trkpt lat="44.49428" lon="3.70697"></trkpt><trkpt lat="44.49402" lon="3.70711"></trkpt><trkpt lat="44.49389" lon="3.70713"></trkpt><trkpt lat="44.49362" lon="3.70712"></trkpt><trkpt lat="44.49344" lon="3.70707"></trkpt><trkpt lat="44.49303" lon="3.70688"></trkpt><trkpt lat="44.4929" lon="3.70679"></trkpt><trkpt lat="44.49249" lon="3.7063"></trkpt><trkpt lat="44.49229" lon="3.70615"></trkpt><trkpt lat="44.49221" lon="3.70613"></trkpt><trkpt lat="44.49211" lon="3.70615"></trkpt><trkpt lat="44.49204" lon="3.70619"></trkpt><trkpt lat="44.49172" lon="3.70647"></trkpt><trkpt lat="44.49137" lon="3.70674"></trkpt><trkpt lat="44.49117" lon="3.70686"></trkpt><trkpt lat="44.49103" lon="3.70691"></trkpt><trkpt lat="44.4909" lon="3.70693"></trkpt><trkpt lat="44.4907" lon="3.70689"></trkpt><trkpt lat="44.49029" lon="3.7065"></trkpt><trkpt lat="44.49006" lon="3.70641"></trkpt><trkpt lat="44.48999" lon="3.70642"></trkpt><trkpt lat="44.48965" lon="3.70658"></trkpt><trkpt lat="44.4895" lon="3.70662"></trkpt><trkpt lat="44.48935" lon="3.70663"></trkpt><trkpt lat="44.48894" lon="3.70655"></trkpt><trkpt lat="44.48865" lon="3.70655"></trkpt><trkpt lat="44.48845" lon="3.7066"></trkpt><trkpt lat="44.48836" lon="3.70665"></trkpt><trkpt lat="44.48804" lon="3.70699"></trkpt><trkpt lat="44.48778" lon="3.70716"></trkpt><trkpt lat="44.4876" lon="3.70721"></trkpt><trkpt lat="44.48753" lon="3.70725"></trkpt><trkpt lat="44.48748" lon="3.70732"></trkpt><trkpt lat="44.48744" lon="3.70743"></trkpt><trkpt lat="44.48743" lon="3.70752"></trkpt><trkpt lat="44.48747" lon="3.70781"></trkpt><trkpt lat="44.48747" lon="3.70804"></trkpt><trkpt lat="44.48744" lon="3.7081"></trkpt><trkpt lat="44.48734" lon="3.70809"></trkpt><trkpt lat="44.4873" lon="3.70806"></trkpt><trkpt lat="44.4872" lon="3.7078"></trkpt><trkpt lat="44.48701" lon="3.70748"></trkpt><trkpt lat="44.48692" lon="3.70739"></trkpt><trkpt lat="44.48681" lon="3.70732"></trkpt><trkpt lat="44.4863" lon="3.7073"></trkpt><trkpt lat="44.48604" lon="3.70739"></trkpt><trkpt lat="44.48539" lon="3.70766"></trkpt><trkpt lat="44.48511" lon="3.70774"></trkpt><trkpt lat="44.48451" lon="3.70787"></trkpt><trkpt lat="44.48377" lon="3.70796"></trkpt><trkpt lat="44.48361" lon="3.708"></trkpt><trkpt lat="44.48307" lon="3.7082"></trkpt><trkpt lat="44.48289" lon="3.70823"></trkpt><trkpt lat="44.48201" lon="3.70833"></trkpt><trkpt lat="44.48201" lon="3.70833"></trkpt><trkpt lat="44.48147" lon="3.70853"></trkpt><trkpt lat="44.4813" lon="3.70857"></trkpt><trkpt lat="44.48105" lon="3.70858"></trkpt><trkpt lat="44.48073" lon="3.70849"></trkpt><trkpt lat="44.47971" lon="3.7084"></trkpt><trkpt lat="44.47962" lon="3.70835"></trkpt><trkpt lat="44.4796" lon="3.70832"></trkpt><trkpt lat="44.47962" lon="3.70805"></trkpt><trkpt lat="44.47964" lon="3.70797"></trkpt><trkpt lat="44.47967" lon="3.70792"></trkpt><trkpt lat="44.47961" lon="3.70777"></trkpt><trkpt lat="44.47942" lon="3.70757"></trkpt><trkpt lat="44.47936" lon="3.7075"></trkpt><trkpt lat="44.47927" lon="3.70723"></trkpt><trkpt lat="44.47921" lon="3.70713"></trkpt><trkpt lat="44.47916" lon="3.70708"></trkpt><trkpt lat="44.47865" lon="3.7068"></trkpt><trkpt lat="44.47808" lon="3.70645"></trkpt><trkpt lat="44.47751" lon="3.70618"></trkpt><trkpt lat="44.47637" lon="3.70598"></trkpt><trkpt lat="44.47619" lon="3.70594"></trkpt><trkpt lat="44.47569" lon="3.7056"></trkpt><trkpt lat="44.47506" lon="3.70528"></trkpt><trkpt lat="44.47493" lon="3.70526"></trkpt><trkpt lat="44.47461" lon="3.70529"></trkpt><trkpt lat="44.47443" lon="3.70524"></trkpt><trkpt lat="44.47419" lon="3.70507"></trkpt><trkpt lat="44.47409" lon="3.70496"></trkpt><trkpt lat="44.47391" lon="3.70458"></trkpt><trkpt lat="44.47385" lon="3.70451"></trkpt><trkpt lat="44.4738" lon="3.70448"></trkpt><trkpt lat="44.47374" lon="3.70446"></trkpt><trkpt lat="44.47366" lon="3.70448"></trkpt><trkpt lat="44.47352" lon="3.70456"></trkpt><trkpt lat="44.47345" lon="3.70458"></trkpt><trkpt lat="44.4734" lon="3.70456"></trkpt><trkpt lat="44.47324" lon="3.70447"></trkpt><trkpt lat="44.4729" lon="3.70411"></trkpt><trkpt lat="44.47267" lon="3.70402"></trkpt><trkpt lat="44.4723" lon="3.70402"></trkpt><trkpt lat="44.47214" lon="3.70393"></trkpt><trkpt lat="44.47208" lon="3.70387"></trkpt><trkpt lat="44.47191" lon="3.70362"></trkpt><trkpt lat="44.47168" lon="3.70307"></trkpt><trkpt lat="44.47163" lon="3.70302"></trkpt><trkpt lat="44.47152" lon="3.70296"></trkpt><trkpt lat="44.47136" lon="3.70296"></trkpt><trkpt lat="44.47124" lon="3.70293"></trkpt><trkpt lat="44.4707" lon="3.70252"></trkpt><trkpt lat="44.47042" lon="3.70216"></trkpt><trkpt lat="44.47026" lon="3.70207"></trkpt><trkpt lat="44.47009" lon="3.70202"></trkpt><trkpt lat="44.46996" lon="3.70194"></trkpt><trkpt lat="44.46872" lon="3.70041"></trkpt><trkpt lat="44.46855" lon="3.70017"></trkpt><trkpt lat="44.46851" lon="3.70008"></trkpt><trkpt lat="44.46848" lon="3.69997"></trkpt><trkpt lat="44.46847" lon="3.69985"></trkpt><trkpt lat="44.46848" lon="3.69958"></trkpt><trkpt lat="44.46857" lon="3.69896"></trkpt><trkpt lat="44.46861" lon="3.69882"></trkpt><trkpt lat="44.46874" lon="3.69853"></trkpt><trkpt lat="44.46873" lon="3.69842"></trkpt><trkpt lat="44.46867" lon="3.69831"></trkpt><trkpt lat="44.46859" lon="3.69828"></trkpt><trkpt lat="44.46847" lon="3.6983"></trkpt><trkpt lat="44.46826" lon="3.69844"></trkpt><trkpt lat="44.46795" lon="3.69868"></trkpt><trkpt lat="44.46754" lon="3.69908"></trkpt><trkpt lat="44.46748" lon="3.69913"></trkpt><trkpt lat="44.46736" lon="3.69913"></trkpt><trkpt lat="44.46728" lon="3.6991"></trkpt><trkpt lat="44.46662" lon="3.69865"></trkpt><trkpt lat="44.46649" lon="3.69844"></trkpt><trkpt lat="44.46636" lon="3.69812"></trkpt><trkpt lat="44.46617" lon="3.69781"></trkpt><trkpt lat="44.46596" lon="3.69731"></trkpt><trkpt lat="44.46592" lon="3.69718"></trkpt><trkpt lat="44.46574" lon="3.69672"></trkpt><trkpt lat="44.46556" lon="3.69615"></trkpt><trkpt lat="44.46547" lon="3.696"></trkpt><trkpt lat="44.46535" lon="3.69592"></trkpt><trkpt lat="44.4653" lon="3.69591"></trkpt><trkpt lat="44.46507" lon="3.69593"></trkpt><trkpt lat="44.46491" lon="3.69586"></trkpt><trkpt lat="44.46485" lon="3.69582"></trkpt><trkpt lat="44.46433" lon="3.69531"></trkpt><trkpt lat="44.46429" lon="3.69521"></trkpt><trkpt lat="44.4642" lon="3.69456"></trkpt><trkpt lat="44.46413" lon="3.69434"></trkpt><trkpt lat="44.46401" lon="3.69419"></trkpt><trkpt lat="44.46401" lon="3.69418"></trkpt><trkpt lat="44.46359" lon="3.69364"></trkpt><trkpt lat="44.46326" lon="3.69325"></trkpt><trkpt lat="44.46313" lon="3.69304"></trkpt><trkpt lat="44.46311" lon="3.69297"></trkpt><trkpt lat="44.46308" lon="3.69248"></trkpt><trkpt lat="44.46307" lon="3.6924"></trkpt><trkpt lat="44.463" lon="3.69229"></trkpt><trkpt lat="44.46291" lon="3.69224"></trkpt><trkpt lat="44.46252" lon="3.69221"></trkpt><trkpt lat="44.46226" lon="3.69214"></trkpt><trkpt lat="44.46217" lon="3.69207"></trkpt><trkpt lat="44.46207" lon="3.69191"></trkpt><trkpt lat="44.46184" lon="3.69142"></trkpt><trkpt lat="44.46177" lon="3.69119"></trkpt><trkpt lat="44.46176" lon="3.69059"></trkpt><trkpt lat="44.46168" lon="3.69029"></trkpt><trkpt lat="44.46165" lon="3.69002"></trkpt><trkpt lat="44.46159" lon="3.6898"></trkpt><trkpt lat="44.46155" lon="3.6896"></trkpt><trkpt lat="44.46152" lon="3.68955"></trkpt><trkpt lat="44.46147" lon="3.68949"></trkpt><trkpt lat="44.46135" lon="3.68941"></trkpt><trkpt lat="44.46129" lon="3.68932"></trkpt><trkpt lat="44.46128" lon="3.68922"></trkpt><trkpt lat="44.4613" lon="3.68919"></trkpt><trkpt lat="44.46136" lon="3.68918"></trkpt><trkpt lat="44.46143" lon="3.68932"></trkpt><trkpt lat="44.46163" lon="3.68952"></trkpt><trkpt lat="44.46168" lon="3.68961"></trkpt><trkpt lat="44.46185" lon="3.69016"></trkpt><trkpt lat="44.46194" lon="3.69037"></trkpt><trkpt lat="44.46208" lon="3.69061"></trkpt><trkpt lat="44.46217" lon="3.69087"></trkpt><trkpt lat="44.46221" lon="3.69132"></trkpt><trkpt lat="44.4623" lon="3.69141"></trkpt><trkpt lat="44.4624" lon="3.69146"></trkpt><trkpt lat="44.46246" lon="3.69141"></trkpt><trkpt lat="44.4625" lon="3.69131"></trkpt><trkpt lat="44.4625" lon="3.69095"></trkpt><trkpt lat="44.46246" lon="3.69086"></trkpt><trkpt lat="44.46242" lon="3.69051"></trkpt><trkpt lat="44.46237" lon="3.69023"></trkpt><trkpt lat="44.46236" lon="3.68999"></trkpt><trkpt lat="44.4624" lon="3.68967"></trkpt><trkpt lat="44.46225" lon="3.68894"></trkpt><trkpt lat="44.4621" lon="3.68863"></trkpt><trkpt lat="44.46205" lon="3.68853"></trkpt><trkpt lat="44.46186" lon="3.68797"></trkpt><trkpt lat="44.46179" lon="3.68764"></trkpt><trkpt lat="44.46175" lon="3.68733"></trkpt><trkpt lat="44.46168" lon="3.68717"></trkpt><trkpt lat="44.46163" lon="3.68711"></trkpt><trkpt lat="44.46147" lon="3.68689"></trkpt><trkpt lat="44.4614" lon="3.68683"></trkpt><trkpt lat="44.46123" lon="3.68672"></trkpt><trkpt lat="44.46091" lon="3.68659"></trkpt><trkpt lat="44.46075" lon="3.68648"></trkpt><trkpt lat="44.46056" lon="3.68631"></trkpt><trkpt lat="44.46052" lon="3.68626"></trkpt><trkpt lat="44.46046" lon="3.68613"></trkpt><trkpt lat="44.46021" lon="3.6857"></trkpt><trkpt lat="44.45993" lon="3.68539"></trkpt><trkpt lat="44.45974" lon="3.68513"></trkpt><trkpt lat="44.45957" lon="3.68497"></trkpt><trkpt lat="44.45946" lon="3.68479"></trkpt><trkpt lat="44.45939" lon="3.68463"></trkpt><trkpt lat="44.45932" lon="3.68432"></trkpt><trkpt lat="44.45924" lon="3.68385"></trkpt><trkpt lat="44.45918" lon="3.68325"></trkpt><trkpt lat="44.45923" lon="3.68283"></trkpt><trkpt lat="44.45934" lon="3.68232"></trkpt><trkpt lat="44.45917" lon="3.68206"></trkpt><trkpt lat="44.45922" lon="3.68098"></trkpt><trkpt lat="44.45926" lon="3.6806"></trkpt><trkpt lat="44.45924" lon="3.68044"></trkpt><trkpt lat="44.45901" lon="3.6797"></trkpt><trkpt lat="44.45893" lon="3.67936"></trkpt><trkpt lat="44.45885" lon="3.67886"></trkpt><trkpt lat="44.45884" lon="3.6786"></trkpt><trkpt lat="44.45886" lon="3.67831"></trkpt><trkpt lat="44.4589" lon="3.67801"></trkpt><trkpt lat="44.45901" lon="3.67765"></trkpt><trkpt lat="44.45913" lon="3.67735"></trkpt><trkpt lat="44.45918" lon="3.67712"></trkpt><trkpt lat="44.45915" lon="3.6769"></trkpt><trkpt lat="44.45906" lon="3.67664"></trkpt><trkpt lat="44.45893" lon="3.67634"></trkpt><trkpt lat="44.45876" lon="3.67607"></trkpt><trkpt lat="44.45852" lon="3.67572"></trkpt><trkpt lat="44.45834" lon="3.6754"></trkpt><trkpt lat="44.45817" lon="3.67523"></trkpt><trkpt lat="44.45779" lon="3.67469"></trkpt><trkpt lat="44.45731" lon="3.67426"></trkpt><trkpt lat="44.45715" lon="3.67417"></trkpt><trkpt lat="44.45665" lon="3.67402"></trkpt><trkpt lat="44.45655" lon="3.6738"></trkpt><trkpt lat="44.45646" lon="3.67356"></trkpt><trkpt lat="44.45644" lon="3.67334"></trkpt><trkpt lat="44.45647" lon="3.67321"></trkpt><trkpt lat="44.45662" lon="3.6731"></trkpt><trkpt lat="44.45673" lon="3.67304"></trkpt><trkpt lat="44.45677" lon="3.67293"></trkpt><trkpt lat="44.4568" lon="3.67265"></trkpt><trkpt lat="44.45701" lon="3.67197"></trkpt><trkpt lat="44.45705" lon="3.67117"></trkpt><trkpt lat="44.45712" lon="3.67072"></trkpt><trkpt lat="44.45724" lon="3.67023"></trkpt><trkpt lat="44.45741" lon="3.66923"></trkpt><trkpt lat="44.4574" lon="3.669"></trkpt><trkpt lat="44.45727" lon="3.66822"></trkpt><trkpt lat="44.45724" lon="3.66784"></trkpt><trkpt lat="44.45729" lon="3.6671"></trkpt><trkpt lat="44.45733" lon="3.66682"></trkpt><trkpt lat="44.45744" lon="3.66644"></trkpt><trkpt lat="44.45744" lon="3.66621"></trkpt><trkpt lat="44.45737" lon="3.66594"></trkpt><trkpt lat="44.4571" lon="3.66526"></trkpt><trkpt lat="44.45707" lon="3.66509"></trkpt><trkpt lat="44.45707" lon="3.66494"></trkpt><trkpt lat="44.45721" lon="3.66476"></trkpt><trkpt lat="44.45733" lon="3.66466"></trkpt><trkpt lat="44.4575" lon="3.66457"></trkpt><trkpt lat="44.45758" lon="3.66455"></trkpt><trkpt lat="44.45764" lon="3.66461"></trkpt><trkpt lat="44.45772" lon="3.66475"></trkpt><trkpt lat="44.45793" lon="3.66493"></trkpt><trkpt lat="44.45836" lon="3.66508"></trkpt><trkpt lat="44.4588" lon="3.66517"></trkpt><trkpt lat="44.45911" lon="3.66521"></trkpt><trkpt lat="44.45964" lon="3.66533"></trkpt><trkpt lat="44.46006" lon="3.66535"></trkpt><trkpt lat="44.46041" lon="3.66533"></trkpt><trkpt lat="44.46071" lon="3.66524"></trkpt><trkpt lat="44.46114" lon="3.66499"></trkpt><trkpt lat="44.46132" lon="3.66491"></trkpt><trkpt lat="44.46154" lon="3.66486"></trkpt><trkpt lat="44.46179" lon="3.66484"></trkpt><trkpt lat="44.46196" lon="3.66479"></trkpt><trkpt lat="44.46222" lon="3.66461"></trkpt><trkpt lat="44.46289" lon="3.66449"></trkpt><trkpt lat="44.46289" lon="3.66449"></trkpt><trkpt lat="44.46315" lon="3.66441"></trkpt><trkpt lat="44.46372" lon="3.66413"></trkpt><trkpt lat="44.46382" lon="3.66412"></trkpt><trkpt lat="44.46435" lon="3.66385"></trkpt><trkpt lat="44.46479" lon="3.66378"></trkpt><trkpt lat="44.4653" lon="3.66361"></trkpt><trkpt lat="44.4654" lon="3.66352"></trkpt><trkpt lat="44.46547" lon="3.66342"></trkpt><trkpt lat="44.46558" lon="3.66332"></trkpt><trkpt lat="44.46571" lon="3.66331"></trkpt><trkpt lat="44.46582" lon="3.66334"></trkpt><trkpt lat="44.46592" lon="3.66332"></trkpt><trkpt lat="44.46614" lon="3.66323"></trkpt><trkpt lat="44.46676" lon="3.66315"></trkpt><trkpt lat="44.46718" lon="3.66301"></trkpt><trkpt lat="44.46737" lon="3.66302"></trkpt><trkpt lat="44.46744" lon="3.66299"></trkpt><trkpt lat="44.46748" lon="3.6629"></trkpt><trkpt lat="44.46756" lon="3.6628"></trkpt><trkpt lat="44.46769" lon="3.6627"></trkpt><trkpt lat="44.46818" lon="3.66264"></trkpt><trkpt lat="44.46838" lon="3.66254"></trkpt><trkpt lat="44.46845" lon="3.66248"></trkpt><trkpt lat="44.46857" lon="3.66234"></trkpt><trkpt lat="44.4687" lon="3.66204"></trkpt><trkpt lat="44.46875" lon="3.66197"></trkpt><trkpt lat="44.46914" lon="3.66153"></trkpt><trkpt lat="44.46922" lon="3.66135"></trkpt><trkpt lat="44.46923" lon="3.66112"></trkpt><trkpt lat="44.46925" lon="3.66104"></trkpt><trkpt lat="44.46928" lon="3.66101"></trkpt><trkpt lat="44.46944" lon="3.6609"></trkpt><trkpt lat="44.46957" lon="3.66075"></trkpt><trkpt lat="44.46963" lon="3.66066"></trkpt><trkpt lat="44.46976" lon="3.66055"></trkpt><trkpt lat="44.4698" lon="3.66057"></trkpt><trkpt lat="44.46983" lon="3.66065"></trkpt><trkpt lat="44.46983" lon="3.66076"></trkpt><trkpt lat="44.46988" lon="3.66082"></trkpt><trkpt lat="44.46993" lon="3.66083"></trkpt><trkpt lat="44.46999" lon="3.66079"></trkpt><trkpt lat="44.47028" lon="3.66045"></trkpt><trkpt lat="44.47042" lon="3.66022"></trkpt><trkpt lat="44.47044" lon="3.66009"></trkpt><trkpt lat="44.47044" lon="3.65989"></trkpt><trkpt lat="44.47038" lon="3.65926"></trkpt><trkpt lat="44.4702" lon="3.65873"></trkpt><trkpt lat="44.47009" lon="3.65849"></trkpt><trkpt lat="44.47007" lon="3.65839"></trkpt><trkpt lat="44.47009" lon="3.65829"></trkpt><trkpt lat="44.47014" lon="3.65822"></trkpt><trkpt lat="44.47022" lon="3.6582"></trkpt><trkpt lat="44.47051" lon="3.65827"></trkpt><trkpt lat="44.4706" lon="3.65827"></trkpt><trkpt lat="44.47068" lon="3.65824"></trkpt><trkpt lat="44.47098" lon="3.65803"></trkpt><trkpt lat="44.4711" lon="3.65794"></trkpt><trkpt lat="44.47128" lon="3.65772"></trkpt><trkpt lat="44.47177" lon="3.65739"></trkpt><trkpt lat="44.47196" lon="3.65718"></trkpt><trkpt lat="44.47215" lon="3.65713"></trkpt><trkpt lat="44.47223" lon="3.65713"></trkpt><trkpt lat="44.4723" lon="3.65716"></trkpt><trkpt lat="44.47244" lon="3.65733"></trkpt><trkpt lat="44.47248" lon="3.65745"></trkpt><trkpt lat="44.47249" lon="3.65756"></trkpt><trkpt lat="44.47246" lon="3.65789"></trkpt><trkpt lat="44.47236" lon="3.65822"></trkpt><trkpt lat="44.47239" lon="3.65844"></trkpt><trkpt lat="44.47245" lon="3.65858"></trkpt><trkpt lat="44.47255" lon="3.65868"></trkpt><trkpt lat="44.47287" lon="3.65883"></trkpt><trkpt lat="44.47307" lon="3.65885"></trkpt><trkpt lat="44.47318" lon="3.65888"></trkpt><trkpt lat="44.47333" lon="3.65895"></trkpt><trkpt lat="44.47344" lon="3.65903"></trkpt><trkpt lat="44.47353" lon="3.65913"></trkpt><trkpt lat="44.47362" lon="3.65932"></trkpt><trkpt lat="44.47384" lon="3.66"></trkpt><trkpt lat="44.47386" lon="3.66012"></trkpt><trkpt lat="44.47387" lon="3.66028"></trkpt><trkpt lat="44.47387" lon="3.66063"></trkpt><trkpt lat="44.47383" lon="3.66088"></trkpt><trkpt lat="44.47373" lon="3.66109"></trkpt><trkpt lat="44.47376" lon="3.66133"></trkpt><trkpt lat="44.47373" lon="3.66149"></trkpt><trkpt lat="44.47362" lon="3.66165"></trkpt><trkpt lat="44.47353" lon="3.66172"></trkpt><trkpt lat="44.47363" lon="3.66206"></trkpt><trkpt lat="44.47375" lon="3.6623"></trkpt><trkpt lat="44.47386" lon="3.66246"></trkpt><trkpt lat="44.47411" lon="3.66269"></trkpt><trkpt lat="44.47422" lon="3.66289"></trkpt><trkpt lat="44.47429" lon="3.66327"></trkpt><trkpt lat="44.47437" lon="3.66432"></trkpt><trkpt lat="44.47433" lon="3.6651"></trkpt><trkpt lat="44.47437" lon="3.66538"></trkpt><trkpt lat="44.47448" lon="3.66552"></trkpt><trkpt lat="44.47467" lon="3.66563"></trkpt><trkpt lat="44.47535" lon="3.66593"></trkpt><trkpt lat="44.4758" lon="3.66634"></trkpt><trkpt lat="44.47594" lon="3.66634"></trkpt><trkpt lat="44.47633" lon="3.66622"></trkpt><trkpt lat="44.47677" lon="3.66596"></trkpt><trkpt lat="44.47727" lon="3.66553"></trkpt><trkpt lat="44.47733" lon="3.66548"></trkpt><trkpt lat="44.47781" lon="3.6649"></trkpt><trkpt lat="44.47836" lon="3.66416"></trkpt><trkpt lat="44.47866" lon="3.66331"></trkpt><trkpt lat="44.47882" lon="3.66313"></trkpt><trkpt lat="44.47933" lon="3.66291"></trkpt><trkpt lat="44.47967" lon="3.66287"></trkpt><trkpt lat="44.47981" lon="3.66282"></trkpt><trkpt lat="44.48004" lon="3.66265"></trkpt><trkpt lat="44.48074" lon="3.66196"></trkpt><trkpt lat="44.48074" lon="3.66196"></trkpt><trkpt lat="44.48133" lon="3.66136"></trkpt><trkpt lat="44.48185" lon="3.66112"></trkpt><trkpt lat="44.48226" lon="3.66088"></trkpt><trkpt lat="44.48244" lon="3.66074"></trkpt><trkpt lat="44.48257" lon="3.6606"></trkpt><trkpt lat="44.48307" lon="3.65996"></trkpt><trkpt lat="44.48332" lon="3.65968"></trkpt><trkpt lat="44.48346" lon="3.65958"></trkpt><trkpt lat="44.48355" lon="3.65959"></trkpt><trkpt lat="44.48361" lon="3.65964"></trkpt><trkpt lat="44.4837" lon="3.65979"></trkpt><trkpt lat="44.48372" lon="3.65995"></trkpt><trkpt lat="44.48369" lon="3.66036"></trkpt><trkpt lat="44.48362" lon="3.66081"></trkpt><trkpt lat="44.48355" lon="3.66115"></trkpt><trkpt lat="44.48342" lon="3.66148"></trkpt><trkpt lat="44.48326" lon="3.662"></trkpt><trkpt lat="44.48276" lon="3.66325"></trkpt><trkpt lat="44.48243" lon="3.66432"></trkpt><trkpt lat="44.48237" lon="3.66463"></trkpt><trkpt lat="44.48241" lon="3.66662"></trkpt><trkpt lat="44.48251" lon="3.66696"></trkpt><trkpt lat="44.48275" lon="3.66716"></trkpt><trkpt lat="44.48297" lon="3.66723"></trkpt><trkpt lat="44.48335" lon="3.66763"></trkpt><trkpt lat="44.48352" lon="3.66799"></trkpt><trkpt lat="44.48367" lon="3.66843"></trkpt><trkpt lat="44.4838" lon="3.66861"></trkpt><trkpt lat="44.48399" lon="3.66861"></trkpt><trkpt lat="44.48462" lon="3.66881"></trkpt><trkpt lat="44.48538" lon="3.6692"></trkpt><trkpt lat="44.48553" lon="3.66916"></trkpt><trkpt lat="44.4857" lon="3.66902"></trkpt><trkpt lat="44.4858" lon="3.66899"></trkpt><trkpt lat="44.48594" lon="3.66912"></trkpt><trkpt lat="44.48607" lon="3.66961"></trkpt><trkpt lat="44.48614" lon="3.66965"></trkpt><trkpt lat="44.48631" lon="3.66971"></trkpt><trkpt lat="44.48646" lon="3.66981"></trkpt><trkpt lat="44.48667" lon="3.66991"></trkpt><trkpt lat="44.4869" lon="3.67005"></trkpt><trkpt lat="44.48725" lon="3.67033"></trkpt><trkpt lat="44.48758" lon="3.67067"></trkpt><trkpt lat="44.48788" lon="3.67083"></trkpt><trkpt lat="44.48818" lon="3.67089"></trkpt><trkpt lat="44.48829" lon="3.67087"></trkpt><trkpt lat="44.48839" lon="3.67081"></trkpt><trkpt lat="44.48862" lon="3.6704"></trkpt><trkpt lat="44.48877" lon="3.67024"></trkpt><trkpt lat="44.48916" lon="3.6701"></trkpt><trkpt lat="44.48972" lon="3.66967"></trkpt><trkpt lat="44.48989" lon="3.66943"></trkpt><trkpt lat="44.49007" lon="3.66897"></trkpt><trkpt lat="44.49021" lon="3.66867"></trkpt><trkpt lat="44.49029" lon="3.66862"></trkpt><trkpt lat="44.49034" lon="3.66858"></trkpt><trkpt lat="44.49046" lon="3.66855"></trkpt><trkpt lat="44.4906" lon="3.66865"></trkpt><trkpt lat="44.49066" lon="3.66876"></trkpt><trkpt lat="44.49071" lon="3.66894"></trkpt><trkpt lat="44.49088" lon="3.66979"></trkpt><trkpt lat="44.49089" lon="3.67002"></trkpt><trkpt lat="44.49088" lon="3.67028"></trkpt><trkpt lat="44.49063" lon="3.67142"></trkpt><trkpt lat="44.49059" lon="3.67166"></trkpt><trkpt lat="44.49059" lon="3.67187"></trkpt><trkpt lat="44.49062" lon="3.67207"></trkpt><trkpt lat="44.49082" lon="3.67218"></trkpt><trkpt lat="44.49132" lon="3.67231"></trkpt><trkpt lat="44.49198" lon="3.67246"></trkpt><trkpt lat="44.49246" lon="3.67252"></trkpt><trkpt lat="44.49271" lon="3.67246"></trkpt><trkpt lat="44.49283" lon="3.67237"></trkpt><trkpt lat="44.49302" lon="3.67213"></trkpt><trkpt lat="44.49314" lon="3.67182"></trkpt><trkpt lat="44.49324" lon="3.67151"></trkpt><trkpt lat="44.4934" lon="3.67128"></trkpt><trkpt lat="44.49353" lon="3.67123"></trkpt><trkpt lat="44.49363" lon="3.67128"></trkpt><trkpt lat="44.49377" lon="3.67158"></trkpt><trkpt lat="44.49392" lon="3.67196"></trkpt><trkpt lat="44.49409" lon="3.67211"></trkpt><trkpt lat="44.49438" lon="3.67225"></trkpt><trkpt lat="44.4946" lon="3.67241"></trkpt><trkpt lat="44.49491" lon="3.67269"></trkpt><trkpt lat="44.4951" lon="3.67283"></trkpt><trkpt lat="44.4954" lon="3.67291"></trkpt><trkpt lat="44.49563" lon="3.67292"></trkpt><trkpt lat="44.49608" lon="3.67285"></trkpt><trkpt lat="44.49661" lon="3.6727"></trkpt><trkpt lat="44.49676" lon="3.67269"></trkpt><trkpt lat="44.49707" lon="3.67302"></trkpt><trkpt lat="44.4979" lon="3.67328"></trkpt><trkpt lat="44.49789" lon="3.67328"></trkpt><trkpt lat="44.49809" lon="3.67333"></trkpt><trkpt lat="44.49872" lon="3.67363"></trkpt><trkpt lat="44.49899" lon="3.67377"></trkpt><trkpt lat="44.49919" lon="3.6739"></trkpt><trkpt lat="44.49948" lon="3.67401"></trkpt><trkpt lat="44.49955" lon="3.67407"></trkpt><trkpt lat="44.49964" lon="3.67416"></trkpt><trkpt lat="44.49983" lon="3.67441"></trkpt><trkpt lat="44.50072" lon="3.67571"></trkpt><trkpt lat="44.50143" lon="3.67647"></trkpt><trkpt lat="44.50166" lon="3.67678"></trkpt><trkpt lat="44.50178" lon="3.67696"></trkpt><trkpt lat="44.50193" lon="3.67729"></trkpt><trkpt lat="44.502" lon="3.67752"></trkpt><trkpt lat="44.50214" lon="3.67896"></trkpt><trkpt lat="44.5022" lon="3.67949"></trkpt><trkpt lat="44.50221" lon="3.67983"></trkpt><trkpt lat="44.5022" lon="3.67996"></trkpt><trkpt lat="44.50213" lon="3.68016"></trkpt><trkpt lat="44.50204" lon="3.6803"></trkpt><trkpt lat="44.50194" lon="3.6804"></trkpt><trkpt lat="44.50176" lon="3.68051"></trkpt><trkpt lat="44.50155" lon="3.68053"></trkpt><trkpt lat="44.50118" lon="3.68051"></trkpt><trkpt lat="44.50106" lon="3.68057"></trkpt><trkpt lat="44.50067" lon="3.68112"></trkpt><trkpt lat="44.50063" lon="3.68122"></trkpt><trkpt lat="44.50063" lon="3.68146"></trkpt><trkpt lat="44.50064" lon="3.68177"></trkpt><trkpt lat="44.50072" lon="3.68264"></trkpt><trkpt lat="44.5007" lon="3.68274"></trkpt><trkpt lat="44.50074" lon="3.68279"></trkpt><trkpt lat="44.50079" lon="3.68318"></trkpt><trkpt lat="44.50084" lon="3.68325"></trkpt><trkpt lat="44.50097" lon="3.68332"></trkpt><trkpt lat="44.50122" lon="3.68356"></trkpt><trkpt lat="44.50155" lon="3.68393"></trkpt><trkpt lat="44.50168" lon="3.68414"></trkpt><trkpt lat="44.50183" lon="3.68451"></trkpt><trkpt lat="44.50216" lon="3.68472"></trkpt><trkpt lat="44.50226" lon="3.68476"></trkpt><trkpt lat="44.50237" lon="3.68472"></trkpt><trkpt lat="44.50255" lon="3.68426"></trkpt><trkpt lat="44.50256" lon="3.68398"></trkpt><trkpt lat="44.50245" lon="3.68359"></trkpt><trkpt lat="44.50244" lon="3.68349"></trkpt><trkpt lat="44.50247" lon="3.68341"></trkpt><trkpt lat="44.50255" lon="3.68336"></trkpt><trkpt lat="44.50246" lon="3.68293"></trkpt><trkpt lat="44.50242" lon="3.68262"></trkpt><trkpt lat="44.50244" lon="3.68238"></trkpt><trkpt lat="44.50248" lon="3.68221"></trkpt><trkpt lat="44.50257" lon="3.68205"></trkpt><trkpt lat="44.50275" lon="3.68182"></trkpt><trkpt lat="44.50324" lon="3.68146"></trkpt><trkpt lat="44.50337" lon="3.6813"></trkpt><trkpt lat="44.50344" lon="3.68116"></trkpt><trkpt lat="44.5035" lon="3.68094"></trkpt><trkpt lat="44.50359" lon="3.67987"></trkpt><trkpt lat="44.50364" lon="3.67951"></trkpt><trkpt lat="44.50371" lon="3.67928"></trkpt><trkpt lat="44.50381" lon="3.67908"></trkpt><trkpt lat="44.50401" lon="3.67883"></trkpt><trkpt lat="44.50454" lon="3.67824"></trkpt><trkpt lat="44.50496" lon="3.6776"></trkpt><trkpt lat="44.50515" lon="3.67726"></trkpt><trkpt lat="44.50526" lon="3.67688"></trkpt><trkpt lat="44.50531" lon="3.67659"></trkpt><trkpt lat="44.5053" lon="3.6763"></trkpt><trkpt lat="44.50507" lon="3.67518"></trkpt><trkpt lat="44.505" lon="3.67473"></trkpt><trkpt lat="44.50499" lon="3.67443"></trkpt><trkpt lat="44.50509" lon="3.67414"></trkpt><trkpt lat="44.50522" lon="3.67393"></trkpt><trkpt lat="44.50542" lon="3.67372"></trkpt><trkpt lat="44.50616" lon="3.67321"></trkpt><trkpt lat="44.50692" lon="3.67257"></trkpt><trkpt lat="44.5071" lon="3.67227"></trkpt><trkpt lat="44.5072" lon="3.67201"></trkpt><trkpt lat="44.50729" lon="3.67147"></trkpt><trkpt lat="44.50732" lon="3.67118"></trkpt><trkpt lat="44.5073" lon="3.6709"></trkpt><trkpt lat="44.50723" lon="3.6707"></trkpt><trkpt lat="44.50705" lon="3.67039"></trkpt><trkpt lat="44.50671" lon="3.66992"></trkpt><trkpt lat="44.5063" lon="3.66951"></trkpt><trkpt lat="44.50592" lon="3.66932"></trkpt><trkpt lat="44.50573" lon="3.66926"></trkpt><trkpt lat="44.5055" lon="3.66922"></trkpt><trkpt lat="44.50503" lon="3.66925"></trkpt><trkpt lat="44.50492" lon="3.66923"></trkpt><trkpt lat="44.50473" lon="3.66909"></trkpt><trkpt lat="44.50439" lon="3.66881"></trkpt><trkpt lat="44.50431" lon="3.66867"></trkpt><trkpt lat="44.50425" lon="3.66851"></trkpt><trkpt lat="44.50425" lon="3.66838"></trkpt><trkpt lat="44.50427" lon="3.66823"></trkpt><trkpt lat="44.50441" lon="3.66802"></trkpt><trkpt lat="44.50463" lon="3.66783"></trkpt><trkpt lat="44.50433" lon="3.66728"></trkpt><trkpt lat="44.50451" lon="3.66705"></trkpt><trkpt lat="44.50472" lon="3.66684"></trkpt><trkpt lat="44.5047" lon="3.66681"></trkpt><trkpt lat="44.50456" lon="3.66646"></trkpt><trkpt lat="44.50456" lon="3.66639"></trkpt><trkpt lat="44.50458" lon="3.66635"></trkpt><trkpt lat="44.50463" lon="3.6663"></trkpt><trkpt lat="44.50496" lon="3.66615"></trkpt><trkpt lat="44.50496" lon="3.66611"></trkpt><trkpt lat="44.50478" lon="3.66618"></trkpt><trkpt lat="44.50442" lon="3.66625"></trkpt><trkpt lat="44.50435" lon="3.66629"></trkpt><trkpt lat="44.50423" lon="3.66648"></trkpt><trkpt lat="44.50393" lon="3.66703"></trkpt><trkpt lat="44.50371" lon="3.66727"></trkpt><trkpt lat="44.50334" lon="3.66765"></trkpt><trkpt lat="44.50322" lon="3.66783"></trkpt><trkpt lat="44.50315" lon="3.66788"></trkpt><trkpt lat="44.50312" lon="3.66787"></trkpt><trkpt lat="44.50308" lon="3.66781"></trkpt><trkpt lat="44.50311" lon="3.66768"></trkpt><trkpt lat="44.50317" lon="3.66754"></trkpt><trkpt lat="44.50332" lon="3.6673"></trkpt><trkpt lat="44.50349" lon="3.66696"></trkpt><trkpt lat="44.50356" lon="3.66676"></trkpt><trkpt lat="44.50356" lon="3.66665"></trkpt><trkpt lat="44.50352" lon="3.66654"></trkpt><trkpt lat="44.50352" lon="3.66641"></trkpt><trkpt lat="44.50358" lon="3.66613"></trkpt><trkpt lat="44.50359" lon="3.66588"></trkpt><trkpt lat="44.50357" lon="3.66482"></trkpt><trkpt lat="44.50354" lon="3.66457"></trkpt><trkpt lat="44.5035" lon="3.66437"></trkpt><trkpt lat="44.5034" lon="3.66407"></trkpt><trkpt lat="44.50328" lon="3.66387"></trkpt><trkpt lat="44.50305" lon="3.66368"></trkpt><trkpt lat="44.50224" lon="3.66314"></trkpt><trkpt lat="44.50215" lon="3.66306"></trkpt><trkpt lat="44.5021" lon="3.66299"></trkpt><trkpt lat="44.50205" lon="3.6628"></trkpt><trkpt lat="44.50205" lon="3.66225"></trkpt><trkpt lat="44.502" lon="3.66203"></trkpt><trkpt lat="44.50191" lon="3.66177"></trkpt><trkpt lat="44.50186" lon="3.66154"></trkpt><trkpt lat="44.50185" lon="3.66137"></trkpt><trkpt lat="44.50189" lon="3.661"></trkpt><trkpt lat="44.50188" lon="3.66079"></trkpt><trkpt lat="44.50185" lon="3.66065"></trkpt><trkpt lat="44.50154" lon="3.65953"></trkpt><trkpt lat="44.50138" lon="3.65914"></trkpt><trkpt lat="44.50116" lon="3.65873"></trkpt><trkpt lat="44.50099" lon="3.65826"></trkpt><trkpt lat="44.5009" lon="3.65812"></trkpt><trkpt lat="44.50064" lon="3.65785"></trkpt><trkpt lat="44.50025" lon="3.6576"></trkpt><trkpt lat="44.49991" lon="3.65742"></trkpt><trkpt lat="44.49941" lon="3.65707"></trkpt><trkpt lat="44.499" lon="3.65669"></trkpt><trkpt lat="44.49863" lon="3.65629"></trkpt><trkpt lat="44.49847" lon="3.65618"></trkpt><trkpt lat="44.49824" lon="3.6561"></trkpt><trkpt lat="44.49813" lon="3.65603"></trkpt><trkpt lat="44.498" lon="3.6559"></trkpt><trkpt lat="44.49749" lon="3.6552"></trkpt><trkpt lat="44.49726" lon="3.65491"></trkpt><trkpt lat="44.49712" lon="3.6548"></trkpt><trkpt lat="44.49699" lon="3.65473"></trkpt><trkpt lat="44.49684" lon="3.65459"></trkpt><trkpt lat="44.49676" lon="3.65404"></trkpt><trkpt lat="44.49676" lon="3.65368"></trkpt><trkpt lat="44.49681" lon="3.65329"></trkpt><trkpt lat="44.49694" lon="3.65266"></trkpt><trkpt lat="44.497" lon="3.65177"></trkpt><trkpt lat="44.49696" lon="3.6511"></trkpt><trkpt lat="44.49689" lon="3.65038"></trkpt><trkpt lat="44.49682" lon="3.64945"></trkpt><trkpt lat="44.49672" lon="3.64919"></trkpt><trkpt lat="44.49644" lon="3.6488"></trkpt><trkpt lat="44.49617" lon="3.64836"></trkpt><trkpt lat="44.49608" lon="3.64815"></trkpt><trkpt lat="44.4961" lon="3.64788"></trkpt><trkpt lat="44.4962" lon="3.64764"></trkpt><trkpt lat="44.49642" lon="3.6473"></trkpt><trkpt lat="44.49663" lon="3.64704"></trkpt><trkpt lat="44.49685" lon="3.64683"></trkpt><trkpt lat="44.49713" lon="3.64643"></trkpt><trkpt lat="44.4972" lon="3.64614"></trkpt><trkpt lat="44.49733" lon="3.64407"></trkpt><trkpt lat="44.49743" lon="3.64349"></trkpt><trkpt lat="44.49743" lon="3.64331"></trkpt><trkpt lat="44.49735" lon="3.64263"></trkpt><trkpt lat="44.49743" lon="3.64216"></trkpt><trkpt lat="44.49753" lon="3.64191"></trkpt><trkpt lat="44.49762" lon="3.64168"></trkpt><trkpt lat="44.49765" lon="3.64138"></trkpt><trkpt lat="44.4976" lon="3.64114"></trkpt><trkpt lat="44.4975" lon="3.64094"></trkpt><trkpt lat="44.49726" lon="3.64067"></trkpt><trkpt lat="44.49703" lon="3.64019"></trkpt><trkpt lat="44.49693" lon="3.63986"></trkpt><trkpt lat="44.49686" lon="3.63951"></trkpt><trkpt lat="44.49672" lon="3.63836"></trkpt><trkpt lat="44.49672" lon="3.6377"></trkpt><trkpt lat="44.49681" lon="3.63699"></trkpt><trkpt lat="44.49685" lon="3.63664"></trkpt><trkpt lat="44.49681" lon="3.63651"></trkpt><trkpt lat="44.49675" lon="3.63639"></trkpt><trkpt lat="44.49669" lon="3.63627"></trkpt><trkpt lat="44.49645" lon="3.63596"></trkpt><trkpt lat="44.4963" lon="3.63568"></trkpt><trkpt lat="44.49623" lon="3.63542"></trkpt><trkpt lat="44.49619" lon="3.6352"></trkpt><trkpt lat="44.49612" lon="3.63274"></trkpt><trkpt lat="44.49609" lon="3.63255"></trkpt><trkpt lat="44.49599" lon="3.6323"></trkpt><trkpt lat="44.49572" lon="3.63154"></trkpt><trkpt lat="44.49562" lon="3.63132"></trkpt><trkpt lat="44.49553" lon="3.63121"></trkpt><trkpt lat="44.49532" lon="3.63106"></trkpt><trkpt lat="44.49506" lon="3.63106"></trkpt><trkpt lat="44.49494" lon="3.63116"></trkpt><trkpt lat="44.49485" lon="3.63129"></trkpt><trkpt lat="44.49468" lon="3.63173"></trkpt><trkpt lat="44.49463" lon="3.6318"></trkpt><trkpt lat="44.49451" lon="3.63183"></trkpt><trkpt lat="44.49402" lon="3.63177"></trkpt><trkpt lat="44.49383" lon="3.63183"></trkpt><trkpt lat="44.49367" lon="3.63193"></trkpt><trkpt lat="44.49359" lon="3.63196"></trkpt><trkpt lat="44.49349" lon="3.63196"></trkpt><trkpt lat="44.49323" lon="3.63178"></trkpt><trkpt lat="44.49296" lon="3.63167"></trkpt><trkpt lat="44.49262" lon="3.63164"></trkpt><trkpt lat="44.49257" lon="3.63161"></trkpt><trkpt lat="44.49255" lon="3.63154"></trkpt><trkpt lat="44.4926" lon="3.63144"></trkpt><trkpt lat="44.49266" lon="3.6314"></trkpt><trkpt lat="44.49295" lon="3.63136"></trkpt><trkpt lat="44.49322" lon="3.63136"></trkpt><trkpt lat="44.49342" lon="3.63139"></trkpt><trkpt lat="44.4936" lon="3.63145"></trkpt><trkpt lat="44.49372" lon="3.63144"></trkpt><trkpt lat="44.49384" lon="3.63138"></trkpt><trkpt lat="44.49402" lon="3.63118"></trkpt><trkpt lat="44.49454" lon="3.63004"></trkpt><trkpt lat="44.4946" lon="3.62984"></trkpt><trkpt lat="44.49465" lon="3.62976"></trkpt><trkpt lat="44.49475" lon="3.62969"></trkpt><trkpt lat="44.4949" lon="3.62963"></trkpt><trkpt lat="44.49497" lon="3.62962"></trkpt><trkpt lat="44.49505" lon="3.62965"></trkpt><trkpt lat="44.49531" lon="3.62984"></trkpt><trkpt lat="44.49542" lon="3.62987"></trkpt><trkpt lat="44.49558" lon="3.62985"></trkpt><trkpt lat="44.49564" lon="3.62979"></trkpt><trkpt lat="44.49567" lon="3.6297"></trkpt><trkpt lat="44.49568" lon="3.62957"></trkpt><trkpt lat="44.49565" lon="3.62922"></trkpt><trkpt lat="44.49559" lon="3.62856"></trkpt><trkpt lat="44.49547" lon="3.62782"></trkpt><trkpt lat="44.49543" lon="3.62751"></trkpt><trkpt lat="44.49535" lon="3.62676"></trkpt><trkpt lat="44.49533" lon="3.62631"></trkpt><trkpt lat="44.49535" lon="3.62524"></trkpt><trkpt lat="44.49535" lon="3.62524"></trkpt><trkpt lat="44.49542" lon="3.62471"></trkpt><trkpt lat="44.49557" lon="3.62426"></trkpt><trkpt lat="44.49588" lon="3.62344"></trkpt><trkpt lat="44.49609" lon="3.62277"></trkpt><trkpt lat="44.49619" lon="3.62235"></trkpt><trkpt lat="44.49635" lon="3.62149"></trkpt><trkpt lat="44.49644" lon="3.62123"></trkpt><trkpt lat="44.49663" lon="3.62077"></trkpt><trkpt lat="44.49697" lon="3.62018"></trkpt><trkpt lat="44.49705" lon="3.62002"></trkpt><trkpt lat="44.49735" lon="3.61966"></trkpt><trkpt lat="44.49753" lon="3.6193"></trkpt><trkpt lat="44.49787" lon="3.61841"></trkpt><trkpt lat="44.49817" lon="3.61776"></trkpt><trkpt lat="44.4986" lon="3.61648"></trkpt><trkpt lat="44.49873" lon="3.61604"></trkpt><trkpt lat="44.49911" lon="3.61504"></trkpt><trkpt lat="44.49929" lon="3.61444"></trkpt><trkpt lat="44.49952" lon="3.61343"></trkpt><trkpt lat="44.49964" lon="3.61298"></trkpt><trkpt lat="44.4997" lon="3.61247"></trkpt><trkpt lat="44.49977" lon="3.61207"></trkpt><trkpt lat="44.49989" lon="3.61158"></trkpt><trkpt lat="44.4999" lon="3.61151"></trkpt><trkpt lat="44.49987" lon="3.61145"></trkpt><trkpt lat="44.49983" lon="3.61146"></trkpt><trkpt lat="44.4998" lon="3.61151"></trkpt><trkpt lat="44.4997" lon="3.61204"></trkpt><trkpt lat="44.49955" lon="3.6126"></trkpt><trkpt lat="44.49931" lon="3.61337"></trkpt><trkpt lat="44.4992" lon="3.61369"></trkpt><trkpt lat="44.49876" lon="3.61477"></trkpt><trkpt lat="44.4982" lon="3.61571"></trkpt><trkpt lat="44.49812" lon="3.61575"></trkpt><trkpt lat="44.49808" lon="3.61572"></trkpt><trkpt lat="44.49808" lon="3.61562"></trkpt><trkpt lat="44.49823" lon="3.61545"></trkpt><trkpt lat="44.49844" lon="3.61509"></trkpt><trkpt lat="44.49862" lon="3.61466"></trkpt><trkpt lat="44.49894" lon="3.61356"></trkpt><trkpt lat="44.49908" lon="3.61297"></trkpt><trkpt lat="44.49929" lon="3.61177"></trkpt><trkpt lat="44.49955" lon="3.61059"></trkpt><trkpt lat="44.49981" lon="3.60973"></trkpt><trkpt lat="44.49998" lon="3.60928"></trkpt><trkpt lat="44.5001" lon="3.609"></trkpt><trkpt lat="44.50024" lon="3.60873"></trkpt><trkpt lat="44.5007" lon="3.6074"></trkpt><trkpt lat="44.50082" lon="3.60697"></trkpt><trkpt lat="44.50088" lon="3.60654"></trkpt><trkpt lat="44.50109" lon="3.60552"></trkpt><trkpt lat="44.50117" lon="3.60498"></trkpt><trkpt lat="44.50141" lon="3.60254"></trkpt><trkpt lat="44.50146" lon="3.60228"></trkpt><trkpt lat="44.50155" lon="3.60194"></trkpt><trkpt lat="44.50161" lon="3.60177"></trkpt><trkpt lat="44.50169" lon="3.60165"></trkpt><trkpt lat="44.50176" lon="3.60157"></trkpt><trkpt lat="44.50189" lon="3.60151"></trkpt><trkpt lat="44.50212" lon="3.60154"></trkpt><trkpt lat="44.50221" lon="3.60158"></trkpt><trkpt lat="44.50237" lon="3.60173"></trkpt><trkpt lat="44.50243" lon="3.60176"></trkpt><trkpt lat="44.50248" lon="3.60171"></trkpt><trkpt lat="44.50248" lon="3.60164"></trkpt><trkpt lat="44.50212" lon="3.60137"></trkpt><trkpt lat="44.50196" lon="3.60133"></trkpt><trkpt lat="44.50182" lon="3.60132"></trkpt><trkpt lat="44.50168" lon="3.60136"></trkpt><trkpt lat="44.50158" lon="3.60142"></trkpt><trkpt lat="44.50149" lon="3.60152"></trkpt><trkpt lat="44.50136" lon="3.60177"></trkpt><trkpt lat="44.50125" lon="3.6021"></trkpt><trkpt lat="44.50111" lon="3.60263"></trkpt><trkpt lat="44.50082" lon="3.60394"></trkpt><trkpt lat="44.50053" lon="3.6051"></trkpt><trkpt lat="44.50023" lon="3.6061"></trkpt><trkpt lat="44.50011" lon="3.6064"></trkpt><trkpt lat="44.49988" lon="3.60691"></trkpt><trkpt lat="44.49958" lon="3.60742"></trkpt><trkpt lat="44.49938" lon="3.60772"></trkpt><trkpt lat="44.49933" lon="3.60772"></trkpt><trkpt lat="44.49929" lon="3.60767"></trkpt><trkpt lat="44.49917" lon="3.60749"></trkpt><trkpt lat="44.49906" lon="3.60696"></trkpt><trkpt lat="44.49909" lon="3.60641"></trkpt><trkpt lat="44.49924" lon="3.6053"></trkpt><trkpt lat="44.49929" lon="3.60403"></trkpt><trkpt lat="44.4992" lon="3.60351"></trkpt><trkpt lat="44.49945" lon="3.59996"></trkpt><trkpt lat="44.49966" lon="3.59867"></trkpt><trkpt lat="44.49973" lon="3.59811"></trkpt><trkpt lat="44.49975" lon="3.59766"></trkpt><trkpt lat="44.49962" lon="3.59684"></trkpt><trkpt lat="44.49962" lon="3.59515"></trkpt><trkpt lat="44.49959" lon="3.59398"></trkpt><trkpt lat="44.49955" lon="3.59348"></trkpt><trkpt lat="44.49947" lon="3.59308"></trkpt><trkpt lat="44.49945" lon="3.59289"></trkpt><trkpt lat="44.49953" lon="3.59238"></trkpt><trkpt lat="44.49955" lon="3.59231"></trkpt><trkpt lat="44.49951" lon="3.59163"></trkpt><trkpt lat="44.49934" lon="3.59033"></trkpt><trkpt lat="44.49927" lon="3.58884"></trkpt><trkpt lat="44.49927" lon="3.58883"></trkpt><trkpt lat="44.49919" lon="3.58734"></trkpt><trkpt lat="44.49924" lon="3.58602"></trkpt><trkpt lat="44.49936" lon="3.5843"></trkpt><trkpt lat="44.4994" lon="3.58314"></trkpt><trkpt lat="44.49936" lon="3.582"></trkpt><trkpt lat="44.4994" lon="3.58109"></trkpt><trkpt lat="44.49949" lon="3.58068"></trkpt><trkpt lat="44.49969" lon="3.58051"></trkpt><trkpt lat="44.49985" lon="3.5804"></trkpt><trkpt lat="44.49996" lon="3.58025"></trkpt><trkpt lat="44.50002" lon="3.57997"></trkpt><trkpt lat="44.50004" lon="3.57976"></trkpt><trkpt lat="44.50004" lon="3.57826"></trkpt><trkpt lat="44.50007" lon="3.57749"></trkpt><trkpt lat="44.50028" lon="3.57528"></trkpt><trkpt lat="44.50026" lon="3.57498"></trkpt><trkpt lat="44.50021" lon="3.57476"></trkpt><trkpt lat="44.50016" lon="3.57463"></trkpt><trkpt lat="44.49988" lon="3.57412"></trkpt><trkpt lat="44.49984" lon="3.57389"></trkpt><trkpt lat="44.49987" lon="3.57326"></trkpt><trkpt lat="44.4999" lon="3.57309"></trkpt><trkpt lat="44.50017" lon="3.57191"></trkpt><trkpt lat="44.5002" lon="3.5717"></trkpt><trkpt lat="44.50019" lon="3.57153"></trkpt><trkpt lat="44.49989" lon="3.57078"></trkpt><trkpt lat="44.49985" lon="3.57048"></trkpt><trkpt lat="44.49981" lon="3.57005"></trkpt><trkpt lat="44.49981" lon="3.56921"></trkpt><trkpt lat="44.49983" lon="3.56884"></trkpt><trkpt lat="44.4998" lon="3.56811"></trkpt><trkpt lat="44.49974" lon="3.56772"></trkpt><trkpt lat="44.49966" lon="3.56732"></trkpt><trkpt lat="44.49945" lon="3.56652"></trkpt><trkpt lat="44.49934" lon="3.56628"></trkpt><trkpt lat="44.49911" lon="3.56596"></trkpt><trkpt lat="44.49891" lon="3.56563"></trkpt><trkpt lat="44.49848" lon="3.56473"></trkpt><trkpt lat="44.49833" lon="3.5645"></trkpt><trkpt lat="44.49793" lon="3.56406"></trkpt><trkpt lat="44.49785" lon="3.56394"></trkpt><trkpt lat="44.4978" lon="3.56377"></trkpt><trkpt lat="44.49778" lon="3.5636"></trkpt><trkpt lat="44.49784" lon="3.56308"></trkpt><trkpt lat="44.4978" lon="3.56234"></trkpt><trkpt lat="44.49777" lon="3.5621"></trkpt><trkpt lat="44.49769" lon="3.56184"></trkpt><trkpt lat="44.49756" lon="3.56162"></trkpt><trkpt lat="44.49743" lon="3.56146"></trkpt><trkpt lat="44.49712" lon="3.56113"></trkpt><trkpt lat="44.49683" lon="3.56073"></trkpt><trkpt lat="44.49671" lon="3.56062"></trkpt><trkpt lat="44.49652" lon="3.56051"></trkpt><trkpt lat="44.49387" lon="3.55944"></trkpt><trkpt lat="44.49334" lon="3.55918"></trkpt><trkpt lat="44.49309" lon="3.55901"></trkpt><trkpt lat="44.49293" lon="3.55888"></trkpt><trkpt lat="44.49265" lon="3.55853"></trkpt><trkpt lat="44.49218" lon="3.55755"></trkpt><trkpt lat="44.49193" lon="3.55697"></trkpt><trkpt lat="44.4912" lon="3.55494"></trkpt><trkpt lat="44.4912" lon="3.55493"></trkpt><trkpt lat="44.49088" lon="3.55407"></trkpt><trkpt lat="44.49007" lon="3.55202"></trkpt><trkpt lat="44.48991" lon="3.55175"></trkpt><trkpt lat="44.48969" lon="3.55142"></trkpt><trkpt lat="44.48922" lon="3.55083"></trkpt><trkpt lat="44.48898" lon="3.5505"></trkpt><trkpt lat="44.48877" lon="3.55012"></trkpt><trkpt lat="44.48779" lon="3.5482"></trkpt><trkpt lat="44.48733" lon="3.54738"></trkpt><trkpt lat="44.48722" lon="3.54712"></trkpt><trkpt lat="44.48709" lon="3.54666"></trkpt><trkpt lat="44.48702" lon="3.54618"></trkpt><trkpt lat="44.48696" lon="3.54588"></trkpt><trkpt lat="44.48683" lon="3.54553"></trkpt><trkpt lat="44.48666" lon="3.54527"></trkpt><trkpt lat="44.48602" lon="3.54438"></trkpt><trkpt lat="44.48569" lon="3.54379"></trkpt><trkpt lat="44.48569" lon="3.54378"></trkpt><trkpt lat="44.48545" lon="3.54334"></trkpt><trkpt lat="44.48491" lon="3.54257"></trkpt><trkpt lat="44.48473" lon="3.54228"></trkpt><trkpt lat="44.4846" lon="3.54212"></trkpt><trkpt lat="44.48434" lon="3.54191"></trkpt><trkpt lat="44.48426" lon="3.54175"></trkpt><trkpt lat="44.48419" lon="3.54135"></trkpt><trkpt lat="44.48414" lon="3.54118"></trkpt><trkpt lat="44.48406" lon="3.53999"></trkpt><trkpt lat="44.48394" lon="3.53849"></trkpt><trkpt lat="44.48387" lon="3.53821"></trkpt><trkpt lat="44.48365" lon="3.53769"></trkpt><trkpt lat="44.48382" lon="3.53748"></trkpt><trkpt lat="44.48405" lon="3.53734"></trkpt><trkpt lat="44.48416" lon="3.53722"></trkpt><trkpt lat="44.48453" lon="3.5366"></trkpt><trkpt lat="44.48462" lon="3.53638"></trkpt><trkpt lat="44.48476" lon="3.53572"></trkpt><trkpt lat="44.48485" lon="3.53548"></trkpt><trkpt lat="44.48505" lon="3.53516"></trkpt><trkpt lat="44.48611" lon="3.53377"></trkpt><trkpt lat="44.48674" lon="3.53298"></trkpt><trkpt lat="44.48697" lon="3.53266"></trkpt><trkpt lat="44.4871" lon="3.53242"></trkpt><trkpt lat="44.48741" lon="3.53177"></trkpt><trkpt lat="44.4875" lon="3.53153"></trkpt><trkpt lat="44.48767" lon="3.53101"></trkpt><trkpt lat="44.48779" lon="3.53082"></trkpt><trkpt lat="44.48806" lon="3.5305"></trkpt><trkpt lat="44.48845" lon="3.5294"></trkpt><trkpt lat="44.48864" lon="3.52912"></trkpt><trkpt lat="44.48864" lon="3.52912"></trkpt><trkpt lat="44.48902" lon="3.52864"></trkpt><trkpt lat="44.48916" lon="3.52851"></trkpt><trkpt lat="44.48926" lon="3.52851"></trkpt><trkpt lat="44.48939" lon="3.5286"></trkpt><trkpt lat="44.48943" lon="3.52868"></trkpt><trkpt lat="44.48954" lon="3.52905"></trkpt><trkpt lat="44.48963" lon="3.52916"></trkpt><trkpt lat="44.48978" lon="3.52918"></trkpt><trkpt lat="44.4899" lon="3.5291"></trkpt><trkpt lat="44.49016" lon="3.52889"></trkpt><trkpt lat="44.49062" lon="3.52859"></trkpt><trkpt lat="44.49146" lon="3.5284"></trkpt><trkpt lat="44.49185" lon="3.52825"></trkpt><trkpt lat="44.49212" lon="3.52809"></trkpt><trkpt lat="44.49236" lon="3.52787"></trkpt><trkpt lat="44.49263" lon="3.52772"></trkpt><trkpt lat="44.49299" lon="3.52759"></trkpt><trkpt lat="44.49334" lon="3.52758"></trkpt><trkpt lat="44.49376" lon="3.52749"></trkpt><trkpt lat="44.49384" lon="3.52755"></trkpt><trkpt lat="44.49387" lon="3.52761"></trkpt><trkpt lat="44.49385" lon="3.5277"></trkpt><trkpt lat="44.4938" lon="3.52775"></trkpt><trkpt lat="44.49311" lon="3.5279"></trkpt><trkpt lat="44.49294" lon="3.52796"></trkpt><trkpt lat="44.49293" lon="3.52803"></trkpt><trkpt lat="44.49295" lon="3.52808"></trkpt><trkpt lat="44.49323" lon="3.52805"></trkpt><trkpt lat="44.49365" lon="3.52808"></trkpt><trkpt lat="44.49426" lon="3.52821"></trkpt><trkpt lat="44.49465" lon="3.52833"></trkpt><trkpt lat="44.49489" lon="3.5285"></trkpt><trkpt lat="44.49508" lon="3.52866"></trkpt><trkpt lat="44.49533" lon="3.52898"></trkpt><trkpt lat="44.49549" lon="3.52932"></trkpt><trkpt lat="44.49556" lon="3.52935"></trkpt><trkpt lat="44.49562" lon="3.52933"></trkpt><trkpt lat="44.49564" lon="3.52926"></trkpt><trkpt lat="44.49564" lon="3.52894"></trkpt><trkpt lat="44.49554" lon="3.52809"></trkpt><trkpt lat="44.49546" lon="3.52764"></trkpt><trkpt lat="44.49547" lon="3.52709"></trkpt><trkpt lat="44.4954" lon="3.52694"></trkpt><trkpt lat="44.49534" lon="3.5269"></trkpt><trkpt lat="44.49511" lon="3.52682"></trkpt><trkpt lat="44.49504" lon="3.52677"></trkpt><trkpt lat="44.49501" lon="3.5267"></trkpt><trkpt lat="44.495" lon="3.52662"></trkpt><trkpt lat="44.49503" lon="3.52655"></trkpt><trkpt lat="44.49508" lon="3.5265"></trkpt><trkpt lat="44.49565" lon="3.52632"></trkpt><trkpt lat="44.49586" lon="3.52618"></trkpt><trkpt lat="44.49595" lon="3.52607"></trkpt><trkpt lat="44.49609" lon="3.52587"></trkpt><trkpt lat="44.49652" lon="3.52507"></trkpt><trkpt lat="44.49662" lon="3.52491"></trkpt><trkpt lat="44.49676" lon="3.52472"></trkpt><trkpt lat="44.49738" lon="3.52401"></trkpt><trkpt lat="44.49764" lon="3.52363"></trkpt><trkpt lat="44.49892" lon="3.52133"></trkpt><trkpt lat="44.49927" lon="3.52066"></trkpt><trkpt lat="44.49958" lon="3.52"></trkpt><trkpt lat="44.50038" lon="3.51821"></trkpt><trkpt lat="44.50078" lon="3.51734"></trkpt><trkpt lat="44.50112" lon="3.51655"></trkpt><trkpt lat="44.50148" lon="3.5158"></trkpt><trkpt lat="44.5017" lon="3.51547"></trkpt><trkpt lat="44.50199" lon="3.51514"></trkpt><trkpt lat="44.50253" lon="3.51462"></trkpt><trkpt lat="44.50268" lon="3.51443"></trkpt><trkpt lat="44.50281" lon="3.51421"></trkpt><trkpt lat="44.50322" lon="3.51338"></trkpt><trkpt lat="44.50365" lon="3.51258"></trkpt><trkpt lat="44.50384" lon="3.5123"></trkpt><trkpt lat="44.50415" lon="3.51202"></trkpt><trkpt lat="44.50449" lon="3.51174"></trkpt><trkpt lat="44.50483" lon="3.51157"></trkpt><trkpt lat="44.50577" lon="3.51129"></trkpt><trkpt lat="44.50577" lon="3.51129"></trkpt><trkpt lat="44.50792" lon="3.51067"></trkpt><trkpt lat="44.50804" lon="3.51065"></trkpt><trkpt lat="44.50812" lon="3.51104"></trkpt><trkpt lat="44.50813" lon="3.51121"></trkpt><trkpt lat="44.50804" lon="3.51225"></trkpt><trkpt lat="44.50809" lon="3.51265"></trkpt><trkpt lat="44.50824" lon="3.51331"></trkpt><trkpt lat="44.50827" lon="3.51353"></trkpt><trkpt lat="44.50829" lon="3.51383"></trkpt><trkpt lat="44.50848" lon="3.51471"></trkpt><trkpt lat="44.50858" lon="3.51513"></trkpt><trkpt lat="44.50871" lon="3.51583"></trkpt><trkpt lat="44.50879" lon="3.51611"></trkpt><trkpt lat="44.509" lon="3.51661"></trkpt><trkpt lat="44.50915" lon="3.51701"></trkpt><trkpt lat="44.50942" lon="3.51786"></trkpt><trkpt lat="44.51025" lon="3.52013"></trkpt><trkpt lat="44.51025" lon="3.52012"></trkpt><trkpt lat="44.51044" lon="3.52065"></trkpt><trkpt lat="44.51051" lon="3.52077"></trkpt><trkpt lat="44.51058" lon="3.52081"></trkpt><trkpt lat="44.51064" lon="3.52082"></trkpt><trkpt lat="44.51071" lon="3.52077"></trkpt><trkpt lat="44.51094" lon="3.52026"></trkpt><trkpt lat="44.51139" lon="3.51937"></trkpt><trkpt lat="44.51157" lon="3.51878"></trkpt><trkpt lat="44.51163" lon="3.51846"></trkpt><trkpt lat="44.51165" lon="3.51803"></trkpt><trkpt lat="44.51152" lon="3.51525"></trkpt><trkpt lat="44.51148" lon="3.51488"></trkpt><trkpt lat="44.51138" lon="3.51448"></trkpt><trkpt lat="44.51104" lon="3.51363"></trkpt><trkpt lat="44.51102" lon="3.51322"></trkpt><trkpt lat="44.51096" lon="3.51263"></trkpt><trkpt lat="44.51076" lon="3.51164"></trkpt><trkpt lat="44.51075" lon="3.51119"></trkpt><trkpt lat="44.51076" lon="3.51094"></trkpt><trkpt lat="44.51081" lon="3.51071"></trkpt><trkpt lat="44.51088" lon="3.51053"></trkpt><trkpt lat="44.51088" lon="3.51046"></trkpt><trkpt lat="44.51088" lon="3.51039"></trkpt><trkpt lat="44.51074" lon="3.51006"></trkpt><trkpt lat="44.51073" lon="3.5099"></trkpt><trkpt lat="44.51076" lon="3.5097"></trkpt><trkpt lat="44.51103" lon="3.50924"></trkpt><trkpt lat="44.51136" lon="3.50854"></trkpt><trkpt lat="44.51157" lon="3.50797"></trkpt><trkpt lat="44.51177" lon="3.50732"></trkpt><trkpt lat="44.51182" lon="3.50709"></trkpt><trkpt lat="44.51183" lon="3.50698"></trkpt><trkpt lat="44.51181" lon="3.50689"></trkpt><trkpt lat="44.51176" lon="3.5068"></trkpt><trkpt lat="44.51151" lon="3.50655"></trkpt><trkpt lat="44.51124" lon="3.50638"></trkpt><trkpt lat="44.51091" lon="3.50612"></trkpt><trkpt lat="44.51048" lon="3.50566"></trkpt><trkpt lat="44.51023" lon="3.50524"></trkpt><trkpt lat="44.50998" lon="3.50492"></trkpt><trkpt lat="44.50982" lon="3.50473"></trkpt><trkpt lat="44.50967" lon="3.50459"></trkpt><trkpt lat="44.50926" lon="3.50435"></trkpt><trkpt lat="44.50891" lon="3.50403"></trkpt><trkpt lat="44.50886" lon="3.50392"></trkpt><trkpt lat="44.50888" lon="3.50381"></trkpt><trkpt lat="44.50895" lon="3.50376"></trkpt><trkpt lat="44.50905" lon="3.50376"></trkpt><trkpt lat="44.50945" lon="3.50393"></trkpt><trkpt lat="44.50992" lon="3.50394"></trkpt><trkpt lat="44.5106" lon="3.50419"></trkpt><trkpt lat="44.51073" lon="3.50422"></trkpt><trkpt lat="44.51079" lon="3.5042"></trkpt><trkpt lat="44.51084" lon="3.50416"></trkpt><trkpt lat="44.51086" lon="3.50408"></trkpt><trkpt lat="44.51085" lon="3.504"></trkpt><trkpt lat="44.51078" lon="3.50391"></trkpt><trkpt lat="44.51057" lon="3.5037"></trkpt><trkpt lat="44.51032" lon="3.5034"></trkpt><trkpt lat="44.51011" lon="3.50322"></trkpt><trkpt lat="44.51008" lon="3.50312"></trkpt><trkpt lat="44.51007" lon="3.50301"></trkpt><trkpt lat="44.51009" lon="3.50296"></trkpt><trkpt lat="44.51014" lon="3.50294"></trkpt><trkpt lat="44.51094" lon="3.50305"></trkpt><trkpt lat="44.51129" lon="3.50304"></trkpt><trkpt lat="44.51171" lon="3.50302"></trkpt><trkpt lat="44.51202" lon="3.50295"></trkpt><trkpt lat="44.51216" lon="3.50287"></trkpt><trkpt lat="44.51226" lon="3.50277"></trkpt><trkpt lat="44.51273" lon="3.5022"></trkpt><trkpt lat="44.51329" lon="3.50159"></trkpt><trkpt lat="44.51343" lon="3.50146"></trkpt><trkpt lat="44.5136" lon="3.50135"></trkpt><trkpt lat="44.51395" lon="3.50126"></trkpt><trkpt lat="44.51424" lon="3.50109"></trkpt><trkpt lat="44.51491" lon="3.50088"></trkpt><trkpt lat="44.51495" lon="3.50081"></trkpt><trkpt lat="44.51507" lon="3.5"></trkpt><trkpt lat="44.51511" lon="3.49992"></trkpt><trkpt lat="44.51513" lon="3.49978"></trkpt><trkpt lat="44.51623" lon="3.49926"></trkpt><trkpt lat="44.51621" lon="3.49915"></trkpt><trkpt lat="44.51619" lon="3.49897"></trkpt><trkpt lat="44.51618" lon="3.49863"></trkpt><trkpt lat="44.51606" lon="3.49865"></trkpt><trkpt lat="44.51609" lon="3.49909"></trkpt>
</trkseg>
</trk>

</gpx>