<?xml version="1.0" encoding="UTF-8" standalone="no" ?>
<gpx xmlns="http://www.topografix.com/GPX/1/1"
     creator="TourInSoft"
     version="1.1"
     xmlns:xsi="http://www.w3.org/2001/XMLSchema-instance"
     xsi:schemaLocation="http://www.topografix.com/GPX/1/1 http://www.topografix.com/GPX/1/1/gpx.xsd">
<trk>
<trkseg>
<trkpt lat="44.1794177896593" lon="3.42967108100237"></trkpt><trkpt lat="44.17942" lon="3.42964"></trkpt><trkpt lat="44.17944" lon="3.42965"></trkpt><trkpt lat="44.17933" lon="3.43018"></trkpt><trkpt lat="44.17934" lon="3.43025"></trkpt><trkpt lat="44.17937" lon="3.4303"></trkpt><trkpt lat="44.18073" lon="3.43111"></trkpt><trkpt lat="44.18101" lon="3.4313"></trkpt><trkpt lat="44.18109" lon="3.43146"></trkpt><trkpt lat="44.18116" lon="3.43176"></trkpt><trkpt lat="44.18132" lon="3.43268"></trkpt><trkpt lat="44.18137" lon="3.43282"></trkpt><trkpt lat="44.18142" lon="3.43291"></trkpt><trkpt lat="44.18213" lon="3.43392"></trkpt><trkpt lat="44.18231" lon="3.43409"></trkpt><trkpt lat="44.18305" lon="3.43464"></trkpt><trkpt lat="44.18305" lon="3.43463"></trkpt><trkpt lat="44.18334" lon="3.43485"></trkpt><trkpt lat="44.1836" lon="3.43514"></trkpt><trkpt lat="44.1837" lon="3.43521"></trkpt><trkpt lat="44.18376" lon="3.43523"></trkpt><trkpt lat="44.18379" lon="3.43528"></trkpt><trkpt lat="44.18388" lon="3.43532"></trkpt><trkpt lat="44.18393" lon="3.43531"></trkpt><trkpt lat="44.18407" lon="3.4354"></trkpt><trkpt lat="44.18422" lon="3.43556"></trkpt><trkpt lat="44.18429" lon="3.43569"></trkpt><trkpt lat="44.18466" lon="3.43667"></trkpt><trkpt lat="44.18478" lon="3.43682"></trkpt><trkpt lat="44.18571" lon="3.43771"></trkpt><trkpt lat="44.18689" lon="3.43869"></trkpt><trkpt lat="44.18702" lon="3.43877"></trkpt><trkpt lat="44.18737" lon="3.43884"></trkpt><trkpt lat="44.18786" lon="3.43884"></trkpt><trkpt lat="44.18815" lon="3.43888"></trkpt><trkpt lat="44.18877" lon="3.43907"></trkpt><trkpt lat="44.1891" lon="3.43915"></trkpt><trkpt lat="44.18936" lon="3.43908"></trkpt><trkpt lat="44.18945" lon="3.43907"></trkpt><trkpt lat="44.1897" lon="3.43908"></trkpt><trkpt lat="44.18996" lon="3.43917"></trkpt><trkpt lat="44.19042" lon="3.43938"></trkpt><trkpt lat="44.19091" lon="3.43969"></trkpt><trkpt lat="44.19158" lon="3.44029"></trkpt><trkpt lat="44.19276" lon="3.44086"></trkpt><trkpt lat="44.19327" lon="3.44101"></trkpt><trkpt lat="44.1936" lon="3.44105"></trkpt><trkpt lat="44.19365" lon="3.44106"></trkpt><trkpt lat="44.19388" lon="3.44118"></trkpt><trkpt lat="44.19443" lon="3.44159"></trkpt><trkpt lat="44.19534" lon="3.44203"></trkpt><trkpt lat="44.19649" lon="3.44294"></trkpt><trkpt lat="44.19678" lon="3.44323"></trkpt><trkpt lat="44.19688" lon="3.4434"></trkpt><trkpt lat="44.19704" lon="3.44382"></trkpt><trkpt lat="44.1971" lon="3.44408"></trkpt><trkpt lat="44.19717" lon="3.44428"></trkpt><trkpt lat="44.19731" lon="3.44454"></trkpt><trkpt lat="44.19735" lon="3.44467"></trkpt><trkpt lat="44.19735" lon="3.44466"></trkpt><trkpt lat="44.19759" lon="3.44578"></trkpt><trkpt lat="44.19779" lon="3.44641"></trkpt><trkpt lat="44.19803" lon="3.44748"></trkpt><trkpt lat="44.19805" lon="3.44767"></trkpt><trkpt lat="44.19806" lon="3.44807"></trkpt><trkpt lat="44.198" lon="3.44851"></trkpt><trkpt lat="44.19785" lon="3.44894"></trkpt><trkpt lat="44.19773" lon="3.44941"></trkpt><trkpt lat="44.19769" lon="3.44964"></trkpt><trkpt lat="44.19767" lon="3.44982"></trkpt><trkpt lat="44.19768" lon="3.45003"></trkpt><trkpt lat="44.1977" lon="3.45023"></trkpt><trkpt lat="44.19784" lon="3.45078"></trkpt><trkpt lat="44.19787" lon="3.45098"></trkpt><trkpt lat="44.19788" lon="3.45119"></trkpt><trkpt lat="44.19787" lon="3.45141"></trkpt><trkpt lat="44.19764" lon="3.45254"></trkpt><trkpt lat="44.19753" lon="3.45341"></trkpt><trkpt lat="44.19733" lon="3.45401"></trkpt><trkpt lat="44.19723" lon="3.45452"></trkpt><trkpt lat="44.19716" lon="3.45477"></trkpt><trkpt lat="44.19702" lon="3.45515"></trkpt><trkpt lat="44.19694" lon="3.4555"></trkpt><trkpt lat="44.19675" lon="3.45667"></trkpt><trkpt lat="44.19673" lon="3.4573"></trkpt><trkpt lat="44.19676" lon="3.45761"></trkpt><trkpt lat="44.19681" lon="3.45785"></trkpt><trkpt lat="44.19698" lon="3.45841"></trkpt><trkpt lat="44.19715" lon="3.45871"></trkpt><trkpt lat="44.1973" lon="3.45909"></trkpt><trkpt lat="44.19736" lon="3.45925"></trkpt><trkpt lat="44.19744" lon="3.45953"></trkpt><trkpt lat="44.19752" lon="3.46033"></trkpt><trkpt lat="44.1976" lon="3.46077"></trkpt><trkpt lat="44.19765" lon="3.46095"></trkpt><trkpt lat="44.19786" lon="3.46145"></trkpt><trkpt lat="44.19803" lon="3.46207"></trkpt><trkpt lat="44.1981" lon="3.46244"></trkpt><trkpt lat="44.19826" lon="3.46347"></trkpt><trkpt lat="44.19839" lon="3.46454"></trkpt><trkpt lat="44.19861" lon="3.46584"></trkpt><trkpt lat="44.1991" lon="3.46895"></trkpt><trkpt lat="44.19912" lon="3.46931"></trkpt><trkpt lat="44.19911" lon="3.46981"></trkpt><trkpt lat="44.19908" lon="3.4701"></trkpt><trkpt lat="44.19898" lon="3.47063"></trkpt><trkpt lat="44.19894" lon="3.47098"></trkpt><trkpt lat="44.19892" lon="3.47178"></trkpt><trkpt lat="44.1989" lon="3.47258"></trkpt><trkpt lat="44.19893" lon="3.47283"></trkpt><trkpt lat="44.19898" lon="3.47306"></trkpt><trkpt lat="44.19908" lon="3.4734"></trkpt><trkpt lat="44.19925" lon="3.47366"></trkpt><trkpt lat="44.19931" lon="3.47381"></trkpt><trkpt lat="44.19934" lon="3.47395"></trkpt><trkpt lat="44.19933" lon="3.4741"></trkpt><trkpt lat="44.19931" lon="3.47423"></trkpt><trkpt lat="44.19899" lon="3.47481"></trkpt><trkpt lat="44.19893" lon="3.47497"></trkpt><trkpt lat="44.19889" lon="3.47515"></trkpt><trkpt lat="44.1989" lon="3.47538"></trkpt><trkpt lat="44.19902" lon="3.47613"></trkpt><trkpt lat="44.19905" lon="3.4763"></trkpt><trkpt lat="44.19918" lon="3.4767"></trkpt><trkpt lat="44.19922" lon="3.47684"></trkpt><trkpt lat="44.19922" lon="3.47698"></trkpt><trkpt lat="44.19901" lon="3.47749"></trkpt><trkpt lat="44.19887" lon="3.47807"></trkpt><trkpt lat="44.19883" lon="3.47833"></trkpt><trkpt lat="44.19882" lon="3.47852"></trkpt><trkpt lat="44.19885" lon="3.47927"></trkpt><trkpt lat="44.19884" lon="3.4796"></trkpt><trkpt lat="44.19863" lon="3.48071"></trkpt><trkpt lat="44.19861" lon="3.48095"></trkpt><trkpt lat="44.19868" lon="3.48174"></trkpt><trkpt lat="44.19872" lon="3.48204"></trkpt><trkpt lat="44.19883" lon="3.4824"></trkpt><trkpt lat="44.19894" lon="3.48259"></trkpt><trkpt lat="44.19908" lon="3.48273"></trkpt><trkpt lat="44.19924" lon="3.48283"></trkpt><trkpt lat="44.1998" lon="3.48303"></trkpt><trkpt lat="44.20007" lon="3.48305"></trkpt><trkpt lat="44.20028" lon="3.48303"></trkpt><trkpt lat="44.20058" lon="3.48295"></trkpt><trkpt lat="44.20068" lon="3.48289"></trkpt><trkpt lat="44.20081" lon="3.48291"></trkpt><trkpt lat="44.20116" lon="3.48306"></trkpt><trkpt lat="44.20129" lon="3.48315"></trkpt><trkpt lat="44.20129" lon="3.48327"></trkpt><trkpt lat="44.20126" lon="3.48333"></trkpt><trkpt lat="44.20101" lon="3.48345"></trkpt><trkpt lat="44.20083" lon="3.48361"></trkpt><trkpt lat="44.20055" lon="3.48381"></trkpt><trkpt lat="44.20015" lon="3.48396"></trkpt><trkpt lat="44.19992" lon="3.48408"></trkpt><trkpt lat="44.19975" lon="3.48419"></trkpt><trkpt lat="44.19964" lon="3.48428"></trkpt><trkpt lat="44.19959" lon="3.48441"></trkpt><trkpt lat="44.19956" lon="3.48464"></trkpt><trkpt lat="44.19954" lon="3.48493"></trkpt><trkpt lat="44.19955" lon="3.48513"></trkpt><trkpt lat="44.19968" lon="3.4856"></trkpt><trkpt lat="44.19968" lon="3.48573"></trkpt><trkpt lat="44.19964" lon="3.48595"></trkpt><trkpt lat="44.19956" lon="3.48623"></trkpt><trkpt lat="44.19953" lon="3.48643"></trkpt><trkpt lat="44.19953" lon="3.48662"></trkpt><trkpt lat="44.19954" lon="3.48678"></trkpt><trkpt lat="44.1996" lon="3.487"></trkpt><trkpt lat="44.19969" lon="3.48716"></trkpt><trkpt lat="44.19992" lon="3.48745"></trkpt><trkpt lat="44.20013" lon="3.48761"></trkpt><trkpt lat="44.20027" lon="3.48772"></trkpt><trkpt lat="44.20031" lon="3.48781"></trkpt><trkpt lat="44.20032" lon="3.48789"></trkpt><trkpt lat="44.2003" lon="3.48798"></trkpt><trkpt lat="44.20024" lon="3.48805"></trkpt><trkpt lat="44.1999" lon="3.48823"></trkpt><trkpt lat="44.19983" lon="3.48833"></trkpt><trkpt lat="44.19978" lon="3.48851"></trkpt><trkpt lat="44.19977" lon="3.4887"></trkpt><trkpt lat="44.19978" lon="3.48891"></trkpt><trkpt lat="44.19977" lon="3.48909"></trkpt><trkpt lat="44.19974" lon="3.48918"></trkpt><trkpt lat="44.19968" lon="3.48926"></trkpt><trkpt lat="44.19944" lon="3.48948"></trkpt><trkpt lat="44.19936" lon="3.4896"></trkpt><trkpt lat="44.19931" lon="3.48972"></trkpt><trkpt lat="44.19929" lon="3.48984"></trkpt><trkpt lat="44.19929" lon="3.48984"></trkpt><trkpt lat="44.19928" lon="3.48988"></trkpt><trkpt lat="44.1993" lon="3.49006"></trkpt><trkpt lat="44.19934" lon="3.49019"></trkpt><trkpt lat="44.19941" lon="3.4903"></trkpt><trkpt lat="44.20006" lon="3.49086"></trkpt><trkpt lat="44.20108" lon="3.49182"></trkpt><trkpt lat="44.2013" lon="3.49204"></trkpt><trkpt lat="44.20139" lon="3.49211"></trkpt><trkpt lat="44.20146" lon="3.49223"></trkpt><trkpt lat="44.20147" lon="3.49239"></trkpt><trkpt lat="44.20144" lon="3.49253"></trkpt><trkpt lat="44.20138" lon="3.49265"></trkpt><trkpt lat="44.20102" lon="3.49291"></trkpt><trkpt lat="44.20096" lon="3.49293"></trkpt><trkpt lat="44.20089" lon="3.49288"></trkpt><trkpt lat="44.20074" lon="3.49265"></trkpt><trkpt lat="44.20063" lon="3.49259"></trkpt><trkpt lat="44.20021" lon="3.49255"></trkpt><trkpt lat="44.19967" lon="3.49253"></trkpt><trkpt lat="44.19904" lon="3.49257"></trkpt><trkpt lat="44.19889" lon="3.4926"></trkpt><trkpt lat="44.1988" lon="3.49264"></trkpt><trkpt lat="44.19869" lon="3.49274"></trkpt><trkpt lat="44.1986" lon="3.49288"></trkpt><trkpt lat="44.19852" lon="3.49305"></trkpt><trkpt lat="44.19846" lon="3.49322"></trkpt><trkpt lat="44.19843" lon="3.49349"></trkpt><trkpt lat="44.19843" lon="3.49363"></trkpt><trkpt lat="44.19848" lon="3.49377"></trkpt><trkpt lat="44.19861" lon="3.49402"></trkpt><trkpt lat="44.1987" lon="3.49426"></trkpt><trkpt lat="44.19876" lon="3.49457"></trkpt><trkpt lat="44.19876" lon="3.49466"></trkpt><trkpt lat="44.19873" lon="3.49476"></trkpt><trkpt lat="44.19847" lon="3.49504"></trkpt><trkpt lat="44.19838" lon="3.49517"></trkpt><trkpt lat="44.19829" lon="3.49536"></trkpt><trkpt lat="44.19808" lon="3.49591"></trkpt><trkpt lat="44.19799" lon="3.49633"></trkpt><trkpt lat="44.19799" lon="3.49648"></trkpt><trkpt lat="44.19803" lon="3.49675"></trkpt><trkpt lat="44.19808" lon="3.49691"></trkpt><trkpt lat="44.19811" lon="3.4971"></trkpt><trkpt lat="44.19807" lon="3.49717"></trkpt><trkpt lat="44.19783" lon="3.49731"></trkpt><trkpt lat="44.19775" lon="3.49741"></trkpt><trkpt lat="44.19768" lon="3.49755"></trkpt><trkpt lat="44.19764" lon="3.4978"></trkpt><trkpt lat="44.19763" lon="3.49794"></trkpt><trkpt lat="44.19766" lon="3.49812"></trkpt><trkpt lat="44.19772" lon="3.49835"></trkpt><trkpt lat="44.19772" lon="3.49847"></trkpt><trkpt lat="44.19767" lon="3.49852"></trkpt><trkpt lat="44.19761" lon="3.49854"></trkpt><trkpt lat="44.19752" lon="3.49852"></trkpt><trkpt lat="44.19684" lon="3.49808"></trkpt><trkpt lat="44.19666" lon="3.49794"></trkpt><trkpt lat="44.19642" lon="3.49767"></trkpt><trkpt lat="44.19632" lon="3.49752"></trkpt><trkpt lat="44.19625" lon="3.49738"></trkpt><trkpt lat="44.19607" lon="3.49687"></trkpt><trkpt lat="44.19595" lon="3.49664"></trkpt><trkpt lat="44.19584" lon="3.49648"></trkpt><trkpt lat="44.19575" lon="3.49644"></trkpt><trkpt lat="44.19566" lon="3.49643"></trkpt><trkpt lat="44.19559" lon="3.49645"></trkpt><trkpt lat="44.19468" lon="3.49705"></trkpt><trkpt lat="44.19444" lon="3.49726"></trkpt><trkpt lat="44.19443" lon="3.49734"></trkpt><trkpt lat="44.19446" lon="3.49738"></trkpt><trkpt lat="44.19453" lon="3.49736"></trkpt><trkpt lat="44.19475" lon="3.49715"></trkpt><trkpt lat="44.19489" lon="3.49709"></trkpt><trkpt lat="44.19508" lon="3.49705"></trkpt><trkpt lat="44.19523" lon="3.49705"></trkpt><trkpt lat="44.19535" lon="3.4971"></trkpt><trkpt lat="44.19545" lon="3.49717"></trkpt><trkpt lat="44.19555" lon="3.4973"></trkpt><trkpt lat="44.19601" lon="3.49815"></trkpt><trkpt lat="44.19615" lon="3.49833"></trkpt><trkpt lat="44.19629" lon="3.49845"></trkpt><trkpt lat="44.19665" lon="3.49866"></trkpt><trkpt lat="44.1971" lon="3.49899"></trkpt><trkpt lat="44.19794" lon="3.49965"></trkpt><trkpt lat="44.1982" lon="3.49982"></trkpt><trkpt lat="44.19823" lon="3.4999"></trkpt><trkpt lat="44.19819" lon="3.49996"></trkpt><trkpt lat="44.19811" lon="3.49996"></trkpt><trkpt lat="44.19783" lon="3.49971"></trkpt><trkpt lat="44.19726" lon="3.49934"></trkpt><trkpt lat="44.1967" lon="3.49903"></trkpt><trkpt lat="44.19649" lon="3.49895"></trkpt><trkpt lat="44.19637" lon="3.49895"></trkpt><trkpt lat="44.19584" lon="3.49905"></trkpt><trkpt lat="44.19571" lon="3.49912"></trkpt><trkpt lat="44.19564" lon="3.4992"></trkpt><trkpt lat="44.19562" lon="3.4993"></trkpt><trkpt lat="44.19563" lon="3.49942"></trkpt><trkpt lat="44.19569" lon="3.49956"></trkpt><trkpt lat="44.19582" lon="3.49975"></trkpt><trkpt lat="44.19622" lon="3.50043"></trkpt><trkpt lat="44.19655" lon="3.50093"></trkpt><trkpt lat="44.19669" lon="3.50118"></trkpt><trkpt lat="44.19721" lon="3.50221"></trkpt><trkpt lat="44.19731" lon="3.50237"></trkpt><trkpt lat="44.19755" lon="3.50264"></trkpt><trkpt lat="44.198" lon="3.50336"></trkpt><trkpt lat="44.19809" lon="3.50345"></trkpt><trkpt lat="44.19839" lon="3.50359"></trkpt><trkpt lat="44.19849" lon="3.50366"></trkpt><trkpt lat="44.19859" lon="3.50376"></trkpt><trkpt lat="44.19867" lon="3.50389"></trkpt><trkpt lat="44.19871" lon="3.504"></trkpt><trkpt lat="44.19883" lon="3.50464"></trkpt><trkpt lat="44.19889" lon="3.50478"></trkpt><trkpt lat="44.19895" lon="3.50489"></trkpt><trkpt lat="44.19901" lon="3.50496"></trkpt><trkpt lat="44.19907" lon="3.50499"></trkpt><trkpt lat="44.19928" lon="3.50499"></trkpt><trkpt lat="44.19967" lon="3.50486"></trkpt><trkpt lat="44.19992" lon="3.50474"></trkpt><trkpt lat="44.19999" lon="3.50473"></trkpt><trkpt lat="44.20005" lon="3.50477"></trkpt><trkpt lat="44.20007" lon="3.50485"></trkpt><trkpt lat="44.20009" lon="3.50503"></trkpt><trkpt lat="44.20011" lon="3.50587"></trkpt><trkpt lat="44.20013" lon="3.50617"></trkpt><trkpt lat="44.20015" lon="3.50631"></trkpt><trkpt lat="44.2002" lon="3.5064"></trkpt><trkpt lat="44.20027" lon="3.50651"></trkpt><trkpt lat="44.20049" lon="3.50673"></trkpt><trkpt lat="44.20087" lon="3.50723"></trkpt><trkpt lat="44.20119" lon="3.50749"></trkpt><trkpt lat="44.20141" lon="3.50772"></trkpt><trkpt lat="44.2015" lon="3.50776"></trkpt><trkpt lat="44.2016" lon="3.50775"></trkpt><trkpt lat="44.2017" lon="3.50772"></trkpt><trkpt lat="44.20181" lon="3.50764"></trkpt><trkpt lat="44.20197" lon="3.50746"></trkpt><trkpt lat="44.20209" lon="3.50722"></trkpt><trkpt lat="44.20228" lon="3.50698"></trkpt><trkpt lat="44.20243" lon="3.50692"></trkpt><trkpt lat="44.20277" lon="3.50689"></trkpt><trkpt lat="44.20311" lon="3.5068"></trkpt><trkpt lat="44.20342" lon="3.50684"></trkpt><trkpt lat="44.20351" lon="3.50689"></trkpt><trkpt lat="44.20363" lon="3.50698"></trkpt><trkpt lat="44.20369" lon="3.5071"></trkpt><trkpt lat="44.20372" lon="3.50725"></trkpt><trkpt lat="44.20373" lon="3.50737"></trkpt><trkpt lat="44.20371" lon="3.50754"></trkpt><trkpt lat="44.20361" lon="3.50797"></trkpt><trkpt lat="44.20353" lon="3.50814"></trkpt><trkpt lat="44.20345" lon="3.50827"></trkpt><trkpt lat="44.20342" lon="3.50842"></trkpt><trkpt lat="44.20346" lon="3.50859"></trkpt><trkpt lat="44.20352" lon="3.50866"></trkpt><trkpt lat="44.20401" lon="3.50889"></trkpt><trkpt lat="44.20455" lon="3.5091"></trkpt><trkpt lat="44.20478" lon="3.5091"></trkpt><trkpt lat="44.20539" lon="3.50897"></trkpt><trkpt lat="44.2055" lon="3.50897"></trkpt><trkpt lat="44.20563" lon="3.509"></trkpt><trkpt lat="44.20585" lon="3.50913"></trkpt><trkpt lat="44.20591" lon="3.50931"></trkpt><trkpt lat="44.20591" lon="3.50947"></trkpt><trkpt lat="44.20579" lon="3.50992"></trkpt><trkpt lat="44.20543" lon="3.51057"></trkpt><trkpt lat="44.20534" lon="3.51078"></trkpt><trkpt lat="44.20512" lon="3.51137"></trkpt><trkpt lat="44.2049" lon="3.51185"></trkpt><trkpt lat="44.20485" lon="3.51208"></trkpt><trkpt lat="44.20482" lon="3.5126"></trkpt><trkpt lat="44.20475" lon="3.51306"></trkpt><trkpt lat="44.20449" lon="3.51391"></trkpt><trkpt lat="44.20445" lon="3.51417"></trkpt><trkpt lat="44.20441" lon="3.51458"></trkpt><trkpt lat="44.20489" lon="3.51406"></trkpt><trkpt lat="44.20498" lon="3.51391"></trkpt><trkpt lat="44.20518" lon="3.51341"></trkpt><trkpt lat="44.20526" lon="3.51314"></trkpt><trkpt lat="44.20534" lon="3.5127"></trkpt><trkpt lat="44.20569" lon="3.51156"></trkpt><trkpt lat="44.20583" lon="3.51122"></trkpt><trkpt lat="44.20608" lon="3.51078"></trkpt><trkpt lat="44.2063" lon="3.51052"></trkpt><trkpt lat="44.2064" lon="3.51047"></trkpt><trkpt lat="44.20658" lon="3.5104"></trkpt><trkpt lat="44.20693" lon="3.51036"></trkpt><trkpt lat="44.20745" lon="3.51022"></trkpt><trkpt lat="44.20761" lon="3.5101"></trkpt><trkpt lat="44.20815" lon="3.50962"></trkpt><trkpt lat="44.2083" lon="3.50925"></trkpt><trkpt lat="44.20844" lon="3.50866"></trkpt><trkpt lat="44.20852" lon="3.50773"></trkpt><trkpt lat="44.20857" lon="3.5069"></trkpt><trkpt lat="44.20857" lon="3.5069"></trkpt><trkpt lat="44.20859" lon="3.50658"></trkpt><trkpt lat="44.20851" lon="3.50475"></trkpt><trkpt lat="44.20795" lon="3.50179"></trkpt><trkpt lat="44.20792" lon="3.50129"></trkpt><trkpt lat="44.20788" lon="3.4998"></trkpt><trkpt lat="44.20772" lon="3.49878"></trkpt><trkpt lat="44.20765" lon="3.49767"></trkpt><trkpt lat="44.20766" lon="3.4973"></trkpt><trkpt lat="44.20774" lon="3.49656"></trkpt><trkpt lat="44.20772" lon="3.49553"></trkpt><trkpt lat="44.2076" lon="3.49459"></trkpt><trkpt lat="44.20758" lon="3.49355"></trkpt><trkpt lat="44.20753" lon="3.49312"></trkpt><trkpt lat="44.20734" lon="3.49247"></trkpt><trkpt lat="44.20726" lon="3.49194"></trkpt><trkpt lat="44.20723" lon="3.49138"></trkpt><trkpt lat="44.20727" lon="3.49079"></trkpt><trkpt lat="44.20734" lon="3.49022"></trkpt><trkpt lat="44.20746" lon="3.48966"></trkpt><trkpt lat="44.20767" lon="3.48878"></trkpt><trkpt lat="44.2082" lon="3.48688"></trkpt><trkpt lat="44.20825" lon="3.48662"></trkpt><trkpt lat="44.20824" lon="3.48619"></trkpt><trkpt lat="44.20826" lon="3.48605"></trkpt><trkpt lat="44.2083" lon="3.48592"></trkpt><trkpt lat="44.20835" lon="3.48579"></trkpt><trkpt lat="44.20852" lon="3.48551"></trkpt><trkpt lat="44.20855" lon="3.4854"></trkpt><trkpt lat="44.20857" lon="3.48524"></trkpt><trkpt lat="44.20858" lon="3.48499"></trkpt><trkpt lat="44.20857" lon="3.4847"></trkpt><trkpt lat="44.20853" lon="3.48418"></trkpt><trkpt lat="44.20854" lon="3.48321"></trkpt><trkpt lat="44.20846" lon="3.48283"></trkpt><trkpt lat="44.20846" lon="3.48271"></trkpt><trkpt lat="44.20848" lon="3.48261"></trkpt><trkpt lat="44.20855" lon="3.48251"></trkpt><trkpt lat="44.20881" lon="3.48235"></trkpt><trkpt lat="44.20928" lon="3.48178"></trkpt><trkpt lat="44.20939" lon="3.48158"></trkpt><trkpt lat="44.20945" lon="3.48143"></trkpt><trkpt lat="44.20948" lon="3.48118"></trkpt><trkpt lat="44.20945" lon="3.48084"></trkpt><trkpt lat="44.20945" lon="3.48063"></trkpt><trkpt lat="44.20948" lon="3.48034"></trkpt><trkpt lat="44.20948" lon="3.48013"></trkpt><trkpt lat="44.20943" lon="3.47975"></trkpt><trkpt lat="44.2093" lon="3.47933"></trkpt><trkpt lat="44.2092" lon="3.47907"></trkpt><trkpt lat="44.2091" lon="3.47867"></trkpt><trkpt lat="44.20908" lon="3.47852"></trkpt><trkpt lat="44.20907" lon="3.4784"></trkpt><trkpt lat="44.20915" lon="3.47811"></trkpt><trkpt lat="44.2096" lon="3.47699"></trkpt><trkpt lat="44.20978" lon="3.47656"></trkpt><trkpt lat="44.21004" lon="3.47603"></trkpt><trkpt lat="44.21018" lon="3.47582"></trkpt><trkpt lat="44.21057" lon="3.47546"></trkpt><trkpt lat="44.21081" lon="3.47527"></trkpt><trkpt lat="44.21147" lon="3.47465"></trkpt><trkpt lat="44.21163" lon="3.47444"></trkpt><trkpt lat="44.2117" lon="3.47431"></trkpt><trkpt lat="44.21175" lon="3.47417"></trkpt><trkpt lat="44.21177" lon="3.47404"></trkpt><trkpt lat="44.21177" lon="3.47268"></trkpt><trkpt lat="44.2117" lon="3.47192"></trkpt><trkpt lat="44.21168" lon="3.47133"></trkpt><trkpt lat="44.21167" lon="3.47115"></trkpt><trkpt lat="44.2116" lon="3.47097"></trkpt><trkpt lat="44.21141" lon="3.47058"></trkpt><trkpt lat="44.21108" lon="3.46982"></trkpt><trkpt lat="44.21097" lon="3.46962"></trkpt><trkpt lat="44.21036" lon="3.46866"></trkpt><trkpt lat="44.20985" lon="3.46788"></trkpt><trkpt lat="44.20971" lon="3.46771"></trkpt><trkpt lat="44.20949" lon="3.46754"></trkpt><trkpt lat="44.20937" lon="3.46752"></trkpt><trkpt lat="44.20917" lon="3.46759"></trkpt><trkpt lat="44.20908" lon="3.46759"></trkpt><trkpt lat="44.20882" lon="3.46753"></trkpt><trkpt lat="44.20862" lon="3.46743"></trkpt><trkpt lat="44.20839" lon="3.46727"></trkpt><trkpt lat="44.20801" lon="3.46708"></trkpt><trkpt lat="44.20789" lon="3.46699"></trkpt><trkpt lat="44.20778" lon="3.46686"></trkpt><trkpt lat="44.20765" lon="3.46665"></trkpt><trkpt lat="44.20729" lon="3.46593"></trkpt><trkpt lat="44.20715" lon="3.46572"></trkpt><trkpt lat="44.20686" lon="3.46536"></trkpt><trkpt lat="44.20677" lon="3.46519"></trkpt><trkpt lat="44.20662" lon="3.46479"></trkpt><trkpt lat="44.20632" lon="3.46416"></trkpt><trkpt lat="44.20598" lon="3.46361"></trkpt><trkpt lat="44.20543" lon="3.46277"></trkpt><trkpt lat="44.20531" lon="3.46253"></trkpt><trkpt lat="44.20503" lon="3.46172"></trkpt><trkpt lat="44.20495" lon="3.46144"></trkpt><trkpt lat="44.20482" lon="3.46075"></trkpt><trkpt lat="44.20472" lon="3.46033"></trkpt><trkpt lat="44.20452" lon="3.45974"></trkpt><trkpt lat="44.20412" lon="3.45866"></trkpt><trkpt lat="44.20385" lon="3.45783"></trkpt><trkpt lat="44.20373" lon="3.4573"></trkpt><trkpt lat="44.20348" lon="3.45593"></trkpt><trkpt lat="44.20344" lon="3.45559"></trkpt><trkpt lat="44.20344" lon="3.45539"></trkpt><trkpt lat="44.20346" lon="3.4552"></trkpt><trkpt lat="44.20363" lon="3.45466"></trkpt><trkpt lat="44.20413" lon="3.45355"></trkpt><trkpt lat="44.20434" lon="3.45315"></trkpt><trkpt lat="44.20445" lon="3.453"></trkpt><trkpt lat="44.20466" lon="3.4527"></trkpt><trkpt lat="44.20473" lon="3.45255"></trkpt><trkpt lat="44.20485" lon="3.45197"></trkpt><trkpt lat="44.20487" lon="3.45178"></trkpt><trkpt lat="44.20485" lon="3.45162"></trkpt><trkpt lat="44.20453" lon="3.45058"></trkpt><trkpt lat="44.20432" lon="3.44998"></trkpt><trkpt lat="44.20431" lon="3.44998"></trkpt><trkpt lat="44.20413" lon="3.44946"></trkpt><trkpt lat="44.20409" lon="3.44921"></trkpt><trkpt lat="44.20405" lon="3.44886"></trkpt><trkpt lat="44.20399" lon="3.44724"></trkpt><trkpt lat="44.20396" lon="3.44697"></trkpt><trkpt lat="44.20386" lon="3.44645"></trkpt><trkpt lat="44.20386" lon="3.44623"></trkpt><trkpt lat="44.20387" lon="3.44598"></trkpt><trkpt lat="44.20391" lon="3.44576"></trkpt><trkpt lat="44.20397" lon="3.44553"></trkpt><trkpt lat="44.20404" lon="3.44536"></trkpt><trkpt lat="44.20414" lon="3.44517"></trkpt><trkpt lat="44.20437" lon="3.4449"></trkpt><trkpt lat="44.20451" lon="3.44472"></trkpt><trkpt lat="44.20458" lon="3.44457"></trkpt><trkpt lat="44.20461" lon="3.44439"></trkpt><trkpt lat="44.20465" lon="3.44396"></trkpt><trkpt lat="44.20473" lon="3.44341"></trkpt><trkpt lat="44.20475" lon="3.44296"></trkpt><trkpt lat="44.2047" lon="3.44241"></trkpt><trkpt lat="44.20452" lon="3.44128"></trkpt><trkpt lat="44.20446" lon="3.44101"></trkpt><trkpt lat="44.2044" lon="3.44089"></trkpt><trkpt lat="44.20402" lon="3.44035"></trkpt><trkpt lat="44.20379" lon="3.44008"></trkpt><trkpt lat="44.20311" lon="3.43934"></trkpt><trkpt lat="44.20277" lon="3.43905"></trkpt><trkpt lat="44.20186" lon="3.43836"></trkpt><trkpt lat="44.20176" lon="3.43833"></trkpt><trkpt lat="44.20166" lon="3.43832"></trkpt><trkpt lat="44.20156" lon="3.43835"></trkpt><trkpt lat="44.20148" lon="3.4384"></trkpt><trkpt lat="44.20132" lon="3.43857"></trkpt><trkpt lat="44.20115" lon="3.43868"></trkpt><trkpt lat="44.20101" lon="3.43872"></trkpt><trkpt lat="44.20089" lon="3.43874"></trkpt><trkpt lat="44.20081" lon="3.43872"></trkpt><trkpt lat="44.20073" lon="3.43866"></trkpt><trkpt lat="44.20069" lon="3.43857"></trkpt><trkpt lat="44.20066" lon="3.43845"></trkpt><trkpt lat="44.20065" lon="3.43776"></trkpt><trkpt lat="44.20067" lon="3.43739"></trkpt><trkpt lat="44.20071" lon="3.43703"></trkpt><trkpt lat="44.20087" lon="3.43618"></trkpt><trkpt lat="44.20095" lon="3.43548"></trkpt><trkpt lat="44.20101" lon="3.43534"></trkpt><trkpt lat="44.20108" lon="3.43526"></trkpt><trkpt lat="44.2012" lon="3.43524"></trkpt><trkpt lat="44.20145" lon="3.43533"></trkpt><trkpt lat="44.20173" lon="3.43552"></trkpt><trkpt lat="44.20187" lon="3.43557"></trkpt><trkpt lat="44.20216" lon="3.43563"></trkpt><trkpt lat="44.2024" lon="3.43561"></trkpt><trkpt lat="44.20253" lon="3.43552"></trkpt><trkpt lat="44.20275" lon="3.4352"></trkpt><trkpt lat="44.20351" lon="3.43421"></trkpt><trkpt lat="44.20382" lon="3.43386"></trkpt><trkpt lat="44.20435" lon="3.43339"></trkpt><trkpt lat="44.20442" lon="3.4333"></trkpt><trkpt lat="44.20447" lon="3.43318"></trkpt><trkpt lat="44.20449" lon="3.433"></trkpt><trkpt lat="44.20446" lon="3.43282"></trkpt><trkpt lat="44.20402" lon="3.43144"></trkpt><trkpt lat="44.20389" lon="3.43094"></trkpt><trkpt lat="44.20374" lon="3.43049"></trkpt><trkpt lat="44.20367" lon="3.43018"></trkpt><trkpt lat="44.20368" lon="3.43008"></trkpt><trkpt lat="44.2037" lon="3.42997"></trkpt><trkpt lat="44.2038" lon="3.42977"></trkpt><trkpt lat="44.20389" lon="3.42966"></trkpt><trkpt lat="44.20405" lon="3.42949"></trkpt><trkpt lat="44.20424" lon="3.42935"></trkpt><trkpt lat="44.20452" lon="3.42924"></trkpt><trkpt lat="44.2049" lon="3.4292"></trkpt><trkpt lat="44.20536" lon="3.42923"></trkpt><trkpt lat="44.20552" lon="3.42922"></trkpt><trkpt lat="44.20571" lon="3.42918"></trkpt><trkpt lat="44.20632" lon="3.42901"></trkpt><trkpt lat="44.20649" lon="3.42893"></trkpt><trkpt lat="44.20666" lon="3.42876"></trkpt><trkpt lat="44.20689" lon="3.4284"></trkpt><trkpt lat="44.20718" lon="3.42778"></trkpt><trkpt lat="44.20724" lon="3.42754"></trkpt><trkpt lat="44.20743" lon="3.42674"></trkpt><trkpt lat="44.20758" lon="3.42598"></trkpt><trkpt lat="44.20759" lon="3.42579"></trkpt><trkpt lat="44.20758" lon="3.42561"></trkpt><trkpt lat="44.20743" lon="3.42491"></trkpt><trkpt lat="44.20736" lon="3.42463"></trkpt><trkpt lat="44.20729" lon="3.4243"></trkpt><trkpt lat="44.20729" lon="3.42414"></trkpt><trkpt lat="44.20729" lon="3.42389"></trkpt><trkpt lat="44.20732" lon="3.42352"></trkpt><trkpt lat="44.20736" lon="3.42328"></trkpt><trkpt lat="44.20744" lon="3.42305"></trkpt><trkpt lat="44.20757" lon="3.42279"></trkpt><trkpt lat="44.208" lon="3.42165"></trkpt><trkpt lat="44.20815" lon="3.4211"></trkpt><trkpt lat="44.20848" lon="3.41907"></trkpt><trkpt lat="44.20857" lon="3.41828"></trkpt><trkpt lat="44.20862" lon="3.41797"></trkpt><trkpt lat="44.2087" lon="3.4177"></trkpt><trkpt lat="44.20924" lon="3.4167"></trkpt><trkpt lat="44.20938" lon="3.41629"></trkpt><trkpt lat="44.20956" lon="3.41554"></trkpt><trkpt lat="44.20956" lon="3.41554"></trkpt><trkpt lat="44.20969" lon="3.41497"></trkpt><trkpt lat="44.20975" lon="3.41459"></trkpt><trkpt lat="44.20978" lon="3.41434"></trkpt><trkpt lat="44.20977" lon="3.41412"></trkpt><trkpt lat="44.20974" lon="3.41394"></trkpt><trkpt lat="44.20937" lon="3.41252"></trkpt><trkpt lat="44.20921" lon="3.41178"></trkpt><trkpt lat="44.20913" lon="3.41115"></trkpt><trkpt lat="44.20913" lon="3.41097"></trkpt><trkpt lat="44.20919" lon="3.41046"></trkpt><trkpt lat="44.2092" lon="3.41016"></trkpt><trkpt lat="44.20919" lon="3.4099"></trkpt><trkpt lat="44.20917" lon="3.40975"></trkpt><trkpt lat="44.20906" lon="3.40945"></trkpt><trkpt lat="44.20896" lon="3.40923"></trkpt><trkpt lat="44.20891" lon="3.40909"></trkpt><trkpt lat="44.20876" lon="3.40842"></trkpt><trkpt lat="44.20874" lon="3.40823"></trkpt><trkpt lat="44.20872" lon="3.40748"></trkpt><trkpt lat="44.2087" lon="3.40728"></trkpt><trkpt lat="44.20867" lon="3.40711"></trkpt><trkpt lat="44.20849" lon="3.4067"></trkpt><trkpt lat="44.20834" lon="3.40618"></trkpt><trkpt lat="44.20826" lon="3.40576"></trkpt><trkpt lat="44.20816" lon="3.40487"></trkpt><trkpt lat="44.20809" lon="3.40465"></trkpt><trkpt lat="44.20801" lon="3.40446"></trkpt><trkpt lat="44.20778" lon="3.40409"></trkpt><trkpt lat="44.20766" lon="3.40384"></trkpt><trkpt lat="44.20766" lon="3.40384"></trkpt><trkpt lat="44.20756" lon="3.40346"></trkpt><trkpt lat="44.20756" lon="3.40324"></trkpt><trkpt lat="44.20757" lon="3.40302"></trkpt><trkpt lat="44.20779" lon="3.40206"></trkpt><trkpt lat="44.20806" lon="3.4017"></trkpt><trkpt lat="44.20857" lon="3.40079"></trkpt><trkpt lat="44.20867" lon="3.40068"></trkpt><trkpt lat="44.20891" lon="3.4006"></trkpt><trkpt lat="44.20926" lon="3.40028"></trkpt><trkpt lat="44.20934" lon="3.40007"></trkpt><trkpt lat="44.20942" lon="3.39997"></trkpt><trkpt lat="44.21021" lon="3.39876"></trkpt><trkpt lat="44.21135" lon="3.39769"></trkpt><trkpt lat="44.21241" lon="3.39665"></trkpt><trkpt lat="44.21287" lon="3.39636"></trkpt><trkpt lat="44.21324" lon="3.39594"></trkpt><trkpt lat="44.21374" lon="3.39504"></trkpt><trkpt lat="44.21407" lon="3.39424"></trkpt><trkpt lat="44.21448" lon="3.39259"></trkpt><trkpt lat="44.21464" lon="3.39139"></trkpt><trkpt lat="44.21466" lon="3.39092"></trkpt><trkpt lat="44.21464" lon="3.39037"></trkpt><trkpt lat="44.2147" lon="3.3897"></trkpt><trkpt lat="44.21485" lon="3.3888"></trkpt><trkpt lat="44.21493" lon="3.3886"></trkpt><trkpt lat="44.21514" lon="3.3882"></trkpt><trkpt lat="44.21567" lon="3.38751"></trkpt><trkpt lat="44.21627" lon="3.38661"></trkpt><trkpt lat="44.2164" lon="3.38632"></trkpt><trkpt lat="44.21654" lon="3.38599"></trkpt><trkpt lat="44.21696" lon="3.38477"></trkpt><trkpt lat="44.21722" lon="3.38374"></trkpt><trkpt lat="44.21739" lon="3.38326"></trkpt><trkpt lat="44.21754" lon="3.38266"></trkpt><trkpt lat="44.2177" lon="3.3819"></trkpt><trkpt lat="44.21784" lon="3.38093"></trkpt><trkpt lat="44.22135" lon="3.37665"></trkpt><trkpt lat="44.22186" lon="3.37616"></trkpt><trkpt lat="44.22738" lon="3.3711"></trkpt><trkpt lat="44.22609" lon="3.36807"></trkpt><trkpt lat="44.22551" lon="3.36674"></trkpt><trkpt lat="44.22538" lon="3.36652"></trkpt><trkpt lat="44.22522" lon="3.36633"></trkpt><trkpt lat="44.22429" lon="3.3654"></trkpt><trkpt lat="44.22389" lon="3.36493"></trkpt><trkpt lat="44.2236" lon="3.36446"></trkpt><trkpt lat="44.22313" lon="3.36348"></trkpt><trkpt lat="44.22282" lon="3.36268"></trkpt><trkpt lat="44.22273" lon="3.3624"></trkpt><trkpt lat="44.22266" lon="3.36211"></trkpt><trkpt lat="44.22263" lon="3.36192"></trkpt><trkpt lat="44.22262" lon="3.36161"></trkpt><trkpt lat="44.22273" lon="3.36084"></trkpt><trkpt lat="44.22274" lon="3.36069"></trkpt><trkpt lat="44.22271" lon="3.36045"></trkpt><trkpt lat="44.22269" lon="3.36014"></trkpt><trkpt lat="44.2227" lon="3.35984"></trkpt><trkpt lat="44.22275" lon="3.35958"></trkpt><trkpt lat="44.22284" lon="3.35931"></trkpt><trkpt lat="44.22297" lon="3.35905"></trkpt><trkpt lat="44.22316" lon="3.35879"></trkpt><trkpt lat="44.22337" lon="3.35857"></trkpt><trkpt lat="44.22363" lon="3.35837"></trkpt><trkpt lat="44.22366" lon="3.3583"></trkpt><trkpt lat="44.22366" lon="3.35824"></trkpt><trkpt lat="44.22373" lon="3.35815"></trkpt><trkpt lat="44.22386" lon="3.35777"></trkpt><trkpt lat="44.22403" lon="3.35707"></trkpt><trkpt lat="44.22407" lon="3.35675"></trkpt><trkpt lat="44.22407" lon="3.3565"></trkpt><trkpt lat="44.22405" lon="3.35624"></trkpt><trkpt lat="44.22397" lon="3.35596"></trkpt><trkpt lat="44.22385" lon="3.35567"></trkpt><trkpt lat="44.22363" lon="3.3553"></trkpt><trkpt lat="44.22347" lon="3.35513"></trkpt><trkpt lat="44.22328" lon="3.35499"></trkpt><trkpt lat="44.22278" lon="3.35471"></trkpt><trkpt lat="44.22258" lon="3.35457"></trkpt><trkpt lat="44.22242" lon="3.35441"></trkpt><trkpt lat="44.22193" lon="3.35389"></trkpt><trkpt lat="44.22157" lon="3.35356"></trkpt><trkpt lat="44.22142" lon="3.35348"></trkpt><trkpt lat="44.22076" lon="3.35328"></trkpt><trkpt lat="44.22061" lon="3.35322"></trkpt><trkpt lat="44.22049" lon="3.35312"></trkpt><trkpt lat="44.22037" lon="3.35297"></trkpt><trkpt lat="44.2202" lon="3.35253"></trkpt><trkpt lat="44.22012" lon="3.35226"></trkpt><trkpt lat="44.22007" lon="3.35196"></trkpt><trkpt lat="44.21999" lon="3.35125"></trkpt><trkpt lat="44.2196" lon="3.34981"></trkpt><trkpt lat="44.21931" lon="3.34835"></trkpt><trkpt lat="44.21917" lon="3.34782"></trkpt><trkpt lat="44.21911" lon="3.34767"></trkpt><trkpt lat="44.21903" lon="3.34756"></trkpt><trkpt lat="44.21851" lon="3.34725"></trkpt><trkpt lat="44.21831" lon="3.34718"></trkpt><trkpt lat="44.21764" lon="3.34719"></trkpt><trkpt lat="44.21732" lon="3.34716"></trkpt><trkpt lat="44.21705" lon="3.34711"></trkpt><trkpt lat="44.2169" lon="3.34704"></trkpt><trkpt lat="44.21686" lon="3.34688"></trkpt><trkpt lat="44.21688" lon="3.34679"></trkpt><trkpt lat="44.21728" lon="3.34639"></trkpt><trkpt lat="44.21741" lon="3.3463"></trkpt><trkpt lat="44.21782" lon="3.34615"></trkpt><trkpt lat="44.21825" lon="3.34605"></trkpt><trkpt lat="44.21841" lon="3.346"></trkpt><trkpt lat="44.21847" lon="3.34594"></trkpt><trkpt lat="44.2185" lon="3.34587"></trkpt><trkpt lat="44.21859" lon="3.34555"></trkpt><trkpt lat="44.21869" lon="3.34528"></trkpt><trkpt lat="44.21886" lon="3.34491"></trkpt><trkpt lat="44.21902" lon="3.34459"></trkpt><trkpt lat="44.21924" lon="3.34382"></trkpt><trkpt lat="44.21942" lon="3.34337"></trkpt><trkpt lat="44.21951" lon="3.34322"></trkpt><trkpt lat="44.21988" lon="3.34281"></trkpt><trkpt lat="44.22" lon="3.34264"></trkpt><trkpt lat="44.22021" lon="3.3423"></trkpt><trkpt lat="44.2204" lon="3.34212"></trkpt><trkpt lat="44.22073" lon="3.3417"></trkpt><trkpt lat="44.22093" lon="3.34141"></trkpt><trkpt lat="44.22156" lon="3.34015"></trkpt><trkpt lat="44.22172" lon="3.33978"></trkpt><trkpt lat="44.22185" lon="3.33941"></trkpt><trkpt lat="44.22198" lon="3.33913"></trkpt><trkpt lat="44.22204" lon="3.33892"></trkpt><trkpt lat="44.22188" lon="3.33842"></trkpt><trkpt lat="44.22164" lon="3.33798"></trkpt><trkpt lat="44.22146" lon="3.33777"></trkpt><trkpt lat="44.22118" lon="3.33753"></trkpt><trkpt lat="44.22083" lon="3.33712"></trkpt><trkpt lat="44.22038" lon="3.33668"></trkpt><trkpt lat="44.22021" lon="3.33656"></trkpt><trkpt lat="44.21988" lon="3.33642"></trkpt><trkpt lat="44.2198" lon="3.33636"></trkpt><trkpt lat="44.21893" lon="3.33493"></trkpt><trkpt lat="44.21818" lon="3.33376"></trkpt><trkpt lat="44.21775" lon="3.33319"></trkpt><trkpt lat="44.21764" lon="3.33307"></trkpt><trkpt lat="44.21735" lon="3.33284"></trkpt><trkpt lat="44.21723" lon="3.33267"></trkpt><trkpt lat="44.21715" lon="3.33247"></trkpt><trkpt lat="44.21711" lon="3.33221"></trkpt><trkpt lat="44.21709" lon="3.33172"></trkpt><trkpt lat="44.21706" lon="3.33145"></trkpt><trkpt lat="44.21682" lon="3.32994"></trkpt><trkpt lat="44.21678" lon="3.3295"></trkpt><trkpt lat="44.21669" lon="3.32904"></trkpt><trkpt lat="44.21649" lon="3.32857"></trkpt><trkpt lat="44.21642" lon="3.32826"></trkpt><trkpt lat="44.21638" lon="3.32801"></trkpt><trkpt lat="44.2164" lon="3.32783"></trkpt><trkpt lat="44.2165" lon="3.32753"></trkpt><trkpt lat="44.21663" lon="3.32725"></trkpt><trkpt lat="44.21716" lon="3.32639"></trkpt><trkpt lat="44.21722" lon="3.32628"></trkpt><trkpt lat="44.21723" lon="3.32613"></trkpt><trkpt lat="44.2172" lon="3.32593"></trkpt><trkpt lat="44.21714" lon="3.32566"></trkpt><trkpt lat="44.21714" lon="3.32566"></trkpt><trkpt lat="44.2172" lon="3.32593"></trkpt><trkpt lat="44.21723" lon="3.32613"></trkpt><trkpt lat="44.21722" lon="3.32628"></trkpt><trkpt lat="44.21716" lon="3.32639"></trkpt><trkpt lat="44.21663" lon="3.32725"></trkpt><trkpt lat="44.2165" lon="3.32753"></trkpt><trkpt lat="44.2164" lon="3.32783"></trkpt><trkpt lat="44.21639" lon="3.32793"></trkpt><trkpt lat="44.21607" lon="3.32824"></trkpt><trkpt lat="44.21554" lon="3.32867"></trkpt><trkpt lat="44.21499" lon="3.32909"></trkpt><trkpt lat="44.21466" lon="3.32939"></trkpt><trkpt lat="44.2142" lon="3.32984"></trkpt><trkpt lat="44.214" lon="3.32996"></trkpt><trkpt lat="44.21365" lon="3.33005"></trkpt><trkpt lat="44.21351" lon="3.33002"></trkpt><trkpt lat="44.21326" lon="3.32986"></trkpt><trkpt lat="44.213" lon="3.32958"></trkpt><trkpt lat="44.21275" lon="3.32937"></trkpt><trkpt lat="44.21239" lon="3.32914"></trkpt><trkpt lat="44.21202" lon="3.3291"></trkpt><trkpt lat="44.21175" lon="3.32917"></trkpt><trkpt lat="44.21165" lon="3.3292"></trkpt><trkpt lat="44.21131" lon="3.32945"></trkpt><trkpt lat="44.2103" lon="3.33047"></trkpt><trkpt lat="44.20994" lon="3.33077"></trkpt><trkpt lat="44.20964" lon="3.33128"></trkpt><trkpt lat="44.20949" lon="3.33189"></trkpt><trkpt lat="44.20955" lon="3.33251"></trkpt><trkpt lat="44.20972" lon="3.33285"></trkpt><trkpt lat="44.21094" lon="3.33428"></trkpt><trkpt lat="44.2111" lon="3.33461"></trkpt><trkpt lat="44.2116" lon="3.33587"></trkpt><trkpt lat="44.21174" lon="3.33619"></trkpt><trkpt lat="44.21195" lon="3.33637"></trkpt><trkpt lat="44.21211" lon="3.33645"></trkpt><trkpt lat="44.21305" lon="3.3373"></trkpt><trkpt lat="44.21417" lon="3.33853"></trkpt><trkpt lat="44.21432" lon="3.33865"></trkpt><trkpt lat="44.21447" lon="3.33881"></trkpt><trkpt lat="44.21458" lon="3.33903"></trkpt><trkpt lat="44.21456" lon="3.33941"></trkpt><trkpt lat="44.21459" lon="3.34003"></trkpt><trkpt lat="44.21479" lon="3.34095"></trkpt><trkpt lat="44.21543" lon="3.34162"></trkpt><trkpt lat="44.21543" lon="3.34162"></trkpt><trkpt lat="44.21556" lon="3.34176"></trkpt><trkpt lat="44.2159" lon="3.34243"></trkpt><trkpt lat="44.21594" lon="3.34268"></trkpt><trkpt lat="44.21557" lon="3.34325"></trkpt><trkpt lat="44.21528" lon="3.34386"></trkpt><trkpt lat="44.21499" lon="3.34409"></trkpt><trkpt lat="44.21482" lon="3.34435"></trkpt><trkpt lat="44.21461" lon="3.34471"></trkpt><trkpt lat="44.21384" lon="3.34522"></trkpt><trkpt lat="44.2136" lon="3.34533"></trkpt><trkpt lat="44.21342" lon="3.34546"></trkpt><trkpt lat="44.21337" lon="3.34558"></trkpt><trkpt lat="44.21336" lon="3.34571"></trkpt><trkpt lat="44.21363" lon="3.346"></trkpt><trkpt lat="44.21369" lon="3.3461"></trkpt><trkpt lat="44.21374" lon="3.34628"></trkpt><trkpt lat="44.21379" lon="3.34641"></trkpt><trkpt lat="44.21387" lon="3.34648"></trkpt><trkpt lat="44.2141" lon="3.34654"></trkpt><trkpt lat="44.21424" lon="3.3466"></trkpt><trkpt lat="44.21448" lon="3.34675"></trkpt><trkpt lat="44.21457" lon="3.34677"></trkpt><trkpt lat="44.21513" lon="3.34671"></trkpt><trkpt lat="44.21538" lon="3.34663"></trkpt><trkpt lat="44.21558" lon="3.34661"></trkpt><trkpt lat="44.21574" lon="3.34663"></trkpt><trkpt lat="44.21626" lon="3.34677"></trkpt><trkpt lat="44.21651" lon="3.34687"></trkpt><trkpt lat="44.21705" lon="3.34711"></trkpt><trkpt lat="44.21732" lon="3.34716"></trkpt><trkpt lat="44.21764" lon="3.34719"></trkpt><trkpt lat="44.21831" lon="3.34718"></trkpt><trkpt lat="44.21851" lon="3.34725"></trkpt><trkpt lat="44.21903" lon="3.34756"></trkpt><trkpt lat="44.21911" lon="3.34767"></trkpt><trkpt lat="44.21917" lon="3.34782"></trkpt><trkpt lat="44.21931" lon="3.34835"></trkpt><trkpt lat="44.2196" lon="3.34981"></trkpt><trkpt lat="44.21999" lon="3.35125"></trkpt><trkpt lat="44.22007" lon="3.35196"></trkpt><trkpt lat="44.22012" lon="3.35226"></trkpt><trkpt lat="44.2202" lon="3.35253"></trkpt><trkpt lat="44.22037" lon="3.35297"></trkpt><trkpt lat="44.22049" lon="3.35312"></trkpt><trkpt lat="44.22061" lon="3.35322"></trkpt><trkpt lat="44.22076" lon="3.35328"></trkpt><trkpt lat="44.22142" lon="3.35348"></trkpt><trkpt lat="44.22157" lon="3.35356"></trkpt><trkpt lat="44.22193" lon="3.35389"></trkpt><trkpt lat="44.22242" lon="3.35441"></trkpt><trkpt lat="44.22258" lon="3.35457"></trkpt><trkpt lat="44.22278" lon="3.35471"></trkpt><trkpt lat="44.22328" lon="3.35499"></trkpt><trkpt lat="44.22347" lon="3.35513"></trkpt><trkpt lat="44.22363" lon="3.3553"></trkpt><trkpt lat="44.22385" lon="3.35567"></trkpt><trkpt lat="44.22397" lon="3.35596"></trkpt><trkpt lat="44.22405" lon="3.35624"></trkpt><trkpt lat="44.22407" lon="3.3565"></trkpt><trkpt lat="44.22407" lon="3.35675"></trkpt><trkpt lat="44.22403" lon="3.35707"></trkpt><trkpt lat="44.22386" lon="3.35777"></trkpt><trkpt lat="44.22373" lon="3.35815"></trkpt><trkpt lat="44.22366" lon="3.35824"></trkpt><trkpt lat="44.22366" lon="3.3583"></trkpt><trkpt lat="44.22363" lon="3.35837"></trkpt><trkpt lat="44.22337" lon="3.35857"></trkpt><trkpt lat="44.22316" lon="3.35879"></trkpt><trkpt lat="44.22297" lon="3.35905"></trkpt><trkpt lat="44.22284" lon="3.35931"></trkpt><trkpt lat="44.22275" lon="3.35958"></trkpt><trkpt lat="44.2227" lon="3.35984"></trkpt><trkpt lat="44.22269" lon="3.36014"></trkpt><trkpt lat="44.22271" lon="3.36045"></trkpt><trkpt lat="44.22274" lon="3.36069"></trkpt><trkpt lat="44.22273" lon="3.36084"></trkpt><trkpt lat="44.22262" lon="3.36161"></trkpt><trkpt lat="44.22263" lon="3.36192"></trkpt><trkpt lat="44.22266" lon="3.36211"></trkpt><trkpt lat="44.22273" lon="3.3624"></trkpt><trkpt lat="44.22282" lon="3.36268"></trkpt><trkpt lat="44.22313" lon="3.36348"></trkpt><trkpt lat="44.2236" lon="3.36446"></trkpt><trkpt lat="44.22372" lon="3.36467"></trkpt><trkpt lat="44.22389" lon="3.36493"></trkpt><trkpt lat="44.22429" lon="3.3654"></trkpt><trkpt lat="44.22522" lon="3.36633"></trkpt><trkpt lat="44.22538" lon="3.36652"></trkpt><trkpt lat="44.22551" lon="3.36674"></trkpt><trkpt lat="44.22738" lon="3.3711"></trkpt><trkpt lat="44.22186" lon="3.37616"></trkpt><trkpt lat="44.22135" lon="3.37665"></trkpt><trkpt lat="44.21784" lon="3.38093"></trkpt><trkpt lat="44.21769" lon="3.38113"></trkpt><trkpt lat="44.21745" lon="3.38151"></trkpt><trkpt lat="44.21733" lon="3.38174"></trkpt><trkpt lat="44.21706" lon="3.38226"></trkpt><trkpt lat="44.21635" lon="3.38374"></trkpt><trkpt lat="44.21617" lon="3.38406"></trkpt><trkpt lat="44.21593" lon="3.38439"></trkpt><trkpt lat="44.21576" lon="3.38457"></trkpt><trkpt lat="44.2155" lon="3.38479"></trkpt><trkpt lat="44.21493" lon="3.38515"></trkpt><trkpt lat="44.21477" lon="3.38521"></trkpt><trkpt lat="44.21449" lon="3.38525"></trkpt><trkpt lat="44.21435" lon="3.38523"></trkpt><trkpt lat="44.21066" lon="3.3841"></trkpt><trkpt lat="44.21054" lon="3.38407"></trkpt><trkpt lat="44.21033" lon="3.38407"></trkpt><trkpt lat="44.21012" lon="3.38414"></trkpt><trkpt lat="44.20985" lon="3.38433"></trkpt><trkpt lat="44.20933" lon="3.38475"></trkpt><trkpt lat="44.20848" lon="3.38534"></trkpt><trkpt lat="44.20821" lon="3.38548"></trkpt><trkpt lat="44.20804" lon="3.38554"></trkpt><trkpt lat="44.20709" lon="3.38565"></trkpt><trkpt lat="44.20676" lon="3.38571"></trkpt><trkpt lat="44.20622" lon="3.38589"></trkpt><trkpt lat="44.20593" lon="3.38603"></trkpt><trkpt lat="44.20559" lon="3.38626"></trkpt><trkpt lat="44.20548" lon="3.38638"></trkpt><trkpt lat="44.20523" lon="3.38672"></trkpt><trkpt lat="44.20511" lon="3.38702"></trkpt><trkpt lat="44.20502" lon="3.38734"></trkpt><trkpt lat="44.20498" lon="3.38764"></trkpt><trkpt lat="44.20499" lon="3.38797"></trkpt><trkpt lat="44.20505" lon="3.38841"></trkpt><trkpt lat="44.20524" lon="3.38935"></trkpt><trkpt lat="44.2053" lon="3.38981"></trkpt><trkpt lat="44.20532" lon="3.39015"></trkpt><trkpt lat="44.20531" lon="3.39027"></trkpt><trkpt lat="44.20527" lon="3.39048"></trkpt><trkpt lat="44.20517" lon="3.39068"></trkpt><trkpt lat="44.205" lon="3.39083"></trkpt><trkpt lat="44.20482" lon="3.3909"></trkpt><trkpt lat="44.20459" lon="3.39094"></trkpt><trkpt lat="44.20431" lon="3.39094"></trkpt><trkpt lat="44.20388" lon="3.39086"></trkpt><trkpt lat="44.20374" lon="3.39089"></trkpt><trkpt lat="44.20334" lon="3.39108"></trkpt><trkpt lat="44.2029" lon="3.39133"></trkpt><trkpt lat="44.20272" lon="3.39151"></trkpt><trkpt lat="44.20259" lon="3.39175"></trkpt><trkpt lat="44.20252" lon="3.39199"></trkpt><trkpt lat="44.2025" lon="3.39212"></trkpt><trkpt lat="44.20249" lon="3.39243"></trkpt><trkpt lat="44.20251" lon="3.39276"></trkpt><trkpt lat="44.20258" lon="3.39306"></trkpt><trkpt lat="44.20305" lon="3.39442"></trkpt><trkpt lat="44.20308" lon="3.39456"></trkpt><trkpt lat="44.20311" lon="3.39472"></trkpt><trkpt lat="44.20313" lon="3.39513"></trkpt><trkpt lat="44.20312" lon="3.39521"></trkpt><trkpt lat="44.20308" lon="3.39528"></trkpt><trkpt lat="44.20299" lon="3.39534"></trkpt><trkpt lat="44.20293" lon="3.39535"></trkpt><trkpt lat="44.2023" lon="3.39536"></trkpt><trkpt lat="44.20214" lon="3.39538"></trkpt><trkpt lat="44.20164" lon="3.39552"></trkpt><trkpt lat="44.201" lon="3.39558"></trkpt><trkpt lat="44.20076" lon="3.39563"></trkpt><trkpt lat="44.20076" lon="3.39563"></trkpt><trkpt lat="44.20052" lon="3.39576"></trkpt><trkpt lat="44.20037" lon="3.39593"></trkpt><trkpt lat="44.20031" lon="3.39604"></trkpt><trkpt lat="44.20018" lon="3.39633"></trkpt><trkpt lat="44.20011" lon="3.39653"></trkpt><trkpt lat="44.19982" lon="3.39752"></trkpt><trkpt lat="44.19966" lon="3.39814"></trkpt><trkpt lat="44.19932" lon="3.39998"></trkpt><trkpt lat="44.19926" lon="3.4006"></trkpt><trkpt lat="44.19924" lon="3.40071"></trkpt><trkpt lat="44.19912" lon="3.40088"></trkpt><trkpt lat="44.19904" lon="3.40094"></trkpt><trkpt lat="44.19856" lon="3.40121"></trkpt><trkpt lat="44.19849" lon="3.40127"></trkpt><trkpt lat="44.19845" lon="3.40134"></trkpt><trkpt lat="44.19842" lon="3.40142"></trkpt><trkpt lat="44.19841" lon="3.40159"></trkpt><trkpt lat="44.19854" lon="3.40231"></trkpt><trkpt lat="44.19856" lon="3.4025"></trkpt><trkpt lat="44.19855" lon="3.40309"></trkpt><trkpt lat="44.1985" lon="3.40327"></trkpt><trkpt lat="44.19845" lon="3.40334"></trkpt><trkpt lat="44.19834" lon="3.40343"></trkpt><trkpt lat="44.19738" lon="3.404"></trkpt><trkpt lat="44.197" lon="3.40429"></trkpt><trkpt lat="44.19678" lon="3.40455"></trkpt><trkpt lat="44.1967" lon="3.40468"></trkpt><trkpt lat="44.19659" lon="3.40496"></trkpt><trkpt lat="44.19655" lon="3.40511"></trkpt><trkpt lat="44.19653" lon="3.40525"></trkpt><trkpt lat="44.19652" lon="3.40555"></trkpt><trkpt lat="44.19655" lon="3.40593"></trkpt><trkpt lat="44.19669" lon="3.40685"></trkpt><trkpt lat="44.1967" lon="3.40714"></trkpt><trkpt lat="44.19669" lon="3.40728"></trkpt><trkpt lat="44.19659" lon="3.40779"></trkpt><trkpt lat="44.19639" lon="3.40863"></trkpt><trkpt lat="44.19633" lon="3.40881"></trkpt><trkpt lat="44.19604" lon="3.40955"></trkpt><trkpt lat="44.19578" lon="3.41015"></trkpt><trkpt lat="44.19569" lon="3.41031"></trkpt><trkpt lat="44.19552" lon="3.41054"></trkpt><trkpt lat="44.19523" lon="3.41087"></trkpt><trkpt lat="44.19501" lon="3.41105"></trkpt><trkpt lat="44.19492" lon="3.41109"></trkpt><trkpt lat="44.1945" lon="3.41117"></trkpt><trkpt lat="44.19428" lon="3.41127"></trkpt><trkpt lat="44.19409" lon="3.41143"></trkpt><trkpt lat="44.194" lon="3.41153"></trkpt><trkpt lat="44.19391" lon="3.41165"></trkpt><trkpt lat="44.19374" lon="3.41197"></trkpt><trkpt lat="44.19329" lon="3.41304"></trkpt><trkpt lat="44.19311" lon="3.41367"></trkpt><trkpt lat="44.19309" lon="3.41387"></trkpt><trkpt lat="44.19314" lon="3.41424"></trkpt><trkpt lat="44.19339" lon="3.41576"></trkpt><trkpt lat="44.19344" lon="3.41625"></trkpt><trkpt lat="44.19344" lon="3.4165"></trkpt><trkpt lat="44.19342" lon="3.41658"></trkpt><trkpt lat="44.19339" lon="3.41664"></trkpt><trkpt lat="44.19329" lon="3.41668"></trkpt><trkpt lat="44.19318" lon="3.41663"></trkpt><trkpt lat="44.1928" lon="3.41612"></trkpt><trkpt lat="44.19269" lon="3.416"></trkpt><trkpt lat="44.19246" lon="3.41581"></trkpt><trkpt lat="44.19225" lon="3.41568"></trkpt><trkpt lat="44.19202" lon="3.41559"></trkpt><trkpt lat="44.19196" lon="3.4156"></trkpt><trkpt lat="44.19186" lon="3.41567"></trkpt><trkpt lat="44.19179" lon="3.41583"></trkpt><trkpt lat="44.19177" lon="3.41591"></trkpt><trkpt lat="44.19177" lon="3.41591"></trkpt><trkpt lat="44.19164" lon="3.41666"></trkpt><trkpt lat="44.19165" lon="3.41674"></trkpt><trkpt lat="44.19177" lon="3.41712"></trkpt><trkpt lat="44.19178" lon="3.41722"></trkpt><trkpt lat="44.19176" lon="3.41742"></trkpt><trkpt lat="44.19168" lon="3.41764"></trkpt><trkpt lat="44.19141" lon="3.41803"></trkpt><trkpt lat="44.19137" lon="3.41812"></trkpt><trkpt lat="44.19126" lon="3.41876"></trkpt><trkpt lat="44.19121" lon="3.41888"></trkpt><trkpt lat="44.19115" lon="3.41895"></trkpt><trkpt lat="44.191" lon="3.41908"></trkpt><trkpt lat="44.19098" lon="3.41914"></trkpt><trkpt lat="44.19096" lon="3.4192"></trkpt><trkpt lat="44.19091" lon="3.41961"></trkpt><trkpt lat="44.19083" lon="3.41974"></trkpt><trkpt lat="44.19078" lon="3.41978"></trkpt><trkpt lat="44.19058" lon="3.41979"></trkpt><trkpt lat="44.19016" lon="3.41975"></trkpt><trkpt lat="44.18966" lon="3.41964"></trkpt><trkpt lat="44.18958" lon="3.41963"></trkpt><trkpt lat="44.18931" lon="3.41968"></trkpt><trkpt lat="44.18915" lon="3.41966"></trkpt><trkpt lat="44.18847" lon="3.41926"></trkpt><trkpt lat="44.18837" lon="3.41925"></trkpt><trkpt lat="44.18831" lon="3.41927"></trkpt><trkpt lat="44.18819" lon="3.41936"></trkpt><trkpt lat="44.18798" lon="3.4197"></trkpt><trkpt lat="44.18772" lon="3.4203"></trkpt><trkpt lat="44.18753" lon="3.42083"></trkpt><trkpt lat="44.1875" lon="3.42105"></trkpt><trkpt lat="44.18755" lon="3.42167"></trkpt><trkpt lat="44.1875" lon="3.42181"></trkpt><trkpt lat="44.18746" lon="3.42185"></trkpt><trkpt lat="44.18734" lon="3.42193"></trkpt><trkpt lat="44.18692" lon="3.42215"></trkpt><trkpt lat="44.18678" lon="3.42228"></trkpt><trkpt lat="44.1867" lon="3.42238"></trkpt><trkpt lat="44.18656" lon="3.42262"></trkpt><trkpt lat="44.18634" lon="3.4233"></trkpt><trkpt lat="44.18625" lon="3.4235"></trkpt><trkpt lat="44.18617" lon="3.42362"></trkpt><trkpt lat="44.18592" lon="3.4239"></trkpt><trkpt lat="44.18545" lon="3.42423"></trkpt><trkpt lat="44.18533" lon="3.42439"></trkpt><trkpt lat="44.18511" lon="3.42477"></trkpt><trkpt lat="44.18505" lon="3.42484"></trkpt><trkpt lat="44.185" lon="3.42489"></trkpt><trkpt lat="44.18466" lon="3.42503"></trkpt><trkpt lat="44.18416" lon="3.42562"></trkpt><trkpt lat="44.18359" lon="3.42612"></trkpt><trkpt lat="44.18345" lon="3.42628"></trkpt><trkpt lat="44.18338" lon="3.42644"></trkpt><trkpt lat="44.18338" lon="3.42644"></trkpt><trkpt lat="44.18332" lon="3.42658"></trkpt><trkpt lat="44.18325" lon="3.42669"></trkpt><trkpt lat="44.1828" lon="3.42695"></trkpt><trkpt lat="44.18266" lon="3.42708"></trkpt><trkpt lat="44.18238" lon="3.42754"></trkpt><trkpt lat="44.18226" lon="3.42779"></trkpt><trkpt lat="44.18208" lon="3.42839"></trkpt><trkpt lat="44.18201" lon="3.42876"></trkpt><trkpt lat="44.18204" lon="3.4289"></trkpt><trkpt lat="44.18231" lon="3.42923"></trkpt><trkpt lat="44.18235" lon="3.4293"></trkpt><trkpt lat="44.18237" lon="3.42937"></trkpt><trkpt lat="44.18235" lon="3.42952"></trkpt><trkpt lat="44.18231" lon="3.4296"></trkpt><trkpt lat="44.18213" lon="3.42985"></trkpt><trkpt lat="44.1821" lon="3.42993"></trkpt><trkpt lat="44.18205" lon="3.43015"></trkpt><trkpt lat="44.18205" lon="3.43052"></trkpt><trkpt lat="44.18209" lon="3.43094"></trkpt><trkpt lat="44.18215" lon="3.4312"></trkpt><trkpt lat="44.18254" lon="3.4319"></trkpt><trkpt lat="44.18322" lon="3.43343"></trkpt><trkpt lat="44.18322" lon="3.43342"></trkpt><trkpt lat="44.1836" lon="3.4343"></trkpt><trkpt lat="44.1837" lon="3.43448"></trkpt><trkpt lat="44.18382" lon="3.43477"></trkpt><trkpt lat="44.18382" lon="3.43487"></trkpt><trkpt lat="44.18379" lon="3.43495"></trkpt><trkpt lat="44.18374" lon="3.43504"></trkpt><trkpt lat="44.18371" lon="3.43506"></trkpt><trkpt lat="44.18361" lon="3.43504"></trkpt><trkpt lat="44.18334" lon="3.43485"></trkpt><trkpt lat="44.18231" lon="3.43409"></trkpt><trkpt lat="44.18213" lon="3.43392"></trkpt><trkpt lat="44.18142" lon="3.43291"></trkpt><trkpt lat="44.18137" lon="3.43282"></trkpt><trkpt lat="44.18132" lon="3.43268"></trkpt><trkpt lat="44.18116" lon="3.43176"></trkpt><trkpt lat="44.18109" lon="3.43146"></trkpt><trkpt lat="44.18101" lon="3.4313"></trkpt><trkpt lat="44.18073" lon="3.43111"></trkpt><trkpt lat="44.17937" lon="3.4303"></trkpt><trkpt lat="44.17934" lon="3.43025"></trkpt><trkpt lat="44.17933" lon="3.43018"></trkpt><trkpt lat="44.17944" lon="3.42965"></trkpt><trkpt lat="44.17942" lon="3.42964"></trkpt>
</trkseg>
</trk>

</gpx>