<?xml version="1.0" encoding="UTF-8" standalone="no" ?>
<gpx xmlns="http://www.topografix.com/GPX/1/1"
     creator="TourInSoft"
     version="1.1"
     xmlns:xsi="http://www.w3.org/2001/XMLSchema-instance"
     xsi:schemaLocation="http://www.topografix.com/GPX/1/1 http://www.topografix.com/GPX/1/1/gpx.xsd">
<trk>
<trkseg>
<trkpt lat="44.632022" lon="3.480681"></trkpt><trkpt lat="44.632022" lon="3.48052"></trkpt><trkpt lat="44.631915" lon="3.480563"></trkpt><trkpt lat="44.63155" lon="3.480863"></trkpt><trkpt lat="44.631379" lon="3.481121"></trkpt><trkpt lat="44.631271" lon="3.481228"></trkpt><trkpt lat="44.631314" lon="3.481099"></trkpt><trkpt lat="44.6314" lon="3.480606"></trkpt><trkpt lat="44.631657" lon="3.479984"></trkpt><trkpt lat="44.6317" lon="3.479447"></trkpt><trkpt lat="44.631786" lon="3.479211"></trkpt><trkpt lat="44.631865" lon="3.479113"></trkpt><trkpt lat="44.631958" lon="3.478997"></trkpt><trkpt lat="44.632344" lon="3.478696"></trkpt><trkpt lat="44.63258" lon="3.478374"></trkpt><trkpt lat="44.632709" lon="3.478224"></trkpt><trkpt lat="44.632816" lon="3.478074"></trkpt><trkpt lat="44.633276" lon="3.477645"></trkpt><trkpt lat="44.633374" lon="3.477524"></trkpt><trkpt lat="44.633123" lon="3.477356"></trkpt><trkpt lat="44.632756" lon="3.477213"></trkpt><trkpt lat="44.632427" lon="3.477127"></trkpt><trkpt lat="44.632183" lon="3.477005"></trkpt><trkpt lat="44.632125" lon="3.476903"></trkpt><trkpt lat="44.631931" lon="3.476851"></trkpt><trkpt lat="44.631685" lon="3.476742"></trkpt><trkpt lat="44.631491" lon="3.476596"></trkpt><trkpt lat="44.631345" lon="3.476453"></trkpt><trkpt lat="44.630789" lon="3.475881"></trkpt><trkpt lat="44.630886" lon="3.475102"></trkpt><trkpt lat="44.630917" lon="3.474426"></trkpt><trkpt lat="44.630993" lon="3.474319"></trkpt><trkpt lat="44.631105" lon="3.474341"></trkpt><trkpt lat="44.63121" lon="3.474492"></trkpt><trkpt lat="44.631425" lon="3.474619"></trkpt><trkpt lat="44.631478" lon="3.474485"></trkpt><trkpt lat="44.631474" lon="3.474399"></trkpt><trkpt lat="44.631461" lon="3.474301"></trkpt><trkpt lat="44.631459" lon="3.474158"></trkpt><trkpt lat="44.631473" lon="3.473973"></trkpt><trkpt lat="44.631819" lon="3.472851"></trkpt><trkpt lat="44.631621" lon="3.472225"></trkpt><trkpt lat="44.631419" lon="3.471786"></trkpt><trkpt lat="44.630716" lon="3.471074"></trkpt><trkpt lat="44.63035" lon="3.470786"></trkpt><trkpt lat="44.629691" lon="3.469972"></trkpt><trkpt lat="44.629072" lon="3.469059"></trkpt><trkpt lat="44.62874" lon="3.46833"></trkpt><trkpt lat="44.6277" lon="3.466658"></trkpt><trkpt lat="44.627112" lon="3.464891"></trkpt><trkpt lat="44.62713" lon="3.464697"></trkpt><trkpt lat="44.62714" lon="3.464586"></trkpt><trkpt lat="44.627052" lon="3.464106"></trkpt><trkpt lat="44.626825" lon="3.463509"></trkpt><trkpt lat="44.62652" lon="3.462911"></trkpt><trkpt lat="44.626248" lon="3.461923"></trkpt><trkpt lat="44.626057" lon="3.461143"></trkpt><trkpt lat="44.625969" lon="3.460364"></trkpt><trkpt lat="44.625954" lon="3.459714"></trkpt><trkpt lat="44.625826" lon="3.458993"></trkpt><trkpt lat="44.625796" lon="3.458341"></trkpt><trkpt lat="44.625437" lon="3.456441"></trkpt><trkpt lat="44.625525" lon="3.455963"></trkpt><trkpt lat="44.625554" lon="3.455503"></trkpt><trkpt lat="44.625492" lon="3.454378"></trkpt><trkpt lat="44.625508" lon="3.454032"></trkpt><trkpt lat="44.625603" lon="3.453144"></trkpt><trkpt lat="44.62573" lon="3.452929"></trkpt><trkpt lat="44.625849" lon="3.45192"></trkpt><trkpt lat="44.626281" lon="3.450276"></trkpt><trkpt lat="44.626301" lon="3.449492"></trkpt><trkpt lat="44.626473" lon="3.449077"></trkpt><trkpt lat="44.626862" lon="3.447626"></trkpt><trkpt lat="44.626899" lon="3.446647"></trkpt><trkpt lat="44.626873" lon="3.44641"></trkpt><trkpt lat="44.626703" lon="3.4461"></trkpt><trkpt lat="44.625916" lon="3.445037"></trkpt><trkpt lat="44.625225" lon="3.444654"></trkpt><trkpt lat="44.625068" lon="3.444536"></trkpt><trkpt lat="44.625015" lon="3.444429"></trkpt><trkpt lat="44.624996" lon="3.444075"></trkpt><trkpt lat="44.624908" lon="3.443651"></trkpt><trkpt lat="44.624733" lon="3.443289"></trkpt><trkpt lat="44.624606" lon="3.442707"></trkpt><trkpt lat="44.624553" lon="3.442565"></trkpt><trkpt lat="44.624492" lon="3.44254"></trkpt><trkpt lat="44.624243" lon="3.442149"></trkpt><trkpt lat="44.624185" lon="3.441804"></trkpt><trkpt lat="44.624137" lon="3.44146"></trkpt><trkpt lat="44.623916" lon="3.440747"></trkpt><trkpt lat="44.623846" lon="3.440405"></trkpt><trkpt lat="44.623865" lon="3.440066"></trkpt><trkpt lat="44.623884" lon="3.43987"></trkpt><trkpt lat="44.624105" lon="3.439277"></trkpt><trkpt lat="44.624117" lon="3.438608"></trkpt><trkpt lat="44.624033" lon="3.437213"></trkpt><trkpt lat="44.624072" lon="3.436854"></trkpt><trkpt lat="44.624539" lon="3.435946"></trkpt><trkpt lat="44.624768" lon="3.435012"></trkpt><trkpt lat="44.624913" lon="3.434084"></trkpt><trkpt lat="44.624997" lon="3.433827"></trkpt><trkpt lat="44.625404" lon="3.433335"></trkpt><trkpt lat="44.626142" lon="3.432791"></trkpt><trkpt lat="44.626267" lon="3.432568"></trkpt><trkpt lat="44.626251" lon="3.431221"></trkpt><trkpt lat="44.626042" lon="3.430218"></trkpt><trkpt lat="44.626091" lon="3.429607"></trkpt><trkpt lat="44.626443" lon="3.429027"></trkpt><trkpt lat="44.626772" lon="3.428307"></trkpt><trkpt lat="44.627832" lon="3.426673"></trkpt><trkpt lat="44.628227" lon="3.426064"></trkpt><trkpt lat="44.62857" lon="3.425619"></trkpt><trkpt lat="44.629303" lon="3.424863"></trkpt><trkpt lat="44.629662" lon="3.424176"></trkpt><trkpt lat="44.629796" lon="3.424228"></trkpt><trkpt lat="44.630148" lon="3.424556"></trkpt><trkpt lat="44.630642" lon="3.425315"></trkpt><trkpt lat="44.630772" lon="3.425594"></trkpt><trkpt lat="44.630827" lon="3.425784"></trkpt><trkpt lat="44.631027" lon="3.42583"></trkpt><trkpt lat="44.631116" lon="3.425862"></trkpt><trkpt lat="44.631186" lon="3.425977"></trkpt><trkpt lat="44.63135" lon="3.426063"></trkpt><trkpt lat="44.631688" lon="3.426323"></trkpt><trkpt lat="44.63207" lon="3.426758"></trkpt><trkpt lat="44.632154" lon="3.426796"></trkpt><trkpt lat="44.632579" lon="3.426771"></trkpt><trkpt lat="44.632682" lon="3.42683"></trkpt><trkpt lat="44.632797" lon="3.427007"></trkpt><trkpt lat="44.632904" lon="3.42705"></trkpt><trkpt lat="44.633885" lon="3.427061"></trkpt><trkpt lat="44.63533" lon="3.425513"></trkpt><trkpt lat="44.635778" lon="3.425248"></trkpt><trkpt lat="44.635912" lon="3.425296"></trkpt><trkpt lat="44.635862" lon="3.425634"></trkpt><trkpt lat="44.635862" lon="3.425784"></trkpt><trkpt lat="44.635908" lon="3.425827"></trkpt><trkpt lat="44.636194" lon="3.425553"></trkpt><trkpt lat="44.636507" lon="3.425092"></trkpt><trkpt lat="44.636977" lon="3.425226"></trkpt><trkpt lat="44.637389" lon="3.425478"></trkpt><trkpt lat="44.638256" lon="3.424797"></trkpt><trkpt lat="44.638309" lon="3.424738"></trkpt><trkpt lat="44.638488" lon="3.424126"></trkpt><trkpt lat="44.63863" lon="3.42389"></trkpt><trkpt lat="44.638882" lon="3.423649"></trkpt><trkpt lat="44.639076" lon="3.423289"></trkpt><trkpt lat="44.639599" lon="3.422978"></trkpt><trkpt lat="44.640229" lon="3.422265"></trkpt><trkpt lat="44.640408" lon="3.421997"></trkpt><trkpt lat="44.640561" lon="3.421739"></trkpt><trkpt lat="44.640806" lon="3.421361"></trkpt><trkpt lat="44.640981" lon="3.42109"></trkpt><trkpt lat="44.641092" lon="3.420827"></trkpt><trkpt lat="44.641208" lon="3.419924"></trkpt><trkpt lat="44.641151" lon="3.419559"></trkpt><trkpt lat="44.641164" lon="3.419105"></trkpt><trkpt lat="44.641279" lon="3.418521"></trkpt><trkpt lat="44.641405" lon="3.417984"></trkpt><trkpt lat="44.641729" lon="3.417045"></trkpt><trkpt lat="44.642107" lon="3.416176"></trkpt><trkpt lat="44.642183" lon="3.41593"></trkpt><trkpt lat="44.642199" lon="3.415752"></trkpt><trkpt lat="44.642652" lon="3.414964"></trkpt><trkpt lat="44.642947" lon="3.414749"></trkpt><trkpt lat="44.643099" lon="3.414567"></trkpt><trkpt lat="44.643393" lon="3.413998"></trkpt><trkpt lat="44.644206" lon="3.413585"></trkpt><trkpt lat="44.644494" lon="3.413301"></trkpt><trkpt lat="44.644575" lon="3.413163"></trkpt><trkpt lat="44.644075" lon="3.41321"></trkpt><trkpt lat="44.643386" lon="3.413344"></trkpt><trkpt lat="44.642806" lon="3.413679"></trkpt><trkpt lat="44.64269" lon="3.413881"></trkpt><trkpt lat="44.64256" lon="3.413919"></trkpt><trkpt lat="44.64243" lon="3.413871"></trkpt><trkpt lat="44.642335" lon="3.413727"></trkpt><trkpt lat="44.642422" lon="3.412941"></trkpt><trkpt lat="44.642383" lon="3.412588"></trkpt><trkpt lat="44.642258" lon="3.412327"></trkpt><trkpt lat="44.641352" lon="3.411721"></trkpt><trkpt lat="44.641133" lon="3.411422"></trkpt><trkpt lat="44.641002" lon="3.41113"></trkpt><trkpt lat="44.640948" lon="3.410908"></trkpt><trkpt lat="44.640986" lon="3.410693"></trkpt><trkpt lat="44.641335" lon="3.40978"></trkpt><trkpt lat="44.641346" lon="3.409228"></trkpt><trkpt lat="44.641193" lon="3.408645"></trkpt><trkpt lat="44.6408" lon="3.408069"></trkpt><trkpt lat="44.640511" lon="3.406389"></trkpt><trkpt lat="44.64038" lon="3.406075"></trkpt><trkpt lat="44.640222" lon="3.405852"></trkpt><trkpt lat="44.639987" lon="3.405722"></trkpt><trkpt lat="44.63989" lon="3.405619"></trkpt><trkpt lat="44.639805" lon="3.405535"></trkpt><trkpt lat="44.639798" lon="3.405305"></trkpt><trkpt lat="44.639988" lon="3.404512"></trkpt><trkpt lat="44.640039" lon="3.40411"></trkpt><trkpt lat="44.639988" lon="3.403708"></trkpt><trkpt lat="44.639692" lon="3.402944"></trkpt><trkpt lat="44.639541" lon="3.402554"></trkpt><trkpt lat="44.639541" lon="3.402286"></trkpt><trkpt lat="44.639761" lon="3.401132"></trkpt><trkpt lat="44.639768" lon="3.400781"></trkpt><trkpt lat="44.639629" lon="3.399967"></trkpt><trkpt lat="44.639607" lon="3.399902"></trkpt><trkpt lat="44.639521" lon="3.39892"></trkpt><trkpt lat="44.639482" lon="3.398766"></trkpt><trkpt lat="44.639217" lon="3.398281"></trkpt><trkpt lat="44.63901" lon="3.397909"></trkpt><trkpt lat="44.639035" lon="3.397722"></trkpt><trkpt lat="44.638986" lon="3.397559"></trkpt><trkpt lat="44.639068" lon="3.397149"></trkpt><trkpt lat="44.638991" lon="3.397043"></trkpt><trkpt lat="44.63886" lon="3.397239"></trkpt><trkpt lat="44.63861" lon="3.397598"></trkpt><trkpt lat="44.638525" lon="3.397614"></trkpt><trkpt lat="44.638838" lon="3.396742"></trkpt><trkpt lat="44.639139" lon="3.396017"></trkpt><trkpt lat="44.639325" lon="3.395627"></trkpt><trkpt lat="44.639575" lon="3.395361"></trkpt><trkpt lat="44.640174" lon="3.395078"></trkpt><trkpt lat="44.640426" lon="3.395114"></trkpt><trkpt lat="44.640683" lon="3.39498"></trkpt><trkpt lat="44.640895" lon="3.39497"></trkpt><trkpt lat="44.640988" lon="3.395037"></trkpt><trkpt lat="44.641078" lon="3.395104"></trkpt><trkpt lat="44.641416" lon="3.395598"></trkpt><trkpt lat="44.641579" lon="3.395736"></trkpt><trkpt lat="44.641904" lon="3.395821"></trkpt><trkpt lat="44.642024" lon="3.395818"></trkpt><trkpt lat="44.642093" lon="3.395782"></trkpt><trkpt lat="44.642178" lon="3.39571"></trkpt><trkpt lat="44.642252" lon="3.395633"></trkpt><trkpt lat="44.642548" lon="3.395106"></trkpt><trkpt lat="44.642598" lon="3.394974"></trkpt><trkpt lat="44.642631" lon="3.394821"></trkpt><trkpt lat="44.642625" lon="3.394433"></trkpt><trkpt lat="44.642703" lon="3.393947"></trkpt><trkpt lat="44.642781" lon="3.393633"></trkpt><trkpt lat="44.642932" lon="3.393366"></trkpt><trkpt lat="44.643021" lon="3.393274"></trkpt><trkpt lat="44.643136" lon="3.3933"></trkpt><trkpt lat="44.643239" lon="3.393349"></trkpt><trkpt lat="44.643284" lon="3.39345"></trkpt><trkpt lat="44.643265" lon="3.393745"></trkpt><trkpt lat="44.643265" lon="3.393885"></trkpt><trkpt lat="44.643221" lon="3.394145"></trkpt><trkpt lat="44.643159" lon="3.394577"></trkpt><trkpt lat="44.643176" lon="3.394858"></trkpt><trkpt lat="44.643559" lon="3.395859"></trkpt><trkpt lat="44.643682" lon="3.395977"></trkpt><trkpt lat="44.643737" lon="3.396001"></trkpt><trkpt lat="44.644162" lon="3.396186"></trkpt><trkpt lat="44.644254" lon="3.396288"></trkpt><trkpt lat="44.64472" lon="3.397474"></trkpt><trkpt lat="44.64517" lon="3.39795"></trkpt><trkpt lat="44.645242" lon="3.398026"></trkpt><trkpt lat="44.645523" lon="3.398334"></trkpt><trkpt lat="44.646097" lon="3.399239"></trkpt><trkpt lat="44.646197" lon="3.39955"></trkpt><trkpt lat="44.646393" lon="3.400582"></trkpt><trkpt lat="44.646576" lon="3.401033"></trkpt><trkpt lat="44.647095" lon="3.401987"></trkpt><trkpt lat="44.647175" lon="3.402502"></trkpt><trkpt lat="44.647152" lon="3.402856"></trkpt><trkpt lat="44.647152" lon="3.403055"></trkpt><trkpt lat="44.647152" lon="3.403613"></trkpt><trkpt lat="44.647183" lon="3.403897"></trkpt><trkpt lat="44.64729" lon="3.404257"></trkpt><trkpt lat="44.647653" lon="3.405239"></trkpt><trkpt lat="44.647756" lon="3.405517"></trkpt><trkpt lat="44.648011" lon="3.406628"></trkpt><trkpt lat="44.648015" lon="3.40688"></trkpt><trkpt lat="44.647742" lon="3.407983"></trkpt><trkpt lat="44.647601" lon="3.408846"></trkpt><trkpt lat="44.647612" lon="3.409077"></trkpt><trkpt lat="44.648002" lon="3.409951"></trkpt><trkpt lat="44.64804" lon="3.410273"></trkpt><trkpt lat="44.648025" lon="3.410799"></trkpt><trkpt lat="44.648147" lon="3.412086"></trkpt><trkpt lat="44.648177" lon="3.412202"></trkpt><trkpt lat="44.648193" lon="3.412263"></trkpt><trkpt lat="44.64841" lon="3.412676"></trkpt><trkpt lat="44.648578" lon="3.412918"></trkpt><trkpt lat="44.648593" lon="3.413041"></trkpt><trkpt lat="44.648592" lon="3.413178"></trkpt><trkpt lat="44.648614" lon="3.413553"></trkpt><trkpt lat="44.64862" lon="3.413706"></trkpt><trkpt lat="44.648683" lon="3.414387"></trkpt><trkpt lat="44.648754" lon="3.414586"></trkpt><trkpt lat="44.648948" lon="3.414908"></trkpt><trkpt lat="44.648993" lon="3.41508"></trkpt><trkpt lat="44.648991" lon="3.4151"></trkpt><trkpt lat="44.648843" lon="3.416085"></trkpt><trkpt lat="44.648601" lon="3.417102"></trkpt><trkpt lat="44.648442" lon="3.417528"></trkpt><trkpt lat="44.647849" lon="3.418625"></trkpt><trkpt lat="44.647658" lon="3.419098"></trkpt><trkpt lat="44.647638" lon="3.419148"></trkpt><trkpt lat="44.647651" lon="3.419258"></trkpt><trkpt lat="44.647661" lon="3.419333"></trkpt><trkpt lat="44.647703" lon="3.419645"></trkpt><trkpt lat="44.647727" lon="3.419938"></trkpt><trkpt lat="44.647721" lon="3.42011"></trkpt><trkpt lat="44.647611" lon="3.420605"></trkpt><trkpt lat="44.647687" lon="3.420992"></trkpt><trkpt lat="44.647785" lon="3.421183"></trkpt><trkpt lat="44.647873" lon="3.42143"></trkpt><trkpt lat="44.648209" lon="3.422787"></trkpt><trkpt lat="44.648408" lon="3.423148"></trkpt><trkpt lat="44.648456" lon="3.423591"></trkpt><trkpt lat="44.648424" lon="3.423781"></trkpt><trkpt lat="44.648226" lon="3.424171"></trkpt><trkpt lat="44.648161" lon="3.424399"></trkpt><trkpt lat="44.648153" lon="3.424428"></trkpt><trkpt lat="44.648063" lon="3.425325"></trkpt><trkpt lat="44.647907" lon="3.425811"></trkpt><trkpt lat="44.647844" lon="3.42629"></trkpt><trkpt lat="44.647652" lon="3.426489"></trkpt><trkpt lat="44.64748" lon="3.426563"></trkpt><trkpt lat="44.647294" lon="3.426606"></trkpt><trkpt lat="44.647007" lon="3.426576"></trkpt><trkpt lat="44.64671" lon="3.426645"></trkpt><trkpt lat="44.64664" lon="3.426712"></trkpt><trkpt lat="44.646552" lon="3.426856"></trkpt><trkpt lat="44.646415" lon="3.427124"></trkpt><trkpt lat="44.646333" lon="3.42746"></trkpt><trkpt lat="44.646186" lon="3.428253"></trkpt><trkpt lat="44.646088" lon="3.428784"></trkpt><trkpt lat="44.645946" lon="3.429657"></trkpt><trkpt lat="44.645835" lon="3.430347"></trkpt><trkpt lat="44.645753" lon="3.430721"></trkpt><trkpt lat="44.645399" lon="3.431507"></trkpt><trkpt lat="44.645337" lon="3.432159"></trkpt><trkpt lat="44.64524" lon="3.432357"></trkpt><trkpt lat="44.645037" lon="3.432773"></trkpt><trkpt lat="44.644989" lon="3.433061"></trkpt><trkpt lat="44.645016" lon="3.43331"></trkpt><trkpt lat="44.645835" lon="3.434604"></trkpt><trkpt lat="44.646512" lon="3.435395"></trkpt><trkpt lat="44.647155" lon="3.436135"></trkpt><trkpt lat="44.647187" lon="3.436341"></trkpt><trkpt lat="44.647309" lon="3.437124"></trkpt><trkpt lat="44.647297" lon="3.437286"></trkpt><trkpt lat="44.647252" lon="3.437387"></trkpt><trkpt lat="44.647168" lon="3.437655"></trkpt><trkpt lat="44.647184" lon="3.437858"></trkpt><trkpt lat="44.647051" lon="3.437964"></trkpt><trkpt lat="44.646937" lon="3.438029"></trkpt><trkpt lat="44.646792" lon="3.438088"></trkpt><trkpt lat="44.646649" lon="3.438085"></trkpt><trkpt lat="44.646553" lon="3.438079"></trkpt><trkpt lat="44.646462" lon="3.437961"></trkpt><trkpt lat="44.646443" lon="3.4378"></trkpt><trkpt lat="44.646462" lon="3.437618"></trkpt><trkpt lat="44.646485" lon="3.437419"></trkpt><trkpt lat="44.64622" lon="3.437268"></trkpt><trkpt lat="44.645842" lon="3.437304"></trkpt><trkpt lat="44.645376" lon="3.437122"></trkpt><trkpt lat="44.644956" lon="3.437122"></trkpt><trkpt lat="44.644403" lon="3.436914"></trkpt><trkpt lat="44.644048" lon="3.436939"></trkpt><trkpt lat="44.643636" lon="3.437229"></trkpt><trkpt lat="44.643529" lon="3.437433"></trkpt><trkpt lat="44.642647" lon="3.437783"></trkpt><trkpt lat="44.641678" lon="3.437482"></trkpt><trkpt lat="44.641365" lon="3.437278"></trkpt><trkpt lat="44.641258" lon="3.437064"></trkpt><trkpt lat="44.640559" lon="3.436886"></trkpt><trkpt lat="44.640052" lon="3.436957"></trkpt><trkpt lat="44.639613" lon="3.436939"></trkpt><trkpt lat="44.638994" lon="3.437047"></trkpt><trkpt lat="44.638245" lon="3.437105"></trkpt><trkpt lat="44.637742" lon="3.437143"></trkpt><trkpt lat="44.636986" lon="3.43709"></trkpt><trkpt lat="44.636655" lon="3.437171"></trkpt><trkpt lat="44.636426" lon="3.437525"></trkpt><trkpt lat="44.635464" lon="3.437997"></trkpt><trkpt lat="44.635013" lon="3.438405"></trkpt><trkpt lat="44.634632" lon="3.438641"></trkpt><trkpt lat="44.634105" lon="3.438662"></trkpt><trkpt lat="44.633515" lon="3.438854"></trkpt><trkpt lat="44.633476" lon="3.439013"></trkpt><trkpt lat="44.633446" lon="3.439163"></trkpt><trkpt lat="44.633492" lon="3.439356"></trkpt><trkpt lat="44.634854" lon="3.441201"></trkpt><trkpt lat="44.635098" lon="3.44173"></trkpt><trkpt lat="44.635578" lon="3.442776"></trkpt><trkpt lat="44.635854" lon="3.443873"></trkpt><trkpt lat="44.635679" lon="3.444779"></trkpt><trkpt lat="44.635633" lon="3.445359"></trkpt><trkpt lat="44.635656" lon="3.445547"></trkpt><trkpt lat="44.635858" lon="3.445906"></trkpt><trkpt lat="44.636112" lon="3.446145"></trkpt><trkpt lat="44.636143" lon="3.446247"></trkpt><trkpt lat="44.636109" lon="3.446799"></trkpt><trkpt lat="44.636135" lon="3.447132"></trkpt><trkpt lat="44.636207" lon="3.447459"></trkpt><trkpt lat="44.636273" lon="3.44776"></trkpt><trkpt lat="44.636319" lon="3.448317"></trkpt><trkpt lat="44.636315" lon="3.448618"></trkpt><trkpt lat="44.636165" lon="3.448773"></trkpt><trkpt lat="44.635788" lon="3.449044"></trkpt><trkpt lat="44.635668" lon="3.449474"></trkpt><trkpt lat="44.635612" lon="3.45009"></trkpt><trkpt lat="44.63558" lon="3.45025"></trkpt><trkpt lat="44.635774" lon="3.450226"></trkpt><trkpt lat="44.635962" lon="3.450346"></trkpt><trkpt lat="44.636195" lon="3.450724"></trkpt><trkpt lat="44.63688" lon="3.451368"></trkpt><trkpt lat="44.637312" lon="3.45157"></trkpt><trkpt lat="44.637241" lon="3.45271"></trkpt><trkpt lat="44.637111" lon="3.453556"></trkpt><trkpt lat="44.636925" lon="3.454767"></trkpt><trkpt lat="44.636802" lon="3.456002"></trkpt><trkpt lat="44.636885" lon="3.456157"></trkpt><trkpt lat="44.63697" lon="3.45641"></trkpt><trkpt lat="44.637003" lon="3.456752"></trkpt><trkpt lat="44.636938" lon="3.457598"></trkpt><trkpt lat="44.636837" lon="3.458436"></trkpt><trkpt lat="44.636717" lon="3.458541"></trkpt><trkpt lat="44.636663" lon="3.458719"></trkpt><trkpt lat="44.636661" lon="3.459382"></trkpt><trkpt lat="44.636904" lon="3.460487"></trkpt><trkpt lat="44.636894" lon="3.46075"></trkpt><trkpt lat="44.636826" lon="3.460997"></trkpt><trkpt lat="44.63674" lon="3.461175"></trkpt><trkpt lat="44.636619" lon="3.461325"></trkpt><trkpt lat="44.636393" lon="3.461785"></trkpt><trkpt lat="44.636338" lon="3.46254"></trkpt><trkpt lat="44.636259" lon="3.462716"></trkpt><trkpt lat="44.636021" lon="3.46325"></trkpt><trkpt lat="44.636006" lon="3.463376"></trkpt><trkpt lat="44.636123" lon="3.464778"></trkpt><trkpt lat="44.636107" lon="3.465274"></trkpt><trkpt lat="44.636156" lon="3.465955"></trkpt><trkpt lat="44.636242" lon="3.466107"></trkpt><trkpt lat="44.636657" lon="3.466539"></trkpt><trkpt lat="44.637046" lon="3.467034"></trkpt><trkpt lat="44.637232" lon="3.467293"></trkpt><trkpt lat="44.637301" lon="3.467626"></trkpt><trkpt lat="44.637254" lon="3.467964"></trkpt><trkpt lat="44.637183" lon="3.468112"></trkpt><trkpt lat="44.636902" lon="3.468417"></trkpt><trkpt lat="44.636792" lon="3.468774"></trkpt><trkpt lat="44.636804" lon="3.469056"></trkpt><trkpt lat="44.636869" lon="3.469282"></trkpt><trkpt lat="44.637152" lon="3.469796"></trkpt><trkpt lat="44.637152" lon="3.47016"></trkpt><trkpt lat="44.63707" lon="3.470415"></trkpt><trkpt lat="44.636774" lon="3.470543"></trkpt><trkpt lat="44.636716" lon="3.470574"></trkpt><trkpt lat="44.636601" lon="3.47076"></trkpt><trkpt lat="44.636593" lon="3.471163"></trkpt><trkpt lat="44.636519" lon="3.471445"></trkpt><trkpt lat="44.636462" lon="3.471666"></trkpt><trkpt lat="44.636462" lon="3.471947"></trkpt><trkpt lat="44.636686" lon="3.472394"></trkpt><trkpt lat="44.636829" lon="3.472858"></trkpt><trkpt lat="44.63726" lon="3.473471"></trkpt><trkpt lat="44.637373" lon="3.47371"></trkpt><trkpt lat="44.637402" lon="3.47401"></trkpt><trkpt lat="44.637298" lon="3.474345"></trkpt><trkpt lat="44.637335" lon="3.474465"></trkpt><trkpt lat="44.637552" lon="3.474763"></trkpt><trkpt lat="44.637548" lon="3.474821"></trkpt><trkpt lat="44.637528" lon="3.474897"></trkpt><trkpt lat="44.637494" lon="3.474941"></trkpt><trkpt lat="44.637408" lon="3.474984"></trkpt><trkpt lat="44.636764" lon="3.475091"></trkpt><trkpt lat="44.636504" lon="3.47499"></trkpt><trkpt lat="44.636409" lon="3.475015"></trkpt><trkpt lat="44.636317" lon="3.47513"></trkpt><trkpt lat="44.636558" lon="3.475289"></trkpt><trkpt lat="44.636292" lon="3.475284"></trkpt><trkpt lat="44.636035" lon="3.475349"></trkpt><trkpt lat="44.635713" lon="3.475585"></trkpt><trkpt lat="44.635563" lon="3.475735"></trkpt><trkpt lat="44.635413" lon="3.475928"></trkpt><trkpt lat="44.635118" lon="3.476473"></trkpt><trkpt lat="44.635066" lon="3.476633"></trkpt><trkpt lat="44.634929" lon="3.476892"></trkpt><trkpt lat="44.634717" lon="3.477396"></trkpt><trkpt lat="44.634599" lon="3.477571"></trkpt><trkpt lat="44.634517" lon="3.477725"></trkpt><trkpt lat="44.634442" lon="3.477965"></trkpt><trkpt lat="44.634401" lon="3.478048"></trkpt><trkpt lat="44.634447" lon="3.478095"></trkpt><trkpt lat="44.634533" lon="3.47816"></trkpt><trkpt lat="44.63464" lon="3.478246"></trkpt><trkpt lat="44.634747" lon="3.478289"></trkpt><trkpt lat="44.634876" lon="3.478396"></trkpt><trkpt lat="44.634962" lon="3.478482"></trkpt><trkpt lat="44.635288" lon="3.478734"></trkpt><trkpt lat="44.635348" lon="3.478846"></trkpt><trkpt lat="44.635606" lon="3.478975"></trkpt><trkpt lat="44.635692" lon="3.479018"></trkpt><trkpt lat="44.635777" lon="3.47904"></trkpt><trkpt lat="44.636142" lon="3.479168"></trkpt><trkpt lat="44.636249" lon="3.479233"></trkpt><trkpt lat="44.636521" lon="3.479318"></trkpt><trkpt lat="44.637113" lon="3.479889"></trkpt><trkpt lat="44.637556" lon="3.480404"></trkpt><trkpt lat="44.637666" lon="3.480799"></trkpt><trkpt lat="44.637911" lon="3.481271"></trkpt><trkpt lat="44.63819" lon="3.482376"></trkpt><trkpt lat="44.638212" lon="3.482464"></trkpt><trkpt lat="44.63864" lon="3.483344"></trkpt><trkpt lat="44.638762" lon="3.483944"></trkpt><trkpt lat="44.638975" lon="3.484223"></trkpt><trkpt lat="44.639327" lon="3.484459"></trkpt><trkpt lat="44.639647" lon="3.48476"></trkpt><trkpt lat="44.64009" lon="3.485489"></trkpt><trkpt lat="44.640705" lon="3.485927"></trkpt><trkpt lat="44.640964" lon="3.486378"></trkpt><trkpt lat="44.641254" lon="3.486507"></trkpt><trkpt lat="44.641418" lon="3.486713"></trkpt><trkpt lat="44.641697" lon="3.487258"></trkpt><trkpt lat="44.641831" lon="3.487657"></trkpt><trkpt lat="44.642024" lon="3.487982"></trkpt><trkpt lat="44.642156" lon="3.488004"></trkpt><trkpt lat="44.642222" lon="3.488162"></trkpt><trkpt lat="44.642279" lon="3.488245"></trkpt><trkpt lat="44.642393" lon="3.488246"></trkpt><trkpt lat="44.642527" lon="3.488247"></trkpt><trkpt lat="44.642558" lon="3.488243"></trkpt><trkpt lat="44.642558" lon="3.488331"></trkpt><trkpt lat="44.642514" lon="3.488574"></trkpt><trkpt lat="44.642579" lon="3.489425"></trkpt><trkpt lat="44.642558" lon="3.489597"></trkpt><trkpt lat="44.642258" lon="3.489983"></trkpt><trkpt lat="44.642258" lon="3.490176"></trkpt><trkpt lat="44.642665" lon="3.491313"></trkpt><trkpt lat="44.642601" lon="3.492579"></trkpt><trkpt lat="44.642515" lon="3.49303"></trkpt><trkpt lat="44.642601" lon="3.493502"></trkpt><trkpt lat="44.642751" lon="3.493953"></trkpt><trkpt lat="44.64273" lon="3.494403"></trkpt><trkpt lat="44.642728" lon="3.494497"></trkpt><trkpt lat="44.642708" lon="3.494661"></trkpt><trkpt lat="44.642622" lon="3.495262"></trkpt><trkpt lat="44.642622" lon="3.496056"></trkpt><trkpt lat="44.642979" lon="3.497048"></trkpt><trkpt lat="44.643051" lon="3.49715"></trkpt><trkpt lat="44.643116" lon="3.497257"></trkpt><trkpt lat="44.643134" lon="3.497293"></trkpt><trkpt lat="44.64318" lon="3.497386"></trkpt><trkpt lat="44.643288" lon="3.497686"></trkpt><trkpt lat="44.643345" lon="3.498235"></trkpt><trkpt lat="44.643335" lon="3.498307"></trkpt><trkpt lat="44.643284" lon="3.498375"></trkpt><trkpt lat="44.643124" lon="3.498574"></trkpt><trkpt lat="44.643077" lon="3.498642"></trkpt><trkpt lat="44.643029" lon="3.498761"></trkpt><trkpt lat="44.64298" lon="3.498874"></trkpt><trkpt lat="44.642933" lon="3.498957"></trkpt><trkpt lat="44.642894" lon="3.499029"></trkpt><trkpt lat="44.642839" lon="3.499112"></trkpt><trkpt lat="44.642775" lon="3.499194"></trkpt><trkpt lat="44.642515" lon="3.499532"></trkpt><trkpt lat="44.642489" lon="3.499571"></trkpt><trkpt lat="44.642475" lon="3.499592"></trkpt><trkpt lat="44.642422" lon="3.50011"></trkpt><trkpt lat="44.642435" lon="3.50017"></trkpt><trkpt lat="44.642392" lon="3.50036"></trkpt><trkpt lat="44.642207" lon="3.501002"></trkpt><trkpt lat="44.642085" lon="3.501129"></trkpt><trkpt lat="44.641374" lon="3.501469"></trkpt><trkpt lat="44.640994" lon="3.501541"></trkpt><trkpt lat="44.640432" lon="3.501535"></trkpt><trkpt lat="44.640146" lon="3.501535"></trkpt><trkpt lat="44.640013" lon="3.501698"></trkpt><trkpt lat="44.63984" lon="3.502065"></trkpt><trkpt lat="44.639713" lon="3.502756"></trkpt><trkpt lat="44.639738" lon="3.502943"></trkpt><trkpt lat="44.639792" lon="3.502946"></trkpt><trkpt lat="44.640108" lon="3.502579"></trkpt><trkpt lat="44.64029" lon="3.502482"></trkpt><trkpt lat="44.640423" lon="3.502492"></trkpt><trkpt lat="44.640512" lon="3.502548"></trkpt><trkpt lat="44.640586" lon="3.502936"></trkpt><trkpt lat="44.640956" lon="3.503622"></trkpt><trkpt lat="44.641641" lon="3.503878"></trkpt><trkpt lat="44.642174" lon="3.503549"></trkpt><trkpt lat="44.642612" lon="3.503608"></trkpt><trkpt lat="44.642622" lon="3.503767"></trkpt><trkpt lat="44.642455" lon="3.504051"></trkpt><trkpt lat="44.642376" lon="3.504356"></trkpt><trkpt lat="44.642351" lon="3.504807"></trkpt><trkpt lat="44.642277" lon="3.505174"></trkpt><trkpt lat="44.642011" lon="3.506106"></trkpt><trkpt lat="44.64204" lon="3.506176"></trkpt><trkpt lat="44.6421" lon="3.506162"></trkpt><trkpt lat="44.642356" lon="3.505794"></trkpt><trkpt lat="44.642425" lon="3.505791"></trkpt><trkpt lat="44.64245" lon="3.505874"></trkpt><trkpt lat="44.64243" lon="3.506013"></trkpt><trkpt lat="44.642548" lon="3.507565"></trkpt><trkpt lat="44.642371" lon="3.508549"></trkpt><trkpt lat="44.642563" lon="3.510185"></trkpt><trkpt lat="44.642751" lon="3.510592"></trkpt><trkpt lat="44.642844" lon="3.510794"></trkpt><trkpt lat="44.643382" lon="3.511515"></trkpt><trkpt lat="44.643658" lon="3.511834"></trkpt><trkpt lat="44.644116" lon="3.512149"></trkpt><trkpt lat="44.644348" lon="3.512617"></trkpt><trkpt lat="44.645033" lon="3.513338"></trkpt><trkpt lat="44.64561" lon="3.515053"></trkpt><trkpt lat="44.645931" lon="3.515569"></trkpt><trkpt lat="44.64598" lon="3.515736"></trkpt><trkpt lat="44.64601" lon="3.516838"></trkpt><trkpt lat="44.646128" lon="3.517891"></trkpt><trkpt lat="44.646409" lon="3.519305"></trkpt><trkpt lat="44.64672" lon="3.520067"></trkpt><trkpt lat="44.646729" lon="3.520213"></trkpt><trkpt lat="44.646577" lon="3.520448"></trkpt><trkpt lat="44.646389" lon="3.520968"></trkpt><trkpt lat="44.646222" lon="3.521221"></trkpt><trkpt lat="44.645393" lon="3.521723"></trkpt><trkpt lat="44.645319" lon="3.521834"></trkpt><trkpt lat="44.645334" lon="3.521945"></trkpt><trkpt lat="44.645418" lon="3.522025"></trkpt><trkpt lat="44.645586" lon="3.522035"></trkpt><trkpt lat="44.645699" lon="3.522111"></trkpt><trkpt lat="44.646133" lon="3.522555"></trkpt><trkpt lat="44.646483" lon="3.522742"></trkpt><trkpt lat="44.646527" lon="3.522832"></trkpt><trkpt lat="44.646513" lon="3.522943"></trkpt><trkpt lat="44.646439" lon="3.523002"></trkpt><trkpt lat="44.645946" lon="3.522999"></trkpt><trkpt lat="44.645058" lon="3.522908"></trkpt><trkpt lat="44.644146" lon="3.523099"></trkpt><trkpt lat="44.643712" lon="3.523321"></trkpt><trkpt lat="44.643377" lon="3.523685"></trkpt><trkpt lat="44.643046" lon="3.524177"></trkpt><trkpt lat="44.642938" lon="3.524437"></trkpt><trkpt lat="44.642953" lon="3.524551"></trkpt><trkpt lat="44.643037" lon="3.52462"></trkpt><trkpt lat="44.643564" lon="3.524339"></trkpt><trkpt lat="44.643643" lon="3.52435"></trkpt><trkpt lat="44.643687" lon="3.524475"></trkpt><trkpt lat="44.643303" lon="3.525369"></trkpt><trkpt lat="44.643352" lon="3.525618"></trkpt><trkpt lat="44.643899" lon="3.525532"></trkpt><trkpt lat="44.644062" lon="3.525427"></trkpt><trkpt lat="44.644244" lon="3.525206"></trkpt><trkpt lat="44.644427" lon="3.525143"></trkpt><trkpt lat="44.644664" lon="3.525188"></trkpt><trkpt lat="44.644811" lon="3.525324"></trkpt><trkpt lat="44.644945" lon="3.525552"></trkpt><trkpt lat="44.645004" lon="3.526179"></trkpt><trkpt lat="44.644964" lon="3.526405"></trkpt><trkpt lat="44.644614" lon="3.527222"></trkpt><trkpt lat="44.644693" lon="3.52752"></trkpt><trkpt lat="44.645152" lon="3.52787"></trkpt><trkpt lat="44.645198" lon="3.527955"></trkpt><trkpt lat="44.645201" lon="3.528051"></trkpt><trkpt lat="44.6451" lon="3.528642"></trkpt><trkpt lat="44.645106" lon="3.52897"></trkpt><trkpt lat="44.645458" lon="3.529544"></trkpt><trkpt lat="44.645941" lon="3.529977"></trkpt><trkpt lat="44.64601" lon="3.530095"></trkpt><trkpt lat="44.646212" lon="3.530587"></trkpt><trkpt lat="44.646286" lon="3.531041"></trkpt><trkpt lat="44.646256" lon="3.531204"></trkpt><trkpt lat="44.646089" lon="3.531578"></trkpt><trkpt lat="44.645605" lon="3.532257"></trkpt><trkpt lat="44.645458" lon="3.532618"></trkpt><trkpt lat="44.645339" lon="3.533158"></trkpt><trkpt lat="44.645296" lon="3.533375"></trkpt><trkpt lat="44.645519" lon="3.533585"></trkpt><trkpt lat="44.646034" lon="3.534014"></trkpt><trkpt lat="44.647479" lon="3.534719"></trkpt><trkpt lat="44.648673" lon="3.535302"></trkpt><trkpt lat="44.648845" lon="3.535473"></trkpt><trkpt lat="44.649188" lon="3.535988"></trkpt><trkpt lat="44.649467" lon="3.536203"></trkpt><trkpt lat="44.649493" lon="3.536221"></trkpt><trkpt lat="44.649682" lon="3.536353"></trkpt><trkpt lat="44.650841" lon="3.537147"></trkpt><trkpt lat="44.651678" lon="3.537469"></trkpt><trkpt lat="44.653351" lon="3.537576"></trkpt><trkpt lat="44.653523" lon="3.53764"></trkpt><trkpt lat="44.65363" lon="3.537683"></trkpt><trkpt lat="44.653737" lon="3.537812"></trkpt><trkpt lat="44.653798" lon="3.537878"></trkpt><trkpt lat="44.654016" lon="3.538112"></trkpt><trkpt lat="44.654424" lon="3.538585"></trkpt><trkpt lat="44.655244" lon="3.539297"></trkpt><trkpt lat="44.65599" lon="3.539657"></trkpt><trkpt lat="44.656892" lon="3.539679"></trkpt><trkpt lat="44.659189" lon="3.539299"></trkpt><trkpt lat="44.659415" lon="3.539306"></trkpt><trkpt lat="44.659717" lon="3.539314"></trkpt><trkpt lat="44.660282" lon="3.539357"></trkpt><trkpt lat="44.661441" lon="3.539786"></trkpt><trkpt lat="44.662106" lon="3.540108"></trkpt><trkpt lat="44.663587" lon="3.541052"></trkpt><trkpt lat="44.664531" lon="3.541911"></trkpt><trkpt lat="44.665508" lon="3.542653"></trkpt><trkpt lat="44.666633" lon="3.543198"></trkpt><trkpt lat="44.666934" lon="3.543198"></trkpt><trkpt lat="44.667953" lon="3.542959"></trkpt><trkpt lat="44.667982" lon="3.543354"></trkpt><trkpt lat="44.667965" lon="3.543691"></trkpt><trkpt lat="44.667866" lon="3.544136"></trkpt><trkpt lat="44.667582" lon="3.544572"></trkpt><trkpt lat="44.667296" lon="3.544685"></trkpt><trkpt lat="44.666737" lon="3.544712"></trkpt><trkpt lat="44.666643" lon="3.544788"></trkpt><trkpt lat="44.666549" lon="3.545016"></trkpt><trkpt lat="44.666609" lon="3.545337"></trkpt><trkpt lat="44.667305" lon="3.546752"></trkpt><trkpt lat="44.667542" lon="3.547011"></trkpt><trkpt lat="44.667394" lon="3.54738"></trkpt><trkpt lat="44.667207" lon="3.547868"></trkpt><trkpt lat="44.667108" lon="3.547997"></trkpt><trkpt lat="44.666814" lon="3.548051"></trkpt><trkpt lat="44.66665" lon="3.548008"></trkpt><trkpt lat="44.666482" lon="3.547745"></trkpt><trkpt lat="44.666223" lon="3.547627"></trkpt><trkpt lat="44.665948" lon="3.547611"></trkpt><trkpt lat="44.665853" lon="3.547761"></trkpt><trkpt lat="44.665456" lon="3.548925"></trkpt><trkpt lat="44.664814" lon="3.550035"></trkpt><trkpt lat="44.66443" lon="3.550701"></trkpt><trkpt lat="44.663876" lon="3.551468"></trkpt><trkpt lat="44.663777" lon="3.551704"></trkpt><trkpt lat="44.663747" lon="3.552004"></trkpt><trkpt lat="44.664102" lon="3.555545"></trkpt><trkpt lat="44.664384" lon="3.556677"></trkpt><trkpt lat="44.664483" lon="3.556827"></trkpt><trkpt lat="44.664693" lon="3.557884"></trkpt><trkpt lat="44.664636" lon="3.558452"></trkpt><trkpt lat="44.664212" lon="3.560636"></trkpt><trkpt lat="44.664277" lon="3.560995"></trkpt><trkpt lat="44.664426" lon="3.561188"></trkpt><trkpt lat="44.665773" lon="3.561263"></trkpt><trkpt lat="44.665914" lon="3.561392"></trkpt><trkpt lat="44.666005" lon="3.561601"></trkpt><trkpt lat="44.666207" lon="3.563854"></trkpt><trkpt lat="44.66607" lon="3.564171"></trkpt><trkpt lat="44.665792" lon="3.564584"></trkpt><trkpt lat="44.663258" lon="3.566161"></trkpt><trkpt lat="44.662629" lon="3.566413"></trkpt><trkpt lat="44.662396" lon="3.5663"></trkpt><trkpt lat="44.661496" lon="3.565657"></trkpt><trkpt lat="44.66106" lon="3.565276"></trkpt><trkpt lat="44.660755" lon="3.564873"></trkpt><trkpt lat="44.660706" lon="3.564895"></trkpt><trkpt lat="44.661377" lon="3.565957"></trkpt><trkpt lat="44.66145" lon="3.566247"></trkpt><trkpt lat="44.661377" lon="3.566445"></trkpt><trkpt lat="44.661167" lon="3.566434"></trkpt><trkpt lat="44.660469" lon="3.566601"></trkpt><trkpt lat="44.660362" lon="3.566746"></trkpt><trkpt lat="44.660278" lon="3.567352"></trkpt><trkpt lat="44.660269" lon="3.567463"></trkpt><trkpt lat="44.660248" lon="3.567706"></trkpt><trkpt lat="44.660164" lon="3.568006"></trkpt><trkpt lat="44.659935" lon="3.568376"></trkpt><trkpt lat="44.65892" lon="3.569449"></trkpt><trkpt lat="44.658649" lon="3.570023"></trkpt><trkpt lat="44.658488" lon="3.570585"></trkpt><trkpt lat="44.658397" lon="3.570903"></trkpt><trkpt lat="44.658244" lon="3.571354"></trkpt><trkpt lat="44.657707" lon="3.572545"></trkpt><trkpt lat="44.657607" lon="3.572963"></trkpt><trkpt lat="44.657581" lon="3.573575"></trkpt><trkpt lat="44.657623" lon="3.574368"></trkpt><trkpt lat="44.657588" lon="3.575082"></trkpt><trkpt lat="44.657481" lon="3.575794"></trkpt><trkpt lat="44.657419" lon="3.576038"></trkpt><trkpt lat="44.657226" lon="3.57814"></trkpt><trkpt lat="44.656905" lon="3.578934"></trkpt><trkpt lat="44.656234" lon="3.580199"></trkpt><trkpt lat="44.656175" lon="3.580436"></trkpt><trkpt lat="44.65547" lon="3.583311"></trkpt><trkpt lat="44.65431" lon="3.586487"></trkpt><trkpt lat="44.654112" lon="3.588504"></trkpt><trkpt lat="44.653562" lon="3.590328"></trkpt><trkpt lat="44.65228" lon="3.593267"></trkpt><trkpt lat="44.65228" lon="3.593954"></trkpt><trkpt lat="44.6517" lon="3.596722"></trkpt><trkpt lat="44.649685" lon="3.60243"></trkpt><trkpt lat="44.649212" lon="3.602558"></trkpt><trkpt lat="44.648571" lon="3.602473"></trkpt><trkpt lat="44.647624" lon="3.602644"></trkpt><trkpt lat="44.646507" lon="3.602495"></trkpt><trkpt lat="44.645701" lon="3.602387"></trkpt><trkpt lat="44.645365" lon="3.60243"></trkpt><trkpt lat="44.644663" lon="3.603181"></trkpt><trkpt lat="44.643716" lon="3.602945"></trkpt><trkpt lat="44.642525" lon="3.602258"></trkpt><trkpt lat="44.642018" lon="3.602287"></trkpt><trkpt lat="44.641396" lon="3.602322"></trkpt><trkpt lat="44.640556" lon="3.602601"></trkpt><trkpt lat="44.639044" lon="3.603395"></trkpt><trkpt lat="44.638128" lon="3.603781"></trkpt><trkpt lat="44.637319" lon="3.604597"></trkpt><trkpt lat="44.636525" lon="3.605026"></trkpt><trkpt lat="44.635456" lon="3.604854"></trkpt><trkpt lat="44.635151" lon="3.606614"></trkpt><trkpt lat="44.635242" lon="3.607408"></trkpt><trkpt lat="44.635594" lon="3.608609"></trkpt><trkpt lat="44.635929" lon="3.61082"></trkpt><trkpt lat="44.635792" lon="3.611378"></trkpt><trkpt lat="44.635166" lon="3.61288"></trkpt><trkpt lat="44.634922" lon="3.613008"></trkpt><trkpt lat="44.633425" lon="3.613395"></trkpt><trkpt lat="44.633059" lon="3.613716"></trkpt><trkpt lat="44.63254" lon="3.614553"></trkpt><trkpt lat="44.631501" lon="3.615261"></trkpt><trkpt lat="44.630702" lon="3.615565"></trkpt><trkpt lat="44.630203" lon="3.615755"></trkpt><trkpt lat="44.628203" lon="3.616957"></trkpt><trkpt lat="44.627974" lon="3.617236"></trkpt><trkpt lat="44.626533" lon="3.617141"></trkpt><trkpt lat="44.626163" lon="3.617648"></trkpt><trkpt lat="44.625934" lon="3.617691"></trkpt><trkpt lat="44.625891" lon="3.617732"></trkpt><trkpt lat="44.624168" lon="3.615038"></trkpt><trkpt lat="44.623312" lon="3.613836"></trkpt><trkpt lat="44.622747" lon="3.6133"></trkpt><trkpt lat="44.622473" lon="3.613128"></trkpt><trkpt lat="44.621949" lon="3.612714"></trkpt><trkpt lat="44.621006" lon="3.611969"></trkpt><trkpt lat="44.620448" lon="3.611107"></trkpt><trkpt lat="44.620265" lon="3.610945"></trkpt><trkpt lat="44.619843" lon="3.610739"></trkpt><trkpt lat="44.619499" lon="3.61073"></trkpt><trkpt lat="44.619137" lon="3.610787"></trkpt><trkpt lat="44.61812" lon="3.611347"></trkpt><trkpt lat="44.617677" lon="3.611454"></trkpt><trkpt lat="44.617204" lon="3.611396"></trkpt><trkpt lat="44.616852" lon="3.61154"></trkpt><trkpt lat="44.614882" lon="3.611819"></trkpt><trkpt lat="44.613972" lon="3.612715"></trkpt><trkpt lat="44.613892" lon="3.61286"></trkpt><trkpt lat="44.613801" lon="3.613"></trkpt><trkpt lat="44.610864" lon="3.614845"></trkpt><trkpt lat="44.60847" lon="3.613673"></trkpt><trkpt lat="44.607137" lon="3.613021"></trkpt><trkpt lat="44.606465" lon="3.612806"></trkpt><trkpt lat="44.604647" lon="3.612456"></trkpt><trkpt lat="44.604516" lon="3.612485"></trkpt><trkpt lat="44.60427" lon="3.612654"></trkpt><trkpt lat="44.604244" lon="3.612921"></trkpt><trkpt lat="44.604397" lon="3.613994"></trkpt><trkpt lat="44.604443" lon="3.61481"></trkpt><trkpt lat="44.604273" lon="3.615538"></trkpt><trkpt lat="44.604035" lon="3.616063"></trkpt><trkpt lat="44.603801" lon="3.616784"></trkpt><trkpt lat="44.603624" lon="3.619234"></trkpt><trkpt lat="44.603725" lon="3.620367"></trkpt><trkpt lat="44.603954" lon="3.620989"></trkpt><trkpt lat="44.604049" lon="3.621143"></trkpt><trkpt lat="44.603704" lon="3.621026"></trkpt><trkpt lat="44.603426" lon="3.620977"></trkpt><trkpt lat="44.60331" lon="3.62105"></trkpt><trkpt lat="44.603084" lon="3.621668"></trkpt><trkpt lat="44.603038" lon="3.622123"></trkpt><trkpt lat="44.602968" lon="3.622319"></trkpt><trkpt lat="44.602563" lon="3.622489"></trkpt><trkpt lat="44.602268" lon="3.622993"></trkpt><trkpt lat="44.601747" lon="3.623433"></trkpt><trkpt lat="44.601122" lon="3.623701"></trkpt><trkpt lat="44.600323" lon="3.624151"></trkpt><trkpt lat="44.599981" lon="3.624343"></trkpt><trkpt lat="44.599848" lon="3.624376"></trkpt><trkpt lat="44.599379" lon="3.624091"></trkpt><trkpt lat="44.597382" lon="3.624611"></trkpt><trkpt lat="44.596982" lon="3.624782"></trkpt><trkpt lat="44.59645" lon="3.624685"></trkpt><trkpt lat="44.596357" lon="3.62479"></trkpt><trkpt lat="44.596021" lon="3.626108"></trkpt><trkpt lat="44.595755" lon="3.626823"></trkpt><trkpt lat="44.594782" lon="3.627669"></trkpt><trkpt lat="44.594029" lon="3.62814"></trkpt><trkpt lat="44.593974" lon="3.62819"></trkpt><trkpt lat="44.593821" lon="3.628327"></trkpt><trkpt lat="44.593549" lon="3.629441"></trkpt><trkpt lat="44.59341" lon="3.63058"></trkpt><trkpt lat="44.5933" lon="3.630726"></trkpt><trkpt lat="44.593218" lon="3.630786"></trkpt><trkpt lat="44.593014" lon="3.630881"></trkpt><trkpt lat="44.591432" lon="3.631447"></trkpt><trkpt lat="44.590661" lon="3.631313"></trkpt><trkpt lat="44.59026" lon="3.631345"></trkpt><trkpt lat="44.589969" lon="3.631442"></trkpt><trkpt lat="44.589625" lon="3.631699"></trkpt><trkpt lat="44.588736" lon="3.632813"></trkpt><trkpt lat="44.587803" lon="3.633714"></trkpt><trkpt lat="44.587299" lon="3.634443"></trkpt><trkpt lat="44.587047" lon="3.634676"></trkpt><trkpt lat="44.586913" lon="3.634872"></trkpt><trkpt lat="44.58681" lon="3.635023"></trkpt><trkpt lat="44.58642" lon="3.6362"></trkpt><trkpt lat="44.586294" lon="3.636468"></trkpt><trkpt lat="44.585633" lon="3.637083"></trkpt><trkpt lat="44.5852" lon="3.637821"></trkpt><trkpt lat="44.585137" lon="3.637998"></trkpt><trkpt lat="44.584987" lon="3.638213"></trkpt><trkpt lat="44.58473" lon="3.638406"></trkpt><trkpt lat="44.584451" lon="3.638559"></trkpt><trkpt lat="44.583979" lon="3.638878"></trkpt><trkpt lat="44.583936" lon="3.638985"></trkpt><trkpt lat="44.58415" lon="3.639886"></trkpt><trkpt lat="44.58415" lon="3.639945"></trkpt><trkpt lat="44.584155" lon="3.640019"></trkpt><trkpt lat="44.58406" lon="3.640015"></trkpt><trkpt lat="44.584006" lon="3.640017"></trkpt><trkpt lat="44.583965" lon="3.640024"></trkpt><trkpt lat="44.583919" lon="3.640022"></trkpt><trkpt lat="44.58385" lon="3.640315"></trkpt><trkpt lat="44.583822" lon="3.64086"></trkpt><trkpt lat="44.583851" lon="3.64092"></trkpt><trkpt lat="44.583904" lon="3.641068"></trkpt><trkpt lat="44.583856" lon="3.641153"></trkpt><trkpt lat="44.5838" lon="3.641227"></trkpt><trkpt lat="44.583607" lon="3.641143"></trkpt><trkpt lat="44.583199" lon="3.640796"></trkpt><trkpt lat="44.582885" lon="3.64012"></trkpt><trkpt lat="44.582788" lon="3.639993"></trkpt><trkpt lat="44.5826" lon="3.639833"></trkpt><trkpt lat="44.58224" lon="3.639839"></trkpt><trkpt lat="44.581724" lon="3.640549"></trkpt><trkpt lat="44.580287" lon="3.641064"></trkpt><trkpt lat="44.579939" lon="3.641331"></trkpt><trkpt lat="44.579477" lon="3.641686"></trkpt><trkpt lat="44.578647" lon="3.642678"></trkpt><trkpt lat="44.578208" lon="3.643167"></trkpt><trkpt lat="44.577811" lon="3.643639"></trkpt><trkpt lat="44.577716" lon="3.643835"></trkpt><trkpt lat="44.577781" lon="3.644206"></trkpt><trkpt lat="44.577901" lon="3.644598"></trkpt><trkpt lat="44.577447" lon="3.644472"></trkpt><trkpt lat="44.576848" lon="3.64439"></trkpt><trkpt lat="44.576558" lon="3.644519"></trkpt><trkpt lat="44.576267" lon="3.645077"></trkpt><trkpt lat="44.575557" lon="3.645802"></trkpt><trkpt lat="44.575136" lon="3.646042"></trkpt><trkpt lat="44.574173" lon="3.646085"></trkpt><trkpt lat="44.573806" lon="3.646192"></trkpt><trkpt lat="44.572196" lon="3.647776"></trkpt><trkpt lat="44.571789" lon="3.648403"></trkpt><trkpt lat="44.571383" lon="3.648854"></trkpt><trkpt lat="44.570974" lon="3.649127"></trkpt><trkpt lat="44.569863" lon="3.65072"></trkpt><trkpt lat="44.569299" lon="3.651409"></trkpt><trkpt lat="44.568915" lon="3.651686"></trkpt><trkpt lat="44.568652" lon="3.651652"></trkpt><trkpt lat="44.568516" lon="3.652779"></trkpt><trkpt lat="44.568053" lon="3.652713"></trkpt><trkpt lat="44.567717" lon="3.65277"></trkpt><trkpt lat="44.567375" lon="3.653079"></trkpt><trkpt lat="44.566402" lon="3.654209"></trkpt><trkpt lat="44.56599" lon="3.655112"></trkpt><trkpt lat="44.565893" lon="3.655597"></trkpt><trkpt lat="44.565112" lon="3.655239"></trkpt><trkpt lat="44.564946" lon="3.655233"></trkpt><trkpt lat="44.564843" lon="3.655378"></trkpt><trkpt lat="44.564897" lon="3.655976"></trkpt><trkpt lat="44.564781" lon="3.656272"></trkpt><trkpt lat="44.564607" lon="3.656429"></trkpt><trkpt lat="44.564446" lon="3.656484"></trkpt><trkpt lat="44.563933" lon="3.656656"></trkpt><trkpt lat="44.563884" lon="3.656267"></trkpt><trkpt lat="44.563884" lon="3.656267"></trkpt><trkpt lat="44.563598" lon="3.65639"></trkpt><trkpt lat="44.56344" lon="3.656317"></trkpt><trkpt lat="44.563184" lon="3.655875"></trkpt><trkpt lat="44.562807" lon="3.655382"></trkpt><trkpt lat="44.562447" lon="3.655184"></trkpt><trkpt lat="44.561611" lon="3.655236"></trkpt><trkpt lat="44.560834" lon="3.655469"></trkpt><trkpt lat="44.560113" lon="3.655991"></trkpt><trkpt lat="44.559807" lon="3.65602"></trkpt><trkpt lat="44.559138" lon="3.655789"></trkpt><trkpt lat="44.558636" lon="3.655602"></trkpt><trkpt lat="44.558272" lon="3.655405"></trkpt><trkpt lat="44.557672" lon="3.654789"></trkpt><trkpt lat="44.556741" lon="3.65296"></trkpt><trkpt lat="44.556162" lon="3.652008"></trkpt><trkpt lat="44.555996" lon="3.651526"></trkpt><trkpt lat="44.555326" lon="3.650614"></trkpt><trkpt lat="44.554924" lon="3.649592"></trkpt><trkpt lat="44.554809" lon="3.649162"></trkpt><trkpt lat="44.554896" lon="3.647942"></trkpt><trkpt lat="44.554536" lon="3.646833"></trkpt><trkpt lat="44.554287" lon="3.646494"></trkpt><trkpt lat="44.55378" lon="3.645802"></trkpt><trkpt lat="44.553691" lon="3.645492"></trkpt><trkpt lat="44.553499" lon="3.645097"></trkpt><trkpt lat="44.552895" lon="3.644231"></trkpt><trkpt lat="44.552524" lon="3.643861"></trkpt><trkpt lat="44.552188" lon="3.643243"></trkpt><trkpt lat="44.552034" lon="3.643101"></trkpt><trkpt lat="44.551973" lon="3.643088"></trkpt><trkpt lat="44.551777" lon="3.643269"></trkpt><trkpt lat="44.551608" lon="3.643115"></trkpt><trkpt lat="44.551189" lon="3.642823"></trkpt><trkpt lat="44.551023" lon="3.642643"></trkpt><trkpt lat="44.550874" lon="3.642319"></trkpt><trkpt lat="44.550391" lon="3.640881"></trkpt><trkpt lat="44.550245" lon="3.639658"></trkpt><trkpt lat="44.550072" lon="3.638992"></trkpt><trkpt lat="44.549806" lon="3.638393"></trkpt><trkpt lat="44.549548" lon="3.638073"></trkpt><trkpt lat="44.549253" lon="3.637826"></trkpt><trkpt lat="44.549124" lon="3.637617"></trkpt><trkpt lat="44.548966" lon="3.63666"></trkpt><trkpt lat="44.549013" lon="3.636015"></trkpt><trkpt lat="44.548688" lon="3.635063"></trkpt><trkpt lat="44.548662" lon="3.6348"></trkpt><trkpt lat="44.548705" lon="3.634397"></trkpt><trkpt lat="44.548682" lon="3.634118"></trkpt><trkpt lat="44.548694" lon="3.633872"></trkpt><trkpt lat="44.548899" lon="3.633248"></trkpt><trkpt lat="44.549045" lon="3.631597"></trkpt><trkpt lat="44.549133" lon="3.631387"></trkpt><trkpt lat="44.549747" lon="3.630956"></trkpt><trkpt lat="44.55042" lon="3.630911"></trkpt><trkpt lat="44.55119" lon="3.631346"></trkpt><trkpt lat="44.551275" lon="3.631441"></trkpt><trkpt lat="44.55138" lon="3.631432"></trkpt><trkpt lat="44.550812" lon="3.62942"></trkpt><trkpt lat="44.550751" lon="3.629022"></trkpt><trkpt lat="44.550783" lon="3.628876"></trkpt><trkpt lat="44.550818" lon="3.62871"></trkpt><trkpt lat="44.551079" lon="3.628496"></trkpt><trkpt lat="44.552018" lon="3.628184"></trkpt><trkpt lat="44.55272" lon="3.627843"></trkpt><trkpt lat="44.553013" lon="3.627806"></trkpt><trkpt lat="44.553317" lon="3.627651"></trkpt><trkpt lat="44.554031" lon="3.627108"></trkpt><trkpt lat="44.554447" lon="3.626661"></trkpt><trkpt lat="44.554344" lon="3.626074"></trkpt><trkpt lat="44.554096" lon="3.625581"></trkpt><trkpt lat="44.55374" lon="3.625334"></trkpt><trkpt lat="44.553622" lon="3.625253"></trkpt><trkpt lat="44.553568" lon="3.625215"></trkpt><trkpt lat="44.553408" lon="3.624955"></trkpt><trkpt lat="44.553377" lon="3.624865"></trkpt><trkpt lat="44.55338" lon="3.624817"></trkpt><trkpt lat="44.553381" lon="3.624779"></trkpt><trkpt lat="44.55348" lon="3.624591"></trkpt><trkpt lat="44.553516" lon="3.624491"></trkpt><trkpt lat="44.55356" lon="3.624431"></trkpt><trkpt lat="44.553779" lon="3.624327"></trkpt><trkpt lat="44.553788" lon="3.62428"></trkpt><trkpt lat="44.553824" lon="3.624291"></trkpt><trkpt lat="44.55385" lon="3.624157"></trkpt><trkpt lat="44.553768" lon="3.62404"></trkpt><trkpt lat="44.553413" lon="3.623962"></trkpt><trkpt lat="44.553262" lon="3.623776"></trkpt><trkpt lat="44.552936" lon="3.622985"></trkpt><trkpt lat="44.552917" lon="3.62256"></trkpt><trkpt lat="44.552694" lon="3.621982"></trkpt><trkpt lat="44.552591" lon="3.621715"></trkpt><trkpt lat="44.55246" lon="3.621187"></trkpt><trkpt lat="44.552131" lon="3.62037"></trkpt><trkpt lat="44.552038" lon="3.62014"></trkpt><trkpt lat="44.551281" lon="3.618667"></trkpt><trkpt lat="44.551043" lon="3.617954"></trkpt><trkpt lat="44.550967" lon="3.617028"></trkpt><trkpt lat="44.551551" lon="3.61343"></trkpt><trkpt lat="44.551486" lon="3.612535"></trkpt><trkpt lat="44.551659" lon="3.611912"></trkpt><trkpt lat="44.55206" lon="3.609802"></trkpt><trkpt lat="44.552406" lon="3.608846"></trkpt><trkpt lat="44.552503" lon="3.608148"></trkpt><trkpt lat="44.552406" lon="3.606827"></trkpt><trkpt lat="44.552384" lon="3.605173"></trkpt><trkpt lat="44.552514" lon="3.604991"></trkpt><trkpt lat="44.553022" lon="3.604945"></trkpt><trkpt lat="44.553715" lon="3.604851"></trkpt><trkpt lat="44.554235" lon="3.605452"></trkpt><trkpt lat="44.554556" lon="3.605945"></trkpt><trkpt lat="44.556497" lon="3.607297"></trkpt><trkpt lat="44.557819" lon="3.60814"></trkpt><trkpt lat="44.563201" lon="3.611571"></trkpt><trkpt lat="44.563508" lon="3.611694"></trkpt><trkpt lat="44.56359" lon="3.611797"></trkpt><trkpt lat="44.564031" lon="3.612085"></trkpt><trkpt lat="44.564484" lon="3.613068"></trkpt><trkpt lat="44.564797" lon="3.61362"></trkpt><trkpt lat="44.565725" lon="3.614824"></trkpt><trkpt lat="44.566062" lon="3.615347"></trkpt><trkpt lat="44.566361" lon="3.615945"></trkpt><trkpt lat="44.566492" lon="3.61648"></trkpt><trkpt lat="44.566462" lon="3.617139"></trkpt><trkpt lat="44.566475" lon="3.617227"></trkpt><trkpt lat="44.566511" lon="3.617283"></trkpt><trkpt lat="44.566569" lon="3.617228"></trkpt><trkpt lat="44.56668" lon="3.617016"></trkpt><trkpt lat="44.566758" lon="3.616967"></trkpt><trkpt lat="44.566804" lon="3.617009"></trkpt><trkpt lat="44.566852" lon="3.617022"></trkpt><trkpt lat="44.56699" lon="3.617181"></trkpt><trkpt lat="44.567033" lon="3.617197"></trkpt><trkpt lat="44.567316" lon="3.616899"></trkpt><trkpt lat="44.567411" lon="3.616883"></trkpt><trkpt lat="44.567457" lon="3.616835"></trkpt><trkpt lat="44.567595" lon="3.616883"></trkpt><trkpt lat="44.567935" lon="3.617024"></trkpt><trkpt lat="44.56797" lon="3.617039"></trkpt><trkpt lat="44.568256" lon="3.617157"></trkpt><trkpt lat="44.568535" lon="3.617157"></trkpt><trkpt lat="44.568642" lon="3.617039"></trkpt><trkpt lat="44.568734" lon="3.616733"></trkpt><trkpt lat="44.568724" lon="3.616581"></trkpt><trkpt lat="44.568867" lon="3.616548"></trkpt><trkpt lat="44.569087" lon="3.616488"></trkpt><trkpt lat="44.571187" lon="3.616336"></trkpt><trkpt lat="44.571531" lon="3.616132"></trkpt><trkpt lat="44.571875" lon="3.61581"></trkpt><trkpt lat="44.572265" lon="3.615285"></trkpt><trkpt lat="44.572853" lon="3.614147"></trkpt><trkpt lat="44.573015" lon="3.613815"></trkpt><trkpt lat="44.573443" lon="3.612956"></trkpt><trkpt lat="44.57364" lon="3.612681"></trkpt><trkpt lat="44.573871" lon="3.612356"></trkpt><trkpt lat="44.574238" lon="3.611884"></trkpt><trkpt lat="44.575277" lon="3.61154"></trkpt><trkpt lat="44.576806" lon="3.61161"></trkpt><trkpt lat="44.577173" lon="3.611626"></trkpt><trkpt lat="44.578212" lon="3.611926"></trkpt><trkpt lat="44.579007" lon="3.611884"></trkpt><trkpt lat="44.580413" lon="3.611111"></trkpt><trkpt lat="44.581819" lon="3.610253"></trkpt><trkpt lat="44.582247" lon="3.610296"></trkpt><trkpt lat="44.58243" lon="3.610038"></trkpt><trkpt lat="44.583317" lon="3.609824"></trkpt><trkpt lat="44.583439" lon="3.609352"></trkpt><trkpt lat="44.584264" lon="3.608236"></trkpt><trkpt lat="44.584661" lon="3.607592"></trkpt><trkpt lat="44.585028" lon="3.607463"></trkpt><trkpt lat="44.585456" lon="3.607635"></trkpt><trkpt lat="44.585854" lon="3.607635"></trkpt><trkpt lat="44.586495" lon="3.607034"></trkpt><trkpt lat="44.586954" lon="3.606047"></trkpt><trkpt lat="44.587443" lon="3.605489"></trkpt><trkpt lat="44.588115" lon="3.604288"></trkpt><trkpt lat="44.58836" lon="3.603515"></trkpt><trkpt lat="44.588879" lon="3.6027"></trkpt><trkpt lat="44.59082" lon="3.600806"></trkpt><trkpt lat="44.591392" lon="3.600442"></trkpt><trkpt lat="44.591783" lon="3.600382"></trkpt><trkpt lat="44.59383" lon="3.600854"></trkpt><trkpt lat="44.594442" lon="3.60082"></trkpt><trkpt lat="44.59482" lon="3.600718"></trkpt><trkpt lat="44.595906" lon="3.600747"></trkpt><trkpt lat="44.596196" lon="3.600849"></trkpt><trkpt lat="44.596437" lon="3.601093"></trkpt><trkpt lat="44.596681" lon="3.601606"></trkpt><trkpt lat="44.59672" lon="3.601966"></trkpt><trkpt lat="44.596703" lon="3.603687"></trkpt><trkpt lat="44.596735" lon="3.603881"></trkpt><trkpt lat="44.596746" lon="3.603942"></trkpt><trkpt lat="44.596947" lon="3.604373"></trkpt><trkpt lat="44.59723" lon="3.604746"></trkpt><trkpt lat="44.597497" lon="3.604931"></trkpt><trkpt lat="44.598261" lon="3.605189"></trkpt><trkpt lat="44.598538" lon="3.605117"></trkpt><trkpt lat="44.599972" lon="3.60403"></trkpt><trkpt lat="44.600333" lon="3.603489"></trkpt><trkpt lat="44.600598" lon="3.60281"></trkpt><trkpt lat="44.600694" lon="3.602752"></trkpt><trkpt lat="44.600728" lon="3.602598"></trkpt><trkpt lat="44.60078" lon="3.602378"></trkpt><trkpt lat="44.600909" lon="3.602142"></trkpt><trkpt lat="44.601424" lon="3.601477"></trkpt><trkpt lat="44.602132" lon="3.600426"></trkpt><trkpt lat="44.602164" lon="3.600374"></trkpt><trkpt lat="44.602539" lon="3.599782"></trkpt><trkpt lat="44.603097" lon="3.598731"></trkpt><trkpt lat="44.604355" lon="3.597552"></trkpt><trkpt lat="44.604917" lon="3.596331"></trkpt><trkpt lat="44.605122" lon="3.59598"></trkpt><trkpt lat="44.605106" lon="3.596098"></trkpt><trkpt lat="44.605333" lon="3.596766"></trkpt><trkpt lat="44.605606" lon="3.597368"></trkpt><trkpt lat="44.607817" lon="3.600561"></trkpt><trkpt lat="44.608045" lon="3.601158"></trkpt><trkpt lat="44.608284" lon="3.602812"></trkpt><trkpt lat="44.608425" lon="3.603422"></trkpt><trkpt lat="44.608585" lon="3.60381"></trkpt><trkpt lat="44.608975" lon="3.604421"></trkpt><trkpt lat="44.609396" lon="3.605014"></trkpt><trkpt lat="44.609472" lon="3.604744"></trkpt><trkpt lat="44.609648" lon="3.603663"></trkpt><trkpt lat="44.609444" lon="3.602378"></trkpt><trkpt lat="44.609688" lon="3.600425"></trkpt><trkpt lat="44.609688" lon="3.599481"></trkpt><trkpt lat="44.609734" lon="3.599073"></trkpt><trkpt lat="44.609932" lon="3.598215"></trkpt><trkpt lat="44.610009" lon="3.597529"></trkpt><trkpt lat="44.609985" lon="3.597427"></trkpt><trkpt lat="44.609841" lon="3.596799"></trkpt><trkpt lat="44.609566" lon="3.596091"></trkpt><trkpt lat="44.609459" lon="3.595404"></trkpt><trkpt lat="44.609596" lon="3.59461"></trkpt><trkpt lat="44.610055" lon="3.593537"></trkpt><trkpt lat="44.610667" lon="3.592594"></trkpt><trkpt lat="44.612988" lon="3.590061"></trkpt><trkpt lat="44.613702" lon="3.589546"></trkpt><trkpt lat="44.614471" lon="3.588892"></trkpt><trkpt lat="44.614628" lon="3.588651"></trkpt><trkpt lat="44.614751" lon="3.588505"></trkpt><trkpt lat="44.614877" lon="3.588225"></trkpt><trkpt lat="44.614963" lon="3.58795"></trkpt><trkpt lat="44.615013" lon="3.587603"></trkpt><trkpt lat="44.615071" lon="3.586376"></trkpt><trkpt lat="44.615063" lon="3.586257"></trkpt><trkpt lat="44.615156" lon="3.585509"></trkpt><trkpt lat="44.615458" lon="3.58481"></trkpt><trkpt lat="44.615833" lon="3.584434"></trkpt><trkpt lat="44.616663" lon="3.583993"></trkpt><trkpt lat="44.617037" lon="3.583573"></trkpt><trkpt lat="44.617685" lon="3.582133"></trkpt><trkpt lat="44.617967" lon="3.580921"></trkpt><trkpt lat="44.618038" lon="3.58075"></trkpt><trkpt lat="44.618158" lon="3.580532"></trkpt><trkpt lat="44.618318" lon="3.580274"></trkpt><trkpt lat="44.618595" lon="3.580028"></trkpt><trkpt lat="44.61892" lon="3.579868"></trkpt><trkpt lat="44.61899" lon="3.579842"></trkpt><trkpt lat="44.619407" lon="3.579684"></trkpt><trkpt lat="44.619815" lon="3.579307"></trkpt><trkpt lat="44.619967" lon="3.579006"></trkpt><trkpt lat="44.620105" lon="3.578496"></trkpt><trkpt lat="44.620182" lon="3.577814"></trkpt><trkpt lat="44.620075" lon="3.575771"></trkpt><trkpt lat="44.6201" lon="3.575076"></trkpt><trkpt lat="44.620189" lon="3.574364"></trkpt><trkpt lat="44.620323" lon="3.573781"></trkpt><trkpt lat="44.620405" lon="3.573535"></trkpt><trkpt lat="44.620817" lon="3.572297"></trkpt><trkpt lat="44.62101" lon="3.571525"></trkpt><trkpt lat="44.621023" lon="3.571338"></trkpt><trkpt lat="44.621098" lon="3.571052"></trkpt><trkpt lat="44.621205" lon="3.570536"></trkpt><trkpt lat="44.62137" lon="3.56895"></trkpt><trkpt lat="44.62147" lon="3.567775"></trkpt><trkpt lat="44.621474" lon="3.567023"></trkpt><trkpt lat="44.621736" lon="3.563757"></trkpt><trkpt lat="44.621892" lon="3.563026"></trkpt><trkpt lat="44.621959" lon="3.562832"></trkpt><trkpt lat="44.622049" lon="3.562376"></trkpt><trkpt lat="44.6221" lon="3.56214"></trkpt><trkpt lat="44.622272" lon="3.561526"></trkpt><trkpt lat="44.622271" lon="3.561295"></trkpt><trkpt lat="44.622311" lon="3.561179"></trkpt><trkpt lat="44.62234" lon="3.560602"></trkpt><trkpt lat="44.622289" lon="3.560263"></trkpt><trkpt lat="44.622284" lon="3.559601"></trkpt><trkpt lat="44.6223" lon="3.559514"></trkpt><trkpt lat="44.622411" lon="3.559638"></trkpt><trkpt lat="44.623084" lon="3.559942"></trkpt><trkpt lat="44.62324" lon="3.560013"></trkpt><trkpt lat="44.623411" lon="3.560094"></trkpt><trkpt lat="44.6235" lon="3.560233"></trkpt><trkpt lat="44.623537" lon="3.560292"></trkpt><trkpt lat="44.62357" lon="3.560354"></trkpt><trkpt lat="44.623694" lon="3.560587"></trkpt><trkpt lat="44.62385" lon="3.560544"></trkpt><trkpt lat="44.624095" lon="3.56034"></trkpt><trkpt lat="44.624358" lon="3.559949"></trkpt><trkpt lat="44.624499" lon="3.559407"></trkpt><trkpt lat="44.624526" lon="3.559294"></trkpt><trkpt lat="44.624614" lon="3.559176"></trkpt><trkpt lat="44.624732" lon="3.55915"></trkpt><trkpt lat="44.624874" lon="3.559198"></trkpt><trkpt lat="44.624958" lon="3.559407"></trkpt><trkpt lat="44.624666" lon="3.56015"></trkpt><trkpt lat="44.624665" lon="3.560223"></trkpt><trkpt lat="44.624683" lon="3.560321"></trkpt><trkpt lat="44.624828" lon="3.560459"></trkpt><trkpt lat="44.624931" lon="3.560484"></trkpt><trkpt lat="44.625079" lon="3.560437"></trkpt><trkpt lat="44.625234" lon="3.560314"></trkpt><trkpt lat="44.625318" lon="3.560237"></trkpt><trkpt lat="44.625544" lon="3.559977"></trkpt><trkpt lat="44.625767" lon="3.559847"></trkpt><trkpt lat="44.625924" lon="3.559931"></trkpt><trkpt lat="44.626023" lon="3.560208"></trkpt><trkpt lat="44.62608" lon="3.560721"></trkpt><trkpt lat="44.62613" lon="3.561075"></trkpt><trkpt lat="44.626234" lon="3.561117"></trkpt><trkpt lat="44.626569" lon="3.561113"></trkpt><trkpt lat="44.6275" lon="3.560678"></trkpt><trkpt lat="44.627677" lon="3.560701"></trkpt><trkpt lat="44.627783" lon="3.560115"></trkpt><trkpt lat="44.627913" lon="3.559933"></trkpt><trkpt lat="44.62897" lon="3.55901"></trkpt><trkpt lat="44.629111" lon="3.55879"></trkpt><trkpt lat="44.629936" lon="3.557146"></trkpt><trkpt lat="44.631131" lon="3.554761"></trkpt><trkpt lat="44.631318" lon="3.553839"></trkpt><trkpt lat="44.631382" lon="3.55339"></trkpt><trkpt lat="44.631364" lon="3.553002"></trkpt><trkpt lat="44.631069" lon="3.552404"></trkpt><trkpt lat="44.631081" lon="3.552195"></trkpt><trkpt lat="44.631333" lon="3.551221"></trkpt><trkpt lat="44.631848" lon="3.550264"></trkpt><trkpt lat="44.631888" lon="3.550062"></trkpt><trkpt lat="44.631204" lon="3.549625"></trkpt><trkpt lat="44.630574" lon="3.549408"></trkpt><trkpt lat="44.630169" lon="3.549152"></trkpt><trkpt lat="44.629995" lon="3.548965"></trkpt><trkpt lat="44.629881" lon="3.548641"></trkpt><trkpt lat="44.629881" lon="3.547599"></trkpt><trkpt lat="44.629839" lon="3.547306"></trkpt><trkpt lat="44.629629" lon="3.546843"></trkpt><trkpt lat="44.629401" lon="3.546049"></trkpt><trkpt lat="44.629033" lon="3.544356"></trkpt><trkpt lat="44.628953" lon="3.543753"></trkpt><trkpt lat="44.628996" lon="3.54349"></trkpt><trkpt lat="44.629206" lon="3.543193"></trkpt><trkpt lat="44.629285" lon="3.543008"></trkpt><trkpt lat="44.629313" lon="3.542941"></trkpt><trkpt lat="44.629369" lon="3.542547"></trkpt><trkpt lat="44.629908" lon="3.541766"></trkpt><trkpt lat="44.629946" lon="3.541615"></trkpt><trkpt lat="44.629983" lon="3.540793"></trkpt><trkpt lat="44.629872" lon="3.539744"></trkpt><trkpt lat="44.629809" lon="3.539396"></trkpt><trkpt lat="44.62863" lon="3.537434"></trkpt><trkpt lat="44.628099" lon="3.53611"></trkpt><trkpt lat="44.628066" lon="3.535982"></trkpt><trkpt lat="44.627987" lon="3.535206"></trkpt><trkpt lat="44.627962" lon="3.534523"></trkpt><trkpt lat="44.628023" lon="3.533735"></trkpt><trkpt lat="44.628889" lon="3.531761"></trkpt><trkpt lat="44.629022" lon="3.531458"></trkpt><trkpt lat="44.628999" lon="3.530922"></trkpt><trkpt lat="44.629084" lon="3.530484"></trkpt><trkpt lat="44.629016" lon="3.529747"></trkpt><trkpt lat="44.62901" lon="3.528759"></trkpt><trkpt lat="44.62905" lon="3.528615"></trkpt><trkpt lat="44.629294" lon="3.528252"></trkpt><trkpt lat="44.629299" lon="3.527925"></trkpt><trkpt lat="44.629348" lon="3.527714"></trkpt><trkpt lat="44.630175" lon="3.526471"></trkpt><trkpt lat="44.630457" lon="3.526048"></trkpt><trkpt lat="44.630622" lon="3.525879"></trkpt><trkpt lat="44.630735" lon="3.525314"></trkpt><trkpt lat="44.630769" lon="3.525137"></trkpt><trkpt lat="44.63073" lon="3.524932"></trkpt><trkpt lat="44.630852" lon="3.524367"></trkpt><trkpt lat="44.630837" lon="3.523852"></trkpt><trkpt lat="44.63077" lon="3.523543"></trkpt><trkpt lat="44.630677" lon="3.523251"></trkpt><trkpt lat="44.630525" lon="3.523054"></trkpt><trkpt lat="44.630142" lon="3.522757"></trkpt><trkpt lat="44.630054" lon="3.521945"></trkpt><trkpt lat="44.630168" lon="3.521812"></trkpt><trkpt lat="44.63078" lon="3.521698"></trkpt><trkpt lat="44.630866" lon="3.521567"></trkpt><trkpt lat="44.630971" lon="3.521654"></trkpt><trkpt lat="44.631207" lon="3.521805"></trkpt><trkpt lat="44.631314" lon="3.521805"></trkpt><trkpt lat="44.631375" lon="3.521793"></trkpt><trkpt lat="44.631421" lon="3.521783"></trkpt><trkpt lat="44.631507" lon="3.521719"></trkpt><trkpt lat="44.631572" lon="3.521633"></trkpt><trkpt lat="44.631615" lon="3.521526"></trkpt><trkpt lat="44.631593" lon="3.520496"></trkpt><trkpt lat="44.631597" lon="3.520344"></trkpt><trkpt lat="44.63155" lon="3.520135"></trkpt><trkpt lat="44.631468" lon="3.519835"></trkpt><trkpt lat="44.630845" lon="3.518487"></trkpt><trkpt lat="44.630786" lon="3.518011"></trkpt><trkpt lat="44.630865" lon="3.517609"></trkpt><trkpt lat="44.631011" lon="3.517348"></trkpt><trkpt lat="44.631071" lon="3.517077"></trkpt><trkpt lat="44.631378" lon="3.516706"></trkpt><trkpt lat="44.631131" lon="3.516525"></trkpt><trkpt lat="44.631092" lon="3.516412"></trkpt><trkpt lat="44.631061" lon="3.514274"></trkpt><trkpt lat="44.631081" lon="3.51375"></trkpt><trkpt lat="44.631171" lon="3.513269"></trkpt><trkpt lat="44.631041" lon="3.512745"></trkpt><trkpt lat="44.631071" lon="3.512589"></trkpt><trkpt lat="44.631323" lon="3.51215"></trkpt><trkpt lat="44.631534" lon="3.511598"></trkpt><trkpt lat="44.631766" lon="3.511287"></trkpt><trkpt lat="44.632118" lon="3.509942"></trkpt><trkpt lat="44.632461" lon="3.509531"></trkpt><trkpt lat="44.633106" lon="3.508073"></trkpt><trkpt lat="44.633226" lon="3.50738"></trkpt><trkpt lat="44.633277" lon="3.506431"></trkpt><trkpt lat="44.633529" lon="3.505539"></trkpt><trkpt lat="44.634083" lon="3.504746"></trkpt><trkpt lat="44.634375" lon="3.504761"></trkpt><trkpt lat="44.634486" lon="3.504846"></trkpt><trkpt lat="44.634395" lon="3.503373"></trkpt><trkpt lat="44.634344" lon="3.503277"></trkpt><trkpt lat="44.634184" lon="3.502977"></trkpt><trkpt lat="44.634002" lon="3.502807"></trkpt><trkpt lat="44.633771" lon="3.502878"></trkpt><trkpt lat="44.633599" lon="3.502793"></trkpt><trkpt lat="44.633468" lon="3.502255"></trkpt><trkpt lat="44.633358" lon="3.502311"></trkpt><trkpt lat="44.633327" lon="3.50268"></trkpt><trkpt lat="44.633217" lon="3.50275"></trkpt><trkpt lat="44.633146" lon="3.502566"></trkpt><trkpt lat="44.633055" lon="3.501972"></trkpt><trkpt lat="44.632854" lon="3.501689"></trkpt><trkpt lat="44.632471" lon="3.501476"></trkpt><trkpt lat="44.632333" lon="3.501473"></trkpt><trkpt lat="44.63231" lon="3.501343"></trkpt><trkpt lat="44.632653" lon="3.500762"></trkpt><trkpt lat="44.632762" lon="3.500578"></trkpt><trkpt lat="44.632821" lon="3.500383"></trkpt><trkpt lat="44.63262" lon="3.499748"></trkpt><trkpt lat="44.632637" lon="3.499525"></trkpt><trkpt lat="44.632793" lon="3.499196"></trkpt><trkpt lat="44.632563" lon="3.499041"></trkpt><trkpt lat="44.632347" lon="3.49873"></trkpt><trkpt lat="44.632267" lon="3.498247"></trkpt><trkpt lat="44.632215" lon="3.497356"></trkpt><trkpt lat="44.632001" lon="3.496721"></trkpt><trkpt lat="44.631808" lon="3.49642"></trkpt><trkpt lat="44.631572" lon="3.49627"></trkpt><trkpt lat="44.631314" lon="3.49597"></trkpt><trkpt lat="44.631207" lon="3.495862"></trkpt><trkpt lat="44.631185" lon="3.495669"></trkpt><trkpt lat="44.6311" lon="3.495326"></trkpt><trkpt lat="44.631066" lon="3.495158"></trkpt><trkpt lat="44.631078" lon="3.495069"></trkpt><trkpt lat="44.631066" lon="3.494703"></trkpt><trkpt lat="44.631047" lon="3.494586"></trkpt><trkpt lat="44.631016" lon="3.494414"></trkpt><trkpt lat="44.631061" lon="3.494293"></trkpt><trkpt lat="44.631093" lon="3.493159"></trkpt><trkpt lat="44.631164" lon="3.492794"></trkpt><trkpt lat="44.631293" lon="3.492493"></trkpt><trkpt lat="44.631636" lon="3.492129"></trkpt><trkpt lat="44.632387" lon="3.491764"></trkpt><trkpt lat="44.632516" lon="3.491678"></trkpt><trkpt lat="44.632666" lon="3.491464"></trkpt><trkpt lat="44.632709" lon="3.49127"></trkpt><trkpt lat="44.632687" lon="3.49097"></trkpt><trkpt lat="44.632623" lon="3.490691"></trkpt><trkpt lat="44.632194" lon="3.489597"></trkpt><trkpt lat="44.63213" lon="3.488932"></trkpt><trkpt lat="44.63243" lon="3.487923"></trkpt><trkpt lat="44.632516" lon="3.487472"></trkpt><trkpt lat="44.632516" lon="3.486957"></trkpt><trkpt lat="44.63258" lon="3.4864"></trkpt><trkpt lat="44.633159" lon="3.485563"></trkpt><trkpt lat="44.633374" lon="3.484983"></trkpt><trkpt lat="44.63346" lon="3.484704"></trkpt><trkpt lat="44.633474" lon="3.484617"></trkpt><trkpt lat="44.633481" lon="3.484576"></trkpt><trkpt lat="44.633481" lon="3.484447"></trkpt><trkpt lat="44.633374" lon="3.484104"></trkpt><trkpt lat="44.633052" lon="3.483696"></trkpt><trkpt lat="44.632902" lon="3.483589"></trkpt><trkpt lat="44.632752" lon="3.483524"></trkpt><trkpt lat="44.63228" lon="3.483267"></trkpt><trkpt lat="44.632001" lon="3.482966"></trkpt><trkpt lat="44.631872" lon="3.48273"></trkpt><trkpt lat="44.631851" lon="3.482473"></trkpt><trkpt lat="44.632022" lon="3.481679"></trkpt><trkpt lat="44.632022" lon="3.481228"></trkpt><trkpt lat="44.632022" lon="3.481035"></trkpt><trkpt lat="44.632022" lon="3.480885"></trkpt><trkpt lat="44.632022" lon="3.480697"></trkpt>
</trkseg>
</trk>

</gpx>