<?xml version="1.0" encoding="UTF-8"?>
<gpx xmlns="http://www.topografix.com/GPX/1/1" xmlns:xsi="http://www.w3.org/2001/XMLSchema-instance" xsi:schemaLocation="http://www.topografix.com/GPX/1/1 http://www.topografix.com/GPX/1/1/gpx.xsd" version="1.1" creator="gpx.py -- https://github.com/tkrajina/gpxpy">
  <wpt lat="44.096361826446525" lon="3.0931062530726194">
    <ele>360.0</ele>
    <name>Archéologie: Site archéologique de la Graufesenque</name>
    <desc>&lt;p&gt;Dans la plaine alluviale de la Graufesenque, des fouilles ont mis au jour les restes d'une agglom&amp;eacute;ration gallo-romaine appel&amp;eacute;e Condatomagus (signifiant le march&amp;eacute; du confluent).&lt;/p&gt;
&lt;p&gt;Au Ier si&amp;egrave;cle de notre &amp;egrave;re, plus de 600 ateliers de potiers fabriquaient l&amp;agrave; de la vaisselle en terre cuite rouge, dite sigil&amp;eacute;e, qui &amp;eacute;tait export&amp;eacute;e dans tout l'empire romain. Millau &amp;eacute;tait alors la capitale de la c&amp;eacute;ramique antique.&lt;/p&gt;</desc>
  </wpt>
  <trk>
    <name>[Itinéraire] Gravel N°08 - Les portes des Gorges de la Dourbie</name>
    <desc>&lt;ol&gt;
&lt;li&gt;Emprunter la voie cyclable en direction du Centre-ville. Au rond-point de Cureplat, prendre &amp;agrave; droite pour rejoindre le cheminiment le long du Tarn jusqu'&amp;agrave; la passerelle de la Maladrerie.&lt;/li&gt;
&lt;li&gt;Poursuivre &amp;agrave; gauche en montant, sur la petite route qui m&amp;egrave;ne au site arch&amp;eacute;o.&lt;/li&gt;
&lt;li&gt;Poursuivre la route en direction du centre equestre. Le bitume laisse place &amp;agrave; une belle piste longeant la Dourbie en rive gauche jusqu'au village de Massebiau.&lt;/li&gt;
&lt;li&gt;Traverser le pont et la route pour la petite ascension du tour, le "chemin de Bouysse". Retrouver un peu de goudron dans les maisons du quartier Saint-Lambert.&lt;/li&gt;
&lt;li&gt;Retour &amp;agrave; Millau par la voie cyclable des Gorges de la Dourbie.&lt;/li&gt;
&lt;/ol&gt;
&lt;br /&gt;59% de routes et 41% de chemins&lt;br /&gt;&lt;br /&gt;Points sensibles :&lt;br /&gt;Km 0,5 : attention aux 2 petites rigoles successives sur les berges du Tarn&lt;br /&gt;Km 5,1 : descente abrupte sur route&lt;br /&gt;Km 7,6 : travers&amp;eacute;e de la route d&amp;eacute;partementale D991&lt;br /&gt;Km 8 : mont&amp;eacute;e pierreuse et technique&lt;br /&gt;&lt;br /&gt;Temps de roulage en fonction votre niveau : 1h &amp;agrave; 1h15Modifié: 6 jours</desc>
    <trkseg>
      <trkpt lat="44.10331137326252" lon="3.0882931438183197">
        <ele>359.0</ele>
      </trkpt>
      <trkpt lat="44.103226701821086" lon="3.0881390532044235">
        <ele>359.0</ele>
      </trkpt>
      <trkpt lat="44.10314195508742" lon="3.0879848264157763">
        <ele>359.0</ele>
      </trkpt>
      <trkpt lat="44.10307131031751" lon="3.0878516363252477">
        <ele>359.0</ele>
      </trkpt>
      <trkpt lat="44.102949348526664" lon="3.087978959083557">
        <ele>359.0</ele>
      </trkpt>
      <trkpt lat="44.10284148857865" lon="3.088021874427795">
        <ele>359.0</ele>
      </trkpt>
      <trkpt lat="44.102794391695525" lon="3.0880505683846655">
        <ele>359.0</ele>
      </trkpt>
      <trkpt lat="44.10271821982553" lon="3.0880969762802115">
        <ele>359.0</ele>
      </trkpt>
      <trkpt lat="44.10265851143122" lon="3.0880111455917363">
        <ele>359.0</ele>
      </trkpt>
      <trkpt lat="44.10258339433298" lon="3.0878931283950815">
        <ele>359.0</ele>
      </trkpt>
      <trkpt lat="44.10251020322237" lon="3.087753653526307">
        <ele>359.0</ele>
      </trkpt>
      <trkpt lat="44.102421603335664" lon="3.087630271911622">
        <ele>359.0</ele>
      </trkpt>
      <trkpt lat="44.102329151138406" lon="3.08754175901413">
        <ele>359.0</ele>
      </trkpt>
      <trkpt lat="44.10220395522417" lon="3.087429106235504">
        <ele>359.0</ele>
      </trkpt>
      <trkpt lat="44.1021307636438" lon="3.0873674154281616">
        <ele>359.0</ele>
      </trkpt>
      <trkpt lat="44.102130447028756" lon="3.087367025789485">
        <ele>359.0</ele>
      </trkpt>
      <trkpt lat="44.102047941483065" lon="3.087265491485596">
        <ele>359.0</ele>
      </trkpt>
      <trkpt lat="44.10199786291099" lon="3.087182343006134">
        <ele>358.0</ele>
      </trkpt>
      <trkpt lat="44.10195741480255" lon="3.087077736854554">
        <ele>358.0</ele>
      </trkpt>
      <trkpt lat="44.10193044938157" lon="3.086833655834199">
        <ele>358.0</ele>
      </trkpt>
      <trkpt lat="44.10190488925178" lon="3.0865762811466775">
        <ele>358.0</ele>
      </trkpt>
      <trkpt lat="44.10188037070987" lon="3.086329400539398">
        <ele>358.0</ele>
      </trkpt>
      <trkpt lat="44.10188036939445" lon="3.0863293871060127">
        <ele>358.0</ele>
      </trkpt>
      <trkpt lat="44.10186303577521" lon="3.0861523747444157">
        <ele>358.0</ele>
      </trkpt>
      <trkpt lat="44.101853405253834" lon="3.0860616825520997">
        <ele>358.0</ele>
      </trkpt>
      <trkpt lat="44.101891750113346" lon="3.086058345216479">
        <ele>358.0</ele>
      </trkpt>
      <trkpt lat="44.10194585819508" lon="3.086053635925054">
        <ele>358.0</ele>
      </trkpt>
      <trkpt lat="44.10195741480245" lon="3.0859887599945064">
        <ele>359.0</ele>
      </trkpt>
      <trkpt lat="44.101997859953855" lon="3.0858868435033058">
        <ele>359.0</ele>
      </trkpt>
      <trkpt lat="44.101997862910885" lon="3.0858868360519405">
        <ele>359.0</ele>
      </trkpt>
      <trkpt lat="44.10204601538493" lon="3.0858197808265695">
        <ele>359.0</ele>
      </trkpt>
      <trkpt lat="44.102101872205566" lon="3.0857929587364197">
        <ele>359.0</ele>
      </trkpt>
      <trkpt lat="44.10223669879657" lon="3.085707128047944">
        <ele>359.0</ele>
      </trkpt>
      <trkpt lat="44.10237730334251" lon="3.085602521896364">
        <ele>359.0</ele>
      </trkpt>
      <trkpt lat="44.1025082771393" lon="3.0854952335357666">
        <ele>359.0</ele>
      </trkpt>
      <trkpt lat="44.10261613769523" lon="3.085395991802216">
        <ele>359.0</ele>
      </trkpt>
      <trkpt lat="44.10271051552026" lon="3.085320889949799">
        <ele>359.0</ele>
      </trkpt>
      <trkpt lat="44.10279911497401" lon="3.0852994322776794">
        <ele>359.0</ele>
      </trkpt>
      <trkpt lat="44.10291082713944" lon="3.085269927978516">
        <ele>359.0</ele>
      </trkpt>
      <trkpt lat="44.10292736426147" lon="3.0852693219448812">
        <ele>359.0</ele>
      </trkpt>
      <trkpt lat="44.10298401775405" lon="3.0852672457695007">
        <ele>359.0</ele>
      </trkpt>
      <trkpt lat="44.10285689715491" lon="3.085363805294037">
        <ele>358.0</ele>
      </trkpt>
      <trkpt lat="44.10272977628239" lon="3.0854335427284245">
        <ele>358.0</ele>
      </trkpt>
      <trkpt lat="44.10258917257469" lon="3.085548877716065">
        <ele>358.0</ele>
      </trkpt>
      <trkpt lat="44.10244856853263" lon="3.0857098102569585">
        <ele>358.0</ele>
      </trkpt>
      <trkpt lat="44.10233926717119" lon="3.085810045973897">
        <ele>358.0</ele>
      </trkpt>
      <trkpt lat="44.10229062934688" lon="3.085854649543763">
        <ele>358.0</ele>
      </trkpt>
      <trkpt lat="44.10212883754838" lon="3.0859619379043592">
        <ele>358.0</ele>
      </trkpt>
      <trkpt lat="44.10203253269616" lon="3.0860236287117013">
        <ele>358.0</ele>
      </trkpt>
      <trkpt lat="44.10194585819508" lon="3.086053635925054">
        <ele>358.0</ele>
      </trkpt>
      <trkpt lat="44.101891750113346" lon="3.086058345216479">
        <ele>359.0</ele>
      </trkpt>
      <trkpt lat="44.101853405253834" lon="3.0860616825520997">
        <ele>359.0</ele>
      </trkpt>
      <trkpt lat="44.10176480438282" lon="3.0861309170722966">
        <ele>359.0</ele>
      </trkpt>
      <trkpt lat="44.10165886838449" lon="3.0862006545066847">
        <ele>359.0</ele>
      </trkpt>
      <trkpt lat="44.10153848622649" lon="3.0862583221225095">
        <ele>359.0</ele>
      </trkpt>
      <trkpt lat="44.101418104045976" lon="3.086315989494324">
        <ele>359.0</ele>
      </trkpt>
      <trkpt lat="44.1013123481172" lon="3.0863593042151165">
        <ele>359.0</ele>
      </trkpt>
      <trkpt lat="44.10130349977176" lon="3.086362928246624">
        <ele>359.0</ele>
      </trkpt>
      <trkpt lat="44.101188895484576" lon="3.086409866809845">
        <ele>359.0</ele>
      </trkpt>
      <trkpt lat="44.10105502943766" lon="3.086483627731284">
        <ele>359.0</ele>
      </trkpt>
      <trkpt lat="44.10092116335083" lon="3.086557388305664">
        <ele>359.0</ele>
      </trkpt>
      <trkpt lat="44.10080655811715" lon="3.086612373701215">
        <ele>359.0</ele>
      </trkpt>
      <trkpt lat="44.100691952862995" lon="3.086667358875274">
        <ele>359.0</ele>
      </trkpt>
      <trkpt lat="44.100559048760545" lon="3.0867317320419865">
        <ele>359.0</ele>
      </trkpt>
      <trkpt lat="44.10042614462988" lon="3.08679610490799">
        <ele>359.0</ele>
      </trkpt>
      <trkpt lat="44.100314427680175" lon="3.0868618191578734">
        <ele>359.0</ele>
      </trkpt>
      <trkpt lat="44.10020271069784" lon="3.0869275331497197">
        <ele>359.0</ele>
      </trkpt>
      <trkpt lat="44.10007269474159" lon="3.086983859667732">
        <ele>359.0</ele>
      </trkpt>
      <trkpt lat="44.09994267876558" lon="3.0870401859283447">
        <ele>359.0</ele>
      </trkpt>
      <trkpt lat="44.09982229311456" lon="3.08710053575886">
        <ele>359.0</ele>
      </trkpt>
      <trkpt lat="44.09970190743818" lon="3.087160885334015">
        <ele>359.0</ele>
      </trkpt>
      <trkpt lat="44.0995872998454" lon="3.0872239173728184">
        <ele>359.0</ele>
      </trkpt>
      <trkpt lat="44.099472692223515" lon="3.0872869491577157">
        <ele>359.0</ele>
      </trkpt>
      <trkpt lat="44.09938408778475" lon="3.087278902530671">
        <ele>359.0</ele>
      </trkpt>
      <trkpt lat="44.09926081182296" lon="3.0873164534568787">
        <ele>359.0</ele>
      </trkpt>
      <trkpt lat="44.09906241403228" lon="3.087396919727325">
        <ele>359.0</ele>
      </trkpt>
      <trkpt lat="44.0989516575926" lon="3.087430447405269">
        <ele>359.0</ele>
      </trkpt>
      <trkpt lat="44.09884090114933" lon="3.087463974952698">
        <ele>359.0</ele>
      </trkpt>
      <trkpt lat="44.09864635405107" lon="3.0875189604254927">
        <ele>359.0</ele>
      </trkpt>
      <trkpt lat="44.09845180694579" lon="3.087573945522309">
        <ele>359.0</ele>
      </trkpt>
      <trkpt lat="44.098309266670604" lon="3.0876021087875114">
        <ele>359.0</ele>
      </trkpt>
      <trkpt lat="44.09816672639919" lon="3.087630271911622">
        <ele>359.0</ele>
      </trkpt>
      <trkpt lat="44.09803092725269" lon="3.0876477063118246">
        <ele>359.0</ele>
      </trkpt>
      <trkpt lat="44.09789512811345" lon="3.0876651406288147">
        <ele>359.0</ele>
      </trkpt>
      <trkpt lat="44.09769094665734" lon="3.0876785517220093">
        <ele>359.0</ele>
      </trkpt>
      <trkpt lat="44.09748676522227" lon="3.087691962718964">
        <ele>359.0</ele>
      </trkpt>
      <trkpt lat="44.097427051544315" lon="3.0877053737640376">
        <ele>359.0</ele>
      </trkpt>
      <trkpt lat="44.09736733780604" lon="3.0877563357353206">
        <ele>359.0</ele>
      </trkpt>
      <trkpt lat="44.09722672134542" lon="3.0877912044525155">
        <ele>359.0</ele>
      </trkpt>
      <trkpt lat="44.097086104379024" lon="3.087807297746372">
        <ele>359.0</ele>
      </trkpt>
      <trkpt lat="44.09694548742104" lon="3.0878233909606934">
        <ele>359.0</ele>
      </trkpt>
      <trkpt lat="44.09682991133156" lon="3.0878314376040814">
        <ele>359.0</ele>
      </trkpt>
      <trkpt lat="44.09671433524878" lon="3.087839484214783">
        <ele>359.0</ele>
      </trkpt>
      <trkpt lat="44.096587201027894" lon="3.0878354608922725">
        <ele>359.0</ele>
      </trkpt>
      <trkpt lat="44.09646006681566" lon="3.087831437587739">
        <ele>359.0</ele>
      </trkpt>
      <trkpt lat="44.09632619004055" lon="3.0878046154344876">
        <ele>359.0</ele>
      </trkpt>
      <trkpt lat="44.09619231326865" lon="3.0877777934074397">
        <ele>359.0</ele>
      </trkpt>
      <trkpt lat="44.09597464222539" lon="3.087732195854188">
        <ele>359.0</ele>
      </trkpt>
      <trkpt lat="44.095822464648464" lon="3.0876651406288143">
        <ele>360.0</ele>
      </trkpt>
      <trkpt lat="44.09568666016162" lon="3.0875658986584282">
        <ele>360.0</ele>
      </trkpt>
      <trkpt lat="44.09555085559492" lon="3.087466657161713">
        <ele>360.0</ele>
      </trkpt>
      <trkpt lat="44.09554946145987" lon="3.08746479133733">
        <ele>360.0</ele>
      </trkpt>
      <trkpt lat="44.095451650553194" lon="3.087333887584018">
        <ele>360.0</ele>
      </trkpt>
      <trkpt lat="44.09535244535594" lon="3.087201118469238">
        <ele>360.0</ele>
      </trkpt>
      <trkpt lat="44.095252276827054" lon="3.086999952793122">
        <ele>360.0</ele>
      </trkpt>
      <trkpt lat="44.095196413535334" lon="3.086839020252228">
        <ele>360.0</ele>
      </trkpt>
      <trkpt lat="44.09512899225091" lon="3.0867210030555725">
        <ele>360.0</ele>
      </trkpt>
      <trkpt lat="44.09501148640004" lon="3.0865573883056645">
        <ele>360.0</ele>
      </trkpt>
      <trkpt lat="44.094897832977814" lon="3.086369633674621">
        <ele>360.0</ele>
      </trkpt>
      <trkpt lat="44.094820779716265" lon="3.086235523042289">
        <ele>359.0</ele>
      </trkpt>
      <trkpt lat="44.0947437262938" lon="3.0861014127731328">
        <ele>359.0</ele>
      </trkpt>
      <trkpt lat="44.094707125897415" lon="3.0860209465026855">
        <ele>359.0</ele>
      </trkpt>
      <trkpt lat="44.09463199869661" lon="3.0859217047691354">
        <ele>359.0</ele>
      </trkpt>
      <trkpt lat="44.09450293379606" lon="3.0856829881668095">
        <ele>359.0</ele>
      </trkpt>
      <trkpt lat="44.09439313209158" lon="3.0854550004005437">
        <ele>359.0</ele>
      </trkpt>
      <trkpt lat="44.094298740989665" lon="3.085398674011232">
        <ele>359.0</ele>
      </trkpt>
      <trkpt lat="44.09420627609071" lon="3.0852940678596505">
        <ele>359.0</ele>
      </trkpt>
      <trkpt lat="44.09410225290656" lon="3.0850580334663396">
        <ele>359.0</ele>
      </trkpt>
      <trkpt lat="44.09403868309259" lon="3.0847683548927316">
        <ele>359.0</ele>
      </trkpt>
      <trkpt lat="44.09399822953922" lon="3.084524273872375">
        <ele>359.0</ele>
      </trkpt>
      <trkpt lat="44.093925027800815" lon="3.0843016505241403">
        <ele>359.0</ele>
      </trkpt>
      <trkpt lat="44.093817151389544" lon="3.0840656161308293">
        <ele>359.0</ele>
      </trkpt>
      <trkpt lat="44.093774771316994" lon="3.083869814872742">
        <ele>359.0</ele>
      </trkpt>
      <trkpt lat="44.09375165490101" lon="3.0835935473442078">
        <ele>359.0</ele>
      </trkpt>
      <trkpt lat="44.093734317583014" lon="3.0833816528320304">
        <ele>359.0</ele>
      </trkpt>
      <trkpt lat="44.09373046484527" lon="3.0831643939018254">
        <ele>359.0</ele>
      </trkpt>
      <trkpt lat="44.09373624395185" lon="3.082941770553589">
        <ele>359.0</ele>
      </trkpt>
      <trkpt lat="44.093754544576626" lon="3.0827754736481427">
        <ele>359.0</ele>
      </trkpt>
      <trkpt lat="44.09377284494914" lon="3.0826091766357413">
        <ele>359.0</ele>
      </trkpt>
      <trkpt lat="44.09381137239167" lon="3.082450926411001">
        <ele>359.0</ele>
      </trkpt>
      <trkpt lat="44.09384989960642" lon="3.0822926759719844">
        <ele>359.0</ele>
      </trkpt>
      <trkpt lat="44.09392502800559" lon="3.0820566418902797">
        <ele>359.0</ele>
      </trkpt>
      <trkpt lat="44.09400015589936" lon="3.081820607185364">
        <ele>359.0</ele>
      </trkpt>
      <trkpt lat="44.09407913681508" lon="3.081585914222285">
        <ele>359.0</ele>
      </trkpt>
      <trkpt lat="44.0941581172315" lon="3.081351220607758">
        <ele>359.0</ele>
      </trkpt>
      <trkpt lat="44.09421590785775" lon="3.0812627077102652">
        <ele>359.0</ele>
      </trkpt>
      <trkpt lat="44.09423324503451" lon="3.081104457378387">
        <ele>359.0</ele>
      </trkpt>
      <trkpt lat="44.094177380780124" lon="3.0810669064521785">
        <ele>359.0</ele>
      </trkpt>
      <trkpt lat="44.094042535810736" lon="3.080986440181732">
        <ele>359.0</ele>
      </trkpt>
      <trkpt lat="44.0939211750752" lon="3.080908209030895">
        <ele>359.0</ele>
      </trkpt>
      <trkpt lat="44.09374972853278" lon="3.0808440034888926">
        <ele>359.0</ele>
      </trkpt>
      <trkpt lat="44.09358213401983" lon="3.080771583632214">
        <ele>359.0</ele>
      </trkpt>
      <trkpt lat="44.09341454332463" lon="3.0806991658658296">
        <ele>359.0</ele>
      </trkpt>
      <trkpt lat="44.09341453947435" lon="3.080699164202088">
        <ele>359.0</ele>
      </trkpt>
      <trkpt lat="44.093261547272306" lon="3.080646666376603">
        <ele>359.0</ele>
      </trkpt>
      <trkpt lat="44.09324116507789" lon="3.0807530879974365">
        <ele>359.0</ele>
      </trkpt>
      <trkpt lat="44.093201674288764" lon="3.080922067282636">
        <ele>359.0</ele>
      </trkpt>
      <trkpt lat="44.09316218323989" lon="3.081091046333313">
        <ele>359.0</ele>
      </trkpt>
      <trkpt lat="44.093114023530774" lon="3.0813378095626835">
        <ele>359.0</ele>
      </trkpt>
      <trkpt lat="44.093031188739474" lon="3.0815953016281123">
        <ele>359.0</ele>
      </trkpt>
      <trkpt lat="44.09295220662106" lon="3.081769645214081">
        <ele>359.0</ele>
      </trkpt>
      <trkpt lat="44.09281735885803" lon="3.0819010734558097">
        <ele>359.0</ele>
      </trkpt>
      <trkpt lat="44.09277883086926" lon="3.081960082054138">
        <ele>359.0</ele>
      </trkpt>
      <trkpt lat="44.092697922011176" lon="3.082078099250794">
        <ele>360.0</ele>
      </trkpt>
      <trkpt lat="44.09258426414256" lon="3.0822417140007023">
        <ele>360.0</ele>
      </trkpt>
      <trkpt lat="44.09247060605555" lon="3.0824214220046997">
        <ele>360.0</ele>
      </trkpt>
      <trkpt lat="44.09240510807568" lon="3.0824831128120427">
        <ele>361.0</ele>
      </trkpt>
      <trkpt lat="44.09227025906518" lon="3.0824911594390874">
        <ele>361.0</ele>
      </trkpt>
      <trkpt lat="44.09217393815515" lon="3.082504570484161">
        <ele>362.0</ele>
      </trkpt>
      <trkpt lat="44.09204679431371" lon="3.082544803619385">
        <ele>363.0</ele>
      </trkpt>
      <trkpt lat="44.091894606628934" lon="3.0825126171112056">
        <ele>363.0</ele>
      </trkpt>
      <trkpt lat="44.09182332871794" lon="3.0825287103652954">
        <ele>364.0</ele>
      </trkpt>
      <trkpt lat="44.091863783758875" lon="3.082711100578307">
        <ele>364.0</ele>
      </trkpt>
      <trkpt lat="44.09194854661254" lon="3.082998096942901">
        <ele>365.0</ele>
      </trkpt>
      <trkpt lat="44.09202544874986" lon="3.0831239073576513">
        <ele>365.0</ele>
      </trkpt>
      <trkpt lat="44.092025603646775" lon="3.0831241607666016">
        <ele>365.0</ele>
      </trkpt>
      <trkpt lat="44.09211614551213" lon="3.0832287667517564">
        <ele>364.0</ele>
      </trkpt>
      <trkpt lat="44.092206687282065" lon="3.0833333730697636">
        <ele>364.0</ele>
      </trkpt>
      <trkpt lat="44.092393549601006" lon="3.0834916234016414">
        <ele>364.0</ele>
      </trkpt>
      <trkpt lat="44.09255922085393" lon="3.0836150050163265">
        <ele>363.0</ele>
      </trkpt>
      <trkpt lat="44.092674805174134" lon="3.0837196111679073">
        <ele>363.0</ele>
      </trkpt>
      <trkpt lat="44.09277112526841" lon="3.0838483572006226">
        <ele>363.0</ele>
      </trkpt>
      <trkpt lat="44.092838549241065" lon="3.0840468406677237">
        <ele>362.0</ele>
      </trkpt>
      <trkpt lat="44.09288092998456" lon="3.0842909216880803">
        <ele>362.0</ele>
      </trkpt>
      <trkpt lat="44.09288285638125" lon="3.08453768491745">
        <ele>362.0</ele>
      </trkpt>
      <trkpt lat="44.09285396042401" lon="3.084720075130463">
        <ele>362.0</ele>
      </trkpt>
      <trkpt lat="44.09277305166867" lon="3.0849239230155954">
        <ele>362.0</ele>
      </trkpt>
      <trkpt lat="44.092670952367115" lon="3.085100948810577">
        <ele>362.0</ele>
      </trkpt>
      <trkpt lat="44.09259389617371" lon="3.085302114486693">
        <ele>362.0</ele>
      </trkpt>
      <trkpt lat="44.09252261925575" lon="3.0855086448395115">
        <ele>363.0</ele>
      </trkpt>
      <trkpt lat="44.09245134195124" lon="3.085715174674986">
        <ele>363.0</ele>
      </trkpt>
      <trkpt lat="44.0923877706055" lon="3.0859619381800076">
        <ele>364.0</ele>
      </trkpt>
      <trkpt lat="44.09232419870618" lon="3.086208701133727">
        <ele>364.0</ele>
      </trkpt>
      <trkpt lat="44.09230878738514" lon="3.086519837379455">
        <ele>365.0</ele>
      </trkpt>
      <trkpt lat="44.092283744096655" lon="3.0866834522013646">
        <ele>366.0</ele>
      </trkpt>
      <trkpt lat="44.09225870056417" lon="3.0868470668792733">
        <ele>367.0</ele>
      </trkpt>
      <trkpt lat="44.092220172373445" lon="3.08704286826992">
        <ele>368.0</ele>
      </trkpt>
      <trkpt lat="44.092181643833605" lon="3.0872386693954468">
        <ele>369.0</ele>
      </trkpt>
      <trkpt lat="44.09217393815503" lon="3.087447881698607">
        <ele>370.0</ele>
      </trkpt>
      <trkpt lat="44.09219705518785" lon="3.0875605344772343">
        <ele>371.0</ele>
      </trkpt>
      <trkpt lat="44.09223173071989" lon="3.087667822837828">
        <ele>372.0</ele>
      </trkpt>
      <trkpt lat="44.09233961002313" lon="3.087850213050842">
        <ele>372.0</ele>
      </trkpt>
      <trkpt lat="44.09240896094001" lon="3.0879843233381576">
        <ele>373.0</ele>
      </trkpt>
      <trkpt lat="44.09247831169534" lon="3.0881184339523324">
        <ele>373.0</ele>
      </trkpt>
      <trkpt lat="44.09261893944757" lon="3.0883517861366276">
        <ele>373.0</ele>
      </trkpt>
      <trkpt lat="44.09271911243694" lon="3.0885046720504774">
        <ele>373.0</ele>
      </trkpt>
      <trkpt lat="44.09285396042402" lon="3.0886736512184148">
        <ele>373.0</ele>
      </trkpt>
      <trkpt lat="44.09303504152292" lon="3.0888560414314266">
        <ele>372.0</ele>
      </trkpt>
      <trkpt lat="44.09315158804381" lon="3.088966011775822">
        <ele>372.0</ele>
      </trkpt>
      <trkpt lat="44.09326813446173" lon="3.0890759825706464">
        <ele>372.0</ele>
      </trkpt>
      <trkpt lat="44.093368306312655" lon="3.0891792474359514">
        <ele>371.0</ele>
      </trkpt>
      <trkpt lat="44.09346847807171" lon="3.0892825126647954">
        <ele>370.0</ele>
      </trkpt>
      <trkpt lat="44.093630293568836" lon="3.0894166231155404">
        <ele>369.0</ele>
      </trkpt>
      <trkpt lat="44.0937516548264" lon="3.0895252523489813">
        <ele>368.0</ele>
      </trkpt>
      <trkpt lat="44.093873015984315" lon="3.0896338820457463">
        <ele>367.0</ele>
      </trkpt>
      <trkpt lat="44.093976076337555" lon="3.089726418089177">
        <ele>366.0</ele>
      </trkpt>
      <trkpt lat="44.09407913661843" lon="3.089818954467774">
        <ele>366.0</ele>
      </trkpt>
      <trkpt lat="44.094203386459" lon="3.089904784968852">
        <ele>365.0</ele>
      </trkpt>
      <trkpt lat="44.09432763624074" lon="3.0899906158447266">
        <ele>364.0</ele>
      </trkpt>
      <trkpt lat="44.09450486013986" lon="3.090108633041382">
        <ele>364.0</ele>
      </trkpt>
      <trkpt lat="44.094622366997356" lon="3.090178370475769">
        <ele>363.0</ele>
      </trkpt>
      <trkpt lat="44.09477262132763" lon="3.090315163135528">
        <ele>363.0</ele>
      </trkpt>
      <trkpt lat="44.094877606460166" lon="3.0904278157063265">
        <ele>362.0</ele>
      </trkpt>
      <trkpt lat="44.09498259148288" lon="3.09054046869278">
        <ele>362.0</ele>
      </trkpt>
      <trkpt lat="44.09507216565742" lon="3.090642392474913">
        <ele>362.0</ele>
      </trkpt>
      <trkpt lat="44.09516173974151" lon="3.090744316577912">
        <ele>362.0</ele>
      </trkpt>
      <trkpt lat="44.09526672419935" lon="3.090871721271075">
        <ele>362.0</ele>
      </trkpt>
      <trkpt lat="44.09537170851506" lon="3.0909991264343257">
        <ele>362.0</ele>
      </trkpt>
      <trkpt lat="44.095508476764735" lon="3.0911707878112784">
        <ele>361.0</ele>
      </trkpt>
      <trkpt lat="44.095660655149715" lon="3.091331720352173">
        <ele>361.0</ele>
      </trkpt>
      <trkpt lat="44.0957935701276" lon="3.091350495815277">
        <ele>361.0</ele>
      </trkpt>
      <trkpt lat="44.09593611629359" lon="3.091425597667694">
        <ele>360.0</ele>
      </trkpt>
      <trkpt lat="44.096072883237824" lon="3.091498017311096">
        <ele>360.0</ele>
      </trkpt>
      <trkpt lat="44.09616149263863" lon="3.091559708118439">
        <ele>359.0</ele>
      </trkpt>
      <trkpt lat="44.0962828486717" lon="3.0916321276073995">
        <ele>359.0</ele>
      </trkpt>
      <trkpt lat="44.09640420466489" lon="3.0917045474052425">
        <ele>359.0</ele>
      </trkpt>
      <trkpt lat="44.09659105372078" lon="3.0917957425117497">
        <ele>358.0</ele>
      </trkpt>
      <trkpt lat="44.096795238611854" lon="3.091884255409241">
        <ele>358.0</ele>
      </trkpt>
      <trkpt lat="44.09693778236317" lon="3.0919432640075692">
        <ele>358.0</ele>
      </trkpt>
      <trkpt lat="44.097080325770854" lon="3.092039823532105">
        <ele>358.0</ele>
      </trkpt>
      <trkpt lat="44.097249836402995" lon="3.0921551585197444">
        <ele>358.0</ele>
      </trkpt>
      <trkpt lat="44.097336517788484" lon="3.0922195315361036">
        <ele>358.0</ele>
      </trkpt>
      <trkpt lat="44.097477133988" lon="3.09229999780655">
        <ele>358.0</ele>
      </trkpt>
      <trkpt lat="44.09760619239732" lon="3.0924180150032043">
        <ele>358.0</ele>
      </trkpt>
      <trkpt lat="44.09776221785938" lon="3.092568218708037">
        <ele>358.0</ele>
      </trkpt>
      <trkpt lat="44.09790090681337" lon="3.0926862359046945">
        <ele>359.0</ele>
      </trkpt>
      <trkpt lat="44.09807812000334" lon="3.0928337574005127">
        <ele>359.0</ele>
      </trkpt>
      <trkpt lat="44.09825533266224" lon="3.0929812788963327">
        <ele>359.0</ele>
      </trkpt>
      <trkpt lat="44.09837475828498" lon="3.0931019783020024">
        <ele>359.0</ele>
      </trkpt>
      <trkpt lat="44.09837531328588" lon="3.0931025683063815">
        <ele>359.0</ele>
      </trkpt>
      <trkpt lat="44.09846432731507" lon="3.0931971965721528">
        <ele>359.0</ele>
      </trkpt>
      <trkpt lat="44.098553896266786" lon="3.0932924151420598">
        <ele>359.0</ele>
      </trkpt>
      <trkpt lat="44.09866369024542" lon="3.093413114547731">
        <ele>359.0</ele>
      </trkpt>
      <trkpt lat="44.098794672269065" lon="3.0935150384902963">
        <ele>359.0</ele>
      </trkpt>
      <trkpt lat="44.09890639191793" lon="3.0935901401952624">
        <ele>359.0</ele>
      </trkpt>
      <trkpt lat="44.099018111522085" lon="3.093665242195129">
        <ele>359.0</ele>
      </trkpt>
      <trkpt lat="44.09911442128452" lon="3.093737661838531">
        <ele>359.0</ele>
      </trkpt>
      <trkpt lat="44.09918569040775" lon="3.093855679035188">
        <ele>359.0</ele>
      </trkpt>
      <trkpt lat="44.09927622133224" lon="3.0940943956375144">
        <ele>359.0</ele>
      </trkpt>
      <trkpt lat="44.09934171170197" lon="3.094247281551361">
        <ele>359.0</ele>
      </trkpt>
      <trkpt lat="44.099359047375806" lon="3.0943438410758968">
        <ele>359.0</ele>
      </trkpt>
      <trkpt lat="44.09936675211816" lon="3.0944243073463444">
        <ele>359.0</ele>
      </trkpt>
      <trkpt lat="44.09937445685947" lon="3.094523549079895">
        <ele>359.0</ele>
      </trkpt>
      <trkpt lat="44.099372530674124" lon="3.094638884067535">
        <ele>359.0</ele>
      </trkpt>
      <trkpt lat="44.09935326881839" lon="3.0947595834732056">
        <ele>359.0</ele>
      </trkpt>
      <trkpt lat="44.09932437602275" lon="3.0948695540428166">
        <ele>359.0</ele>
      </trkpt>
      <trkpt lat="44.099239623741035" lon="3.0950680375099195">
        <ele>359.0</ele>
      </trkpt>
      <trkpt lat="44.09909323315016" lon="3.095290660858154">
        <ele>358.0</ele>
      </trkpt>
      <trkpt lat="44.098912170602105" lon="3.095456957817078">
        <ele>358.0</ele>
      </trkpt>
      <trkpt lat="44.09876385299542" lon="3.0956286191940303">
        <ele>358.0</ele>
      </trkpt>
      <trkpt lat="44.098654059202744" lon="3.0958431959152217">
        <ele>358.0</ele>
      </trkpt>
      <trkpt lat="44.098571232171636" lon="3.0960711836814876">
        <ele>358.0</ele>
      </trkpt>
      <trkpt lat="44.09853848656914" lon="3.096374273300171">
        <ele>358.0</ele>
      </trkpt>
      <trkpt lat="44.09853174499736" lon="3.0965687334767895">
        <ele>358.0</ele>
      </trkpt>
      <trkpt lat="44.098525003080496" lon="3.0967631936073308">
        <ele>358.0</ele>
      </trkpt>
      <trkpt lat="44.098557748690446" lon="3.0970501899719243">
        <ele>359.0</ele>
      </trkpt>
      <trkpt lat="44.098598199124694" lon="3.097323775291442">
        <ele>359.0</ele>
      </trkpt>
      <trkpt lat="44.098642501949534" lon="3.0975008010864262">
        <ele>360.0</ele>
      </trkpt>
      <trkpt lat="44.09866561645366" lon="3.097621500492096">
        <ele>361.0</ele>
      </trkpt>
      <trkpt lat="44.0986559854114" lon="3.0977851152420044">
        <ele>363.0</ele>
      </trkpt>
      <trkpt lat="44.098642501949534" lon="3.0980560183525094">
        <ele>364.0</ele>
      </trkpt>
      <trkpt lat="44.09864635436752" lon="3.0982223153114314">
        <ele>366.0</ele>
      </trkpt>
      <trkpt lat="44.09866561645362" lon="3.0983859300613408">
        <ele>368.0</ele>
      </trkpt>
      <trkpt lat="44.098677173702356" lon="3.0985307693481436">
        <ele>370.0</ele>
      </trkpt>
      <trkpt lat="44.098669468870156" lon="3.098710477352142">
        <ele>372.0</ele>
      </trkpt>
      <trkpt lat="44.09866946887017" lon="3.098967969417572">
        <ele>374.0</ele>
      </trkpt>
      <trkpt lat="44.09868102625775" lon="3.099143654072366">
        <ele>376.0</ele>
      </trkpt>
      <trkpt lat="44.0986925833637" lon="3.0993193387985234">
        <ele>377.0</ele>
      </trkpt>
      <trkpt lat="44.09870991936405" lon="3.099493682331376">
        <ele>379.0</ele>
      </trkpt>
      <trkpt lat="44.09872725508715" lon="3.099668025970458">
        <ele>380.0</ele>
      </trkpt>
      <trkpt lat="44.098733033705784" lon="3.0999282002449045">
        <ele>381.0</ele>
      </trkpt>
      <trkpt lat="44.09872918129345" lon="3.1001025438308716">
        <ele>382.0</ele>
      </trkpt>
      <trkpt lat="44.09870606681412" lon="3.100327849388121">
        <ele>383.0</ele>
      </trkpt>
      <trkpt lat="44.098681026118086" lon="3.100494146347046">
        <ele>383.0</ele>
      </trkpt>
      <trkpt lat="44.09868680474119" lon="3.1006363034248334">
        <ele>384.0</ele>
      </trkpt>
      <trkpt lat="44.09870414060713" lon="3.1008133292198172">
        <ele>384.0</ele>
      </trkpt>
      <trkpt lat="44.09871955026149" lon="3.101009130477905">
        <ele>384.0</ele>
      </trkpt>
      <trkpt lat="44.09872532888082" lon="3.101105690002441">
        <ele>384.0</ele>
      </trkpt>
      <trkpt lat="44.0987118454348" lon="3.1012183427810656">
        <ele>383.0</ele>
      </trkpt>
      <trkpt lat="44.09868487853352" lon="3.1013149023056035">
        <ele>383.0</ele>
      </trkpt>
      <trkpt lat="44.09868295232584" lon="3.1013739109039307">
        <ele>383.0</ele>
      </trkpt>
      <trkpt lat="44.09869836198572" lon="3.1014946103096013">
        <ele>383.0</ele>
      </trkpt>
      <trkpt lat="44.098723402674445" lon="3.101631402969359">
        <ele>383.0</ele>
      </trkpt>
      <trkpt lat="44.09874459094124" lon="3.1017601490020756">
        <ele>383.0</ele>
      </trkpt>
      <trkpt lat="44.09874266473551" lon="3.1018325686454777">
        <ele>383.0</ele>
      </trkpt>
      <trkpt lat="44.09874073852966" lon="3.1019586324691764">
        <ele>383.0</ele>
      </trkpt>
      <trkpt lat="44.09872532899112" lon="3.1021155417390407">
        <ele>383.0</ele>
      </trkpt>
      <trkpt lat="44.098709919228014" lon="3.1022724509239206">
        <ele>383.0</ele>
      </trkpt>
      <trkpt lat="44.0987002881929" lon="3.1023582816123967">
        <ele>383.0</ele>
      </trkpt>
      <trkpt lat="44.09870028819293" lon="3.102476298809051">
        <ele>383.0</ele>
      </trkpt>
      <trkpt lat="44.09870991922811" lon="3.1026291847229004">
        <ele>383.0</ele>
      </trkpt>
      <trkpt lat="44.09871184543491" lon="3.1027311086654663">
        <ele>383.0</ele>
      </trkpt>
      <trkpt lat="44.09869643577845" lon="3.102862536907196">
        <ele>383.0</ele>
      </trkpt>
      <trkpt lat="44.098650206932085" lon="3.103052973901966">
        <ele>384.0</ele>
      </trkpt>
      <trkpt lat="44.098603977755914" lon="3.10324341058731">
        <ele>384.0</ele>
      </trkpt>
      <trkpt lat="44.09857059049491" lon="3.103456199418861">
        <ele>385.0</ele>
      </trkpt>
      <trkpt lat="44.09853720282128" lon="3.103668988000711">
        <ele>385.0</ele>
      </trkpt>
      <trkpt lat="44.09850381473502" lon="3.1038817763328543">
        <ele>386.0</ele>
      </trkpt>
      <trkpt lat="44.09847299540451" lon="3.104031980119041">
        <ele>386.0</ele>
      </trkpt>
      <trkpt lat="44.098442175868584" lon="3.104182183742525">
        <ele>387.0</ele>
      </trkpt>
      <trkpt lat="44.098398836133136" lon="3.1043618918833937">
        <ele>388.0</ele>
      </trkpt>
      <trkpt lat="44.09835549610395" lon="3.1045415997505184">
        <ele>389.0</ele>
      </trkpt>
      <trkpt lat="44.098328529040145" lon="3.1046220660209656">
        <ele>389.0</ele>
      </trkpt>
      <trkpt lat="44.09828037353852" lon="3.104774951934814">
        <ele>390.0</ele>
      </trkpt>
      <trkpt lat="44.09819947220743" lon="3.1049895286560054">
        <ele>390.0</ele>
      </trkpt>
      <trkpt lat="44.09816094772515" lon="3.1051880121231066">
        <ele>390.0</ele>
      </trkpt>
      <trkpt lat="44.098149390375575" lon="3.1054535508155814">
        <ele>391.0</ele>
      </trkpt>
      <trkpt lat="44.09815805850549" lon="3.1056144833319608">
        <ele>391.0</ele>
      </trkpt>
      <trkpt lat="44.098166726399064" lon="3.1057754158973703">
        <ele>392.0</ele>
      </trkpt>
      <trkpt lat="44.09814361169994" lon="3.105971217155457">
        <ele>393.0</ele>
      </trkpt>
      <trkpt lat="44.09809545604769" lon="3.106094598770141">
        <ele>394.0</ele>
      </trkpt>
      <trkpt lat="44.098020333151844" lon="3.106239438056946">
        <ele>395.0</ele>
      </trkpt>
      <trkpt lat="44.0978970543467" lon="3.106427192687988">
        <ele>396.0</ele>
      </trkpt>
      <trkpt lat="44.097810373782934" lon="3.106572031974792">
        <ele>397.0</ele>
      </trkpt>
      <trkpt lat="44.09774680795542" lon="3.1067544221878047">
        <ele>398.0</ele>
      </trkpt>
      <trkpt lat="44.09770250455469" lon="3.106911331537339">
        <ele>399.0</ele>
      </trkpt>
      <trkpt lat="44.097659296017596" lon="3.107064362210195">
        <ele>400.0</ele>
      </trkpt>
      <trkpt lat="44.09765820093032" lon="3.1070682406425467">
        <ele>401.0</ele>
      </trkpt>
      <trkpt lat="44.09759463493923" lon="3.107336461544037">
        <ele>401.0</ele>
      </trkpt>
      <trkpt lat="44.09760619239723" lon="3.107575178146362">
        <ele>402.0</ele>
      </trkpt>
      <trkpt lat="44.097611008149045" lon="3.107753545030758">
        <ele>402.0</ele>
      </trkpt>
      <trkpt lat="44.09761582361053" lon="3.1079319119453426">
        <ele>403.0</ele>
      </trkpt>
      <trkpt lat="44.09762160233772" lon="3.1081786751747145">
        <ele>403.0</ele>
      </trkpt>
      <trkpt lat="44.09759848742547" lon="3.108430802822112">
        <ele>403.0</ele>
      </trkpt>
      <trkpt lat="44.097575372504195" lon="3.1086561083793636">
        <ele>403.0</ele>
      </trkpt>
      <trkpt lat="44.09755611006291" lon="3.108811676502227">
        <ele>403.0</ele>
      </trkpt>
      <trkpt lat="44.09751951140704" lon="3.1089887022972107">
        <ele>403.0</ele>
      </trkpt>
      <trkpt lat="44.09743860903494" lon="3.1091979146003728">
        <ele>403.0</ele>
      </trkpt>
      <trkpt lat="44.09740393655588" lon="3.109291791915894">
        <ele>402.0</ele>
      </trkpt>
      <trkpt lat="44.09740201030647" lon="3.1093508005142194">
        <ele>402.0</ele>
      </trkpt>
      <trkpt lat="44.097411641552995" lon="3.1094366312026986">
        <ele>402.0</ele>
      </trkpt>
      <trkpt lat="44.097434756538306" lon="3.1095117330551143">
        <ele>401.0</ele>
      </trkpt>
      <trkpt lat="44.09746172400972" lon="3.1095600128173833">
        <ele>401.0</ele>
      </trkpt>
      <trkpt lat="44.09748676522216" lon="3.1096565723419185">
        <ele>400.0</ele>
      </trkpt>
      <trkpt lat="44.09749447020849" lon="3.1097960472106934">
        <ele>400.0</ele>
      </trkpt>
      <trkpt lat="44.097467502752" lon="3.1099864840507507">
        <ele>400.0</ele>
      </trkpt>
      <trkpt lat="44.0974424615314" lon="3.110093772411347">
        <ele>400.0</ele>
      </trkpt>
      <trkpt lat="44.09739237905834" lon="3.110249340534211">
        <ele>401.0</ele>
      </trkpt>
      <trkpt lat="44.09732881278149" lon="3.110359311103821">
        <ele>401.0</ele>
      </trkpt>
      <trkpt lat="44.097226721345336" lon="3.1104800105094905">
        <ele>401.0</ele>
      </trkpt>
      <trkpt lat="44.097126555991366" lon="3.110552430152892">
        <ele>402.0</ele>
      </trkpt>
      <trkpt lat="44.097007127847576" lon="3.1106248497962947">
        <ele>402.0</ele>
      </trkpt>
      <trkpt lat="44.09694741368526" lon="3.1106811761856075">
        <ele>403.0</ele>
      </trkpt>
      <trkpt lat="44.0968973307929" lon="3.110793828964234">
        <ele>403.0</ele>
      </trkpt>
      <trkpt lat="44.09686651053037" lon="3.1109091639518733">
        <ele>403.0</ele>
      </trkpt>
      <trkpt lat="44.09686458426344" lon="3.111032545566558">
        <ele>403.0</ele>
      </trkpt>
      <trkpt lat="44.09685495292774" lon="3.1113088130950923">
        <ele>403.0</ele>
      </trkpt>
      <trkpt lat="44.096874215597474" lon="3.1114724278450008">
        <ele>402.0</ele>
      </trkpt>
      <trkpt lat="44.096912740918114" lon="3.1116199493408194">
        <ele>401.0</ele>
      </trkpt>
      <trkpt lat="44.09699171774691" lon="3.1117755174636845">
        <ele>400.0</ele>
      </trkpt>
      <trkpt lat="44.09704180055932" lon="3.111858665943144">
        <ele>399.0</ele>
      </trkpt>
      <trkpt lat="44.09710536714472" lon="3.111941814422607">
        <ele>398.0</ele>
      </trkpt>
      <trkpt lat="44.097155449860885" lon="3.1119686365127563">
        <ele>397.0</ele>
      </trkpt>
      <trkpt lat="44.09719397499827" lon="3.111949861049651">
        <ele>395.0</ele>
      </trkpt>
      <trkpt lat="44.09721901632411" lon="3.111896216869354">
        <ele>394.0</ele>
      </trkpt>
      <trkpt lat="44.0972267213453" lon="3.1118211150169377">
        <ele>393.0</ele>
      </trkpt>
      <trkpt lat="44.09724020513" lon="3.111713826656342">
        <ele>391.0</ele>
      </trkpt>
      <trkpt lat="44.097294140238056" lon="3.111579716205597">
        <ele>389.0</ele>
      </trkpt>
      <trkpt lat="44.09737311655742" lon="3.111469745635988">
        <ele>388.0</ele>
      </trkpt>
      <trkpt lat="44.09746942899933" lon="3.111394643783569">
        <ele>386.0</ele>
      </trkpt>
      <trkpt lat="44.09757729874797" lon="3.1113517284393306">
        <ele>384.0</ele>
      </trkpt>
      <trkpt lat="44.09774295547883" lon="3.111324906349183">
        <ele>382.0</ele>
      </trkpt>
      <trkpt lat="44.0978219311988" lon="3.111300766468048">
        <ele>380.0</ele>
      </trkpt>
      <trkpt lat="44.09788934941287" lon="3.1112417578697213">
        <ele>378.0</ele>
      </trkpt>
      <trkpt lat="44.09794521016053" lon="3.1111371517181405">
        <ele>376.0</ele>
      </trkpt>
      <trkpt lat="44.09799914462546" lon="3.1109976768493652">
        <ele>374.0</ele>
      </trkpt>
      <trkpt lat="44.09807234132066" lon="3.110917210578919">
        <ele>372.0</ele>
      </trkpt>
      <trkpt lat="44.09816094772513" lon="3.1108903884887686">
        <ele>370.0</ele>
      </trkpt>
      <trkpt lat="44.09822258688475" lon="3.1109225749969465">
        <ele>369.0</ele>
      </trkpt>
      <trkpt lat="44.098245701553026" lon="3.1110137701034546">
        <ele>367.0</ele>
      </trkpt>
      <trkpt lat="44.0982379966646" lon="3.1112203001976018">
        <ele>366.0</ele>
      </trkpt>
      <trkpt lat="44.09822451310745" lon="3.1114268302917476">
        <ele>365.0</ele>
      </trkpt>
      <trkpt lat="44.09820139843085" lon="3.111501932144164">
        <ele>364.0</ele>
      </trkpt>
      <trkpt lat="44.098153242825695" lon="3.11162531375885">
        <ele>364.0</ele>
      </trkpt>
      <trkpt lat="44.09811664453949" lon="3.11175137758255">
        <ele>363.0</ele>
      </trkpt>
      <trkpt lat="44.09810316095468" lon="3.11187744140625">
        <ele>363.0</ele>
      </trkpt>
      <trkpt lat="44.09807715702662" lon="3.112054467282131">
        <ele>363.0</ele>
      </trkpt>
      <trkpt lat="44.09805115281293" lon="3.1122314929962163">
        <ele>363.0</ele>
      </trkpt>
      <trkpt lat="44.09809352982077" lon="3.1125372648239136">
        <ele>363.0</ele>
      </trkpt>
      <trkpt lat="44.09812434944375" lon="3.1128323078155513">
        <ele>363.0</ele>
      </trkpt>
      <trkpt lat="44.098176357521076" lon="3.112990558147431">
        <ele>363.0</ele>
      </trkpt>
      <trkpt lat="44.09823414422002" lon="3.113062977790833">
        <ele>363.0</ele>
      </trkpt>
      <trkpt lat="44.098328529040145" lon="3.1130924820899954">
        <ele>363.0</ele>
      </trkpt>
      <trkpt lat="44.09847492152439" lon="3.1130897998809806">
        <ele>363.0</ele>
      </trkpt>
      <trkpt lat="44.09864057574046" lon="3.1130871176719666">
        <ele>363.0</ele>
      </trkpt>
      <trkpt lat="44.09873110749966" lon="3.113113939762116">
        <ele>362.0</ele>
      </trkpt>
      <trkpt lat="44.09885053216136" lon="3.1131729483604427">
        <ele>362.0</ele>
      </trkpt>
      <trkpt lat="44.09893913739972" lon="3.113248050212861">
        <ele>362.0</ele>
      </trkpt>
      <trkpt lat="44.099016185325105" lon="3.1133660674095145">
        <ele>362.0</ele>
      </trkpt>
      <trkpt lat="44.099083602177515" lon="3.1135323643684383">
        <ele>362.0</ele>
      </trkpt>
      <trkpt lat="44.09917798564168" lon="3.113717436790466">
        <ele>362.0</ele>
      </trkpt>
      <trkpt lat="44.0992858522734" lon="3.1138327717781067">
        <ele>362.0</ele>
      </trkpt>
      <trkpt lat="44.09938023541472" lon="3.1139400601387024">
        <ele>362.0</ele>
      </trkpt>
      <trkpt lat="44.09944187330324" lon="3.1140205264091487">
        <ele>362.0</ele>
      </trkpt>
      <trkpt lat="44.09950351112754" lon="3.1141251325607286">
        <ele>363.0</ele>
      </trkpt>
      <trkpt lat="44.09956129652939" lon="3.1142726540565486">
        <ele>363.0</ele>
      </trkpt>
      <trkpt lat="44.099582484495926" lon="3.114382624626159">
        <ele>363.0</ele>
      </trkpt>
      <trkpt lat="44.09958441067433" lon="3.114551603794097">
        <ele>363.0</ele>
      </trkpt>
      <trkpt lat="44.09954203473504" lon="3.1147179007530217">
        <ele>364.0</ele>
      </trkpt>
      <trkpt lat="44.099513142031725" lon="3.1148868799209586">
        <ele>364.0</ele>
      </trkpt>
      <trkpt lat="44.099516994393" lon="3.1150075793266288">
        <ele>364.0</ele>
      </trkpt>
      <trkpt lat="44.09957670596039" lon="3.1151282787322994">
        <ele>365.0</ele>
      </trkpt>
      <trkpt lat="44.09966916246185" lon="3.1152462959289546">
        <ele>365.0</ele>
      </trkpt>
      <trkpt lat="44.09980977311396" lon="3.1154662370681754">
        <ele>365.0</ele>
      </trkpt>
      <trkpt lat="44.099859853539485" lon="3.1155708432197575">
        <ele>366.0</ele>
      </trkpt>
      <trkpt lat="44.09992726942986" lon="3.115710318088531">
        <ele>366.0</ele>
      </trkpt>
      <trkpt lat="44.099969645093076" lon="3.115849792957305">
        <ele>366.0</ele>
      </trkpt>
      <trkpt lat="44.100010094561405" lon="3.1160134077072144">
        <ele>367.0</ele>
      </trkpt>
      <trkpt lat="44.1000524703442" lon="3.1162199376475552">
        <ele>367.0</ele>
      </trkpt>
      <trkpt lat="44.100094845738724" lon="3.1164264678955074">
        <ele>367.0</ele>
      </trkpt>
      <trkpt lat="44.10013336896099" lon="3.116598129272461">
        <ele>368.0</ele>
      </trkpt>
      <trkpt lat="44.10016611368015" lon="3.1166920065879826">
        <ele>368.0</ele>
      </trkpt>
      <trkpt lat="44.100187301429905" lon="3.1167858839035034">
        <ele>368.0</ele>
      </trkpt>
      <trkpt lat="44.10019885838117" lon="3.1168797612190238">
        <ele>368.0</ele>
      </trkpt>
      <trkpt lat="44.10019115374726" lon="3.116962909698486">
        <ele>369.0</ele>
      </trkpt>
      <trkpt lat="44.10017189215809" lon="3.117056787014008">
        <ele>369.0</ele>
      </trkpt>
      <trkpt lat="44.100142999762596" lon="3.1171506643295284">
        <ele>369.0</ele>
      </trkpt>
      <trkpt lat="44.100119885836015" lon="3.117236495018005">
        <ele>369.0</ele>
      </trkpt>
      <trkpt lat="44.10011410735299" lon="3.117284774780274">
        <ele>369.0</ele>
      </trkpt>
      <trkpt lat="44.10013144280043" lon="3.11738133430481">
        <ele>369.0</ele>
      </trkpt>
      <trkpt lat="44.10017285535508" lon="3.1175516544532975">
        <ele>370.0</ele>
      </trkpt>
      <trkpt lat="44.10021426764597" lon="3.1177219748497005">
        <ele>370.0</ele>
      </trkpt>
      <trkpt lat="44.10027397850915" lon="3.1179124116897565">
        <ele>370.0</ele>
      </trkpt>
      <trkpt lat="44.100304796995594" lon="3.118057250976562">
        <ele>370.0</ele>
      </trkpt>
      <trkpt lat="44.10031442776933" lon="3.118212819099426">
        <ele>370.0</ele>
      </trkpt>
      <trkpt lat="44.10031057546001" lon="3.1184086203575134">
        <ele>370.0</ele>
      </trkpt>
      <trkpt lat="44.10030672315046" lon="3.118585646152496">
        <ele>370.0</ele>
      </trkpt>
      <trkpt lat="44.100314427769305" lon="3.118722438812255">
        <ele>370.0</ele>
      </trkpt>
      <trkpt lat="44.10032405854145" lon="3.1188726425170894">
        <ele>370.0</ele>
      </trkpt>
      <trkpt lat="44.10033561546594" lon="3.1189879775047293">
        <ele>370.0</ele>
      </trkpt>
      <trkpt lat="44.10033176315803" lon="3.1190389394760123">
        <ele>370.0</ele>
      </trkpt>
      <trkpt lat="44.10028938775439" lon="3.119116723537445">
        <ele>369.0</ele>
      </trkpt>
      <trkpt lat="44.1002527907904" lon="3.1191462278366093">
        <ele>369.0</ele>
      </trkpt>
      <trkpt lat="44.10022004611926" lon="3.1191757321357723">
        <ele>369.0</ele>
      </trkpt>
      <trkpt lat="44.1001969322228" lon="3.119221329689026">
        <ele>369.0</ele>
      </trkpt>
      <trkpt lat="44.100189227588636" lon="3.119331300258636">
        <ele>369.0</ele>
      </trkpt>
      <trkpt lat="44.100191153747275" lon="3.1194037199020395">
        <ele>369.0</ele>
      </trkpt>
      <trkpt lat="44.10020656301408" lon="3.1196075677871695">
        <ele>369.0</ele>
      </trkpt>
      <trkpt lat="44.10020271069772" lon="3.1197685003280653">
        <ele>369.0</ele>
      </trkpt>
      <trkpt lat="44.1001969322228" lon="3.1199643015861502">
        <ele>370.0</ele>
      </trkpt>
      <trkpt lat="44.1001969322228" lon="3.1200608611106873">
        <ele>370.0</ele>
      </trkpt>
      <trkpt lat="44.10021041533017" lon="3.120181560516357">
        <ele>370.0</ele>
      </trkpt>
      <trkpt lat="44.10024123384973" lon="3.1203478574752803">
        <ele>370.0</ele>
      </trkpt>
      <trkpt lat="44.10026627388501" lon="3.120543658733368">
        <ele>371.0</ele>
      </trkpt>
      <trkpt lat="44.10031250161469" lon="3.120785057544708">
        <ele>371.0</ele>
      </trkpt>
      <trkpt lat="44.100356803155044" lon="3.1210559606552124">
        <ele>371.0</ele>
      </trkpt>
      <trkpt lat="44.10038376929372" lon="3.1212919950485225">
        <ele>372.0</ele>
      </trkpt>
      <trkpt lat="44.10039917862063" lon="3.121448904233402">
        <ele>372.0</ele>
      </trkpt>
      <trkpt lat="44.100414587722966" lon="3.121605813503265">
        <ele>373.0</ele>
      </trkpt>
      <trkpt lat="44.10044444325286" lon="3.1218150256966557">
        <ele>373.0</ele>
      </trkpt>
      <trkpt lat="44.100474298383794" lon="3.1220242381095886">
        <ele>374.0</ele>
      </trkpt>
      <trkpt lat="44.100528230541784" lon="3.1223246455192566">
        <ele>374.0</ele>
      </trkpt>
      <trkpt lat="44.100559049023964" lon="3.1224976479070174">
        <ele>374.0</ele>
      </trkpt>
      <trkpt lat="44.10058986723354" lon="3.122670650482178">
        <ele>374.0</ele>
      </trkpt>
      <trkpt lat="44.10061105483149" lon="3.1228369474411">
        <ele>375.0</ele>
      </trkpt>
      <trkpt lat="44.10062839013324" lon="3.123054206371308">
        <ele>375.0</ele>
      </trkpt>
      <trkpt lat="44.10066691300782" lon="3.1233304738998404">
        <ele>375.0</ele>
      </trkpt>
      <trkpt lat="44.1006919528629" lon="3.1236335635185233">
        <ele>375.0</ele>
      </trkpt>
      <trkpt lat="44.10071314042422" lon="3.1239205598831195">
        <ele>375.0</ele>
      </trkpt>
      <trkpt lat="44.10075166324365" lon="3.1242075562477103">
        <ele>375.0</ele>
      </trkpt>
      <trkpt lat="44.10077670306279" lon="3.1244462728500366">
        <ele>375.0</ele>
      </trkpt>
      <trkpt lat="44.10075744166439" lon="3.1246286630630484">
        <ele>375.0</ele>
      </trkpt>
      <trkpt lat="44.10075358938396" lon="3.1248271465301514">
        <ele>375.0</ele>
      </trkpt>
      <trkpt lat="44.10077285096502" lon="3.1250283121381743">
        <ele>375.0</ele>
      </trkpt>
      <trkpt lat="44.100792112177" lon="3.125229477882387">
        <ele>375.0</ele>
      </trkpt>
      <trkpt lat="44.10081330004681" lon="3.1255057453080513">
        <ele>375.0</ele>
      </trkpt>
      <trkpt lat="44.10083448722034" lon="3.1257820129394536">
        <ele>375.0</ele>
      </trkpt>
      <trkpt lat="44.100846044174176" lon="3.125950992073072">
        <ele>375.0</ele>
      </trkpt>
      <trkpt lat="44.10085760086751" lon="3.12611997127533">
        <ele>375.0</ele>
      </trkpt>
      <trkpt lat="44.10088841904971" lon="3.126286268234252">
        <ele>375.0</ele>
      </trkpt>
      <trkpt lat="44.10091153267586" lon="3.126527667045597">
        <ele>376.0</ele>
      </trkpt>
      <trkpt lat="44.10091923721587" lon="3.1267315149307264">
        <ele>376.0</ele>
      </trkpt>
      <trkpt lat="44.10091923721904" lon="3.1268824944296596">
        <ele>377.0</ele>
      </trkpt>
      <trkpt lat="44.10091923721587" lon="3.1268870830535884">
        <ele>378.0</ele>
      </trkpt>
      <trkpt lat="44.10088841904971" lon="3.127037286758422">
        <ele>379.0</ele>
      </trkpt>
      <trkpt lat="44.100742032541106" lon="3.1272545456886283">
        <ele>380.0</ele>
      </trkpt>
      <trkpt lat="44.1005860149422" lon="3.1274154782295223">
        <ele>381.0</ele>
      </trkpt>
      <trkpt lat="44.100464667636125" lon="3.1274986267089844">
        <ele>382.0</ele>
      </trkpt>
      <trkpt lat="44.10032020623276" lon="3.127493262290955">
        <ele>383.0</ele>
      </trkpt>
      <trkpt lat="44.100191153747275" lon="3.1274878978729244">
        <ele>384.0</ele>
      </trkpt>
      <trkpt lat="44.10009099341521" lon="3.1274878978729252">
        <ele>384.0</ele>
      </trkpt>
      <trkpt lat="44.0999908329134" lon="3.127509355545045">
        <ele>385.0</ele>
      </trkpt>
      <trkpt lat="44.0998444441824" lon="3.1275522708892827">
        <ele>386.0</ele>
      </trkpt>
      <trkpt lat="44.09973080004924" lon="3.1275871396064754">
        <ele>386.0</ele>
      </trkpt>
      <trkpt lat="44.09961908187489" lon="3.127595186233521">
        <ele>387.0</ele>
      </trkpt>
      <trkpt lat="44.09953818237563" lon="3.127603232860565">
        <ele>387.0</ele>
      </trkpt>
      <trkpt lat="44.09947847076934" lon="3.1276193261146545">
        <ele>387.0</ele>
      </trkpt>
      <trkpt lat="44.09945150421774" lon="3.1276541948318495">
        <ele>387.0</ele>
      </trkpt>
      <trkpt lat="44.099466913677304" lon="3.1277051568031324">
        <ele>387.0</ele>
      </trkpt>
      <trkpt lat="44.0995035111277" lon="3.12772125005722">
        <ele>387.0</ele>
      </trkpt>
      <trkpt lat="44.099557444171225" lon="3.127715885639192">
        <ele>387.0</ele>
      </trkpt>
      <trkpt lat="44.09963449129092" lon="3.127694427967073">
        <ele>388.0</ele>
      </trkpt>
      <trkpt lat="44.099725021528165" lon="3.127691745758057">
        <ele>388.0</ele>
      </trkpt>
      <trkpt lat="44.099805920771864" lon="3.1276890635490417">
        <ele>388.0</ele>
      </trkpt>
      <trkpt lat="44.09991186009039" lon="3.127697110176087">
        <ele>388.0</ele>
      </trkpt>
      <trkpt lat="44.100044765512365" lon="3.127697110176087">
        <ele>389.0</ele>
      </trkpt>
      <trkpt lat="44.10012759047933" lon="3.1277078390121464">
        <ele>389.0</ele>
      </trkpt>
      <trkpt lat="44.10027397850926" lon="3.127740025520325">
        <ele>389.0</ele>
      </trkpt>
      <trkpt lat="44.10038954775054" lon="3.1277856230735765">
        <ele>389.0</ele>
      </trkpt>
      <trkpt lat="44.10054171357371" lon="3.1278365850448617">
        <ele>389.0</ele>
      </trkpt>
      <trkpt lat="44.10068232215065" lon="3.127911686897277">
        <ele>389.0</ele>
      </trkpt>
      <trkpt lat="44.100807521287166" lon="3.12797337770462">
        <ele>389.0</ele>
      </trkpt>
      <trkpt lat="44.100880714505706" lon="3.1280055642127986">
        <ele>389.0</ele>
      </trkpt>
      <trkpt lat="44.10093657242738" lon="3.128035068511964">
        <ele>389.0</ele>
      </trkpt>
      <trkpt lat="44.1010001348257" lon="3.128112852573395">
        <ele>389.0</ele>
      </trkpt>
      <trkpt lat="44.101034805195994" lon="3.128187954425813">
        <ele>389.0</ele>
      </trkpt>
      <trkpt lat="44.10106177102548" lon="3.1282711029052748">
        <ele>388.0</ele>
      </trkpt>
      <trkpt lat="44.10110799813305" lon="3.128442764282226">
        <ele>388.0</ele>
      </trkpt>
      <trkpt lat="44.1011484468227" lon="3.1285902857780457">
        <ele>389.0</ele>
      </trkpt>
      <trkpt lat="44.101215861243794" lon="3.1287297606468196">
        <ele>389.0</ele>
      </trkpt>
      <trkpt lat="44.10125438373568" lon="3.128858506679536">
        <ele>390.0</ele>
      </trkpt>
      <trkpt lat="44.101285201711036" lon="3.1289336085319523">
        <ele>390.0</ele>
      </trkpt>
      <trkpt lat="44.10129675844754" lon="3.1290221214294434">
        <ele>390.0</ele>
      </trkpt>
      <trkpt lat="44.101321798035926" lon="3.1290918588638306">
        <ele>390.0</ele>
      </trkpt>
      <trkpt lat="44.10137380330081" lon="3.129164278507233">
        <ele>390.0</ele>
      </trkpt>
      <trkpt lat="44.101429660756544" lon="3.129258155822755">
        <ele>390.0</ele>
      </trkpt>
      <trkpt lat="44.10147781369328" lon="3.129338622093201">
        <ele>390.0</ele>
      </trkpt>
      <trkpt lat="44.10152404047549" lon="3.1293976306915274">
        <ele>391.0</ele>
      </trkpt>
      <trkpt lat="44.10156256276664" lon="3.1294593214988717">
        <ele>391.0</ele>
      </trkpt>
      <trkpt lat="44.10158760224236" lon="3.129510283470153">
        <ele>391.0</ele>
      </trkpt>
      <trkpt lat="44.101591454468455" lon="3.129555881023408">
        <ele>391.0</ele>
      </trkpt>
      <trkpt lat="44.10157989778939" lon="3.1296175718307504">
        <ele>390.0</ele>
      </trkpt>
      <trkpt lat="44.101585676129226" lon="3.129681944847107">
        <ele>390.0</ele>
      </trkpt>
      <trkpt lat="44.101628050603665" lon="3.1297355890274043">
        <ele>390.0</ele>
      </trkpt>
      <trkpt lat="44.101724356114765" lon="3.12984824180603">
        <ele>390.0</ele>
      </trkpt>
      <trkpt lat="44.1017744349185" lon="3.129912614822388">
        <ele>390.0</ele>
      </trkpt>
      <trkpt lat="44.101843774730646" lon="3.1299823522567745">
        <ele>390.0</ele>
      </trkpt>
      <trkpt lat="44.10190926225624" lon="3.130068182945251">
        <ele>389.0</ele>
      </trkpt>
      <trkpt lat="44.10199401071116" lon="3.1301862001419067">
        <ele>388.0</ele>
      </trkpt>
      <trkpt lat="44.10203253269598" lon="3.1302559375762935">
        <ele>387.0</ele>
      </trkpt>
      <trkpt lat="44.10208261123879" lon="3.130341768264771">
        <ele>387.0</ele>
      </trkpt>
      <trkpt lat="44.102107650494254" lon="3.130333721637726">
        <ele>386.0</ele>
      </trkpt>
      <trkpt lat="44.10212883754828" lon="3.1302961707115173">
        <ele>386.0</ele>
      </trkpt>
      <trkpt lat="44.102115354878265" lon="3.1302532553672795">
        <ele>386.0</ele>
      </trkpt>
      <trkpt lat="44.10207105465577" lon="3.1301754713058476">
        <ele>385.0</ele>
      </trkpt>
      <trkpt lat="44.10199401071118" lon="3.1300494074821468">
        <ele>385.0</ele>
      </trkpt>
      <trkpt lat="44.101916966666366" lon="3.1299394369125366">
        <ele>384.0</ele>
      </trkpt>
      <trkpt lat="44.10182451367997" lon="3.129829466342926">
        <ele>384.0</ele>
      </trkpt>
      <trkpt lat="44.10176673049" lon="3.12975972890854">
        <ele>383.0</ele>
      </trkpt>
      <trkpt lat="44.10171279946182" lon="3.129708766937256">
        <ele>382.0</ele>
      </trkpt>
      <trkpt lat="44.10170509502515" lon="3.1296631693840022">
        <ele>381.0</ele>
      </trkpt>
      <trkpt lat="44.101733986657344" lon="3.129596114158631">
        <ele>380.0</ele>
      </trkpt>
      <trkpt lat="44.10178003817712" lon="3.129526854654087">
        <ele>379.0</ele>
      </trkpt>
      <trkpt lat="44.10183029199573" lon="3.1294512748718266">
        <ele>377.0</ele>
      </trkpt>
      <trkpt lat="44.1019343015851" lon="3.1293091177940373">
        <ele>376.0</ele>
      </trkpt>
      <trkpt lat="44.10197089750824" lon="3.1292635202407832">
        <ele>375.0</ele>
      </trkpt>
      <trkpt lat="44.10203060659745" lon="3.129180371761322">
        <ele>374.0</ele>
      </trkpt>
      <trkpt lat="44.10212691145276" lon="3.1291937828063974">
        <ele>373.0</ele>
      </trkpt>
      <trkpt lat="44.10223284661245" lon="3.1291964650154123">
        <ele>372.0</ele>
      </trkpt>
      <trkpt lat="44.10230025979701" lon="3.129191100597381">
        <ele>372.0</ele>
      </trkpt>
      <trkpt lat="44.102348412024774" lon="3.1291642785072336">
        <ele>372.0</ele>
      </trkpt>
      <trkpt lat="44.10228099889479" lon="3.1290928646922103">
        <ele>372.0</ele>
      </trkpt>
      <trkpt lat="44.10221743787351" lon="3.1289828941226006">
        <ele>372.0</ele>
      </trkpt>
      <trkpt lat="44.10216543335107" lon="3.128869235515595">
        <ele>372.0</ele>
      </trkpt>
      <trkpt lat="44.102219363965936" lon="3.128847777843474">
        <ele>373.0</ele>
      </trkpt>
      <trkpt lat="44.102275220623014" lon="3.1288343667984018">
        <ele>373.0</ele>
      </trkpt>
      <trkpt lat="44.102334929404755" lon="3.12885046005249">
        <ele>374.0</ele>
      </trkpt>
      <trkpt lat="44.10239271203937" lon="3.128847777843475">
        <ele>374.0</ele>
      </trkpt>
      <trkpt lat="44.10243701202096" lon="3.12886118888855">
        <ele>375.0</ele>
      </trkpt>
      <trkpt lat="44.102514055387985" lon="3.128885328769684">
        <ele>375.0</ele>
      </trkpt>
      <trkpt lat="44.10256220744149" lon="3.1289148330688468">
        <ele>376.0</ele>
      </trkpt>
      <trkpt lat="44.10260843337592" lon="3.1289309263229383">
        <ele>377.0</ele>
      </trkpt>
      <trkpt lat="44.10266428966517" lon="3.1289282441139235">
        <ele>377.0</ele>
      </trkpt>
      <trkpt lat="44.102735554509415" lon="3.1289336085319506">
        <ele>378.0</ele>
      </trkpt>
      <trkpt lat="44.10284919286695" lon="3.1289792060852064">
        <ele>379.0</ele>
      </trkpt>
      <trkpt lat="44.10295127459513" lon="3.1290355324745174">
        <ele>379.0</ele>
      </trkpt>
      <trkpt lat="44.10302253909337" lon="3.129086494445801">
        <ele>380.0</ele>
      </trkpt>
      <trkpt lat="44.10310921201598" lon="3.129115998744966">
        <ele>381.0</ele>
      </trkpt>
      <trkpt lat="44.103151585398564" lon="3.1290972232818604">
        <ele>382.0</ele>
      </trkpt>
      <trkpt lat="44.10325751872214" lon="3.129035532474518">
        <ele>382.0</ele>
      </trkpt>
      <trkpt lat="44.10333263496384" lon="3.1289684772491446">
        <ele>383.0</ele>
      </trkpt>
      <trkpt lat="44.10337308213137" lon="3.1289255619049063">
        <ele>384.0</ele>
      </trkpt>
      <trkpt lat="44.10338656451438" lon="3.128874599933624">
        <ele>385.0</ele>
      </trkpt>
      <trkpt lat="44.10338849056887" lon="3.128823637962341">
        <ele>386.0</ele>
      </trkpt>
      <trkpt lat="44.103378860295926" lon="3.1287565827369694">
        <ele>387.0</ele>
      </trkpt>
      <trkpt lat="44.10333841313228" lon="3.128668069839477">
        <ele>387.0</ele>
      </trkpt>
      <trkpt lat="44.10326907507325" lon="3.1285259127616873">
        <ele>388.0</ele>
      </trkpt>
      <trkpt lat="44.10319973693281" lon="3.128348886966704">
        <ele>389.0</ele>
      </trkpt>
      <trkpt lat="44.10312462052223" lon="3.128131628036499">
        <ele>390.0</ele>
      </trkpt>
      <trkpt lat="44.103124223867695" lon="3.1281297982861633">
        <ele>391.0</ele>
      </trkpt>
      <trkpt lat="44.10309380350569" lon="3.127989470958709">
        <ele>392.0</ele>
      </trkpt>
      <trkpt lat="44.10307261679747" lon="3.127858042716979">
        <ele>393.0</ele>
      </trkpt>
      <trkpt lat="44.10305913434279" lon="3.1277078390121464">
        <ele>394.0</ele>
      </trkpt>
      <trkpt lat="44.10305528221234" lon="3.1275442242622384">
        <ele>394.0</ele>
      </trkpt>
      <trkpt lat="44.103062986473084" lon="3.1274020671844474">
        <ele>396.0</ele>
      </trkpt>
      <trkpt lat="44.10309765563366" lon="3.1272196769714347">
        <ele>397.0</ele>
      </trkpt>
      <trkpt lat="44.103140029024544" lon="3.12707483768463">
        <ele>398.0</ele>
      </trkpt>
      <trkpt lat="44.103205515114695" lon="3.1269273161888127">
        <ele>400.0</ele>
      </trkpt>
      <trkpt lat="44.103257518722536" lon="3.1268012523651136">
        <ele>401.0</ele>
      </trkpt>
      <trkpt lat="44.103326856794666" lon="3.126648366451264">
        <ele>402.0</ele>
      </trkpt>
      <trkpt lat="44.103413529271144" lon="3.126436471939086">
        <ele>404.0</ele>
      </trkpt>
      <trkpt lat="44.10348864531461" lon="3.1262487173080444">
        <ele>405.0</ele>
      </trkpt>
      <trkpt lat="44.103581095698644" lon="3.1260073184967028">
        <ele>406.0</ele>
      </trkpt>
      <trkpt lat="44.103633098976076" lon="3.125798106193543">
        <ele>407.0</ele>
      </trkpt>
      <trkpt lat="44.10365428548342" lon="3.125655949115753">
        <ele>409.0</ele>
      </trkpt>
      <trkpt lat="44.1036754719832" lon="3.125460147857666">
        <ele>409.0</ele>
      </trkpt>
      <trkpt lat="44.103667767802335" lon="3.1253260374069196">
        <ele>409.0</ele>
      </trkpt>
      <trkpt lat="44.10368702825254" lon="3.1251436471939082">
        <ele>410.0</ele>
      </trkpt>
      <trkpt lat="44.103706288696486" lon="3.124961256980897">
        <ele>410.0</ele>
      </trkpt>
      <trkpt lat="44.10372554913422" lon="3.1247520446777326">
        <ele>410.0</ele>
      </trkpt>
      <trkpt lat="44.10373325330747" lon="3.124634027481078">
        <ele>411.0</ele>
      </trkpt>
      <trkpt lat="44.10375251373643" lon="3.1245803833007795">
        <ele>412.0</ele>
      </trkpt>
      <trkpt lat="44.10382185122848" lon="3.124406039714813">
        <ele>412.0</ele>
      </trkpt>
      <trkpt lat="44.103887336563034" lon="3.1241914629936196">
        <ele>413.0</ele>
      </trkpt>
      <trkpt lat="44.1039200792031" lon="3.1240466237068154">
        <ele>413.0</ele>
      </trkpt>
      <trkpt lat="44.103939339571056" lon="3.123939335346221">
        <ele>413.0</ele>
      </trkpt>
      <trkpt lat="44.10395282182495" lon="3.1237837672233577">
        <ele>413.0</ele>
      </trkpt>
      <trkpt lat="44.10394704371656" lon="3.123598694801331">
        <ele>414.0</ele>
      </trkpt>
      <trkpt lat="44.10394896975277" lon="3.1235665082931505">
        <ele>414.0</ele>
      </trkpt>
      <trkpt lat="44.10396052596869" lon="3.123539686203002">
        <ele>413.0</ele>
      </trkpt>
      <trkpt lat="44.10401830701439" lon="3.12336266040802">
        <ele>413.0</ele>
      </trkpt>
      <trkpt lat="44.10405682768016" lon="3.1231963634490953">
        <ele>412.0</ele>
      </trkpt>
      <trkpt lat="44.10407223593948" lon="3.123086392879487">
        <ele>411.0</ele>
      </trkpt>
      <trkpt lat="44.10409342228943" lon="3.1229496002197275">
        <ele>409.0</ele>
      </trkpt>
      <trkpt lat="44.104095348320875" lon="3.1228396296501155">
        <ele>409.0</ele>
      </trkpt>
      <trkpt lat="44.10408764419467" lon="3.1227457523345943">
        <ele>408.0</ele>
      </trkpt>
      <trkpt lat="44.10407030990729" lon="3.122702836990356">
        <ele>407.0</ele>
      </trkpt>
      <trkpt lat="44.104039493383674" lon="3.1226438283920284">
        <ele>407.0</ele>
      </trkpt>
      <trkpt lat="44.10401638098045" lon="3.1226143240928645">
        <ele>407.0</ele>
      </trkpt>
      <trkpt lat="44.10398749046371" lon="3.1225499510765076">
        <ele>407.0</ele>
      </trkpt>
      <trkpt lat="44.10397593425297" lon="3.122496306896211">
        <ele>407.0</ele>
      </trkpt>
      <trkpt lat="44.10397593425306" lon="3.1224560737609863">
        <ele>408.0</ele>
      </trkpt>
      <trkpt lat="44.103979786323514" lon="3.1223943829536434">
        <ele>408.0</ele>
      </trkpt>
      <trkpt lat="44.103989416498564" lon="3.1222763657569885">
        <ele>409.0</ele>
      </trkpt>
      <trkpt lat="44.1039951946029" lon="3.1221234798431396">
        <ele>409.0</ele>
      </trkpt>
      <trkpt lat="44.10398749046367" lon="3.1220081448554975">
        <ele>410.0</ele>
      </trkpt>
      <trkpt lat="44.10396437804016" lon="3.121863305568694">
        <ele>411.0</ele>
      </trkpt>
      <trkpt lat="44.10395282182498" lon="3.1217640638351454">
        <ele>411.0</ele>
      </trkpt>
      <trkpt lat="44.103952821824954" lon="3.1216996908187853">
        <ele>412.0</ele>
      </trkpt>
      <trkpt lat="44.103966304075755" lon="3.1216299533843985">
        <ele>413.0</ele>
      </trkpt>
      <trkpt lat="44.103981712358674" lon="3.1215655803680424">
        <ele>413.0</ele>
      </trkpt>
      <trkpt lat="44.10398171235865" lon="3.1215146183967595">
        <ele>414.0</ele>
      </trkpt>
      <trkpt lat="44.103968230111356" lon="3.121479749679564">
        <ele>414.0</ele>
      </trkpt>
      <trkpt lat="44.10395474786101" lon="3.1214153766632093">
        <ele>415.0</ele>
      </trkpt>
      <trkpt lat="44.1039316354246" lon="3.121332228183745">
        <ele>416.0</ele>
      </trkpt>
      <trkpt lat="44.10392585731415" lon="3.1212571263313276">
        <ele>416.0</ele>
      </trkpt>
      <trkpt lat="44.10393356146131" lon="3.1211927533149724">
        <ele>417.0</ele>
      </trkpt>
      <trkpt lat="44.10394896975273" lon="3.1210801005363464">
        <ele>417.0</ele>
      </trkpt>
      <trkpt lat="44.10396437804008" lon="3.1210157275199886">
        <ele>418.0</ele>
      </trkpt>
      <trkpt lat="44.103979786323556" lon="3.1209325790405265">
        <ele>419.0</ele>
      </trkpt>
      <trkpt lat="44.10398363839368" lon="3.1208708882331835">
        <ele>420.0</ele>
      </trkpt>
      <trkpt lat="44.10397400821772" lon="3.1207743287086473">
        <ele>420.0</ele>
      </trkpt>
      <trkpt lat="44.103956673896995" lon="3.1206884980201712">
        <ele>421.0</ele>
      </trkpt>
      <trkpt lat="44.10394896975274" lon="3.1205919384956355">
        <ele>422.0</ele>
      </trkpt>
      <trkpt lat="44.10394896975273" lon="3.1205141544342037">
        <ele>423.0</ele>
      </trkpt>
      <trkpt lat="44.103954747860946" lon="3.1204417347908024">
        <ele>423.0</ele>
      </trkpt>
      <trkpt lat="44.103979786323514" lon="3.1203746795654292">
        <ele>424.0</ele>
      </trkpt>
      <trkpt lat="44.103991342533405" lon="3.120315670967101">
        <ele>425.0</ele>
      </trkpt>
      <trkpt lat="44.1039971206375" lon="3.1202352046966553">
        <ele>426.0</ele>
      </trkpt>
      <trkpt lat="44.10398941649862" lon="3.1201386451721183">
        <ele>427.0</ele>
      </trkpt>
      <trkpt lat="44.103964378040125" lon="3.1200098991394043">
        <ele>427.0</ele>
      </trkpt>
      <trkpt lat="44.10394511768025" lon="3.1199321150779733">
        <ele>428.0</ele>
      </trkpt>
      <trkpt lat="44.10393356146132" lon="3.119848966598509">
        <ele>429.0</ele>
      </trkpt>
      <trkpt lat="44.10394126560753" lon="3.11975508928299">
        <ele>430.0</ele>
      </trkpt>
      <trkpt lat="44.10395667389695" lon="3.1196665763854967">
        <ele>431.0</ele>
      </trkpt>
      <trkpt lat="44.1039701561469" lon="3.1195968389511095">
        <ele>431.0</ele>
      </trkpt>
      <trkpt lat="44.103985564428754" lon="3.1194895505905147">
        <ele>432.0</ele>
      </trkpt>
      <trkpt lat="44.10397400821772" lon="3.1194144487380973">
        <ele>433.0</ele>
      </trkpt>
      <trkpt lat="44.103958599932824" lon="3.119368851184845">
        <ele>433.0</ele>
      </trkpt>
      <trkpt lat="44.10394319164389" lon="3.119296431541442">
        <ele>434.0</ele>
      </trkpt>
      <trkpt lat="44.103947043716516" lon="3.119250833988189">
        <ele>434.0</ele>
      </trkpt>
      <trkpt lat="44.10395282182495" lon="3.1192159652709965">
        <ele>435.0</ele>
      </trkpt>
      <trkpt lat="44.103958599932824" lon="3.1191676855087294">
        <ele>436.0</ele>
      </trkpt>
      <trkpt lat="44.10397786028831" lon="3.1190818548202506">
        <ele>436.0</ele>
      </trkpt>
      <trkpt lat="44.103979786323585" lon="3.11899870634079">
        <ele>436.0</ele>
      </trkpt>
      <trkpt lat="44.10397786028825" lon="3.1189477443695064">
        <ele>436.0</ele>
      </trkpt>
      <trkpt lat="44.10396630407578" lon="3.1188538670539843">
        <ele>436.0</ele>
      </trkpt>
      <trkpt lat="44.10394511768027" lon="3.1186795234680167">
        <ele>436.0</ele>
      </trkpt>
      <trkpt lat="44.10392585731414" lon="3.1185856461524954">
        <ele>436.0</ele>
      </trkpt>
      <trkpt lat="44.103902744866495" lon="3.1185185909271227">
        <ele>435.0</ele>
      </trkpt>
      <trkpt lat="44.103883484486516" lon="3.1184461712837215">
        <ele>435.0</ele>
      </trkpt>
      <trkpt lat="44.10385074182618" lon="3.11838448047638">
        <ele>434.0</ele>
      </trkpt>
      <trkpt lat="44.103792960616616" lon="3.1183040142059335">
        <ele>433.0</ele>
      </trkpt>
      <trkpt lat="44.1037390314368" lon="3.118255734443664">
        <ele>432.0</ele>
      </trkpt>
      <trkpt lat="44.103683176163024" lon="3.118223547935486">
        <ele>432.0</ele>
      </trkpt>
      <trkpt lat="44.10360613431939" lon="3.1181913614273067">
        <ele>431.0</ele>
      </trkpt>
      <trkpt lat="44.103525240275566" lon="3.1181377172470084">
        <ele>430.0</ele>
      </trkpt>
      <trkpt lat="44.10349634951881" lon="3.118116259574891">
        <ele>430.0</ele>
      </trkpt>
      <trkpt lat="44.10345975453999" lon="3.1180572509765616">
        <ele>429.0</ele>
      </trkpt>
      <trkpt lat="44.10341545532472" lon="3.1179150938987705">
        <ele>429.0</ele>
      </trkpt>
      <trkpt lat="44.103398120840126" lon="3.117772936820984">
        <ele>428.0</ele>
      </trkpt>
      <trkpt lat="44.103357673689736" lon="3.117614686489105">
        <ele>428.0</ele>
      </trkpt>
      <trkpt lat="44.10333648707613" lon="3.11748594045639">
        <ele>427.0</ele>
      </trkpt>
      <trkpt lat="44.10325366660475" lon="3.1172552704811105">
        <ele>426.0</ele>
      </trkpt>
      <trkpt lat="44.10318818056808" lon="3.117126524448394">
        <ele>426.0</ele>
      </trkpt>
      <trkpt lat="44.10316121570843" lon="3.1170889735221845">
        <ele>425.0</ele>
      </trkpt>
      <trkpt lat="44.1031053598887" lon="3.1169870495796195">
        <ele>425.0</ele>
      </trkpt>
      <trkpt lat="44.10305335614696" lon="3.116885125637054">
        <ele>424.0</ele>
      </trkpt>
      <trkpt lat="44.10299172202354" lon="3.1167510151863094">
        <ele>423.0</ele>
      </trkpt>
      <trkpt lat="44.10291082713897" lon="3.116611540317535">
        <ele>423.0</ele>
      </trkpt>
      <trkpt lat="44.10285882322608" lon="3.1165069341659533">
        <ele>422.0</ele>
      </trkpt>
      <trkpt lat="44.10283378428882" lon="3.11646670103073">
        <ele>421.0</ele>
      </trkpt>
      <trkpt lat="44.10280104104732" lon="3.1164157390594505">
        <ele>420.0</ele>
      </trkpt>
      <trkpt lat="44.102764445638066" lon="3.116375505924225">
        <ele>419.0</ele>
      </trkpt>
      <trkpt lat="44.102716293749246" lon="3.116335272789001">
        <ele>419.0</ele>
      </trkpt>
      <trkpt lat="44.102691254751534" lon="3.1162977218627947">
        <ele>418.0</ele>
      </trkpt>
      <trkpt lat="44.102652733195974" lon="3.1162413954734802">
        <ele>417.0</ele>
      </trkpt>
      <trkpt lat="44.102593024734986" lon="3.1160616874694806">
        <ele>417.0</ele>
      </trkpt>
      <trkpt lat="44.102512129304884" lon="3.1158417463302603">
        <ele>416.0</ele>
      </trkpt>
      <trkpt lat="44.102467829379606" lon="3.1157290935516344">
        <ele>416.0</ele>
      </trkpt>
      <trkpt lat="44.10243123376408" lon="3.1155842542648315">
        <ele>415.0</ele>
      </trkpt>
      <trkpt lat="44.1024061946457" lon="3.115417957305908">
        <ele>415.0</ele>
      </trkpt>
      <trkpt lat="44.102371525079796" lon="3.115305304527283">
        <ele>414.0</ele>
      </trkpt>
      <trkpt lat="44.102334929404655" lon="3.1151926517486572">
        <ele>414.0</ele>
      </trkpt>
      <trkpt lat="44.1022983337067" lon="3.1150639057159415">
        <ele>414.0</ele>
      </trkpt>
      <trkpt lat="44.10222706833552" lon="3.11486542224884">
        <ele>413.0</ele>
      </trkpt>
      <trkpt lat="44.1021326897387" lon="3.114629387855528">
        <ele>413.0</ele>
      </trkpt>
      <trkpt lat="44.10205949807011" lon="3.1144228577613826">
        <ele>413.0</ele>
      </trkpt>
      <trkpt lat="44.1020074934084" lon="3.1143182516098014">
        <ele>412.0</ele>
      </trkpt>
      <trkpt lat="44.10195356259984" lon="3.114213645458222">
        <ele>412.0</ele>
      </trkpt>
      <trkpt lat="44.10190541005059" lon="3.1141734123229976">
        <ele>411.0</ele>
      </trkpt>
      <trkpt lat="44.10183799641595" lon="3.1140929460525513">
        <ele>411.0</ele>
      </trkpt>
      <trkpt lat="44.101772508811365" lon="3.1139695644378658">
        <ele>411.0</ele>
      </trkpt>
      <trkpt lat="44.10171279946163" lon="3.113848865032196">
        <ele>411.0</ele>
      </trkpt>
      <trkpt lat="44.10167620337875" lon="3.1137576699256906">
        <ele>411.0</ele>
      </trkpt>
      <trkpt lat="44.10159338058121" lon="3.113655745983122">
        <ele>411.0</ele>
      </trkpt>
      <trkpt lat="44.101508631551994" lon="3.1135189533233643">
        <ele>411.0</ele>
      </trkpt>
      <trkpt lat="44.10148166592629" lon="3.1133875250816363">
        <ele>410.0</ele>
      </trkpt>
      <trkpt lat="44.1014797398095" lon="3.1131702661514273">
        <ele>410.0</ele>
      </trkpt>
      <trkpt lat="44.1014797398095" lon="3.113079071044921">
        <ele>409.0</ele>
      </trkpt>
      <trkpt lat="44.101460478640334" lon="3.1129503250122066">
        <ele>408.0</ele>
      </trkpt>
      <trkpt lat="44.10144314358234" lon="3.112845718860624">
        <ele>408.0</ele>
      </trkpt>
      <trkpt lat="44.10140076897549" lon="3.112676739692688">
        <ele>407.0</ele>
      </trkpt>
      <trkpt lat="44.10137572942064" lon="3.1126016378402706">
        <ele>406.0</ele>
      </trkpt>
      <trkpt lat="44.1013295025221" lon="3.1125158071517944">
        <ele>405.0</ele>
      </trkpt>
      <trkpt lat="44.10126979272493" lon="3.1124112010002127">
        <ele>404.0</ele>
      </trkpt>
      <trkpt lat="44.10125053148714" lon="3.1122985482215864">
        <ele>403.0</ele>
      </trkpt>
      <trkpt lat="44.101250531487175" lon="3.112169802188872">
        <ele>402.0</ele>
      </trkpt>
      <trkpt lat="44.10126401435431" lon="3.1120678782463074">
        <ele>401.0</ele>
      </trkpt>
      <trkpt lat="44.10126208823066" lon="3.1119874119758606">
        <ele>400.0</ele>
      </trkpt>
      <trkpt lat="44.101250531487175" lon="3.111939132213594">
        <ele>400.0</ele>
      </trkpt>
      <trkpt lat="44.10122741799357" lon="3.1119176745414743">
        <ele>399.0</ele>
      </trkpt>
      <trkpt lat="44.10119274773625" lon="3.11187744140625">
        <ele>398.0</ele>
      </trkpt>
      <trkpt lat="44.101173486473456" lon="3.1118425726890555">
        <ele>397.0</ele>
      </trkpt>
      <trkpt lat="44.10116385583966" lon="3.1117674708366394">
        <ele>396.0</ele>
      </trkpt>
      <trkpt lat="44.10115807745861" lon="3.1116575002670284">
        <ele>395.0</ele>
      </trkpt>
      <trkpt lat="44.10112725941713" lon="3.111467063426971">
        <ele>394.0</ele>
      </trkpt>
      <trkpt lat="44.1010983674885" lon="3.111292719841003">
        <ele>393.0</ele>
      </trkpt>
      <trkpt lat="44.10110992426142" lon="3.1111291050910945">
        <ele>392.0</ele>
      </trkpt>
      <trkpt lat="44.101125333288785" lon="3.1109869480133034">
        <ele>391.0</ele>
      </trkpt>
      <trkpt lat="44.101163855839644" lon="3.110807240009308">
        <ele>390.0</ele>
      </trkpt>
      <trkpt lat="44.10120623061651" lon="3.1106463074684134">
        <ele>389.0</ele>
      </trkpt>
      <trkpt lat="44.1012620882306" lon="3.110525608062744">
        <ele>389.0</ele>
      </trkpt>
      <trkpt lat="44.1013063890594" lon="3.1103673577308655">
        <ele>388.0</ele>
      </trkpt>
      <trkpt lat="44.10134876373412" lon="3.110168874263763">
        <ele>388.0</ele>
      </trkpt>
      <trkpt lat="44.10137572942045" lon="3.1099864840507494">
        <ele>387.0</ele>
      </trkpt>
      <trkpt lat="44.10144892193555" lon="3.10974508523941">
        <ele>387.0</ele>
      </trkpt>
      <trkpt lat="44.10147973980955" lon="3.1096512079238905">
        <ele>386.0</ele>
      </trkpt>
      <trkpt lat="44.10148166592614" lon="3.1095680594444275">
        <ele>386.0</ele>
      </trkpt>
      <trkpt lat="44.10148359204264" lon="3.1094768643379207">
        <ele>386.0</ele>
      </trkpt>
      <trkpt lat="44.101470109225616" lon="3.109404444694519">
        <ele>385.0</ele>
      </trkpt>
      <trkpt lat="44.10144121746455" lon="3.109289109706878">
        <ele>385.0</ele>
      </trkpt>
      <trkpt lat="44.101414251808045" lon="3.109195232391356">
        <ele>384.0</ele>
      </trkpt>
      <trkpt lat="44.10138150778014" lon="3.1090772151947013">
        <ele>384.0</ele>
      </trkpt>
      <trkpt lat="44.10134683761322" lon="3.108956515789031">
        <ele>383.0</ele>
      </trkpt>
      <trkpt lat="44.10132950252207" lon="3.108827769756317">
        <ele>383.0</ele>
      </trkpt>
      <trkpt lat="44.10131409354792" lon="3.1086936593055716">
        <ele>382.0</ele>
      </trkpt>
      <trkpt lat="44.101317945791834" lon="3.1086105108261126">
        <ele>382.0</ele>
      </trkpt>
      <trkpt lat="44.10134683761317" lon="3.1085085868835436">
        <ele>382.0</ele>
      </trkpt>
      <trkpt lat="44.10136802493986" lon="3.108438849449157">
        <ele>381.0</ele>
      </trkpt>
      <trkpt lat="44.101389212258965" lon="3.1083288788795462">
        <ele>381.0</ele>
      </trkpt>
      <trkpt lat="44.10140076897525" lon="3.108184039592742">
        <ele>381.0</ele>
      </trkpt>
      <trkpt lat="44.10141617792679" lon="3.107902407646179">
        <ele>381.0</ele>
      </trkpt>
      <trkpt lat="44.10142003016411" lon="3.1077414751052856">
        <ele>381.0</ele>
      </trkpt>
      <trkpt lat="44.10142195628263" lon="3.107612729072571">
        <ele>381.0</ele>
      </trkpt>
      <trkpt lat="44.10141810404568" lon="3.1075000762939444">
        <ele>381.0</ele>
      </trkpt>
      <trkpt lat="44.10138150778035" lon="3.107400834560395">
        <ele>380.0</ele>
      </trkpt>
      <trkpt lat="44.101344911492205" lon="3.107315003871916">
        <ele>380.0</ele>
      </trkpt>
      <trkpt lat="44.101289053956435" lon="3.1072318553924565">
        <ele>380.0</ele>
      </trkpt>
      <trkpt lat="44.10123512249245" lon="3.107129931449889">
        <ele>379.0</ele>
      </trkpt>
      <trkpt lat="44.10113881618444" lon="3.106848299503327">
        <ele>378.0</ele>
      </trkpt>
      <trkpt lat="44.10110703518173" lon="3.1066846846620333">
        <ele>378.0</ele>
      </trkpt>
      <trkpt lat="44.101075253935235" lon="3.1065210700035077">
        <ele>377.0</ele>
      </trkpt>
      <trkpt lat="44.10104636212348" lon="3.1063400208030747">
        <ele>376.0</ele>
      </trkpt>
      <trkpt lat="44.101017470013055" lon="3.1061589717864986">
        <ele>374.0</ele>
      </trkpt>
      <trkpt lat="44.10099146741832" lon="3.1059524415979722">
        <ele>373.0</ele>
      </trkpt>
      <trkpt lat="44.100965464434694" lon="3.1057459115982056">
        <ele>372.0</ele>
      </trkpt>
      <trkpt lat="44.10093464629269" lon="3.1054589152336107">
        <ele>371.0</ele>
      </trkpt>
      <trkpt lat="44.100934614618744" lon="3.105458699107046">
        <ele>370.0</ele>
      </trkpt>
      <trkpt lat="44.10089612359244" lon="3.1051960587501513">
        <ele>369.0</ele>
      </trkpt>
      <trkpt lat="44.100862416346686" lon="3.1050163506396973">
        <ele>368.0</ele>
      </trkpt>
      <trkpt lat="44.100828708806844" lon="3.1048366427421557">
        <ele>367.0</ele>
      </trkpt>
      <trkpt lat="44.100782481480756" lon="3.104595243930818">
        <ele>366.0</ele>
      </trkpt>
      <trkpt lat="44.10076322008455" lon="3.1045523285865766">
        <ele>365.0</ele>
      </trkpt>
      <trkpt lat="44.10073047569608" lon="3.1045201420784">
        <ele>365.0</ele>
      </trkpt>
      <trkpt lat="44.100699657431726" lon="3.1045067310333248">
        <ele>364.0</ele>
      </trkpt>
      <trkpt lat="44.100703509715665" lon="3.1042385101318364">
        <ele>364.0</ele>
      </trkpt>
      <trkpt lat="44.100663060721715" lon="3.1042009592056288">
        <ele>363.0</ele>
      </trkpt>
      <trkpt lat="44.100614907121404" lon="3.1041768193244934">
        <ele>363.0</ele>
      </trkpt>
      <trkpt lat="44.100653430004805" lon="3.1040427088737492">
        <ele>363.0</ele>
      </trkpt>
      <trkpt lat="44.100624537844595" lon="3.1039917469024667">
        <ele>363.0</ele>
      </trkpt>
      <trkpt lat="44.1005301566896" lon="3.1040319800376897">
        <ele>363.0</ele>
      </trkpt>
      <trkpt lat="44.10049355987445" lon="3.1038479134440413">
        <ele>363.0</ele>
      </trkpt>
      <trkpt lat="44.10045696303687" lon="3.1036682054400444">
        <ele>362.0</ele>
      </trkpt>
      <trkpt lat="44.10040303081396" lon="3.1035035848617563">
        <ele>362.0</ele>
      </trkpt>
      <trkpt lat="44.10035872930828" lon="3.1033882498741145">
        <ele>362.0</ele>
      </trkpt>
      <trkpt lat="44.10028746159907" lon="3.1032299995422368">
        <ele>362.0</ele>
      </trkpt>
      <trkpt lat="44.10022775074949" lon="3.1030395627021794">
        <ele>362.0</ele>
      </trkpt>
      <trkpt lat="44.10016611368014" lon="3.102742843329907">
        <ele>362.0</ele>
      </trkpt>
      <trkpt lat="44.100123738157734" lon="3.1024880334734912">
        <ele>362.0</ele>
      </trkpt>
      <trkpt lat="44.100085214929315" lon="3.1023073196411137">
        <ele>362.0</ele>
      </trkpt>
      <trkpt lat="44.10005247016526" lon="3.102082014083862">
        <ele>362.0</ele>
      </trkpt>
      <trkpt lat="44.10002236115937" lon="3.1019080932331087">
        <ele>362.0</ele>
      </trkpt>
      <trkpt lat="44.10000046373811" lon="3.1017816066741934">
        <ele>362.0</ele>
      </trkpt>
      <trkpt lat="44.09997638679621" lon="3.1016139685398296">
        <ele>362.0</ele>
      </trkpt>
      <trkpt lat="44.09995230959816" lon="3.101446330547332">
        <ele>362.0</ele>
      </trkpt>
      <trkpt lat="44.09992726942986" lon="3.1012853980064388">
        <ele>362.0</ele>
      </trkpt>
      <trkpt lat="44.09988681990495" lon="3.1010332703590393">
        <ele>362.0</ele>
      </trkpt>
      <trkpt lat="44.0998444441824" lon="3.1007596850395225">
        <ele>362.0</ele>
      </trkpt>
      <trkpt lat="44.09982325630965" lon="3.1005987524986276">
        <ele>362.0</ele>
      </trkpt>
      <trkpt lat="44.09981362545594" lon="3.10040295124054">
        <ele>362.0</ele>
      </trkpt>
      <trkpt lat="44.09981491003682" lon="3.100176751623827">
        <ele>362.0</ele>
      </trkpt>
      <trkpt lat="44.099816194150726" lon="3.099950551996904">
        <ele>362.0</ele>
      </trkpt>
      <trkpt lat="44.0998174777977" lon="3.099724352359773">
        <ele>362.0</ele>
      </trkpt>
      <trkpt lat="44.09982229345587" lon="3.0994990468215886">
        <ele>362.0</ele>
      </trkpt>
      <trkpt lat="44.09982710865077" lon="3.0992737412452707">
        <ele>362.0</ele>
      </trkpt>
      <trkpt lat="44.09984251801238" lon="3.098967969417571">
        <ele>362.0</ele>
      </trkpt>
      <trkpt lat="44.0998694845448" lon="3.098777532667764">
        <ele>362.0</ele>
      </trkpt>
      <trkpt lat="44.09989645074666" lon="3.098587095737457">
        <ele>361.0</ele>
      </trkpt>
      <trkpt lat="44.09993786349903" lon="3.0983966590359975">
        <ele>361.0</ele>
      </trkpt>
      <trkpt lat="44.09997927592138" lon="3.0982062220573425">
        <ele>361.0</ele>
      </trkpt>
      <trkpt lat="44.10005632249134" lon="3.0979219079017635">
        <ele>360.0</ele>
      </trkpt>
      <trkpt lat="44.10011988596162" lon="3.097734153480455">
        <ele>359.0</ele>
      </trkpt>
      <trkpt lat="44.100182931149845" lon="3.0975479286192">
        <ele>359.0</ele>
      </trkpt>
      <trkpt lat="44.10018344911235" lon="3.0975463986396794">
        <ele>358.0</ele>
      </trkpt>
      <trkpt lat="44.10024701239935" lon="3.0973881484845758">
        <ele>357.0</ele>
      </trkpt>
      <trkpt lat="44.10031057546001" lon="3.097229897975922">
        <ele>357.0</ele>
      </trkpt>
      <trkpt lat="44.10038954785006" lon="3.0970461669133957">
        <ele>356.0</ele>
      </trkpt>
      <trkpt lat="44.10046851993541" lon="3.0968624353408805">
        <ele>356.0</ele>
      </trkpt>
      <trkpt lat="44.10053882446142" lon="3.096680045353221">
        <ele>356.0</ele>
      </trkpt>
      <trkpt lat="44.10060912868652" lon="3.096497654914857">
        <ele>355.0</ele>
      </trkpt>
      <trkpt lat="44.10068810093994" lon="3.0962705618486153">
        <ele>355.0</ele>
      </trkpt>
      <trkpt lat="44.100767072726114" lon="3.0960434681520215">
        <ele>355.0</ele>
      </trkpt>
      <trkpt lat="44.100846044045035" lon="3.095816373825073">
        <ele>355.0</ele>
      </trkpt>
      <trkpt lat="44.100925978839285" lon="3.095603138507941">
        <ele>355.0</ele>
      </trkpt>
      <trkpt lat="44.10100591322206" lon="3.0953899025917053">
        <ele>355.0</ele>
      </trkpt>
      <trkpt lat="44.10108231680985" lon="3.0951556569668">
        <ele>355.0</ele>
      </trkpt>
      <trkpt lat="44.10115871990009" lon="3.0949214107128333">
        <ele>356.0</ele>
      </trkpt>
      <trkpt lat="44.101160346791396" lon="3.0949164227603263">
        <ele>356.0</ele>
      </trkpt>
      <trkpt lat="44.10123512249273" lon="3.0946871638298035">
        <ele>356.0</ele>
      </trkpt>
      <trkpt lat="44.101290017122075" lon="3.0945181848248873">
        <ele>356.0</ele>
      </trkpt>
      <trkpt lat="44.10134491149249" lon="3.0943492054939274">
        <ele>356.0</ele>
      </trkpt>
      <trkpt lat="44.10141232594305" lon="3.0940957370423217">
        <ele>357.0</ele>
      </trkpt>
      <trkpt lat="44.10147973980979" lon="3.0938422679901114">
        <ele>357.0</ele>
      </trkpt>
      <trkpt lat="44.10153944939493" lon="3.093584775924682">
        <ele>357.0</ele>
      </trkpt>
      <trkpt lat="44.10160878948268" lon="3.0933809280395517">
        <ele>358.0</ele>
      </trkpt>
      <trkpt lat="44.10165501616258" lon="3.0933192372322087">
        <ele>358.0</ele>
      </trkpt>
      <trkpt lat="44.101728208331956" lon="3.0932682752609257">
        <ele>358.0</ele>
      </trkpt>
      <trkpt lat="44.10180140041066" lon="3.0932119488716117">
        <ele>359.0</ele>
      </trkpt>
      <trkpt lat="44.10191311446139" lon="3.0931529402732845">
        <ele>359.0</ele>
      </trkpt>
      <trkpt lat="44.10197474970934" lon="3.0931180715560913">
        <ele>359.0</ele>
      </trkpt>
      <trkpt lat="44.10202675440005" lon="3.0930805206298824">
        <ele>359.0</ele>
      </trkpt>
      <trkpt lat="44.102011345607515" lon="3.0929812788963327">
        <ele>359.0</ele>
      </trkpt>
      <trkpt lat="44.101974749709456" lon="3.0928981304168714">
        <ele>359.0</ele>
      </trkpt>
      <trkpt lat="44.10197667580981" lon="3.0926996469497676">
        <ele>359.0</ele>
      </trkpt>
      <trkpt lat="44.10200941950806" lon="3.0924099683761597">
        <ele>359.0</ele>
      </trkpt>
      <trkpt lat="44.10207683294747" lon="3.092249035835266">
        <ele>359.0</ele>
      </trkpt>
      <trkpt lat="44.10216928553933" lon="3.092106878757475">
        <ele>359.0</ele>
      </trkpt>
      <trkpt lat="44.10228292498537" lon="3.0920210480689994">
        <ele>359.0</ele>
      </trkpt>
      <trkpt lat="44.102429307678705" lon="3.09187889099121">
        <ele>360.0</ele>
      </trkpt>
      <trkpt lat="44.1024678293799" lon="3.0918198823928815">
        <ele>360.0</ele>
      </trkpt>
      <trkpt lat="44.102564133522975" lon="3.091613352298737">
        <ele>360.0</ele>
      </trkpt>
      <trkpt lat="44.10266236358733" lon="3.0913934111595154">
        <ele>360.0</ele>
      </trkpt>
      <trkpt lat="44.102752889188515" lon="3.0911734700202955">
        <ele>360.0</ele>
      </trkpt>
      <trkpt lat="44.102787558531034" lon="3.091084957122803">
        <ele>360.0</ele>
      </trkpt>
      <trkpt lat="44.10282030178023" lon="3.0910071730613717">
        <ele>360.0</ele>
      </trkpt>
      <trkpt lat="44.10292238355797" lon="3.0908113718032846">
        <ele>359.0</ele>
      </trkpt>
      <trkpt lat="44.10303409549052" lon="3.0905967950820927">
        <ele>359.0</ele>
      </trkpt>
      <trkpt lat="44.103130398711144" lon="3.0903768539428698">
        <ele>359.0</ele>
      </trkpt>
      <trkpt lat="44.103188180568296" lon="3.090156912803649">
        <ele>359.0</ele>
      </trkpt>
      <trkpt lat="44.10321514541559" lon="3.0899423360824585">
        <ele>358.0</ele>
      </trkpt>
      <trkpt lat="44.103195884811605" lon="3.089711666107178">
        <ele>358.0</ele>
      </trkpt>
      <trkpt lat="44.103153511460796" lon="3.0894434452056876">
        <ele>358.0</ele>
      </trkpt>
      <trkpt lat="44.10312654668945" lon="3.0892878770090992">
        <ele>358.0</ele>
      </trkpt>
      <trkpt lat="44.103099581697634" lon="3.0891323089599605">
        <ele>358.0</ele>
      </trkpt>
      <trkpt lat="44.103077132505945" lon="3.0890311654015843">
        <ele>358.0</ele>
      </trkpt>
      <trkpt lat="44.103034095490514" lon="3.0888372659683228">
        <ele>358.0</ele>
      </trkpt>
      <trkpt lat="44.10297246134692" lon="3.0885905027389526">
        <ele>358.0</ele>
      </trkpt>
      <trkpt lat="44.10289156643602" lon="3.08840274810791">
        <ele>358.0</ele>
      </trkpt>
      <trkpt lat="44.10279141067864" lon="3.088225722312927">
        <ele>359.0</ele>
      </trkpt>
      <trkpt lat="44.10271821982553" lon="3.0880969762802115">
        <ele>359.0</ele>
      </trkpt>
      <trkpt lat="44.102794391695525" lon="3.0880505683846655">
        <ele>359.0</ele>
      </trkpt>
      <trkpt lat="44.10284148857865" lon="3.088021874427795">
        <ele>359.0</ele>
      </trkpt>
      <trkpt lat="44.102949348526664" lon="3.087978959083557">
        <ele>359.0</ele>
      </trkpt>
      <trkpt lat="44.10307131031751" lon="3.0878516363252477">
        <ele>359.0</ele>
      </trkpt>
      <trkpt lat="44.10314195508742" lon="3.0879848264157763">
        <ele>359.0</ele>
      </trkpt>
      <trkpt lat="44.103226701821086" lon="3.0881390532044235">
        <ele>359.0</ele>
      </trkpt>
      <trkpt lat="44.10331137326252" lon="3.0882931438183197">
        <ele>359.0</ele>
      </trkpt>
    </trkseg>
  </trk>
</gpx>