<?xml version="1.0" encoding="UTF-8" standalone="no" ?>
<gpx xmlns="http://www.topografix.com/GPX/1/1"
     creator="TourInSoft"
     version="1.1"
     xmlns:xsi="http://www.w3.org/2001/XMLSchema-instance"
     xsi:schemaLocation="http://www.topografix.com/GPX/1/1 http://www.topografix.com/GPX/1/1/gpx.xsd">
<trk>
<trkseg>
<trkpt lat="44.80334" lon="3.2726"></trkpt><trkpt lat="44.80341" lon="3.2725"></trkpt><trkpt lat="44.80355" lon="3.2723"></trkpt><trkpt lat="44.80362" lon="3.27222"></trkpt><trkpt lat="44.80367" lon="3.2722"></trkpt><trkpt lat="44.8037" lon="3.27221"></trkpt><trkpt lat="44.80374" lon="3.27224"></trkpt><trkpt lat="44.80377" lon="3.27228"></trkpt><trkpt lat="44.80379" lon="3.27231"></trkpt><trkpt lat="44.80403" lon="3.27196"></trkpt><trkpt lat="44.80438" lon="3.27145"></trkpt><trkpt lat="44.80481" lon="3.27065"></trkpt><trkpt lat="44.80497" lon="3.27034"></trkpt><trkpt lat="44.80489" lon="3.27019"></trkpt><trkpt lat="44.80489" lon="3.27015"></trkpt><trkpt lat="44.80491" lon="3.27001"></trkpt><trkpt lat="44.80495" lon="3.26997"></trkpt><trkpt lat="44.80497" lon="3.2699"></trkpt><trkpt lat="44.80497" lon="3.26983"></trkpt><trkpt lat="44.80496" lon="3.26979"></trkpt><trkpt lat="44.80491" lon="3.26972"></trkpt><trkpt lat="44.80487" lon="3.2697"></trkpt><trkpt lat="44.80483" lon="3.26959"></trkpt><trkpt lat="44.80478" lon="3.2695"></trkpt><trkpt lat="44.80471" lon="3.26949"></trkpt><trkpt lat="44.80464" lon="3.26957"></trkpt><trkpt lat="44.80456" lon="3.26961"></trkpt><trkpt lat="44.80451" lon="3.26961"></trkpt><trkpt lat="44.80447" lon="3.26959"></trkpt><trkpt lat="44.8044" lon="3.26951"></trkpt><trkpt lat="44.8042" lon="3.26914"></trkpt><trkpt lat="44.80412" lon="3.26895"></trkpt><trkpt lat="44.80405" lon="3.26891"></trkpt><trkpt lat="44.80393" lon="3.2688"></trkpt><trkpt lat="44.8038" lon="3.2685"></trkpt><trkpt lat="44.80376" lon="3.26818"></trkpt><trkpt lat="44.80374" lon="3.26687"></trkpt><trkpt lat="44.80379" lon="3.26653"></trkpt><trkpt lat="44.80379" lon="3.26629"></trkpt><trkpt lat="44.80378" lon="3.26614"></trkpt><trkpt lat="44.80373" lon="3.26599"></trkpt><trkpt lat="44.80354" lon="3.26563"></trkpt><trkpt lat="44.8034" lon="3.26536"></trkpt><trkpt lat="44.80332" lon="3.2652"></trkpt><trkpt lat="44.80319" lon="3.26489"></trkpt><trkpt lat="44.80315" lon="3.26454"></trkpt><trkpt lat="44.80308" lon="3.26432"></trkpt><trkpt lat="44.80274" lon="3.26365"></trkpt><trkpt lat="44.80287" lon="3.26327"></trkpt><trkpt lat="44.803" lon="3.2627"></trkpt><trkpt lat="44.80303" lon="3.26247"></trkpt><trkpt lat="44.80306" lon="3.26202"></trkpt><trkpt lat="44.80307" lon="3.26172"></trkpt><trkpt lat="44.80307" lon="3.26114"></trkpt><trkpt lat="44.80305" lon="3.26077"></trkpt><trkpt lat="44.80285" lon="3.25976"></trkpt><trkpt lat="44.80285" lon="3.25961"></trkpt><trkpt lat="44.80289" lon="3.25955"></trkpt><trkpt lat="44.80288" lon="3.25934"></trkpt><trkpt lat="44.80297" lon="3.25863"></trkpt><trkpt lat="44.80296" lon="3.25832"></trkpt><trkpt lat="44.80264" lon="3.25771"></trkpt><trkpt lat="44.80251" lon="3.25735"></trkpt><trkpt lat="44.80245" lon="3.25617"></trkpt><trkpt lat="44.80212" lon="3.25386"></trkpt><trkpt lat="44.80207" lon="3.25319"></trkpt><trkpt lat="44.80208" lon="3.25296"></trkpt><trkpt lat="44.80211" lon="3.25291"></trkpt><trkpt lat="44.80248" lon="3.25238"></trkpt><trkpt lat="44.80283" lon="3.25185"></trkpt><trkpt lat="44.80302" lon="3.25198"></trkpt><trkpt lat="44.80321" lon="3.25209"></trkpt><trkpt lat="44.8039" lon="3.25193"></trkpt><trkpt lat="44.80512" lon="3.25124"></trkpt><trkpt lat="44.80551" lon="3.25122"></trkpt><trkpt lat="44.80576" lon="3.25121"></trkpt><trkpt lat="44.80783" lon="3.25147"></trkpt><trkpt lat="44.80978" lon="3.25071"></trkpt><trkpt lat="44.81093" lon="3.25058"></trkpt><trkpt lat="44.81175" lon="3.2503"></trkpt><trkpt lat="44.81237" lon="3.24995"></trkpt><trkpt lat="44.81323" lon="3.2492"></trkpt><trkpt lat="44.81418" lon="3.24844"></trkpt><trkpt lat="44.81418" lon="3.24813"></trkpt><trkpt lat="44.81425" lon="3.24763"></trkpt><trkpt lat="44.81433" lon="3.24701"></trkpt><trkpt lat="44.81441" lon="3.24624"></trkpt><trkpt lat="44.81475" lon="3.24327"></trkpt><trkpt lat="44.81478" lon="3.24315"></trkpt><trkpt lat="44.81475" lon="3.24304"></trkpt><trkpt lat="44.81464" lon="3.2415"></trkpt><trkpt lat="44.81441" lon="3.23948"></trkpt><trkpt lat="44.81419" lon="3.23888"></trkpt><trkpt lat="44.81389" lon="3.2384"></trkpt><trkpt lat="44.81371" lon="3.23793"></trkpt><trkpt lat="44.81302" lon="3.23438"></trkpt><trkpt lat="44.81273" lon="3.2335"></trkpt><trkpt lat="44.81165" lon="3.23025"></trkpt><trkpt lat="44.8116" lon="3.22991"></trkpt><trkpt lat="44.81163" lon="3.22879"></trkpt><trkpt lat="44.81157" lon="3.22826"></trkpt><trkpt lat="44.81121" lon="3.22737"></trkpt><trkpt lat="44.81121" lon="3.22718"></trkpt><trkpt lat="44.81143" lon="3.22724"></trkpt><trkpt lat="44.81226" lon="3.22724"></trkpt><trkpt lat="44.81284" lon="3.22746"></trkpt><trkpt lat="44.81374" lon="3.22754"></trkpt><trkpt lat="44.81431" lon="3.22747"></trkpt><trkpt lat="44.81644" lon="3.2267"></trkpt><trkpt lat="44.81743" lon="3.22662"></trkpt><trkpt lat="44.81805" lon="3.22678"></trkpt><trkpt lat="44.81861" lon="3.22694"></trkpt><trkpt lat="44.81913" lon="3.22713"></trkpt><trkpt lat="44.82129" lon="3.22782"></trkpt><trkpt lat="44.82181" lon="3.2283"></trkpt><trkpt lat="44.82211" lon="3.22845"></trkpt><trkpt lat="44.82223" lon="3.22845"></trkpt><trkpt lat="44.8223" lon="3.22843"></trkpt><trkpt lat="44.82301" lon="3.22797"></trkpt><trkpt lat="44.82439" lon="3.22666"></trkpt><trkpt lat="44.82499" lon="3.2264"></trkpt><trkpt lat="44.82547" lon="3.22629"></trkpt><trkpt lat="44.82593" lon="3.22626"></trkpt><trkpt lat="44.82779" lon="3.22652"></trkpt><trkpt lat="44.82845" lon="3.22677"></trkpt><trkpt lat="44.82865" lon="3.22693"></trkpt><trkpt lat="44.82875" lon="3.22704"></trkpt><trkpt lat="44.82893" lon="3.22733"></trkpt><trkpt lat="44.82917" lon="3.22802"></trkpt><trkpt lat="44.82935" lon="3.22832"></trkpt><trkpt lat="44.83019" lon="3.22897"></trkpt><trkpt lat="44.83047" lon="3.22883"></trkpt><trkpt lat="44.83065" lon="3.22873"></trkpt><trkpt lat="44.83097" lon="3.22874"></trkpt><trkpt lat="44.83106" lon="3.22874"></trkpt><trkpt lat="44.83147" lon="3.22872"></trkpt><trkpt lat="44.83168" lon="3.22856"></trkpt><trkpt lat="44.83205" lon="3.22813"></trkpt><trkpt lat="44.83221" lon="3.22792"></trkpt><trkpt lat="44.83238" lon="3.22762"></trkpt><trkpt lat="44.83246" lon="3.22714"></trkpt><trkpt lat="44.83249" lon="3.2268"></trkpt><trkpt lat="44.83237" lon="3.22621"></trkpt><trkpt lat="44.83222" lon="3.22596"></trkpt><trkpt lat="44.83215" lon="3.22585"></trkpt><trkpt lat="44.83185" lon="3.22522"></trkpt><trkpt lat="44.83161" lon="3.22445"></trkpt><trkpt lat="44.83152" lon="3.22342"></trkpt><trkpt lat="44.83155" lon="3.22213"></trkpt><trkpt lat="44.83149" lon="3.2212"></trkpt><trkpt lat="44.83125" lon="3.22"></trkpt><trkpt lat="44.83094" lon="3.21847"></trkpt><trkpt lat="44.83116" lon="3.21808"></trkpt><trkpt lat="44.83116" lon="3.21752"></trkpt><trkpt lat="44.83152" lon="3.21616"></trkpt><trkpt lat="44.83166" lon="3.21537"></trkpt><trkpt lat="44.83171" lon="3.21483"></trkpt><trkpt lat="44.83179" lon="3.2148"></trkpt><trkpt lat="44.83215" lon="3.21452"></trkpt><trkpt lat="44.83244" lon="3.21411"></trkpt><trkpt lat="44.8326" lon="3.21381"></trkpt><trkpt lat="44.83268" lon="3.21351"></trkpt><trkpt lat="44.83271" lon="3.21315"></trkpt><trkpt lat="44.83341" lon="3.21256"></trkpt><trkpt lat="44.83339" lon="3.21232"></trkpt><trkpt lat="44.83339" lon="3.21175"></trkpt><trkpt lat="44.8334" lon="3.21135"></trkpt><trkpt lat="44.83324" lon="3.21126"></trkpt><trkpt lat="44.83305" lon="3.21108"></trkpt><trkpt lat="44.83268" lon="3.21055"></trkpt><trkpt lat="44.83259" lon="3.21011"></trkpt><trkpt lat="44.83259" lon="3.2098"></trkpt><trkpt lat="44.83251" lon="3.20953"></trkpt><trkpt lat="44.83227" lon="3.20869"></trkpt><trkpt lat="44.83222" lon="3.20843"></trkpt><trkpt lat="44.83212" lon="3.20825"></trkpt><trkpt lat="44.83201" lon="3.20802"></trkpt><trkpt lat="44.83183" lon="3.20734"></trkpt><trkpt lat="44.83175" lon="3.2071"></trkpt><trkpt lat="44.83171" lon="3.20696"></trkpt><trkpt lat="44.83159" lon="3.20647"></trkpt><trkpt lat="44.83141" lon="3.20648"></trkpt><trkpt lat="44.8314" lon="3.20608"></trkpt><trkpt lat="44.83123" lon="3.20597"></trkpt><trkpt lat="44.8311" lon="3.20559"></trkpt><trkpt lat="44.83099" lon="3.20542"></trkpt><trkpt lat="44.83084" lon="3.20533"></trkpt><trkpt lat="44.83052" lon="3.20518"></trkpt><trkpt lat="44.83046" lon="3.20512"></trkpt><trkpt lat="44.83034" lon="3.20501"></trkpt><trkpt lat="44.82901" lon="3.20313"></trkpt><trkpt lat="44.82878" lon="3.20196"></trkpt><trkpt lat="44.82878" lon="3.20074"></trkpt><trkpt lat="44.82848" lon="3.19971"></trkpt><trkpt lat="44.8284" lon="3.19868"></trkpt><trkpt lat="44.8284" lon="3.19836"></trkpt><trkpt lat="44.82859" lon="3.19769"></trkpt><trkpt lat="44.82863" lon="3.19721"></trkpt><trkpt lat="44.82873" lon="3.19686"></trkpt><trkpt lat="44.82913" lon="3.196"></trkpt><trkpt lat="44.82892" lon="3.19584"></trkpt><trkpt lat="44.82861" lon="3.19562"></trkpt><trkpt lat="44.82703" lon="3.19397"></trkpt><trkpt lat="44.8268" lon="3.19368"></trkpt><trkpt lat="44.82658" lon="3.19324"></trkpt><trkpt lat="44.82638" lon="3.19276"></trkpt><trkpt lat="44.82584" lon="3.19142"></trkpt><trkpt lat="44.82531" lon="3.18932"></trkpt><trkpt lat="44.82471" lon="3.18738"></trkpt><trkpt lat="44.82435" lon="3.18603"></trkpt><trkpt lat="44.82428" lon="3.18576"></trkpt><trkpt lat="44.82425" lon="3.18558"></trkpt><trkpt lat="44.82422" lon="3.18543"></trkpt><trkpt lat="44.82412" lon="3.18441"></trkpt><trkpt lat="44.82405" lon="3.18409"></trkpt><trkpt lat="44.82356" lon="3.18281"></trkpt><trkpt lat="44.82313" lon="3.18196"></trkpt><trkpt lat="44.82209" lon="3.18076"></trkpt><trkpt lat="44.82168" lon="3.18008"></trkpt><trkpt lat="44.82163" lon="3.17994"></trkpt><trkpt lat="44.82151" lon="3.1798"></trkpt><trkpt lat="44.82106" lon="3.17909"></trkpt><trkpt lat="44.82122" lon="3.17898"></trkpt><trkpt lat="44.82157" lon="3.17873"></trkpt><trkpt lat="44.82193" lon="3.17837"></trkpt><trkpt lat="44.82247" lon="3.1777"></trkpt><trkpt lat="44.82293" lon="3.17699"></trkpt><trkpt lat="44.82317" lon="3.17649"></trkpt><trkpt lat="44.82382" lon="3.17486"></trkpt><trkpt lat="44.82424" lon="3.17403"></trkpt><trkpt lat="44.82464" lon="3.17291"></trkpt><trkpt lat="44.82523" lon="3.17168"></trkpt><trkpt lat="44.8254" lon="3.17108"></trkpt><trkpt lat="44.82545" lon="3.1707"></trkpt><trkpt lat="44.82557" lon="3.1685"></trkpt><trkpt lat="44.82554" lon="3.16836"></trkpt><trkpt lat="44.82526" lon="3.16801"></trkpt><trkpt lat="44.82502" lon="3.16749"></trkpt><trkpt lat="44.825" lon="3.16735"></trkpt><trkpt lat="44.82491" lon="3.1671"></trkpt><trkpt lat="44.8246" lon="3.16652"></trkpt><trkpt lat="44.82423" lon="3.16613"></trkpt><trkpt lat="44.82377" lon="3.16548"></trkpt><trkpt lat="44.82361" lon="3.16516"></trkpt><trkpt lat="44.82338" lon="3.16478"></trkpt><trkpt lat="44.8233" lon="3.16475"></trkpt><trkpt lat="44.8232" lon="3.16479"></trkpt><trkpt lat="44.82265" lon="3.16485"></trkpt><trkpt lat="44.82222" lon="3.16471"></trkpt><trkpt lat="44.82133" lon="3.16427"></trkpt><trkpt lat="44.82124" lon="3.16425"></trkpt><trkpt lat="44.82099" lon="3.1642"></trkpt><trkpt lat="44.82062" lon="3.1642"></trkpt><trkpt lat="44.82033" lon="3.16407"></trkpt><trkpt lat="44.82002" lon="3.1638"></trkpt><trkpt lat="44.81989" lon="3.16388"></trkpt><trkpt lat="44.81949" lon="3.16395"></trkpt><trkpt lat="44.81927" lon="3.16396"></trkpt><trkpt lat="44.81923" lon="3.16396"></trkpt><trkpt lat="44.81914" lon="3.16394"></trkpt><trkpt lat="44.81857" lon="3.1633"></trkpt><trkpt lat="44.81824" lon="3.16321"></trkpt><trkpt lat="44.81797" lon="3.16327"></trkpt><trkpt lat="44.81748" lon="3.16354"></trkpt><trkpt lat="44.81701" lon="3.16403"></trkpt><trkpt lat="44.81655" lon="3.1644"></trkpt><trkpt lat="44.81481" lon="3.16442"></trkpt><trkpt lat="44.81458" lon="3.16452"></trkpt><trkpt lat="44.8143" lon="3.16469"></trkpt><trkpt lat="44.81401" lon="3.16481"></trkpt><trkpt lat="44.81383" lon="3.16497"></trkpt><trkpt lat="44.81364" lon="3.16524"></trkpt><trkpt lat="44.81353" lon="3.16545"></trkpt><trkpt lat="44.81343" lon="3.16561"></trkpt><trkpt lat="44.8134" lon="3.16566"></trkpt><trkpt lat="44.81334" lon="3.16578"></trkpt><trkpt lat="44.81328" lon="3.16648"></trkpt><trkpt lat="44.81322" lon="3.16669"></trkpt><trkpt lat="44.8132" lon="3.16688"></trkpt><trkpt lat="44.81302" lon="3.16678"></trkpt><trkpt lat="44.81296" lon="3.16678"></trkpt><trkpt lat="44.81288" lon="3.16678"></trkpt><trkpt lat="44.81279" lon="3.16675"></trkpt><trkpt lat="44.8121" lon="3.16685"></trkpt><trkpt lat="44.8119" lon="3.16694"></trkpt><trkpt lat="44.81183" lon="3.16697"></trkpt><trkpt lat="44.81131" lon="3.16701"></trkpt><trkpt lat="44.81128" lon="3.16702"></trkpt><trkpt lat="44.81125" lon="3.16703"></trkpt><trkpt lat="44.81111" lon="3.16702"></trkpt><trkpt lat="44.81083" lon="3.16672"></trkpt><trkpt lat="44.81001" lon="3.16539"></trkpt><trkpt lat="44.80975" lon="3.16492"></trkpt><trkpt lat="44.80956" lon="3.16445"></trkpt><trkpt lat="44.80839" lon="3.16336"></trkpt><trkpt lat="44.80823" lon="3.16332"></trkpt><trkpt lat="44.80818" lon="3.1633"></trkpt><trkpt lat="44.80714" lon="3.16304"></trkpt><trkpt lat="44.80647" lon="3.16267"></trkpt><trkpt lat="44.80563" lon="3.16064"></trkpt><trkpt lat="44.80535" lon="3.16051"></trkpt><trkpt lat="44.8053" lon="3.16039"></trkpt><trkpt lat="44.80523" lon="3.15984"></trkpt><trkpt lat="44.80503" lon="3.15932"></trkpt><trkpt lat="44.80492" lon="3.15922"></trkpt><trkpt lat="44.80474" lon="3.1592"></trkpt><trkpt lat="44.80397" lon="3.15929"></trkpt><trkpt lat="44.80356" lon="3.15917"></trkpt><trkpt lat="44.80331" lon="3.15893"></trkpt><trkpt lat="44.80237" lon="3.15755"></trkpt><trkpt lat="44.80204" lon="3.15719"></trkpt><trkpt lat="44.80188" lon="3.15708"></trkpt><trkpt lat="44.80172" lon="3.15697"></trkpt><trkpt lat="44.80057" lon="3.15599"></trkpt><trkpt lat="44.79966" lon="3.15578"></trkpt><trkpt lat="44.7995" lon="3.15566"></trkpt><trkpt lat="44.79946" lon="3.15563"></trkpt><trkpt lat="44.79895" lon="3.15516"></trkpt><trkpt lat="44.79832" lon="3.15439"></trkpt><trkpt lat="44.79796" lon="3.15347"></trkpt><trkpt lat="44.79779" lon="3.15329"></trkpt><trkpt lat="44.79743" lon="3.15312"></trkpt><trkpt lat="44.79753" lon="3.15293"></trkpt><trkpt lat="44.79799" lon="3.15127"></trkpt><trkpt lat="44.798" lon="3.1507"></trkpt><trkpt lat="44.79791" lon="3.15014"></trkpt><trkpt lat="44.79719" lon="3.14901"></trkpt><trkpt lat="44.79709" lon="3.14772"></trkpt><trkpt lat="44.79724" lon="3.14675"></trkpt><trkpt lat="44.79726" lon="3.14646"></trkpt><trkpt lat="44.79721" lon="3.14632"></trkpt><trkpt lat="44.79703" lon="3.14554"></trkpt><trkpt lat="44.79653" lon="3.14409"></trkpt><trkpt lat="44.79583" lon="3.14421"></trkpt><trkpt lat="44.7952" lon="3.14384"></trkpt><trkpt lat="44.79462" lon="3.1436"></trkpt><trkpt lat="44.79425" lon="3.14328"></trkpt><trkpt lat="44.79366" lon="3.14252"></trkpt><trkpt lat="44.79339" lon="3.14199"></trkpt><trkpt lat="44.79305" lon="3.1418"></trkpt><trkpt lat="44.79278" lon="3.14164"></trkpt><trkpt lat="44.79246" lon="3.14101"></trkpt><trkpt lat="44.79227" lon="3.14087"></trkpt><trkpt lat="44.79196" lon="3.14081"></trkpt><trkpt lat="44.79171" lon="3.14079"></trkpt><trkpt lat="44.79146" lon="3.14077"></trkpt><trkpt lat="44.79127" lon="3.14083"></trkpt><trkpt lat="44.79051" lon="3.14072"></trkpt><trkpt lat="44.78975" lon="3.14098"></trkpt><trkpt lat="44.78969" lon="3.14105"></trkpt><trkpt lat="44.78959" lon="3.14108"></trkpt><trkpt lat="44.78944" lon="3.14098"></trkpt><trkpt lat="44.78932" lon="3.14079"></trkpt><trkpt lat="44.78928" lon="3.14063"></trkpt><trkpt lat="44.78929" lon="3.14048"></trkpt><trkpt lat="44.78929" lon="3.14027"></trkpt><trkpt lat="44.78921" lon="3.14025"></trkpt><trkpt lat="44.78913" lon="3.14021"></trkpt><trkpt lat="44.78886" lon="3.14011"></trkpt><trkpt lat="44.78874" lon="3.14012"></trkpt><trkpt lat="44.78864" lon="3.1402"></trkpt><trkpt lat="44.78853" lon="3.14025"></trkpt><trkpt lat="44.78841" lon="3.14023"></trkpt><trkpt lat="44.7883" lon="3.13985"></trkpt><trkpt lat="44.78801" lon="3.13935"></trkpt><trkpt lat="44.78791" lon="3.13923"></trkpt><trkpt lat="44.78781" lon="3.13922"></trkpt><trkpt lat="44.78772" lon="3.13923"></trkpt><trkpt lat="44.78761" lon="3.13935"></trkpt><trkpt lat="44.78736" lon="3.13953"></trkpt><trkpt lat="44.78723" lon="3.13954"></trkpt><trkpt lat="44.78702" lon="3.13941"></trkpt><trkpt lat="44.7865" lon="3.13846"></trkpt><trkpt lat="44.78646" lon="3.13834"></trkpt><trkpt lat="44.78636" lon="3.13832"></trkpt><trkpt lat="44.78628" lon="3.1383"></trkpt><trkpt lat="44.78602" lon="3.13811"></trkpt><trkpt lat="44.785" lon="3.13738"></trkpt><trkpt lat="44.78492" lon="3.13724"></trkpt><trkpt lat="44.7849" lon="3.13706"></trkpt><trkpt lat="44.78491" lon="3.13696"></trkpt><trkpt lat="44.78488" lon="3.13678"></trkpt><trkpt lat="44.78452" lon="3.13617"></trkpt><trkpt lat="44.78447" lon="3.13612"></trkpt><trkpt lat="44.7844" lon="3.13606"></trkpt><trkpt lat="44.78278" lon="3.13518"></trkpt><trkpt lat="44.78177" lon="3.135"></trkpt><trkpt lat="44.78138" lon="3.13507"></trkpt><trkpt lat="44.78108" lon="3.13522"></trkpt><trkpt lat="44.781" lon="3.13539"></trkpt><trkpt lat="44.78102" lon="3.13604"></trkpt><trkpt lat="44.78091" lon="3.1362"></trkpt><trkpt lat="44.78012" lon="3.13663"></trkpt><trkpt lat="44.77992" lon="3.13669"></trkpt><trkpt lat="44.77936" lon="3.1366"></trkpt><trkpt lat="44.77925" lon="3.13649"></trkpt><trkpt lat="44.77919" lon="3.13555"></trkpt><trkpt lat="44.77911" lon="3.13531"></trkpt><trkpt lat="44.77867" lon="3.13497"></trkpt><trkpt lat="44.77851" lon="3.13477"></trkpt><trkpt lat="44.77839" lon="3.13454"></trkpt><trkpt lat="44.77836" lon="3.1344"></trkpt><trkpt lat="44.77822" lon="3.1338"></trkpt><trkpt lat="44.77806" lon="3.13367"></trkpt><trkpt lat="44.77787" lon="3.13359"></trkpt><trkpt lat="44.77706" lon="3.13366"></trkpt><trkpt lat="44.77688" lon="3.13369"></trkpt><trkpt lat="44.77666" lon="3.13373"></trkpt><trkpt lat="44.77636" lon="3.13376"></trkpt><trkpt lat="44.77621" lon="3.13377"></trkpt><trkpt lat="44.77603" lon="3.1337"></trkpt><trkpt lat="44.77584" lon="3.13359"></trkpt><trkpt lat="44.77531" lon="3.13357"></trkpt><trkpt lat="44.77508" lon="3.13343"></trkpt><trkpt lat="44.77469" lon="3.1331"></trkpt><trkpt lat="44.7745" lon="3.13297"></trkpt><trkpt lat="44.77426" lon="3.13287"></trkpt><trkpt lat="44.77396" lon="3.13289"></trkpt><trkpt lat="44.77373" lon="3.13284"></trkpt><trkpt lat="44.77294" lon="3.13244"></trkpt><trkpt lat="44.77283" lon="3.13231"></trkpt><trkpt lat="44.77244" lon="3.13138"></trkpt><trkpt lat="44.77241" lon="3.13128"></trkpt><trkpt lat="44.77234" lon="3.13107"></trkpt><trkpt lat="44.77165" lon="3.13013"></trkpt><trkpt lat="44.77134" lon="3.13"></trkpt><trkpt lat="44.77071" lon="3.13004"></trkpt><trkpt lat="44.77052" lon="3.12989"></trkpt><trkpt lat="44.77042" lon="3.12959"></trkpt><trkpt lat="44.77039" lon="3.12933"></trkpt><trkpt lat="44.77029" lon="3.1293"></trkpt><trkpt lat="44.77015" lon="3.12898"></trkpt><trkpt lat="44.77006" lon="3.12855"></trkpt><trkpt lat="44.76999" lon="3.1284"></trkpt><trkpt lat="44.7699" lon="3.12816"></trkpt><trkpt lat="44.76905" lon="3.1267"></trkpt><trkpt lat="44.76873" lon="3.12632"></trkpt><trkpt lat="44.76865" lon="3.12624"></trkpt><trkpt lat="44.76789" lon="3.12588"></trkpt><trkpt lat="44.76744" lon="3.1255"></trkpt><trkpt lat="44.76698" lon="3.12497"></trkpt><trkpt lat="44.76657" lon="3.12481"></trkpt><trkpt lat="44.76589" lon="3.12441"></trkpt><trkpt lat="44.76505" lon="3.12427"></trkpt><trkpt lat="44.76474" lon="3.12411"></trkpt><trkpt lat="44.76329" lon="3.12301"></trkpt><trkpt lat="44.76275" lon="3.12261"></trkpt><trkpt lat="44.76203" lon="3.12198"></trkpt><trkpt lat="44.76135" lon="3.12159"></trkpt><trkpt lat="44.76099" lon="3.12148"></trkpt><trkpt lat="44.7606" lon="3.12153"></trkpt><trkpt lat="44.75964" lon="3.12141"></trkpt><trkpt lat="44.75877" lon="3.12092"></trkpt><trkpt lat="44.75849" lon="3.12064"></trkpt><trkpt lat="44.75804" lon="3.12034"></trkpt><trkpt lat="44.75773" lon="3.12024"></trkpt><trkpt lat="44.75715" lon="3.12019"></trkpt><trkpt lat="44.75705" lon="3.12012"></trkpt><trkpt lat="44.75681" lon="3.1198"></trkpt><trkpt lat="44.7567" lon="3.11948"></trkpt><trkpt lat="44.75639" lon="3.11925"></trkpt><trkpt lat="44.75621" lon="3.11859"></trkpt><trkpt lat="44.75578" lon="3.11773"></trkpt><trkpt lat="44.75568" lon="3.11762"></trkpt><trkpt lat="44.7555" lon="3.11763"></trkpt><trkpt lat="44.75544" lon="3.11754"></trkpt><trkpt lat="44.75574" lon="3.11632"></trkpt><trkpt lat="44.7558" lon="3.11575"></trkpt><trkpt lat="44.75578" lon="3.11559"></trkpt><trkpt lat="44.75573" lon="3.11564"></trkpt><trkpt lat="44.7533" lon="3.11657"></trkpt><trkpt lat="44.75201" lon="3.11732"></trkpt><trkpt lat="44.75036" lon="3.11839"></trkpt><trkpt lat="44.74937" lon="3.11803"></trkpt><trkpt lat="44.7486" lon="3.11763"></trkpt><trkpt lat="44.74816" lon="3.11716"></trkpt><trkpt lat="44.74812" lon="3.11711"></trkpt><trkpt lat="44.74807" lon="3.11709"></trkpt><trkpt lat="44.74564" lon="3.11581"></trkpt><trkpt lat="44.74568" lon="3.11611"></trkpt><trkpt lat="44.74573" lon="3.11696"></trkpt><trkpt lat="44.7458" lon="3.11732"></trkpt><trkpt lat="44.74615" lon="3.11854"></trkpt><trkpt lat="44.74668" lon="3.11994"></trkpt><trkpt lat="44.74715" lon="3.12098"></trkpt><trkpt lat="44.74753" lon="3.12182"></trkpt><trkpt lat="44.74825" lon="3.12449"></trkpt><trkpt lat="44.74925" lon="3.12722"></trkpt><trkpt lat="44.74942" lon="3.1281"></trkpt><trkpt lat="44.74954" lon="3.129"></trkpt><trkpt lat="44.74949" lon="3.12968"></trkpt><trkpt lat="44.74964" lon="3.13107"></trkpt><trkpt lat="44.74965" lon="3.13166"></trkpt><trkpt lat="44.74973" lon="3.1322"></trkpt><trkpt lat="44.74972" lon="3.13257"></trkpt><trkpt lat="44.74959" lon="3.13307"></trkpt><trkpt lat="44.74965" lon="3.13309"></trkpt><trkpt lat="44.75024" lon="3.13323"></trkpt><trkpt lat="44.75069" lon="3.13324"></trkpt><trkpt lat="44.75085" lon="3.13323"></trkpt><trkpt lat="44.75147" lon="3.13297"></trkpt><trkpt lat="44.75292" lon="3.13279"></trkpt><trkpt lat="44.75375" lon="3.13382"></trkpt><trkpt lat="44.75406" lon="3.13387"></trkpt><trkpt lat="44.75409" lon="3.1339"></trkpt><trkpt lat="44.75413" lon="3.13392"></trkpt><trkpt lat="44.75424" lon="3.13419"></trkpt><trkpt lat="44.75496" lon="3.13739"></trkpt><trkpt lat="44.75506" lon="3.13786"></trkpt><trkpt lat="44.75496" lon="3.13787"></trkpt><trkpt lat="44.75453" lon="3.13816"></trkpt><trkpt lat="44.75447" lon="3.13831"></trkpt><trkpt lat="44.75466" lon="3.14006"></trkpt><trkpt lat="44.75481" lon="3.14064"></trkpt><trkpt lat="44.75486" lon="3.14131"></trkpt><trkpt lat="44.75491" lon="3.1415"></trkpt><trkpt lat="44.75492" lon="3.14155"></trkpt><trkpt lat="44.75494" lon="3.14165"></trkpt><trkpt lat="44.75506" lon="3.1422"></trkpt><trkpt lat="44.75514" lon="3.14322"></trkpt><trkpt lat="44.75513" lon="3.14416"></trkpt><trkpt lat="44.75502" lon="3.14479"></trkpt><trkpt lat="44.75499" lon="3.14486"></trkpt><trkpt lat="44.75462" lon="3.14584"></trkpt><trkpt lat="44.75445" lon="3.1467"></trkpt><trkpt lat="44.75437" lon="3.14755"></trkpt><trkpt lat="44.75439" lon="3.1481"></trkpt><trkpt lat="44.75449" lon="3.14867"></trkpt><trkpt lat="44.75461" lon="3.14907"></trkpt><trkpt lat="44.75471" lon="3.14923"></trkpt><trkpt lat="44.75502" lon="3.14938"></trkpt><trkpt lat="44.75525" lon="3.14951"></trkpt><trkpt lat="44.7553" lon="3.14958"></trkpt><trkpt lat="44.75538" lon="3.14968"></trkpt><trkpt lat="44.75557" lon="3.15008"></trkpt><trkpt lat="44.75566" lon="3.15056"></trkpt><trkpt lat="44.75571" lon="3.15083"></trkpt><trkpt lat="44.75578" lon="3.15095"></trkpt><trkpt lat="44.75586" lon="3.1511"></trkpt><trkpt lat="44.75612" lon="3.15135"></trkpt><trkpt lat="44.75654" lon="3.15161"></trkpt><trkpt lat="44.75672" lon="3.15165"></trkpt><trkpt lat="44.75694" lon="3.15173"></trkpt><trkpt lat="44.75703" lon="3.1518"></trkpt><trkpt lat="44.75719" lon="3.15221"></trkpt><trkpt lat="44.75747" lon="3.15255"></trkpt><trkpt lat="44.75756" lon="3.15272"></trkpt><trkpt lat="44.75766" lon="3.15287"></trkpt><trkpt lat="44.75812" lon="3.15354"></trkpt><trkpt lat="44.75831" lon="3.15392"></trkpt><trkpt lat="44.75836" lon="3.15447"></trkpt><trkpt lat="44.7584" lon="3.15483"></trkpt><trkpt lat="44.75843" lon="3.15497"></trkpt><trkpt lat="44.7585" lon="3.15527"></trkpt><trkpt lat="44.75864" lon="3.15566"></trkpt><trkpt lat="44.75873" lon="3.15591"></trkpt><trkpt lat="44.75878" lon="3.15608"></trkpt><trkpt lat="44.75875" lon="3.1564"></trkpt><trkpt lat="44.75871" lon="3.15647"></trkpt><trkpt lat="44.75839" lon="3.1569"></trkpt><trkpt lat="44.75835" lon="3.15707"></trkpt><trkpt lat="44.75848" lon="3.15708"></trkpt><trkpt lat="44.7591" lon="3.15666"></trkpt><trkpt lat="44.7593" lon="3.15636"></trkpt><trkpt lat="44.75939" lon="3.15626"></trkpt><trkpt lat="44.75945" lon="3.15625"></trkpt><trkpt lat="44.75949" lon="3.15631"></trkpt><trkpt lat="44.75948" lon="3.15641"></trkpt><trkpt lat="44.75937" lon="3.15659"></trkpt><trkpt lat="44.75933" lon="3.15667"></trkpt><trkpt lat="44.7587" lon="3.15767"></trkpt><trkpt lat="44.75819" lon="3.15812"></trkpt><trkpt lat="44.75811" lon="3.15842"></trkpt><trkpt lat="44.7582" lon="3.15895"></trkpt><trkpt lat="44.75832" lon="3.15921"></trkpt><trkpt lat="44.75902" lon="3.15986"></trkpt><trkpt lat="44.75919" lon="3.15987"></trkpt><trkpt lat="44.7593" lon="3.16078"></trkpt><trkpt lat="44.75935" lon="3.16086"></trkpt><trkpt lat="44.75939" lon="3.16134"></trkpt><trkpt lat="44.7596" lon="3.16196"></trkpt><trkpt lat="44.75967" lon="3.16275"></trkpt><trkpt lat="44.75983" lon="3.16326"></trkpt><trkpt lat="44.76058" lon="3.16407"></trkpt><trkpt lat="44.76116" lon="3.16506"></trkpt><trkpt lat="44.76119" lon="3.16633"></trkpt><trkpt lat="44.76127" lon="3.16666"></trkpt><trkpt lat="44.7618" lon="3.16688"></trkpt><trkpt lat="44.76197" lon="3.16705"></trkpt><trkpt lat="44.76203" lon="3.16718"></trkpt><trkpt lat="44.76209" lon="3.16761"></trkpt><trkpt lat="44.76202" lon="3.1682"></trkpt><trkpt lat="44.76204" lon="3.16859"></trkpt><trkpt lat="44.76216" lon="3.16912"></trkpt><trkpt lat="44.76235" lon="3.16948"></trkpt><trkpt lat="44.76246" lon="3.16983"></trkpt><trkpt lat="44.76251" lon="3.16998"></trkpt><trkpt lat="44.76263" lon="3.17105"></trkpt><trkpt lat="44.76273" lon="3.17156"></trkpt><trkpt lat="44.76277" lon="3.17173"></trkpt><trkpt lat="44.76283" lon="3.1719"></trkpt><trkpt lat="44.76312" lon="3.17254"></trkpt><trkpt lat="44.76331" lon="3.1731"></trkpt><trkpt lat="44.764" lon="3.17452"></trkpt><trkpt lat="44.76412" lon="3.17488"></trkpt><trkpt lat="44.76423" lon="3.17547"></trkpt><trkpt lat="44.76434" lon="3.1757"></trkpt><trkpt lat="44.76477" lon="3.17594"></trkpt><trkpt lat="44.76545" lon="3.17662"></trkpt><trkpt lat="44.766" lon="3.17656"></trkpt><trkpt lat="44.76622" lon="3.17662"></trkpt><trkpt lat="44.76654" lon="3.17692"></trkpt><trkpt lat="44.76726" lon="3.17741"></trkpt><trkpt lat="44.76762" lon="3.17777"></trkpt><trkpt lat="44.76799" lon="3.17794"></trkpt><trkpt lat="44.76837" lon="3.1782"></trkpt><trkpt lat="44.76888" lon="3.17893"></trkpt><trkpt lat="44.76945" lon="3.17962"></trkpt><trkpt lat="44.76972" lon="3.18027"></trkpt><trkpt lat="44.76996" lon="3.18085"></trkpt><trkpt lat="44.77003" lon="3.18097"></trkpt><trkpt lat="44.77036" lon="3.18167"></trkpt><trkpt lat="44.77083" lon="3.18236"></trkpt><trkpt lat="44.77117" lon="3.1831"></trkpt><trkpt lat="44.77198" lon="3.184"></trkpt><trkpt lat="44.77248" lon="3.18473"></trkpt><trkpt lat="44.77303" lon="3.18529"></trkpt><trkpt lat="44.77356" lon="3.18601"></trkpt><trkpt lat="44.77366" lon="3.18611"></trkpt><trkpt lat="44.77409" lon="3.18652"></trkpt><trkpt lat="44.7745" lon="3.18707"></trkpt><trkpt lat="44.7753" lon="3.1879"></trkpt><trkpt lat="44.77559" lon="3.18812"></trkpt><trkpt lat="44.77549" lon="3.1882"></trkpt><trkpt lat="44.77504" lon="3.18835"></trkpt><trkpt lat="44.77432" lon="3.18838"></trkpt><trkpt lat="44.77366" lon="3.18854"></trkpt><trkpt lat="44.77239" lon="3.18927"></trkpt><trkpt lat="44.7716" lon="3.18983"></trkpt><trkpt lat="44.77098" lon="3.19072"></trkpt><trkpt lat="44.77071" lon="3.19151"></trkpt><trkpt lat="44.7699" lon="3.19287"></trkpt><trkpt lat="44.7695" lon="3.1933"></trkpt><trkpt lat="44.76935" lon="3.19346"></trkpt><trkpt lat="44.7691" lon="3.19386"></trkpt><trkpt lat="44.76817" lon="3.19557"></trkpt><trkpt lat="44.76786" lon="3.19625"></trkpt><trkpt lat="44.7676" lon="3.19659"></trkpt><trkpt lat="44.76734" lon="3.19708"></trkpt><trkpt lat="44.76722" lon="3.19737"></trkpt><trkpt lat="44.7671" lon="3.19768"></trkpt><trkpt lat="44.76716" lon="3.19774"></trkpt><trkpt lat="44.76731" lon="3.1979"></trkpt><trkpt lat="44.76782" lon="3.19828"></trkpt><trkpt lat="44.7685" lon="3.19966"></trkpt><trkpt lat="44.76874" lon="3.20068"></trkpt><trkpt lat="44.76882" lon="3.20156"></trkpt><trkpt lat="44.76906" lon="3.20242"></trkpt><trkpt lat="44.76926" lon="3.20348"></trkpt><trkpt lat="44.76933" lon="3.2036"></trkpt><trkpt lat="44.76978" lon="3.20446"></trkpt><trkpt lat="44.77031" lon="3.20465"></trkpt><trkpt lat="44.77049" lon="3.20482"></trkpt><trkpt lat="44.77068" lon="3.20486"></trkpt><trkpt lat="44.77126" lon="3.20482"></trkpt><trkpt lat="44.77192" lon="3.20468"></trkpt><trkpt lat="44.77265" lon="3.20481"></trkpt><trkpt lat="44.77317" lon="3.20466"></trkpt><trkpt lat="44.77337" lon="3.20448"></trkpt><trkpt lat="44.77389" lon="3.20346"></trkpt><trkpt lat="44.77408" lon="3.20337"></trkpt><trkpt lat="44.77479" lon="3.20331"></trkpt><trkpt lat="44.77498" lon="3.20328"></trkpt><trkpt lat="44.77502" lon="3.20333"></trkpt><trkpt lat="44.77516" lon="3.2038"></trkpt><trkpt lat="44.77524" lon="3.20463"></trkpt><trkpt lat="44.77532" lon="3.20476"></trkpt><trkpt lat="44.77525" lon="3.20496"></trkpt><trkpt lat="44.77486" lon="3.20563"></trkpt><trkpt lat="44.77457" lon="3.20594"></trkpt><trkpt lat="44.77433" lon="3.2061"></trkpt><trkpt lat="44.77408" lon="3.20613"></trkpt><trkpt lat="44.77376" lon="3.20635"></trkpt><trkpt lat="44.77341" lon="3.20684"></trkpt><trkpt lat="44.77331" lon="3.20713"></trkpt><trkpt lat="44.7733" lon="3.20776"></trkpt><trkpt lat="44.77334" lon="3.20802"></trkpt><trkpt lat="44.77352" lon="3.20833"></trkpt><trkpt lat="44.77381" lon="3.20867"></trkpt><trkpt lat="44.77386" lon="3.20891"></trkpt><trkpt lat="44.77386" lon="3.20939"></trkpt><trkpt lat="44.77363" lon="3.21029"></trkpt><trkpt lat="44.77369" lon="3.21097"></trkpt><trkpt lat="44.77383" lon="3.21154"></trkpt><trkpt lat="44.77415" lon="3.2122"></trkpt><trkpt lat="44.77426" lon="3.21272"></trkpt><trkpt lat="44.77427" lon="3.21279"></trkpt><trkpt lat="44.77428" lon="3.21286"></trkpt><trkpt lat="44.77441" lon="3.21389"></trkpt><trkpt lat="44.77467" lon="3.21487"></trkpt><trkpt lat="44.77478" lon="3.21509"></trkpt><trkpt lat="44.77481" lon="3.21522"></trkpt><trkpt lat="44.77474" lon="3.21526"></trkpt><trkpt lat="44.77465" lon="3.21534"></trkpt><trkpt lat="44.7746" lon="3.21547"></trkpt><trkpt lat="44.7746" lon="3.21563"></trkpt><trkpt lat="44.77457" lon="3.21562"></trkpt><trkpt lat="44.7745" lon="3.21562"></trkpt><trkpt lat="44.77444" lon="3.21565"></trkpt><trkpt lat="44.77441" lon="3.21574"></trkpt><trkpt lat="44.77406" lon="3.21637"></trkpt><trkpt lat="44.77342" lon="3.21693"></trkpt><trkpt lat="44.77311" lon="3.21709"></trkpt><trkpt lat="44.77309" lon="3.21714"></trkpt><trkpt lat="44.77309" lon="3.21733"></trkpt><trkpt lat="44.7734" lon="3.21884"></trkpt><trkpt lat="44.77343" lon="3.21948"></trkpt><trkpt lat="44.77337" lon="3.21963"></trkpt><trkpt lat="44.77314" lon="3.21989"></trkpt><trkpt lat="44.77296" lon="3.2201"></trkpt><trkpt lat="44.77291" lon="3.22037"></trkpt><trkpt lat="44.77322" lon="3.22124"></trkpt><trkpt lat="44.77336" lon="3.22196"></trkpt><trkpt lat="44.77337" lon="3.22231"></trkpt><trkpt lat="44.77336" lon="3.22251"></trkpt><trkpt lat="44.77322" lon="3.2239"></trkpt><trkpt lat="44.77275" lon="3.22491"></trkpt><trkpt lat="44.77258" lon="3.22537"></trkpt><trkpt lat="44.77214" lon="3.22608"></trkpt><trkpt lat="44.77213" lon="3.2261"></trkpt><trkpt lat="44.77176" lon="3.22686"></trkpt><trkpt lat="44.77156" lon="3.2271"></trkpt><trkpt lat="44.77124" lon="3.22729"></trkpt><trkpt lat="44.7711" lon="3.22745"></trkpt><trkpt lat="44.771" lon="3.22769"></trkpt><trkpt lat="44.771" lon="3.22791"></trkpt><trkpt lat="44.77108" lon="3.22821"></trkpt><trkpt lat="44.77109" lon="3.22846"></trkpt><trkpt lat="44.77087" lon="3.22961"></trkpt><trkpt lat="44.7711" lon="3.23121"></trkpt><trkpt lat="44.77132" lon="3.23205"></trkpt><trkpt lat="44.77133" lon="3.2327"></trkpt><trkpt lat="44.7711" lon="3.23383"></trkpt><trkpt lat="44.77066" lon="3.23511"></trkpt><trkpt lat="44.7706" lon="3.23538"></trkpt><trkpt lat="44.77038" lon="3.23556"></trkpt><trkpt lat="44.7701" lon="3.23558"></trkpt><trkpt lat="44.7697" lon="3.23555"></trkpt><trkpt lat="44.76957" lon="3.23575"></trkpt><trkpt lat="44.76946" lon="3.23601"></trkpt><trkpt lat="44.76937" lon="3.23636"></trkpt><trkpt lat="44.76928" lon="3.23706"></trkpt><trkpt lat="44.76929" lon="3.23718"></trkpt><trkpt lat="44.76941" lon="3.23742"></trkpt><trkpt lat="44.76952" lon="3.2376"></trkpt><trkpt lat="44.76955" lon="3.23764"></trkpt><trkpt lat="44.76957" lon="3.2377"></trkpt><trkpt lat="44.76971" lon="3.23778"></trkpt><trkpt lat="44.76981" lon="3.23802"></trkpt><trkpt lat="44.7701" lon="3.23865"></trkpt><trkpt lat="44.77024" lon="3.2411"></trkpt><trkpt lat="44.77029" lon="3.24123"></trkpt><trkpt lat="44.77033" lon="3.24129"></trkpt><trkpt lat="44.77181" lon="3.24273"></trkpt><trkpt lat="44.77215" lon="3.24317"></trkpt><trkpt lat="44.77258" lon="3.24422"></trkpt><trkpt lat="44.77265" lon="3.24486"></trkpt><trkpt lat="44.77271" lon="3.24505"></trkpt><trkpt lat="44.7733" lon="3.24631"></trkpt><trkpt lat="44.77339" lon="3.24648"></trkpt><trkpt lat="44.77344" lon="3.24694"></trkpt><trkpt lat="44.77372" lon="3.24818"></trkpt><trkpt lat="44.77385" lon="3.24862"></trkpt><trkpt lat="44.77391" lon="3.24878"></trkpt><trkpt lat="44.77406" lon="3.24939"></trkpt><trkpt lat="44.77409" lon="3.24964"></trkpt><trkpt lat="44.77406" lon="3.24997"></trkpt><trkpt lat="44.77367" lon="3.25095"></trkpt><trkpt lat="44.7736" lon="3.25117"></trkpt><trkpt lat="44.77363" lon="3.25124"></trkpt><trkpt lat="44.77368" lon="3.25147"></trkpt><trkpt lat="44.77376" lon="3.25162"></trkpt><trkpt lat="44.77364" lon="3.25185"></trkpt><trkpt lat="44.77359" lon="3.25194"></trkpt><trkpt lat="44.77346" lon="3.25218"></trkpt><trkpt lat="44.77332" lon="3.25243"></trkpt><trkpt lat="44.77336" lon="3.25257"></trkpt><trkpt lat="44.77336" lon="3.25267"></trkpt><trkpt lat="44.77332" lon="3.25288"></trkpt><trkpt lat="44.77315" lon="3.25304"></trkpt><trkpt lat="44.77297" lon="3.25316"></trkpt><trkpt lat="44.77284" lon="3.25321"></trkpt><trkpt lat="44.77271" lon="3.25333"></trkpt><trkpt lat="44.77272" lon="3.25356"></trkpt><trkpt lat="44.77273" lon="3.25363"></trkpt><trkpt lat="44.77275" lon="3.25375"></trkpt><trkpt lat="44.77282" lon="3.25376"></trkpt><trkpt lat="44.77306" lon="3.254"></trkpt><trkpt lat="44.77371" lon="3.25392"></trkpt><trkpt lat="44.77392" lon="3.25397"></trkpt><trkpt lat="44.77451" lon="3.25424"></trkpt><trkpt lat="44.77459" lon="3.25427"></trkpt><trkpt lat="44.77477" lon="3.25434"></trkpt><trkpt lat="44.77504" lon="3.25447"></trkpt><trkpt lat="44.77517" lon="3.25454"></trkpt><trkpt lat="44.77524" lon="3.25459"></trkpt><trkpt lat="44.77535" lon="3.2547"></trkpt><trkpt lat="44.77579" lon="3.25496"></trkpt><trkpt lat="44.77616" lon="3.25536"></trkpt><trkpt lat="44.77627" lon="3.25543"></trkpt><trkpt lat="44.77645" lon="3.25548"></trkpt><trkpt lat="44.77696" lon="3.25546"></trkpt><trkpt lat="44.77706" lon="3.25544"></trkpt><trkpt lat="44.77721" lon="3.25535"></trkpt><trkpt lat="44.77753" lon="3.2552"></trkpt><trkpt lat="44.77834" lon="3.2551"></trkpt><trkpt lat="44.78026" lon="3.25514"></trkpt><trkpt lat="44.78073" lon="3.25543"></trkpt><trkpt lat="44.78255" lon="3.25591"></trkpt><trkpt lat="44.78317" lon="3.25624"></trkpt><trkpt lat="44.78386" lon="3.25646"></trkpt><trkpt lat="44.78413" lon="3.25664"></trkpt><trkpt lat="44.78484" lon="3.2574"></trkpt><trkpt lat="44.78507" lon="3.25754"></trkpt><trkpt lat="44.78534" lon="3.25763"></trkpt><trkpt lat="44.78531" lon="3.25792"></trkpt><trkpt lat="44.78555" lon="3.25848"></trkpt><trkpt lat="44.78585" lon="3.25896"></trkpt><trkpt lat="44.78637" lon="3.25958"></trkpt><trkpt lat="44.78698" lon="3.2605"></trkpt><trkpt lat="44.78703" lon="3.26057"></trkpt><trkpt lat="44.78721" lon="3.26094"></trkpt><trkpt lat="44.78735" lon="3.26149"></trkpt><trkpt lat="44.78772" lon="3.26172"></trkpt><trkpt lat="44.78781" lon="3.26199"></trkpt><trkpt lat="44.78795" lon="3.26238"></trkpt><trkpt lat="44.78812" lon="3.26235"></trkpt><trkpt lat="44.78834" lon="3.26235"></trkpt><trkpt lat="44.78855" lon="3.26243"></trkpt><trkpt lat="44.78862" lon="3.26229"></trkpt><trkpt lat="44.78871" lon="3.26223"></trkpt><trkpt lat="44.78892" lon="3.26225"></trkpt><trkpt lat="44.78917" lon="3.26217"></trkpt><trkpt lat="44.78937" lon="3.26201"></trkpt><trkpt lat="44.78941" lon="3.26192"></trkpt><trkpt lat="44.78942" lon="3.26175"></trkpt><trkpt lat="44.78942" lon="3.26169"></trkpt><trkpt lat="44.78935" lon="3.26112"></trkpt><trkpt lat="44.78935" lon="3.261"></trkpt><trkpt lat="44.78947" lon="3.26089"></trkpt><trkpt lat="44.7895" lon="3.2608"></trkpt><trkpt lat="44.78997" lon="3.26061"></trkpt><trkpt lat="44.79041" lon="3.26049"></trkpt><trkpt lat="44.7908" lon="3.26037"></trkpt><trkpt lat="44.79133" lon="3.26024"></trkpt><trkpt lat="44.79143" lon="3.26027"></trkpt><trkpt lat="44.79169" lon="3.26044"></trkpt><trkpt lat="44.79325" lon="3.26122"></trkpt><trkpt lat="44.7942" lon="3.26147"></trkpt><trkpt lat="44.79456" lon="3.26167"></trkpt><trkpt lat="44.79491" lon="3.26186"></trkpt><trkpt lat="44.79517" lon="3.26209"></trkpt><trkpt lat="44.79554" lon="3.26231"></trkpt><trkpt lat="44.79562" lon="3.2624"></trkpt><trkpt lat="44.79587" lon="3.26307"></trkpt><trkpt lat="44.79602" lon="3.26371"></trkpt><trkpt lat="44.79607" lon="3.26409"></trkpt><trkpt lat="44.79609" lon="3.26431"></trkpt><trkpt lat="44.79609" lon="3.26455"></trkpt><trkpt lat="44.79602" lon="3.26489"></trkpt><trkpt lat="44.79592" lon="3.26531"></trkpt><trkpt lat="44.79584" lon="3.26557"></trkpt><trkpt lat="44.79559" lon="3.26604"></trkpt><trkpt lat="44.79548" lon="3.26636"></trkpt><trkpt lat="44.79549" lon="3.26664"></trkpt><trkpt lat="44.79557" lon="3.26675"></trkpt><trkpt lat="44.79564" lon="3.26681"></trkpt><trkpt lat="44.79571" lon="3.26687"></trkpt><trkpt lat="44.79582" lon="3.26712"></trkpt><trkpt lat="44.79595" lon="3.26725"></trkpt><trkpt lat="44.79605" lon="3.26751"></trkpt><trkpt lat="44.79697" lon="3.26898"></trkpt><trkpt lat="44.79707" lon="3.26947"></trkpt><trkpt lat="44.79708" lon="3.26998"></trkpt><trkpt lat="44.79729" lon="3.27065"></trkpt><trkpt lat="44.79732" lon="3.27091"></trkpt><trkpt lat="44.79732" lon="3.27108"></trkpt><trkpt lat="44.79732" lon="3.27137"></trkpt><trkpt lat="44.79736" lon="3.27153"></trkpt><trkpt lat="44.79743" lon="3.27167"></trkpt><trkpt lat="44.79754" lon="3.27172"></trkpt><trkpt lat="44.7977" lon="3.27169"></trkpt><trkpt lat="44.7986" lon="3.27156"></trkpt><trkpt lat="44.79884" lon="3.27158"></trkpt><trkpt lat="44.79896" lon="3.2717"></trkpt><trkpt lat="44.79904" lon="3.27187"></trkpt><trkpt lat="44.79909" lon="3.27194"></trkpt><trkpt lat="44.79914" lon="3.27202"></trkpt><trkpt lat="44.79931" lon="3.2722"></trkpt><trkpt lat="44.79938" lon="3.27228"></trkpt><trkpt lat="44.79999" lon="3.27293"></trkpt><trkpt lat="44.80006" lon="3.273"></trkpt><trkpt lat="44.80014" lon="3.27313"></trkpt><trkpt lat="44.80022" lon="3.27353"></trkpt><trkpt lat="44.80023" lon="3.27369"></trkpt><trkpt lat="44.8002" lon="3.27373"></trkpt><trkpt lat="44.80019" lon="3.27383"></trkpt><trkpt lat="44.8002" lon="3.27387"></trkpt><trkpt lat="44.80021" lon="3.27391"></trkpt><trkpt lat="44.80025" lon="3.27396"></trkpt><trkpt lat="44.80027" lon="3.27398"></trkpt><trkpt lat="44.80031" lon="3.27399"></trkpt><trkpt lat="44.80034" lon="3.27403"></trkpt><trkpt lat="44.80038" lon="3.2741"></trkpt><trkpt lat="44.80046" lon="3.27453"></trkpt><trkpt lat="44.80051" lon="3.27448"></trkpt><trkpt lat="44.80051" lon="3.27449"></trkpt><trkpt lat="44.8009" lon="3.27467"></trkpt><trkpt lat="44.8009" lon="3.27465"></trkpt><trkpt lat="44.80113" lon="3.27472"></trkpt><trkpt lat="44.80182" lon="3.27429"></trkpt><trkpt lat="44.80214" lon="3.27374"></trkpt><trkpt lat="44.80239" lon="3.2733"></trkpt><trkpt lat="44.80275" lon="3.27296"></trkpt><trkpt lat="44.80278" lon="3.27295"></trkpt><trkpt lat="44.80281" lon="3.27297"></trkpt><trkpt lat="44.80284" lon="3.27303"></trkpt><trkpt lat="44.8029" lon="3.27312"></trkpt><trkpt lat="44.80293" lon="3.27308"></trkpt><trkpt lat="44.80299" lon="3.27299"></trkpt><trkpt lat="44.80322" lon="3.27277"></trkpt><trkpt lat="44.8033" lon="3.27265"></trkpt>
</trkseg>
</trk>

</gpx>