<?xml version="1.0" ?>
<gpx xmlns="http://www.topografix.com/GPX/1/1" xmlns:xsi="http://www.w3.org/2001/XMLSchema-instance" xsi:schemaLocation="http://www.topografix.com/GPX/1/1 http://www.topografix.com/GPX/1/1/gpx.xsd" version="1.1" creator="EditGPX">
  <trk>
    <name>Track from PFMLVTTcircuit2</name>
    <trkseg>
      <trkpt lat="44.114000" lon="5.780450">
        <ele>1588.4</ele>
      </trkpt>
      <trkpt lat="44.114378" lon="5.780611">
        <ele>1589.4</ele>
      </trkpt>
      <trkpt lat="44.114752" lon="5.780893">
        <ele>1595.1</ele>
      </trkpt>
      <trkpt lat="44.114891" lon="5.780951">
        <ele>1596.5</ele>
      </trkpt>
      <trkpt lat="44.115161" lon="5.781295">
        <ele>1605.4</ele>
      </trkpt>
      <trkpt lat="44.115574" lon="5.781819">
        <ele>1606.6</ele>
      </trkpt>
      <trkpt lat="44.115784" lon="5.782072">
        <ele>1606.2</ele>
      </trkpt>
      <trkpt lat="44.116009" lon="5.782197">
        <ele>1618.6</ele>
      </trkpt>
      <trkpt lat="44.116339" lon="5.782507">
        <ele>1614.3</ele>
      </trkpt>
      <trkpt lat="44.116748" lon="5.782735">
        <ele>1626.1</ele>
      </trkpt>
      <trkpt lat="44.117086" lon="5.782873">
        <ele>1626.3</ele>
      </trkpt>
      <trkpt lat="44.117384" lon="5.782938">
        <ele>1627.6</ele>
      </trkpt>
      <trkpt lat="44.117704" lon="5.782970">
        <ele>1635.9</ele>
      </trkpt>
      <trkpt lat="44.118157" lon="5.783004">
        <ele>1637.9</ele>
      </trkpt>
      <trkpt lat="44.118467" lon="5.783011">
        <ele>1643.4</ele>
      </trkpt>
      <trkpt lat="44.118728" lon="5.782960">
        <ele>1645.3</ele>
      </trkpt>
      <trkpt lat="44.118985" lon="5.782797">
        <ele>1647.1</ele>
      </trkpt>
      <trkpt lat="44.119190" lon="5.782610">
        <ele>1651.4</ele>
      </trkpt>
      <trkpt lat="44.119305" lon="5.782439">
        <ele>1649.2</ele>
      </trkpt>
      <trkpt lat="44.119504" lon="5.782822">
        <ele>1654</ele>
      </trkpt>
      <trkpt lat="44.119749" lon="5.783237">
        <ele>1658</ele>
      </trkpt>
      <trkpt lat="44.119907" lon="5.783488">
        <ele>1662.1</ele>
      </trkpt>
      <trkpt lat="44.120031" lon="5.783708">
        <ele>1676.1</ele>
      </trkpt>
      <trkpt lat="44.120166" lon="5.783935">
        <ele>1678</ele>
      </trkpt>
      <trkpt lat="44.120269" lon="5.784209">
        <ele>1683.1</ele>
      </trkpt>
      <trkpt lat="44.120332" lon="5.784510">
        <ele>1685.7</ele>
      </trkpt>
      <trkpt lat="44.120407" lon="5.784872">
        <ele>1687.6</ele>
      </trkpt>
      <trkpt lat="44.120440" lon="5.785136">
        <ele>1692.1</ele>
      </trkpt>
      <trkpt lat="44.120491" lon="5.785407">
        <ele>1693.4</ele>
      </trkpt>
      <trkpt lat="44.120510" lon="5.785585">
        <ele>1694.3</ele>
      </trkpt>
      <trkpt lat="44.120550" lon="5.785781">
        <ele>1695.6</ele>
      </trkpt>
      <trkpt lat="44.120617" lon="5.786032">
        <ele>1697.4</ele>
      </trkpt>
      <trkpt lat="44.120862" lon="5.786004">
        <ele>1704</ele>
      </trkpt>
      <trkpt lat="44.121136" lon="5.785986">
        <ele>1706.1</ele>
      </trkpt>
      <trkpt lat="44.121402" lon="5.785997">
        <ele>1708.9</ele>
      </trkpt>
      <trkpt lat="44.121613" lon="5.786056">
        <ele>1710.4</ele>
      </trkpt>
      <trkpt lat="44.121850" lon="5.786197">
        <ele>1714.3</ele>
      </trkpt>
      <trkpt lat="44.121959" lon="5.786284">
        <ele>1714.3</ele>
      </trkpt>
      <trkpt lat="44.122029" lon="5.786434">
        <ele>1714.2</ele>
      </trkpt>
      <trkpt lat="44.122094" lon="5.786675">
        <ele>1715.4</ele>
      </trkpt>
      <trkpt lat="44.122160" lon="5.786848">
        <ele>1715.9</ele>
      </trkpt>
      <trkpt lat="44.122165" lon="5.787138">
        <ele>1716.9</ele>
      </trkpt>
      <trkpt lat="44.122177" lon="5.787337">
        <ele>1717.6</ele>
      </trkpt>
      <trkpt lat="44.122229" lon="5.787606">
        <ele>1722.5</ele>
      </trkpt>
      <trkpt lat="44.122356" lon="5.787956">
        <ele>1724.9</ele>
      </trkpt>
      <trkpt lat="44.122516" lon="5.788195">
        <ele>1724.6</ele>
      </trkpt>
      <trkpt lat="44.122729" lon="5.788603">
        <ele>1726.7</ele>
      </trkpt>
      <trkpt lat="44.122917" lon="5.788846">
        <ele>1725.2</ele>
      </trkpt>
      <trkpt lat="44.123041" lon="5.789168">
        <ele>1722.5</ele>
      </trkpt>
      <trkpt lat="44.123176" lon="5.789576">
        <ele>1720.3</ele>
      </trkpt>
      <trkpt lat="44.123271" lon="5.789975">
        <ele>1716.3</ele>
      </trkpt>
      <trkpt lat="44.123563" lon="5.790777">
        <ele>1695.6</ele>
      </trkpt>
      <trkpt lat="44.123648" lon="5.791101">
        <ele>1694.1</ele>
      </trkpt>
      <trkpt lat="44.123607" lon="5.791395">
        <ele>1695.2</ele>
      </trkpt>
      <trkpt lat="44.123482" lon="5.791672">
        <ele>1702.8</ele>
      </trkpt>
      <trkpt lat="44.123286" lon="5.791947">
        <ele>1702.1</ele>
      </trkpt>
      <trkpt lat="44.122970" lon="5.792409">
        <ele>1702.3</ele>
      </trkpt>
      <trkpt lat="44.122667" lon="5.792973">
        <ele>1711.2</ele>
      </trkpt>
      <trkpt lat="44.122498" lon="5.793444">
        <ele>1708.6</ele>
      </trkpt>
      <trkpt lat="44.122333" lon="5.793950">
        <ele>1713.1</ele>
      </trkpt>
      <trkpt lat="44.122210" lon="5.794289">
        <ele>1725.1</ele>
      </trkpt>
      <trkpt lat="44.122117" lon="5.794431">
        <ele>1725.7</ele>
      </trkpt>
      <trkpt lat="44.121991" lon="5.794443">
        <ele>1724.7</ele>
      </trkpt>
      <trkpt lat="44.121725" lon="5.794333">
        <ele>1718.9</ele>
      </trkpt>
      <trkpt lat="44.121473" lon="5.794272">
        <ele>1716.2</ele>
      </trkpt>
      <trkpt lat="44.121084" lon="5.794345">
        <ele>1717.2</ele>
      </trkpt>
      <trkpt lat="44.120327" lon="5.794606">
        <ele>1717.8</ele>
      </trkpt>
      <trkpt lat="44.119959" lon="5.794840">
        <ele>1718.9</ele>
      </trkpt>
      <trkpt lat="44.119558" lon="5.795131">
        <ele>1726.2</ele>
      </trkpt>
      <trkpt lat="44.119269" lon="5.795347">
        <ele>1725.3</ele>
      </trkpt>
      <trkpt lat="44.119103" lon="5.795597">
        <ele>1716.8</ele>
      </trkpt>
      <trkpt lat="44.118997" lon="5.795845">
        <ele>1720.9</ele>
      </trkpt>
      <trkpt lat="44.118968" lon="5.796164">
        <ele>1717.3</ele>
      </trkpt>
      <trkpt lat="44.118995" lon="5.796441">
        <ele>1717.8</ele>
      </trkpt>
      <trkpt lat="44.119179" lon="5.796881">
        <ele>1728.8</ele>
      </trkpt>
      <trkpt lat="44.119525" lon="5.797512">
        <ele>1722</ele>
      </trkpt>
      <trkpt lat="44.119900" lon="5.798138">
        <ele>1725.9</ele>
      </trkpt>
      <trkpt lat="44.120200" lon="5.798716">
        <ele>1736.1</ele>
      </trkpt>
      <trkpt lat="44.120502" lon="5.799311">
        <ele>1733.2</ele>
      </trkpt>
      <trkpt lat="44.120686" lon="5.799738">
        <ele>1734</ele>
      </trkpt>
      <trkpt lat="44.120901" lon="5.800045">
        <ele>1742.9</ele>
      </trkpt>
      <trkpt lat="44.120983" lon="5.800207">
        <ele>1747.9</ele>
      </trkpt>
      <trkpt lat="44.120987" lon="5.800319">
        <ele>1749.4</ele>
      </trkpt>
      <trkpt lat="44.120931" lon="5.800427">
        <ele>1750</ele>
      </trkpt>
      <trkpt lat="44.120707" lon="5.800550">
        <ele>1739.9</ele>
      </trkpt>
      <trkpt lat="44.120294" lon="5.800751">
        <ele>1737.9</ele>
      </trkpt>
      <trkpt lat="44.119624" lon="5.801072">
        <ele>1740.8</ele>
      </trkpt>
      <trkpt lat="44.119421" lon="5.801241">
        <ele>1741.1</ele>
      </trkpt>
      <trkpt lat="44.119243" lon="5.801469">
        <ele>1743</ele>
      </trkpt>
      <trkpt lat="44.119095" lon="5.801726">
        <ele>1744</ele>
      </trkpt>
      <trkpt lat="44.119089" lon="5.801929">
        <ele>1743.2</ele>
      </trkpt>
      <trkpt lat="44.119237" lon="5.802149">
        <ele>1749.4</ele>
      </trkpt>
      <trkpt lat="44.119549" lon="5.802544">
        <ele>1748.9</ele>
      </trkpt>
      <trkpt lat="44.119967" lon="5.803106">
        <ele>1749.2</ele>
      </trkpt>
      <trkpt lat="44.120146" lon="5.803340">
        <ele>1753</ele>
      </trkpt>
      <trkpt lat="44.120232" lon="5.803415">
        <ele>1754.5</ele>
      </trkpt>
      <trkpt lat="44.120277" lon="5.803339">
        <ele>1755.4</ele>
      </trkpt>
      <trkpt lat="44.120203" lon="5.803121">
        <ele>1760.1</ele>
      </trkpt>
      <trkpt lat="44.120120" lon="5.802790">
        <ele>1761.5</ele>
      </trkpt>
      <trkpt lat="44.120089" lon="5.802437">
        <ele>1760.6</ele>
      </trkpt>
      <trkpt lat="44.120137" lon="5.802163">
        <ele>1762.8</ele>
      </trkpt>
      <trkpt lat="44.120230" lon="5.801928">
        <ele>1762.9</ele>
      </trkpt>
      <trkpt lat="44.120421" lon="5.801813">
        <ele>1764.5</ele>
      </trkpt>
      <trkpt lat="44.120715" lon="5.801755">
        <ele>1767.3</ele>
      </trkpt>
      <trkpt lat="44.120919" lon="5.801737">
        <ele>1773.4</ele>
      </trkpt>
      <trkpt lat="44.121549" lon="5.801496">
        <ele>1773.8</ele>
      </trkpt>
      <trkpt lat="44.122001" lon="5.801277">
        <ele>1783.6</ele>
      </trkpt>
      <trkpt lat="44.122285" lon="5.801109">
        <ele>1785</ele>
      </trkpt>
      <trkpt lat="44.122544" lon="5.800910">
        <ele>1788.6</ele>
      </trkpt>
      <trkpt lat="44.122756" lon="5.800739">
        <ele>1787.7</ele>
      </trkpt>
      <trkpt lat="44.122957" lon="5.800565">
        <ele>1789.3</ele>
      </trkpt>
      <trkpt lat="44.123162" lon="5.800313">
        <ele>1790.4</ele>
      </trkpt>
      <trkpt lat="44.123307" lon="5.800082">
        <ele>1793.1</ele>
      </trkpt>
      <trkpt lat="44.123393" lon="5.799960">
        <ele>1791.9</ele>
      </trkpt>
      <trkpt lat="44.123481" lon="5.799904">
        <ele>1788.6</ele>
      </trkpt>
      <trkpt lat="44.123548" lon="5.799956">
        <ele>1787.2</ele>
      </trkpt>
      <trkpt lat="44.123537" lon="5.800060">
        <ele>1785</ele>
      </trkpt>
      <trkpt lat="44.123479" lon="5.800312">
        <ele>1783.6</ele>
      </trkpt>
      <trkpt lat="44.123424" lon="5.800653">
        <ele>1786.7</ele>
      </trkpt>
      <trkpt lat="44.123331" lon="5.800979">
        <ele>1796.6</ele>
      </trkpt>
      <trkpt lat="44.123250" lon="5.801203">
        <ele>1796.8</ele>
      </trkpt>
      <trkpt lat="44.123197" lon="5.801460">
        <ele>1797.9</ele>
      </trkpt>
      <trkpt lat="44.123128" lon="5.801689">
        <ele>1802.6</ele>
      </trkpt>
      <trkpt lat="44.123048" lon="5.801863">
        <ele>1803.7</ele>
      </trkpt>
      <trkpt lat="44.122868" lon="5.802044">
        <ele>1805.3</ele>
      </trkpt>
      <trkpt lat="44.122718" lon="5.802208">
        <ele>1807.6</ele>
      </trkpt>
      <trkpt lat="44.122609" lon="5.802407">
        <ele>1812.2</ele>
      </trkpt>
      <trkpt lat="44.122573" lon="5.802561">
        <ele>1813.9</ele>
      </trkpt>
      <trkpt lat="44.122694" lon="5.802703">
        <ele>1809.1</ele>
      </trkpt>
      <trkpt lat="44.122846" lon="5.802834">
        <ele>1805.9</ele>
      </trkpt>
      <trkpt lat="44.122792" lon="5.803023">
        <ele>1805.9</ele>
      </trkpt>
      <trkpt lat="44.122725" lon="5.803310">
        <ele>1807.7</ele>
      </trkpt>
      <trkpt lat="44.122677" lon="5.803530">
        <ele>1802</ele>
      </trkpt>
      <trkpt lat="44.122670" lon="5.803822">
        <ele>1798.8</ele>
      </trkpt>
      <trkpt lat="44.122806" lon="5.804420">
        <ele>1790.8</ele>
      </trkpt>
      <trkpt lat="44.122865" lon="5.804789">
        <ele>1788.6</ele>
      </trkpt>
      <trkpt lat="44.122976" lon="5.805224">
        <ele>1783.7</ele>
      </trkpt>
      <trkpt lat="44.123078" lon="5.805631">
        <ele>1782.2</ele>
      </trkpt>
      <trkpt lat="44.123235" lon="5.806076">
        <ele>1778.6</ele>
      </trkpt>
      <trkpt lat="44.123334" lon="5.806333">
        <ele>1765.2</ele>
      </trkpt>
      <trkpt lat="44.123429" lon="5.806544">
        <ele>1769.3</ele>
      </trkpt>
      <trkpt lat="44.123445" lon="5.806694">
        <ele>1771</ele>
      </trkpt>
      <trkpt lat="44.123419" lon="5.806903">
        <ele>1765</ele>
      </trkpt>
      <trkpt lat="44.123378" lon="5.807125">
        <ele>1762.3</ele>
      </trkpt>
      <trkpt lat="44.123294" lon="5.807397">
        <ele>1772.4</ele>
      </trkpt>
      <trkpt lat="44.123237" lon="5.807640">
        <ele>1768.5</ele>
      </trkpt>
      <trkpt lat="44.123160" lon="5.807894">
        <ele>1765.2</ele>
      </trkpt>
      <trkpt lat="44.123134" lon="5.808032">
        <ele>1764.3</ele>
      </trkpt>
      <trkpt lat="44.123109" lon="5.808168">
        <ele>1763.7</ele>
      </trkpt>
      <trkpt lat="44.123092" lon="5.808453">
        <ele>1760.2</ele>
      </trkpt>
      <trkpt lat="44.123117" lon="5.808679">
        <ele>1759.6</ele>
      </trkpt>
      <trkpt lat="44.123176" lon="5.808923">
        <ele>1759.3</ele>
      </trkpt>
      <trkpt lat="44.123263" lon="5.809139">
        <ele>1759.6</ele>
      </trkpt>
      <trkpt lat="44.123254" lon="5.809316">
        <ele>1756.3</ele>
      </trkpt>
      <trkpt lat="44.123212" lon="5.809601">
        <ele>1753.1</ele>
      </trkpt>
      <trkpt lat="44.122992" lon="5.811011">
        <ele>1729.3</ele>
      </trkpt>
      <trkpt lat="44.122684" lon="5.811591">
        <ele>1728.3</ele>
      </trkpt>
      <trkpt lat="44.122462" lon="5.812269">
        <ele>1723.5</ele>
      </trkpt>
      <trkpt lat="44.122273" lon="5.812790">
        <ele>1721.5</ele>
      </trkpt>
      <trkpt lat="44.122089" lon="5.813185">
        <ele>1721.8</ele>
      </trkpt>
      <trkpt lat="44.121912" lon="5.813545">
        <ele>1721.5</ele>
      </trkpt>
      <trkpt lat="44.121722" lon="5.813974">
        <ele>1724.9</ele>
      </trkpt>
      <trkpt lat="44.121558" lon="5.814274">
        <ele>1730.4</ele>
      </trkpt>
      <trkpt lat="44.121437" lon="5.814414">
        <ele>1728.7</ele>
      </trkpt>
      <trkpt lat="44.121331" lon="5.814597">
        <ele>1727.5</ele>
      </trkpt>
      <trkpt lat="44.121201" lon="5.814849">
        <ele>1727</ele>
      </trkpt>
      <trkpt lat="44.121088" lon="5.815157">
        <ele>1720.4</ele>
      </trkpt>
      <trkpt lat="44.121000" lon="5.815347">
        <ele>1719.3</ele>
      </trkpt>
      <trkpt lat="44.120927" lon="5.815563">
        <ele>1718.4</ele>
      </trkpt>
      <trkpt lat="44.120886" lon="5.815784">
        <ele>1719.6</ele>
      </trkpt>
      <trkpt lat="44.120888" lon="5.816000">
        <ele>1710.6</ele>
      </trkpt>
      <trkpt lat="44.120884" lon="5.816176">
        <ele>1706.1</ele>
      </trkpt>
      <trkpt lat="44.120814" lon="5.816403">
        <ele>1710.9</ele>
      </trkpt>
      <trkpt lat="44.120741" lon="5.816651">
        <ele>1710</ele>
      </trkpt>
      <trkpt lat="44.120638" lon="5.816930">
        <ele>1703.2</ele>
      </trkpt>
      <trkpt lat="44.120512" lon="5.817246">
        <ele>1700.5</ele>
      </trkpt>
      <trkpt lat="44.120431" lon="5.817520">
        <ele>1694.2</ele>
      </trkpt>
      <trkpt lat="44.120327" lon="5.817849">
        <ele>1693.9</ele>
      </trkpt>
      <trkpt lat="44.120181" lon="5.818151">
        <ele>1695.7</ele>
      </trkpt>
      <trkpt lat="44.120083" lon="5.818381">
        <ele>1695.7</ele>
      </trkpt>
      <trkpt lat="44.120005" lon="5.818577">
        <ele>1689.7</ele>
      </trkpt>
      <trkpt lat="44.119488" lon="5.819219">
        <ele>1691</ele>
      </trkpt>
      <trkpt lat="44.119411" lon="5.818849">
        <ele>1698.3</ele>
      </trkpt>
      <trkpt lat="44.119334" lon="5.818307">
        <ele>1699.6</ele>
      </trkpt>
      <trkpt lat="44.119224" lon="5.817009">
        <ele>1691.8</ele>
      </trkpt>
      <trkpt lat="44.119211" lon="5.816952">
        <ele>1691.2</ele>
      </trkpt>
      <trkpt lat="44.119193" lon="5.816890">
        <ele>1690.3</ele>
      </trkpt>
      <trkpt lat="44.119190" lon="5.816826">
        <ele>1689.1</ele>
      </trkpt>
      <trkpt lat="44.119192" lon="5.816747">
        <ele>1687.2</ele>
      </trkpt>
      <trkpt lat="44.119177" lon="5.816684">
        <ele>1684.9</ele>
      </trkpt>
      <trkpt lat="44.119158" lon="5.816634">
        <ele>1683.6</ele>
      </trkpt>
      <trkpt lat="44.119145" lon="5.816578">
        <ele>1683</ele>
      </trkpt>
      <trkpt lat="44.119116" lon="5.816500">
        <ele>1682.3</ele>
      </trkpt>
      <trkpt lat="44.119109" lon="5.816460">
        <ele>1682.1</ele>
      </trkpt>
      <trkpt lat="44.119123" lon="5.816413">
        <ele>1681.8</ele>
      </trkpt>
      <trkpt lat="44.119161" lon="5.816350">
        <ele>1681.6</ele>
      </trkpt>
      <trkpt lat="44.119164" lon="5.816288">
        <ele>1681.4</ele>
      </trkpt>
      <trkpt lat="44.119116" lon="5.816200">
        <ele>1681.1</ele>
      </trkpt>
      <trkpt lat="44.119021" lon="5.816105">
        <ele>1680.8</ele>
      </trkpt>
      <trkpt lat="44.118853" lon="5.815857">
        <ele>1679.8</ele>
      </trkpt>
      <trkpt lat="44.118652" lon="5.815507">
        <ele>1675.3</ele>
      </trkpt>
      <trkpt lat="44.118356" lon="5.814042">
        <ele>1663.5</ele>
      </trkpt>
      <trkpt lat="44.118317" lon="5.813715">
        <ele>1651.2</ele>
      </trkpt>
      <trkpt lat="44.118387" lon="5.813221">
        <ele>1654.9</ele>
      </trkpt>
      <trkpt lat="44.118333" lon="5.812749">
        <ele>1646.5</ele>
      </trkpt>
      <trkpt lat="44.118402" lon="5.812438">
        <ele>1650.1</ele>
      </trkpt>
      <trkpt lat="44.118310" lon="5.811982">
        <ele>1650.9</ele>
      </trkpt>
      <trkpt lat="44.118344" lon="5.811800">
        <ele>1653.7</ele>
      </trkpt>
      <trkpt lat="44.117909" lon="5.812052">
        <ele>1651.2</ele>
      </trkpt>
      <trkpt lat="44.117543" lon="5.812170">
        <ele>1650.5</ele>
      </trkpt>
      <trkpt lat="44.117312" lon="5.811977">
        <ele>1653.2</ele>
      </trkpt>
      <trkpt lat="44.117023" lon="5.811735">
        <ele>1653.7</ele>
      </trkpt>
      <trkpt lat="44.116969" lon="5.811574">
        <ele>1659</ele>
      </trkpt>
      <trkpt lat="44.116919" lon="5.811312">
        <ele>1659.8</ele>
      </trkpt>
      <trkpt lat="44.116850" lon="5.810952">
        <ele>1660.3</ele>
      </trkpt>
      <trkpt lat="44.116615" lon="5.810475">
        <ele>1658.4</ele>
      </trkpt>
      <trkpt lat="44.116503" lon="5.810233">
        <ele>1658.3</ele>
      </trkpt>
      <trkpt lat="44.116370" lon="5.809890">
        <ele>1655.3</ele>
      </trkpt>
      <trkpt lat="44.116395" lon="5.809757">
        <ele>1654.9</ele>
      </trkpt>
      <trkpt lat="44.116394" lon="5.809355">
        <ele>1653.4</ele>
      </trkpt>
      <trkpt lat="44.116413" lon="5.808996">
        <ele>1648.2</ele>
      </trkpt>
      <trkpt lat="44.116438" lon="5.808780">
        <ele>1647</ele>
      </trkpt>
      <trkpt lat="44.116432" lon="5.808578">
        <ele>1646.5</ele>
      </trkpt>
      <trkpt lat="44.116444" lon="5.808363">
        <ele>1646.8</ele>
      </trkpt>
      <trkpt lat="44.116442" lon="5.808341">
        <ele>1646.7</ele>
      </trkpt>
      <trkpt lat="44.116382" lon="5.808254">
        <ele>1643.4</ele>
      </trkpt>
      <trkpt lat="44.116374" lon="5.808130">
        <ele>1642.9</ele>
      </trkpt>
      <trkpt lat="44.116346" lon="5.807928">
        <ele>1642.2</ele>
      </trkpt>
      <trkpt lat="44.116320" lon="5.807742">
        <ele>1642</ele>
      </trkpt>
      <trkpt lat="44.116283" lon="5.807600">
        <ele>1641.6</ele>
      </trkpt>
      <trkpt lat="44.116221" lon="5.807468">
        <ele>1644.2</ele>
      </trkpt>
      <trkpt lat="44.116101" lon="5.807279">
        <ele>1643.3</ele>
      </trkpt>
      <trkpt lat="44.116026" lon="5.807115">
        <ele>1644.3</ele>
      </trkpt>
      <trkpt lat="44.115949" lon="5.806963">
        <ele>1645.2</ele>
      </trkpt>
      <trkpt lat="44.115906" lon="5.806852">
        <ele>1645.5</ele>
      </trkpt>
      <trkpt lat="44.115841" lon="5.806747">
        <ele>1645.4</ele>
      </trkpt>
      <trkpt lat="44.115711" lon="5.806751">
        <ele>1638.7</ele>
      </trkpt>
      <trkpt lat="44.115535" lon="5.806733">
        <ele>1635.2</ele>
      </trkpt>
      <trkpt lat="44.115355" lon="5.806663">
        <ele>1643.2</ele>
      </trkpt>
      <trkpt lat="44.115196" lon="5.806638">
        <ele>1640.4</ele>
      </trkpt>
      <trkpt lat="44.115052" lon="5.806527">
        <ele>1639.2</ele>
      </trkpt>
      <trkpt lat="44.114937" lon="5.806306">
        <ele>1637.2</ele>
      </trkpt>
      <trkpt lat="44.114885" lon="5.806028">
        <ele>1641</ele>
      </trkpt>
      <trkpt lat="44.114820" lon="5.805701">
        <ele>1647</ele>
      </trkpt>
      <trkpt lat="44.114726" lon="5.805512">
        <ele>1646.9</ele>
      </trkpt>
      <trkpt lat="44.114717" lon="5.805329">
        <ele>1647.8</ele>
      </trkpt>
      <trkpt lat="44.114700" lon="5.805083">
        <ele>1649.1</ele>
      </trkpt>
      <trkpt lat="44.114644" lon="5.804757">
        <ele>1653.2</ele>
      </trkpt>
      <trkpt lat="44.114571" lon="5.804639">
        <ele>1652.9</ele>
      </trkpt>
      <trkpt lat="44.114513" lon="5.804532">
        <ele>1652.6</ele>
      </trkpt>
      <trkpt lat="44.114482" lon="5.804425">
        <ele>1652.6</ele>
      </trkpt>
      <trkpt lat="44.114500" lon="5.804340">
        <ele>1652.9</ele>
      </trkpt>
      <trkpt lat="44.114446" lon="5.804221">
        <ele>1652.1</ele>
      </trkpt>
      <trkpt lat="44.114396" lon="5.804084">
        <ele>1657.5</ele>
      </trkpt>
      <trkpt lat="44.114345" lon="5.803876">
        <ele>1659.5</ele>
      </trkpt>
      <trkpt lat="44.114325" lon="5.803799">
        <ele>1660.3</ele>
      </trkpt>
      <trkpt lat="44.114272" lon="5.803657">
        <ele>1661</ele>
      </trkpt>
      <trkpt lat="44.114188" lon="5.803550">
        <ele>1660.4</ele>
      </trkpt>
      <trkpt lat="44.114126" lon="5.803399">
        <ele>1652.9</ele>
      </trkpt>
      <trkpt lat="44.114065" lon="5.803293">
        <ele>1654.8</ele>
      </trkpt>
      <trkpt lat="44.114013" lon="5.803170">
        <ele>1653.6</ele>
      </trkpt>
      <trkpt lat="44.113950" lon="5.803104">
        <ele>1652.9</ele>
      </trkpt>
      <trkpt lat="44.113874" lon="5.803037">
        <ele>1652.1</ele>
      </trkpt>
      <trkpt lat="44.113803" lon="5.802959">
        <ele>1651.5</ele>
      </trkpt>
      <trkpt lat="44.113744" lon="5.802862">
        <ele>1651.3</ele>
      </trkpt>
      <trkpt lat="44.113648" lon="5.802758">
        <ele>1650.2</ele>
      </trkpt>
      <trkpt lat="44.113574" lon="5.802695">
        <ele>1649</ele>
      </trkpt>
      <trkpt lat="44.113478" lon="5.802636">
        <ele>1647.1</ele>
      </trkpt>
      <trkpt lat="44.113393" lon="5.802595">
        <ele>1645.2</ele>
      </trkpt>
      <trkpt lat="44.113304" lon="5.802582">
        <ele>1637.9</ele>
      </trkpt>
      <trkpt lat="44.113202" lon="5.802509">
        <ele>1636.2</ele>
      </trkpt>
      <trkpt lat="44.113105" lon="5.802459">
        <ele>1637</ele>
      </trkpt>
      <trkpt lat="44.113021" lon="5.802320">
        <ele>1635.5</ele>
      </trkpt>
      <trkpt lat="44.112823" lon="5.802047">
        <ele>1633.4</ele>
      </trkpt>
      <trkpt lat="44.112664" lon="5.801780">
        <ele>1630.5</ele>
      </trkpt>
      <trkpt lat="44.112504" lon="5.801496">
        <ele>1630.5</ele>
      </trkpt>
      <trkpt lat="44.112182" lon="5.800824">
        <ele>1618.8</ele>
      </trkpt>
      <trkpt lat="44.112067" lon="5.799977">
        <ele>1605.2</ele>
      </trkpt>
      <trkpt lat="44.112121" lon="5.799403">
        <ele>1600.6</ele>
      </trkpt>
      <trkpt lat="44.112417" lon="5.798979">
        <ele>1588.8</ele>
      </trkpt>
      <trkpt lat="44.112612" lon="5.798682">
        <ele>1592.4</ele>
      </trkpt>
      <trkpt lat="44.113272" lon="5.797842">
        <ele>1564</ele>
      </trkpt>
      <trkpt lat="44.113873" lon="5.797015">
        <ele>1543.4</ele>
      </trkpt>
      <trkpt lat="44.114482" lon="5.796651">
        <ele>1532.7</ele>
      </trkpt>
      <trkpt lat="44.114657" lon="5.796558">
        <ele>1534.4</ele>
      </trkpt>
      <trkpt lat="44.114692" lon="5.796242">
        <ele>1531.9</ele>
      </trkpt>
      <trkpt lat="44.115040" lon="5.795025">
        <ele>1525.4</ele>
      </trkpt>
      <trkpt lat="44.115032" lon="5.794736">
        <ele>1530.7</ele>
      </trkpt>
      <trkpt lat="44.114715" lon="5.794883">
        <ele>1525.5</ele>
      </trkpt>
      <trkpt lat="44.114440" lon="5.795141">
        <ele>1518.9</ele>
      </trkpt>
      <trkpt lat="44.113932" lon="5.795490">
        <ele>1511</ele>
      </trkpt>
      <trkpt lat="44.113563" lon="5.795853">
        <ele>1508.1</ele>
      </trkpt>
      <trkpt lat="44.112695" lon="5.796114">
        <ele>1501.9</ele>
      </trkpt>
      <trkpt lat="44.112067" lon="5.796300">
        <ele>1495.2</ele>
      </trkpt>
      <trkpt lat="44.111587" lon="5.796413">
        <ele>1489.1</ele>
      </trkpt>
      <trkpt lat="44.111154" lon="5.796315">
        <ele>1489.1</ele>
      </trkpt>
      <trkpt lat="44.110425" lon="5.796446">
        <ele>1489</ele>
      </trkpt>
      <trkpt lat="44.109868" lon="5.796457">
        <ele>1492.1</ele>
      </trkpt>
      <trkpt lat="44.109169" lon="5.796506">
        <ele>1493.7</ele>
      </trkpt>
      <trkpt lat="44.108273" lon="5.796704">
        <ele>1493.2</ele>
      </trkpt>
      <trkpt lat="44.107302" lon="5.796973">
        <ele>1489.7</ele>
      </trkpt>
      <trkpt lat="44.106447" lon="5.797155">
        <ele>1488</ele>
      </trkpt>
      <trkpt lat="44.105769" lon="5.797091">
        <ele>1485.2</ele>
      </trkpt>
      <trkpt lat="44.105245" lon="5.797155">
        <ele>1482.5</ele>
      </trkpt>
      <trkpt lat="44.104459" lon="5.796962">
        <ele>1478.9</ele>
      </trkpt>
      <trkpt lat="44.104195" lon="5.796854">
        <ele>1480.1</ele>
      </trkpt>
      <trkpt lat="44.104182" lon="5.796853">
        <ele>1480.1</ele>
      </trkpt>
      <trkpt lat="44.103938" lon="5.796824">
        <ele>1474.8</ele>
      </trkpt>
      <trkpt lat="44.103748" lon="5.796839">
        <ele>1472.6</ele>
      </trkpt>
      <trkpt lat="44.103477" lon="5.796956">
        <ele>1470.7</ele>
      </trkpt>
      <trkpt lat="44.103304" lon="5.797057">
        <ele>1464.1</ele>
      </trkpt>
      <trkpt lat="44.103273" lon="5.797062">
        <ele>1464</ele>
      </trkpt>
      <trkpt lat="44.103001" lon="5.797125">
        <ele>1462.5</ele>
      </trkpt>
      <trkpt lat="44.102848" lon="5.797138">
        <ele>1461.5</ele>
      </trkpt>
      <trkpt lat="44.102825" lon="5.797142">
        <ele>1461.4</ele>
      </trkpt>
      <trkpt lat="44.102708" lon="5.797273">
        <ele>1460.4</ele>
      </trkpt>
      <trkpt lat="44.102493" lon="5.797380">
        <ele>1453.8</ele>
      </trkpt>
      <trkpt lat="44.102482" lon="5.797386">
        <ele>1453.9</ele>
      </trkpt>
      <trkpt lat="44.102296" lon="5.797507">
        <ele>1448.4</ele>
      </trkpt>
      <trkpt lat="44.102116" lon="5.797722">
        <ele>1443.4</ele>
      </trkpt>
      <trkpt lat="44.101912" lon="5.797723">
        <ele>1441.5</ele>
      </trkpt>
      <trkpt lat="44.101901" lon="5.797728">
        <ele>1441.4</ele>
      </trkpt>
      <trkpt lat="44.101882" lon="5.797725">
        <ele>1441.3</ele>
      </trkpt>
      <trkpt lat="44.101404" lon="5.797842">
        <ele>1431</ele>
      </trkpt>
      <trkpt lat="44.100897" lon="5.797967">
        <ele>1427</ele>
      </trkpt>
      <trkpt lat="44.100456" lon="5.798051">
        <ele>1416.1</ele>
      </trkpt>
      <trkpt lat="44.100070" lon="5.798248">
        <ele>1409.6</ele>
      </trkpt>
      <trkpt lat="44.099704" lon="5.798483">
        <ele>1397.6</ele>
      </trkpt>
      <trkpt lat="44.099253" lon="5.798601">
        <ele>1393.3</ele>
      </trkpt>
      <trkpt lat="44.098648" lon="5.798740">
        <ele>1382.7</ele>
      </trkpt>
      <trkpt lat="44.098150" lon="5.798719">
        <ele>1374.3</ele>
      </trkpt>
      <trkpt lat="44.097578" lon="5.798798">
        <ele>1370.7</ele>
      </trkpt>
      <trkpt lat="44.097075" lon="5.798692">
        <ele>1357.8</ele>
      </trkpt>
      <trkpt lat="44.096624" lon="5.798383">
        <ele>1344.5</ele>
      </trkpt>
      <trkpt lat="44.096591" lon="5.798328">
        <ele>1343.3</ele>
      </trkpt>
      <trkpt lat="44.096262" lon="5.798108">
        <ele>1333.5</ele>
      </trkpt>
      <trkpt lat="44.096253" lon="5.798107">
        <ele>1333.4</ele>
      </trkpt>
      <trkpt lat="44.095930" lon="5.797905">
        <ele>1329.2</ele>
      </trkpt>
      <trkpt lat="44.095472" lon="5.797635">
        <ele>1311.5</ele>
      </trkpt>
      <trkpt lat="44.095167" lon="5.797406">
        <ele>1304.3</ele>
      </trkpt>
      <trkpt lat="44.095150" lon="5.797404">
        <ele>1304</ele>
      </trkpt>
      <trkpt lat="44.094951" lon="5.797265">
        <ele>1292.8</ele>
      </trkpt>
      <trkpt lat="44.094799" lon="5.797040">
        <ele>1289.8</ele>
      </trkpt>
      <trkpt lat="44.094718" lon="5.796814">
        <ele>1288.9</ele>
      </trkpt>
      <trkpt lat="44.094724" lon="5.796528">
        <ele>1282.6</ele>
      </trkpt>
      <trkpt lat="44.094726" lon="5.796516">
        <ele>1282.5</ele>
      </trkpt>
      <trkpt lat="44.094770" lon="5.796257">
        <ele>1280.2</ele>
      </trkpt>
      <trkpt lat="44.094859" lon="5.796088">
        <ele>1280</ele>
      </trkpt>
      <trkpt lat="44.094861" lon="5.796076">
        <ele>1280</ele>
      </trkpt>
      <trkpt lat="44.094856" lon="5.795856">
        <ele>1280.2</ele>
      </trkpt>
      <trkpt lat="44.094787" lon="5.795603">
        <ele>1266.8</ele>
      </trkpt>
      <trkpt lat="44.094784" lon="5.795554">
        <ele>1265.8</ele>
      </trkpt>
      <trkpt lat="44.094810" lon="5.795287">
        <ele>1262.9</ele>
      </trkpt>
      <trkpt lat="44.094822" lon="5.795264">
        <ele>1262.9</ele>
      </trkpt>
      <trkpt lat="44.094858" lon="5.795193">
        <ele>1263.4</ele>
      </trkpt>
      <trkpt lat="44.094977" lon="5.794768">
        <ele>1251.5</ele>
      </trkpt>
      <trkpt lat="44.095118" lon="5.794400">
        <ele>1263.8</ele>
      </trkpt>
      <trkpt lat="44.095188" lon="5.794161">
        <ele>1249.7</ele>
      </trkpt>
      <trkpt lat="44.095421" lon="5.793836">
        <ele>1251.2</ele>
      </trkpt>
      <trkpt lat="44.095456" lon="5.793774">
        <ele>1251</ele>
      </trkpt>
      <trkpt lat="44.095467" lon="5.793761">
        <ele>1250.9</ele>
      </trkpt>
      <trkpt lat="44.095799" lon="5.793400">
        <ele>1250.1</ele>
      </trkpt>
      <trkpt lat="44.096133" lon="5.793339">
        <ele>1259.1</ele>
      </trkpt>
      <trkpt lat="44.096382" lon="5.793276">
        <ele>1247.6</ele>
      </trkpt>
      <trkpt lat="44.096554" lon="5.793186">
        <ele>1248.4</ele>
      </trkpt>
      <trkpt lat="44.096666" lon="5.792744">
        <ele>1244.9</ele>
      </trkpt>
      <trkpt lat="44.096891" lon="5.792582">
        <ele>1252.5</ele>
      </trkpt>
      <trkpt lat="44.097005" lon="5.792470">
        <ele>1253.4</ele>
      </trkpt>
      <trkpt lat="44.097040" lon="5.792058">
        <ele>1254.6</ele>
      </trkpt>
      <trkpt lat="44.096800" lon="5.791782">
        <ele>1252.4</ele>
      </trkpt>
      <trkpt lat="44.096248" lon="5.791741">
        <ele>1244.2</ele>
      </trkpt>
      <trkpt lat="44.095654" lon="5.791666">
        <ele>1252.4</ele>
      </trkpt>
      <trkpt lat="44.095156" lon="5.791704">
        <ele>1238.8</ele>
      </trkpt>
      <trkpt lat="44.094552" lon="5.791741">
        <ele>1239.6</ele>
      </trkpt>
      <trkpt lat="44.094227" lon="5.791804">
        <ele>1245</ele>
      </trkpt>
      <trkpt lat="44.093901" lon="5.792147">
        <ele>1243.5</ele>
      </trkpt>
      <trkpt lat="44.093564" lon="5.792494">
        <ele>1242.6</ele>
      </trkpt>
      <trkpt lat="44.092987" lon="5.792748">
        <ele>1232.7</ele>
      </trkpt>
      <trkpt lat="44.092234" lon="5.792856">
        <ele>1237.3</ele>
      </trkpt>
      <trkpt lat="44.091392" lon="5.792864">
        <ele>1240.8</ele>
      </trkpt>
      <trkpt lat="44.090740" lon="5.792900">
        <ele>1241.1</ele>
      </trkpt>
      <trkpt lat="44.090553" lon="5.792930">
        <ele>1240.6</ele>
      </trkpt>
      <trkpt lat="44.091600" lon="5.792273">
        <ele>1257.8</ele>
      </trkpt>
      <trkpt lat="44.092225" lon="5.791874">
        <ele>1264</ele>
      </trkpt>
      <trkpt lat="44.093233" lon="5.791265">
        <ele>1277.9</ele>
      </trkpt>
      <trkpt lat="44.093746" lon="5.791007">
        <ele>1277.2</ele>
      </trkpt>
      <trkpt lat="44.093598" lon="5.790879">
        <ele>1279.7</ele>
      </trkpt>
      <trkpt lat="44.093221" lon="5.790801">
        <ele>1290.3</ele>
      </trkpt>
      <trkpt lat="44.092840" lon="5.790655">
        <ele>1292.1</ele>
      </trkpt>
      <trkpt lat="44.092497" lon="5.790417">
        <ele>1289.7</ele>
      </trkpt>
      <trkpt lat="44.092294" lon="5.790096">
        <ele>1292</ele>
      </trkpt>
      <trkpt lat="44.092239" lon="5.789637">
        <ele>1293.8</ele>
      </trkpt>
      <trkpt lat="44.092339" lon="5.789143">
        <ele>1296.8</ele>
      </trkpt>
      <trkpt lat="44.092555" lon="5.788688">
        <ele>1306.7</ele>
      </trkpt>
      <trkpt lat="44.092660" lon="5.788218">
        <ele>1306.2</ele>
      </trkpt>
      <trkpt lat="44.092732" lon="5.787870">
        <ele>1308.4</ele>
      </trkpt>
      <trkpt lat="44.092810" lon="5.787477">
        <ele>1309</ele>
      </trkpt>
      <trkpt lat="44.092896" lon="5.787187">
        <ele>1310.5</ele>
      </trkpt>
      <trkpt lat="44.092975" lon="5.787011">
        <ele>1311.3</ele>
      </trkpt>
      <trkpt lat="44.092955" lon="5.786750">
        <ele>1311.3</ele>
      </trkpt>
      <trkpt lat="44.092798" lon="5.786440">
        <ele>1308.6</ele>
      </trkpt>
      <trkpt lat="44.092706" lon="5.786138">
        <ele>1307.9</ele>
      </trkpt>
      <trkpt lat="44.092590" lon="5.785904">
        <ele>1306.3</ele>
      </trkpt>
      <trkpt lat="44.092368" lon="5.785735">
        <ele>1301.8</ele>
      </trkpt>
      <trkpt lat="44.092382" lon="5.785534">
        <ele>1300.4</ele>
      </trkpt>
      <trkpt lat="44.092537" lon="5.785348">
        <ele>1301.1</ele>
      </trkpt>
      <trkpt lat="44.092567" lon="5.785337">
        <ele>1301</ele>
      </trkpt>
      <trkpt lat="44.092864" lon="5.785295">
        <ele>1300.5</ele>
      </trkpt>
      <trkpt lat="44.093235" lon="5.785283">
        <ele>1299.1</ele>
      </trkpt>
      <trkpt lat="44.093531" lon="5.785336">
        <ele>1301</ele>
      </trkpt>
      <trkpt lat="44.093755" lon="5.785346">
        <ele>1301.9</ele>
      </trkpt>
      <trkpt lat="44.093990" lon="5.785394">
        <ele>1302.8</ele>
      </trkpt>
      <trkpt lat="44.094162" lon="5.785341">
        <ele>1302.5</ele>
      </trkpt>
      <trkpt lat="44.094187" lon="5.785192">
        <ele>1306.2</ele>
      </trkpt>
      <trkpt lat="44.094261" lon="5.784933">
        <ele>1303</ele>
      </trkpt>
      <trkpt lat="44.094363" lon="5.784624">
        <ele>1306.9</ele>
      </trkpt>
      <trkpt lat="44.094551" lon="5.784475">
        <ele>1309.2</ele>
      </trkpt>
      <trkpt lat="44.094605" lon="5.784313">
        <ele>1310.1</ele>
      </trkpt>
      <trkpt lat="44.094427" lon="5.784079">
        <ele>1310.6</ele>
      </trkpt>
      <trkpt lat="44.094202" lon="5.783825">
        <ele>1311.4</ele>
      </trkpt>
      <trkpt lat="44.094000" lon="5.783533">
        <ele>1300.6</ele>
      </trkpt>
      <trkpt lat="44.093716" lon="5.783190">
        <ele>1303.3</ele>
      </trkpt>
      <trkpt lat="44.093539" lon="5.782937">
        <ele>1302.7</ele>
      </trkpt>
      <trkpt lat="44.093407" lon="5.782711">
        <ele>1302.7</ele>
      </trkpt>
      <trkpt lat="44.093279" lon="5.782306">
        <ele>1292.7</ele>
      </trkpt>
      <trkpt lat="44.093219" lon="5.782042">
        <ele>1291.3</ele>
      </trkpt>
      <trkpt lat="44.093212" lon="5.781725">
        <ele>1297.5</ele>
      </trkpt>
      <trkpt lat="44.093286" lon="5.781459">
        <ele>1295.4</ele>
      </trkpt>
      <trkpt lat="44.093407" lon="5.781329">
        <ele>1303.8</ele>
      </trkpt>
      <trkpt lat="44.093567" lon="5.781221">
        <ele>1303.2</ele>
      </trkpt>
      <trkpt lat="44.094000" lon="5.781078">
        <ele>1302.7</ele>
      </trkpt>
      <trkpt lat="44.094631" lon="5.781033">
        <ele>1311.3</ele>
      </trkpt>
      <trkpt lat="44.095137" lon="5.780923">
        <ele>1316.4</ele>
      </trkpt>
      <trkpt lat="44.095794" lon="5.780585">
        <ele>1305.3</ele>
      </trkpt>
      <trkpt lat="44.096368" lon="5.780249">
        <ele>1310.4</ele>
      </trkpt>
      <trkpt lat="44.096976" lon="5.779906">
        <ele>1300.7</ele>
      </trkpt>
      <trkpt lat="44.097606" lon="5.779599">
        <ele>1311.6</ele>
      </trkpt>
      <trkpt lat="44.098424" lon="5.779398">
        <ele>1321</ele>
      </trkpt>
      <trkpt lat="44.099170" lon="5.779234">
        <ele>1324</ele>
      </trkpt>
      <trkpt lat="44.099498" lon="5.778918">
        <ele>1332</ele>
      </trkpt>
      <trkpt lat="44.098735" lon="5.778595">
        <ele>1321.4</ele>
      </trkpt>
      <trkpt lat="44.097952" lon="5.778347">
        <ele>1308.2</ele>
      </trkpt>
      <trkpt lat="44.097325" lon="5.778238">
        <ele>1309.9</ele>
      </trkpt>
      <trkpt lat="44.096532" lon="5.778130">
        <ele>1299.9</ele>
      </trkpt>
      <trkpt lat="44.096024" lon="5.778026">
        <ele>1299.6</ele>
      </trkpt>
      <trkpt lat="44.095667" lon="5.777893">
        <ele>1287.6</ele>
      </trkpt>
      <trkpt lat="44.095527" lon="5.777729">
        <ele>1287.4</ele>
      </trkpt>
      <trkpt lat="44.095530" lon="5.777367">
        <ele>1289.3</ele>
      </trkpt>
      <trkpt lat="44.095525" lon="5.777341">
        <ele>1288.9</ele>
      </trkpt>
      <trkpt lat="44.095634" lon="5.776743">
        <ele>1290.2</ele>
      </trkpt>
      <trkpt lat="44.096124" lon="5.775716">
        <ele>1293.4</ele>
      </trkpt>
      <trkpt lat="44.096635" lon="5.774787">
        <ele>1287</ele>
      </trkpt>
      <trkpt lat="44.097010" lon="5.774203">
        <ele>1298.8</ele>
      </trkpt>
      <trkpt lat="44.097266" lon="5.773928">
        <ele>1282.3</ele>
      </trkpt>
      <trkpt lat="44.097596" lon="5.773876">
        <ele>1287.6</ele>
      </trkpt>
      <trkpt lat="44.098052" lon="5.774051">
        <ele>1287.2</ele>
      </trkpt>
      <trkpt lat="44.098417" lon="5.774506">
        <ele>1312.1</ele>
      </trkpt>
      <trkpt lat="44.099038" lon="5.774565">
        <ele>1313.4</ele>
      </trkpt>
      <trkpt lat="44.099491" lon="5.774320">
        <ele>1311.7</ele>
      </trkpt>
      <trkpt lat="44.099927" lon="5.774099">
        <ele>1298</ele>
      </trkpt>
      <trkpt lat="44.100723" lon="5.773948">
        <ele>1309</ele>
      </trkpt>
      <trkpt lat="44.101212" lon="5.773597">
        <ele>1314</ele>
      </trkpt>
      <trkpt lat="44.101883" lon="5.772837">
        <ele>1314</ele>
      </trkpt>
      <trkpt lat="44.102307" lon="5.772506">
        <ele>1312.8</ele>
      </trkpt>
      <trkpt lat="44.102802" lon="5.772367">
        <ele>1322.1</ele>
      </trkpt>
      <trkpt lat="44.102817" lon="5.772367">
        <ele>1322.3</ele>
      </trkpt>
      <trkpt lat="44.103257" lon="5.772506">
        <ele>1321.2</ele>
      </trkpt>
      <trkpt lat="44.103868" lon="5.772748">
        <ele>1328.3</ele>
      </trkpt>
      <trkpt lat="44.104480" lon="5.772997">
        <ele>1330.9</ele>
      </trkpt>
      <trkpt lat="44.105050" lon="5.773473">
        <ele>1335.5</ele>
      </trkpt>
      <trkpt lat="44.105858" lon="5.773875">
        <ele>1345.9</ele>
      </trkpt>
      <trkpt lat="44.106512" lon="5.774202">
        <ele>1349.6</ele>
      </trkpt>
      <trkpt lat="44.107014" lon="5.774336">
        <ele>1357.6</ele>
      </trkpt>
      <trkpt lat="44.107640" lon="5.774025">
        <ele>1364.4</ele>
      </trkpt>
      <trkpt lat="44.108304" lon="5.773908">
        <ele>1370.7</ele>
      </trkpt>
      <trkpt lat="44.108892" lon="5.773875">
        <ele>1378.4</ele>
      </trkpt>
      <trkpt lat="44.109391" lon="5.773809">
        <ele>1384.7</ele>
      </trkpt>
      <trkpt lat="44.109820" lon="5.773756">
        <ele>1386.3</ele>
      </trkpt>
      <trkpt lat="44.110424" lon="5.773579">
        <ele>1395.1</ele>
      </trkpt>
      <trkpt lat="44.110886" lon="5.773377">
        <ele>1402.1</ele>
      </trkpt>
      <trkpt lat="44.111288" lon="5.773143">
        <ele>1413.9</ele>
      </trkpt>
      <trkpt lat="44.111636" lon="5.773147">
        <ele>1414.4</ele>
      </trkpt>
      <trkpt lat="44.112325" lon="5.773323">
        <ele>1424.8</ele>
      </trkpt>
      <trkpt lat="44.112324" lon="5.773337">
        <ele>1423</ele>
      </trkpt>
      <trkpt lat="44.112826" lon="5.773367">
        <ele>1433.4</ele>
      </trkpt>
      <trkpt lat="44.113486" lon="5.773294">
        <ele>1444.4</ele>
      </trkpt>
      <trkpt lat="44.113916" lon="5.773247">
        <ele>1451</ele>
      </trkpt>
      <trkpt lat="44.114354" lon="5.773182">
        <ele>1457</ele>
      </trkpt>
      <trkpt lat="44.114645" lon="5.773118">
        <ele>1459.7</ele>
      </trkpt>
      <trkpt lat="44.114709" lon="5.773312">
        <ele>1458.8</ele>
      </trkpt>
      <trkpt lat="44.114350" lon="5.773437">
        <ele>1459.4</ele>
      </trkpt>
      <trkpt lat="44.113615" lon="5.773691">
        <ele>1452</ele>
      </trkpt>
      <trkpt lat="44.113077" lon="5.774020">
        <ele>1441.6</ele>
      </trkpt>
      <trkpt lat="44.112638" lon="5.774294">
        <ele>1440.8</ele>
      </trkpt>
      <trkpt lat="44.112453" lon="5.774568">
        <ele>1431.3</ele>
      </trkpt>
      <trkpt lat="44.112486" lon="5.774626">
        <ele>1431.7</ele>
      </trkpt>
      <trkpt lat="44.112695" lon="5.774964">
        <ele>1443.6</ele>
      </trkpt>
      <trkpt lat="44.112956" lon="5.775380">
        <ele>1450.7</ele>
      </trkpt>
      <trkpt lat="44.113264" lon="5.775765">
        <ele>1455</ele>
      </trkpt>
      <trkpt lat="44.113371" lon="5.776110">
        <ele>1468.5</ele>
      </trkpt>
      <trkpt lat="44.113335" lon="5.776381">
        <ele>1469.5</ele>
      </trkpt>
      <trkpt lat="44.113020" lon="5.776405">
        <ele>1460.4</ele>
      </trkpt>
      <trkpt lat="44.112516" lon="5.776252">
        <ele>1458.7</ele>
      </trkpt>
      <trkpt lat="44.111772" lon="5.776220">
        <ele>1462.4</ele>
      </trkpt>
      <trkpt lat="44.111069" lon="5.776181">
        <ele>1464.6</ele>
      </trkpt>
      <trkpt lat="44.110444" lon="5.776162">
        <ele>1467.3</ele>
      </trkpt>
      <trkpt lat="44.109832" lon="5.776141">
        <ele>1466.9</ele>
      </trkpt>
      <trkpt lat="44.109527" lon="5.776230">
        <ele>1468.7</ele>
      </trkpt>
      <trkpt lat="44.109224" lon="5.776521">
        <ele>1475.4</ele>
      </trkpt>
      <trkpt lat="44.108862" lon="5.776829">
        <ele>1482.5</ele>
      </trkpt>
      <trkpt lat="44.108348" lon="5.777058">
        <ele>1481.5</ele>
      </trkpt>
      <trkpt lat="44.107991" lon="5.777311">
        <ele>1479.9</ele>
      </trkpt>
      <trkpt lat="44.107757" lon="5.777577">
        <ele>1492.4</ele>
      </trkpt>
      <trkpt lat="44.107852" lon="5.777771">
        <ele>1493.3</ele>
      </trkpt>
      <trkpt lat="44.108169" lon="5.778017">
        <ele>1494.4</ele>
      </trkpt>
      <trkpt lat="44.108412" lon="5.778114">
        <ele>1498</ele>
      </trkpt>
      <trkpt lat="44.108648" lon="5.778287">
        <ele>1499.6</ele>
      </trkpt>
      <trkpt lat="44.108827" lon="5.778735">
        <ele>1503.1</ele>
      </trkpt>
      <trkpt lat="44.108914" lon="5.779294">
        <ele>1505.5</ele>
      </trkpt>
      <trkpt lat="44.108911" lon="5.779671">
        <ele>1506</ele>
      </trkpt>
      <trkpt lat="44.108762" lon="5.780026">
        <ele>1510.9</ele>
      </trkpt>
      <trkpt lat="44.108496" lon="5.780339">
        <ele>1510.4</ele>
      </trkpt>
      <trkpt lat="44.108196" lon="5.780719">
        <ele>1504.3</ele>
      </trkpt>
      <trkpt lat="44.107881" lon="5.781158">
        <ele>1509.4</ele>
      </trkpt>
      <trkpt lat="44.107426" lon="5.781845">
        <ele>1510</ele>
      </trkpt>
      <trkpt lat="44.107056" lon="5.782311">
        <ele>1510.3</ele>
      </trkpt>
      <trkpt lat="44.106695" lon="5.782665">
        <ele>1514.7</ele>
      </trkpt>
      <trkpt lat="44.106393" lon="5.782953">
        <ele>1507.5</ele>
      </trkpt>
      <trkpt lat="44.106226" lon="5.783235">
        <ele>1507.5</ele>
      </trkpt>
      <trkpt lat="44.106348" lon="5.783733">
        <ele>1508.9</ele>
      </trkpt>
      <trkpt lat="44.106512" lon="5.784267">
        <ele>1505.6</ele>
      </trkpt>
      <trkpt lat="44.106646" lon="5.784512">
        <ele>1503.2</ele>
      </trkpt>
      <trkpt lat="44.106888" lon="5.784742">
        <ele>1512</ele>
      </trkpt>
      <trkpt lat="44.107236" lon="5.785021">
        <ele>1510.5</ele>
      </trkpt>
      <trkpt lat="44.107588" lon="5.785301">
        <ele>1520.2</ele>
      </trkpt>
      <trkpt lat="44.107837" lon="5.785598">
        <ele>1520.1</ele>
      </trkpt>
      <trkpt lat="44.107943" lon="5.785979">
        <ele>1515.2</ele>
      </trkpt>
      <trkpt lat="44.108036" lon="5.786341">
        <ele>1514.3</ele>
      </trkpt>
      <trkpt lat="44.108198" lon="5.786490">
        <ele>1514.3</ele>
      </trkpt>
      <trkpt lat="44.108423" lon="5.786335">
        <ele>1514.6</ele>
      </trkpt>
      <trkpt lat="44.109037" lon="5.785760">
        <ele>1524.9</ele>
      </trkpt>
      <trkpt lat="44.109705" lon="5.785163">
        <ele>1531.4</ele>
      </trkpt>
      <trkpt lat="44.110377" lon="5.784426">
        <ele>1548.6</ele>
      </trkpt>
      <trkpt lat="44.110871" lon="5.783806">
        <ele>1558.3</ele>
      </trkpt>
      <trkpt lat="44.111385" lon="5.783383">
        <ele>1558.8</ele>
      </trkpt>
      <trkpt lat="44.111601" lon="5.783166">
        <ele>1563.7</ele>
      </trkpt>
      <trkpt lat="44.111832" lon="5.782887">
        <ele>1561.4</ele>
      </trkpt>
      <trkpt lat="44.112016" lon="5.782704">
        <ele>1562.2</ele>
      </trkpt>
      <trkpt lat="44.112216" lon="5.782540">
        <ele>1563.1</ele>
      </trkpt>
      <trkpt lat="44.112360" lon="5.782241">
        <ele>1567.1</ele>
      </trkpt>
      <trkpt lat="44.112586" lon="5.781936">
        <ele>1571.8</ele>
      </trkpt>
      <trkpt lat="44.112791" lon="5.781832">
        <ele>1572.6</ele>
      </trkpt>
      <trkpt lat="44.113011" lon="5.781823">
        <ele>1573.9</ele>
      </trkpt>
      <trkpt lat="44.113316" lon="5.781705">
        <ele>1579.5</ele>
      </trkpt>
      <trkpt lat="44.113682" lon="5.781557">
        <ele>1584.9</ele>
      </trkpt>
      <trkpt lat="44.114003" lon="5.781441">
        <ele>1585.5</ele>
      </trkpt>
      <trkpt lat="44.114189" lon="5.780970">
        <ele>1590.3</ele>
      </trkpt>
      <trkpt lat="44.114123" lon="5.780708">
        <ele>1588.8</ele>
      </trkpt>
    </trkseg>
  </trk>
</gpx>