<?xml version="1.0" ?>
<gpx xmlns="http://www.topografix.com/GPX/1/1" xmlns:xsi="http://www.w3.org/2001/XMLSchema-instance" xsi:schemaLocation="http://www.topografix.com/GPX/1/1 http://www.topografix.com/GPX/1/1/gpx.xsd" version="1.1" creator="EditGPX">
  <trk>
    <name>NewTrack</name>
    <trkseg>
      <trkpt lat="43.874665" lon="5.398713">
        <ele>230.5</ele>
      </trkpt>
      <trkpt lat="43.874746" lon="5.398487">
        <ele>230.3</ele>
      </trkpt>
      <trkpt lat="43.874061" lon="5.397704">
        <ele>233.9</ele>
      </trkpt>
      <trkpt lat="43.873866" lon="5.397415">
        <ele>235.1</ele>
      </trkpt>
      <trkpt lat="43.873780" lon="5.397165">
        <ele>235.8</ele>
      </trkpt>
      <trkpt lat="43.874062" lon="5.396023">
        <ele>236.3</ele>
      </trkpt>
      <trkpt lat="43.874062" lon="5.396023">
        <ele>236.3</ele>
      </trkpt>
      <trkpt lat="43.874062" lon="5.396023">
        <ele>236.3</ele>
      </trkpt>
      <trkpt lat="43.874062" lon="5.396023">
        <ele>236.3</ele>
      </trkpt>
      <trkpt lat="43.874062" lon="5.396023">
        <ele>236.3</ele>
      </trkpt>
      <trkpt lat="43.874062" lon="5.396023">
        <ele>236.3</ele>
      </trkpt>
      <trkpt lat="43.874062" lon="5.396023">
        <ele>236.3</ele>
      </trkpt>
      <trkpt lat="43.874062" lon="5.396023">
        <ele>236.3</ele>
      </trkpt>
      <trkpt lat="43.874062" lon="5.396023">
        <ele>236.3</ele>
      </trkpt>
      <trkpt lat="43.874196" lon="5.395478">
        <ele>233.9</ele>
      </trkpt>
      <trkpt lat="43.874434" lon="5.395119">
        <ele>233.8</ele>
      </trkpt>
      <trkpt lat="43.874688" lon="5.394818">
        <ele>235.6</ele>
      </trkpt>
      <trkpt lat="43.875024" lon="5.394925">
        <ele>231.1</ele>
      </trkpt>
      <trkpt lat="43.875183" lon="5.394266">
        <ele>233.2</ele>
      </trkpt>
      <trkpt lat="43.875199" lon="5.393960">
        <ele>234.9</ele>
      </trkpt>
      <trkpt lat="43.875306" lon="5.393598">
        <ele>235.4</ele>
      </trkpt>
      <trkpt lat="43.875412" lon="5.392461">
        <ele>241</ele>
      </trkpt>
      <trkpt lat="43.875431" lon="5.391551">
        <ele>243.7</ele>
      </trkpt>
      <trkpt lat="43.875095" lon="5.390372">
        <ele>245.1</ele>
      </trkpt>
      <trkpt lat="43.875095" lon="5.390372">
        <ele>245.1</ele>
      </trkpt>
      <trkpt lat="43.875095" lon="5.390372">
        <ele>245.1</ele>
      </trkpt>
      <trkpt lat="43.875095" lon="5.390372">
        <ele>245.1</ele>
      </trkpt>
      <trkpt lat="43.875095" lon="5.390372">
        <ele>245.1</ele>
      </trkpt>
      <trkpt lat="43.875095" lon="5.390372">
        <ele>245.1</ele>
      </trkpt>
      <trkpt lat="43.875095" lon="5.390372">
        <ele>245.1</ele>
      </trkpt>
      <trkpt lat="43.875095" lon="5.390372">
        <ele>245.1</ele>
      </trkpt>
      <trkpt lat="43.875095" lon="5.390372">
        <ele>245.1</ele>
      </trkpt>
      <trkpt lat="43.874995" lon="5.390020">
        <ele>250.9</ele>
      </trkpt>
      <trkpt lat="43.874530" lon="5.388772">
        <ele>257.3</ele>
      </trkpt>
      <trkpt lat="43.874194" lon="5.387898">
        <ele>257.4</ele>
      </trkpt>
      <trkpt lat="43.874038" lon="5.387611">
        <ele>263.1</ele>
      </trkpt>
      <trkpt lat="43.873891" lon="5.387458">
        <ele>260.2</ele>
      </trkpt>
      <trkpt lat="43.872785" lon="5.386584">
        <ele>264</ele>
      </trkpt>
      <trkpt lat="43.872685" lon="5.386380">
        <ele>263.9</ele>
      </trkpt>
      <trkpt lat="43.872686" lon="5.386211">
        <ele>263</ele>
      </trkpt>
      <trkpt lat="43.872739" lon="5.386053">
        <ele>262.4</ele>
      </trkpt>
      <trkpt lat="43.872983" lon="5.385366">
        <ele>260.2</ele>
      </trkpt>
      <trkpt lat="43.873045" lon="5.385109">
        <ele>259.8</ele>
      </trkpt>
      <trkpt lat="43.873048" lon="5.384808">
        <ele>261.4</ele>
      </trkpt>
      <trkpt lat="43.872937" lon="5.384323">
        <ele>262.7</ele>
      </trkpt>
      <trkpt lat="43.872926" lon="5.384183">
        <ele>262.8</ele>
      </trkpt>
      <trkpt lat="43.872924" lon="5.384049">
        <ele>265.2</ele>
      </trkpt>
      <trkpt lat="43.872955" lon="5.383953">
        <ele>265.2</ele>
      </trkpt>
      <trkpt lat="43.873338" lon="5.383247">
        <ele>261.5</ele>
      </trkpt>
      <trkpt lat="43.873469" lon="5.382300">
        <ele>265</ele>
      </trkpt>
      <trkpt lat="43.873551" lon="5.382204">
        <ele>265.7</ele>
      </trkpt>
      <trkpt lat="43.874187" lon="5.381804">
        <ele>265.3</ele>
      </trkpt>
      <trkpt lat="43.875058" lon="5.381102">
        <ele>268.3</ele>
      </trkpt>
      <trkpt lat="43.875163" lon="5.381018">
        <ele>268.7</ele>
      </trkpt>
      <trkpt lat="43.875223" lon="5.380948">
        <ele>268.8</ele>
      </trkpt>
      <trkpt lat="43.875258" lon="5.380873">
        <ele>268.8</ele>
      </trkpt>
      <trkpt lat="43.875260" lon="5.380804">
        <ele>271.4</ele>
      </trkpt>
      <trkpt lat="43.875242" lon="5.380522">
        <ele>271.5</ele>
      </trkpt>
      <trkpt lat="43.875185" lon="5.380114">
        <ele>272.6</ele>
      </trkpt>
      <trkpt lat="43.875024" lon="5.379771">
        <ele>272.4</ele>
      </trkpt>
      <trkpt lat="43.874784" lon="5.379106">
        <ele>273.3</ele>
      </trkpt>
      <trkpt lat="43.874747" lon="5.378881">
        <ele>273.8</ele>
      </trkpt>
      <trkpt lat="43.874780" lon="5.378298">
        <ele>269</ele>
      </trkpt>
      <trkpt lat="43.874759" lon="5.378116">
        <ele>269.9</ele>
      </trkpt>
      <trkpt lat="43.874715" lon="5.377832">
        <ele>270.5</ele>
      </trkpt>
      <trkpt lat="43.874684" lon="5.377714">
        <ele>270.5</ele>
      </trkpt>
      <trkpt lat="43.874666" lon="5.377569">
        <ele>270.4</ele>
      </trkpt>
      <trkpt lat="43.874622" lon="5.377378">
        <ele>268.3</ele>
      </trkpt>
      <trkpt lat="43.874579" lon="5.377234">
        <ele>268.4</ele>
      </trkpt>
      <trkpt lat="43.874477" lon="5.377073">
        <ele>268.4</ele>
      </trkpt>
      <trkpt lat="43.874413" lon="5.376984">
        <ele>268.4</ele>
      </trkpt>
      <trkpt lat="43.874293" lon="5.376901">
        <ele>268.6</ele>
      </trkpt>
      <trkpt lat="43.874108" lon="5.376823">
        <ele>274.1</ele>
      </trkpt>
      <trkpt lat="43.873968" lon="5.376788">
        <ele>275.5</ele>
      </trkpt>
      <trkpt lat="43.873392" lon="5.376485">
        <ele>272.5</ele>
      </trkpt>
      <trkpt lat="43.873222" lon="5.376402">
        <ele>276</ele>
      </trkpt>
      <trkpt lat="43.873091" lon="5.376295">
        <ele>275.5</ele>
      </trkpt>
      <trkpt lat="43.872318" lon="5.375839">
        <ele>277.8</ele>
      </trkpt>
      <trkpt lat="43.871803" lon="5.375447">
        <ele>269.6</ele>
      </trkpt>
      <trkpt lat="43.871502" lon="5.375249">
        <ele>270.3</ele>
      </trkpt>
      <trkpt lat="43.871123" lon="5.374997">
        <ele>262.8</ele>
      </trkpt>
      <trkpt lat="43.871026" lon="5.374938">
        <ele>263.2</ele>
      </trkpt>
      <trkpt lat="43.870809" lon="5.374895">
        <ele>264.9</ele>
      </trkpt>
      <trkpt lat="43.870589" lon="5.374820">
        <ele>264.1</ele>
      </trkpt>
      <trkpt lat="43.870481" lon="5.374777">
        <ele>264</ele>
      </trkpt>
      <trkpt lat="43.870299" lon="5.374691">
        <ele>264.1</ele>
      </trkpt>
      <trkpt lat="43.870206" lon="5.374568">
        <ele>263.3</ele>
      </trkpt>
      <trkpt lat="43.869417" lon="5.374444">
        <ele>264.5</ele>
      </trkpt>
      <trkpt lat="43.869251" lon="5.374482">
        <ele>264.7</ele>
      </trkpt>
      <trkpt lat="43.869073" lon="5.374557">
        <ele>264</ele>
      </trkpt>
      <trkpt lat="43.868899" lon="5.374675">
        <ele>264.3</ele>
      </trkpt>
      <trkpt lat="43.868609" lon="5.374873">
        <ele>264</ele>
      </trkpt>
      <trkpt lat="43.868431" lon="5.374943">
        <ele>263.9</ele>
      </trkpt>
      <trkpt lat="43.868354" lon="5.375018">
        <ele>264.8</ele>
      </trkpt>
      <trkpt lat="43.868253" lon="5.375136">
        <ele>265</ele>
      </trkpt>
      <trkpt lat="43.867677" lon="5.375758">
        <ele>265.2</ele>
      </trkpt>
      <trkpt lat="43.867607" lon="5.375785">
        <ele>264.8</ele>
      </trkpt>
      <trkpt lat="43.867526" lon="5.375796">
        <ele>264.3</ele>
      </trkpt>
      <trkpt lat="43.867425" lon="5.375538">
        <ele>263.8</ele>
      </trkpt>
      <trkpt lat="43.867251" lon="5.375211">
        <ele>263.8</ele>
      </trkpt>
      <trkpt lat="43.867178" lon="5.375104">
        <ele>263.8</ele>
      </trkpt>
      <trkpt lat="43.866977" lon="5.374648">
        <ele>264.4</ele>
      </trkpt>
      <trkpt lat="43.866787" lon="5.374487">
        <ele>265.1</ele>
      </trkpt>
      <trkpt lat="43.866648" lon="5.374471">
        <ele>268.5</ele>
      </trkpt>
      <trkpt lat="43.866563" lon="5.374374">
        <ele>268.8</ele>
      </trkpt>
      <trkpt lat="43.866393" lon="5.374240">
        <ele>269.7</ele>
      </trkpt>
      <trkpt lat="43.866250" lon="5.374181">
        <ele>270.8</ele>
      </trkpt>
      <trkpt lat="43.866103" lon="5.374085">
        <ele>279.8</ele>
      </trkpt>
      <trkpt lat="43.865894" lon="5.373945">
        <ele>281</ele>
      </trkpt>
      <trkpt lat="43.865735" lon="5.373875">
        <ele>287.2</ele>
      </trkpt>
      <trkpt lat="43.865569" lon="5.373859">
        <ele>288.4</ele>
      </trkpt>
      <trkpt lat="43.865445" lon="5.373913">
        <ele>288.5</ele>
      </trkpt>
      <trkpt lat="43.865256" lon="5.374010">
        <ele>288.5</ele>
      </trkpt>
      <trkpt lat="43.865059" lon="5.374095">
        <ele>287.3</ele>
      </trkpt>
      <trkpt lat="43.864912" lon="5.374171">
        <ele>285.7</ele>
      </trkpt>
      <trkpt lat="43.864714" lon="5.374176">
        <ele>286.2</ele>
      </trkpt>
      <trkpt lat="43.864494" lon="5.374192">
        <ele>288.4</ele>
      </trkpt>
      <trkpt lat="43.864324" lon="5.374235">
        <ele>291.4</ele>
      </trkpt>
      <trkpt lat="43.864208" lon="5.374315">
        <ele>291.8</ele>
      </trkpt>
      <trkpt lat="43.863380" lon="5.374342">
        <ele>298.2</ele>
      </trkpt>
      <trkpt lat="43.863256" lon="5.374310">
        <ele>299.2</ele>
      </trkpt>
      <trkpt lat="43.863113" lon="5.374224">
        <ele>298.4</ele>
      </trkpt>
      <trkpt lat="43.862653" lon="5.373677">
        <ele>306.7</ele>
      </trkpt>
      <trkpt lat="43.862370" lon="5.373167">
        <ele>313.5</ele>
      </trkpt>
      <trkpt lat="43.862185" lon="5.372964">
        <ele>316.2</ele>
      </trkpt>
      <trkpt lat="43.862185" lon="5.372894">
        <ele>316.6</ele>
      </trkpt>
      <trkpt lat="43.862258" lon="5.372835">
        <ele>316.9</ele>
      </trkpt>
      <trkpt lat="43.862707" lon="5.372711">
        <ele>318.6</ele>
      </trkpt>
      <trkpt lat="43.863361" lon="5.373055">
        <ele>320.3</ele>
      </trkpt>
      <trkpt lat="43.863434" lon="5.373055">
        <ele>320.3</ele>
      </trkpt>
      <trkpt lat="43.863523" lon="5.372980">
        <ele>320.6</ele>
      </trkpt>
      <trkpt lat="43.863705" lon="5.372320">
        <ele>326.7</ele>
      </trkpt>
      <trkpt lat="43.863728" lon="5.372137">
        <ele>327.3</ele>
      </trkpt>
      <trkpt lat="43.863716" lon="5.372003">
        <ele>327.8</ele>
      </trkpt>
      <trkpt lat="43.863373" lon="5.370968">
        <ele>338.5</ele>
      </trkpt>
      <trkpt lat="43.863237" lon="5.370555">
        <ele>341.4</ele>
      </trkpt>
      <trkpt lat="43.863001" lon="5.370056">
        <ele>342.2</ele>
      </trkpt>
      <trkpt lat="43.862869" lon="5.369788">
        <ele>343.1</ele>
      </trkpt>
      <trkpt lat="43.862726" lon="5.369589">
        <ele>343.6</ele>
      </trkpt>
      <trkpt lat="43.862533" lon="5.369402">
        <ele>344.8</ele>
      </trkpt>
      <trkpt lat="43.862185" lon="5.369364">
        <ele>351.1</ele>
      </trkpt>
      <trkpt lat="43.861357" lon="5.369144">
        <ele>359.4</ele>
      </trkpt>
      <trkpt lat="43.860707" lon="5.369069">
        <ele>366.1</ele>
      </trkpt>
      <trkpt lat="43.860460" lon="5.368951">
        <ele>367.1</ele>
      </trkpt>
      <trkpt lat="43.860286" lon="5.368667">
        <ele>367.7</ele>
      </trkpt>
      <trkpt lat="43.860057" lon="5.367658">
        <ele>370</ele>
      </trkpt>
      <trkpt lat="43.859597" lon="5.366794">
        <ele>375.6</ele>
      </trkpt>
      <trkpt lat="43.859319" lon="5.366338">
        <ele>374.8</ele>
      </trkpt>
      <trkpt lat="43.859218" lon="5.366204">
        <ele>374.6</ele>
      </trkpt>
      <trkpt lat="43.858986" lon="5.365899">
        <ele>377.5</ele>
      </trkpt>
      <trkpt lat="43.858715" lon="5.365282">
        <ele>378.1</ele>
      </trkpt>
      <trkpt lat="43.858568" lon="5.365051">
        <ele>378.7</ele>
      </trkpt>
      <trkpt lat="43.857872" lon="5.364456">
        <ele>383</ele>
      </trkpt>
      <trkpt lat="43.857698" lon="5.364472">
        <ele>383.7</ele>
      </trkpt>
      <trkpt lat="43.857524" lon="5.364681">
        <ele>384.6</ele>
      </trkpt>
      <trkpt lat="43.857211" lon="5.365416">
        <ele>389.2</ele>
      </trkpt>
      <trkpt lat="43.857098" lon="5.365598">
        <ele>389.5</ele>
      </trkpt>
      <trkpt lat="43.856820" lon="5.365866">
        <ele>390.7</ele>
      </trkpt>
      <trkpt lat="43.856518" lon="5.366360">
        <ele>392.8</ele>
      </trkpt>
      <trkpt lat="43.856143" lon="5.367309">
        <ele>397.2</ele>
      </trkpt>
      <trkpt lat="43.855977" lon="5.367567">
        <ele>401.1</ele>
      </trkpt>
      <trkpt lat="43.855605" lon="5.367690">
        <ele>405.4</ele>
      </trkpt>
      <trkpt lat="43.855393" lon="5.367814">
        <ele>406.7</ele>
      </trkpt>
      <trkpt lat="43.854866" lon="5.368495">
        <ele>416.5</ele>
      </trkpt>
      <trkpt lat="43.854580" lon="5.368908">
        <ele>420.6</ele>
      </trkpt>
      <trkpt lat="43.854371" lon="5.369112">
        <ele>424</ele>
      </trkpt>
      <trkpt lat="43.853992" lon="5.369632">
        <ele>428.4</ele>
      </trkpt>
      <trkpt lat="43.853567" lon="5.370523">
        <ele>422.1</ele>
      </trkpt>
      <trkpt lat="43.853331" lon="5.370941">
        <ele>426.1</ele>
      </trkpt>
      <trkpt lat="43.853269" lon="5.371220">
        <ele>425.6</ele>
      </trkpt>
      <trkpt lat="43.853261" lon="5.372100">
        <ele>423.6</ele>
      </trkpt>
      <trkpt lat="43.853292" lon="5.372894">
        <ele>422.5</ele>
      </trkpt>
      <trkpt lat="43.853242" lon="5.372996">
        <ele>422.2</ele>
      </trkpt>
      <trkpt lat="43.853130" lon="5.373060">
        <ele>422.3</ele>
      </trkpt>
      <trkpt lat="43.852909" lon="5.373173">
        <ele>423.3</ele>
      </trkpt>
      <trkpt lat="43.852306" lon="5.373543">
        <ele>430.6</ele>
      </trkpt>
      <trkpt lat="43.852221" lon="5.373629">
        <ele>431.5</ele>
      </trkpt>
      <trkpt lat="43.851795" lon="5.374154">
        <ele>437</ele>
      </trkpt>
      <trkpt lat="43.851656" lon="5.374235">
        <ele>441.6</ele>
      </trkpt>
      <trkpt lat="43.851482" lon="5.374557">
        <ele>445</ele>
      </trkpt>
      <trkpt lat="43.851308" lon="5.374922">
        <ele>445.7</ele>
      </trkpt>
      <trkpt lat="43.851257" lon="5.374895">
        <ele>446.3</ele>
      </trkpt>
      <trkpt lat="43.851176" lon="5.374938">
        <ele>447</ele>
      </trkpt>
      <trkpt lat="43.851118" lon="5.375045">
        <ele>444.9</ele>
      </trkpt>
      <trkpt lat="43.851072" lon="5.375136">
        <ele>445.1</ele>
      </trkpt>
      <trkpt lat="43.850956" lon="5.375152">
        <ele>446.3</ele>
      </trkpt>
      <trkpt lat="43.850789" lon="5.375072">
        <ele>452.4</ele>
      </trkpt>
      <trkpt lat="43.850685" lon="5.375040">
        <ele>453.5</ele>
      </trkpt>
      <trkpt lat="43.850596" lon="5.375093">
        <ele>454.7</ele>
      </trkpt>
      <trkpt lat="43.850569" lon="5.375195">
        <ele>455.1</ele>
      </trkpt>
      <trkpt lat="43.850542" lon="5.375276">
        <ele>455.3</ele>
      </trkpt>
      <trkpt lat="43.850445" lon="5.375345">
        <ele>456</ele>
      </trkpt>
      <trkpt lat="43.850368" lon="5.375335">
        <ele>456.8</ele>
      </trkpt>
      <trkpt lat="43.850205" lon="5.375276">
        <ele>458.7</ele>
      </trkpt>
      <trkpt lat="43.850104" lon="5.375195">
        <ele>460.6</ele>
      </trkpt>
      <trkpt lat="43.850023" lon="5.375184">
        <ele>461.5</ele>
      </trkpt>
      <trkpt lat="43.849961" lon="5.375281">
        <ele>475.2</ele>
      </trkpt>
      <trkpt lat="43.849907" lon="5.375528">
        <ele>474.4</ele>
      </trkpt>
      <trkpt lat="43.849865" lon="5.375925">
        <ele>466.6</ele>
      </trkpt>
      <trkpt lat="43.849814" lon="5.376112">
        <ele>469.4</ele>
      </trkpt>
      <trkpt lat="43.849671" lon="5.376386">
        <ele>470.9</ele>
      </trkpt>
      <trkpt lat="43.849226" lon="5.376842">
        <ele>475.4</ele>
      </trkpt>
      <trkpt lat="43.849137" lon="5.376906">
        <ele>485.7</ele>
      </trkpt>
      <trkpt lat="43.848944" lon="5.376992">
        <ele>488</ele>
      </trkpt>
      <trkpt lat="43.848460" lon="5.377395">
        <ele>492.4</ele>
      </trkpt>
      <trkpt lat="43.847926" lon="5.377700">
        <ele>503.7</ele>
      </trkpt>
      <trkpt lat="43.847725" lon="5.377749">
        <ele>506.1</ele>
      </trkpt>
      <trkpt lat="43.847300" lon="5.377969">
        <ele>517.5</ele>
      </trkpt>
      <trkpt lat="43.846936" lon="5.378129">
        <ele>520.7</ele>
      </trkpt>
      <trkpt lat="43.846731" lon="5.378307">
        <ele>523.7</ele>
      </trkpt>
      <trkpt lat="43.846499" lon="5.378516">
        <ele>529.6</ele>
      </trkpt>
      <trkpt lat="43.846205" lon="5.378639">
        <ele>532</ele>
      </trkpt>
      <trkpt lat="43.846046" lon="5.378730">
        <ele>532.8</ele>
      </trkpt>
      <trkpt lat="43.845884" lon="5.378886">
        <ele>533.6</ele>
      </trkpt>
      <trkpt lat="43.845601" lon="5.378966">
        <ele>536.5</ele>
      </trkpt>
      <trkpt lat="43.845454" lon="5.378940">
        <ele>536.7</ele>
      </trkpt>
      <trkpt lat="43.845327" lon="5.378902">
        <ele>536.9</ele>
      </trkpt>
      <trkpt lat="43.845218" lon="5.378907">
        <ele>537.1</ele>
      </trkpt>
      <trkpt lat="43.845110" lon="5.379004">
        <ele>537.4</ele>
      </trkpt>
      <trkpt lat="43.845029" lon="5.379041">
        <ele>537.5</ele>
      </trkpt>
      <trkpt lat="43.844916" lon="5.379041">
        <ele>538</ele>
      </trkpt>
      <trkpt lat="43.844684" lon="5.379165">
        <ele>538</ele>
      </trkpt>
      <trkpt lat="43.844526" lon="5.379315">
        <ele>538.5</ele>
      </trkpt>
      <trkpt lat="43.844371" lon="5.379449">
        <ele>538.6</ele>
      </trkpt>
      <trkpt lat="43.844201" lon="5.379503">
        <ele>538.6</ele>
      </trkpt>
      <trkpt lat="43.844034" lon="5.379599">
        <ele>538.2</ele>
      </trkpt>
      <trkpt lat="43.843856" lon="5.379701">
        <ele>538.1</ele>
      </trkpt>
      <trkpt lat="43.843787" lon="5.379787">
        <ele>538.1</ele>
      </trkpt>
      <trkpt lat="43.843655" lon="5.379873">
        <ele>538.1</ele>
      </trkpt>
      <trkpt lat="43.843477" lon="5.379921">
        <ele>538</ele>
      </trkpt>
      <trkpt lat="43.843152" lon="5.379878">
        <ele>536.5</ele>
      </trkpt>
      <trkpt lat="43.843092" lon="5.379892">
        <ele>536.2</ele>
      </trkpt>
      <trkpt lat="43.843076" lon="5.380431">
        <ele>536.3</ele>
      </trkpt>
      <trkpt lat="43.842995" lon="5.380509">
        <ele>536.1</ele>
      </trkpt>
      <trkpt lat="43.842879" lon="5.380562">
        <ele>535.8</ele>
      </trkpt>
      <trkpt lat="43.842771" lon="5.380600">
        <ele>535.6</ele>
      </trkpt>
      <trkpt lat="43.842703" lon="5.380608">
        <ele>535.4</ele>
      </trkpt>
      <trkpt lat="43.842637" lon="5.380573">
        <ele>535.3</ele>
      </trkpt>
      <trkpt lat="43.842548" lon="5.380576">
        <ele>535.2</ele>
      </trkpt>
      <trkpt lat="43.842465" lon="5.380592">
        <ele>533.5</ele>
      </trkpt>
      <trkpt lat="43.842412" lon="5.380656">
        <ele>533.5</ele>
      </trkpt>
      <trkpt lat="43.842351" lon="5.380753">
        <ele>533.5</ele>
      </trkpt>
      <trkpt lat="43.842295" lon="5.380844">
        <ele>533.7</ele>
      </trkpt>
      <trkpt lat="43.842212" lon="5.380986">
        <ele>533.7</ele>
      </trkpt>
      <trkpt lat="43.842154" lon="5.381107">
        <ele>533.7</ele>
      </trkpt>
      <trkpt lat="43.842098" lon="5.381176">
        <ele>533.7</ele>
      </trkpt>
      <trkpt lat="43.841871" lon="5.381294">
        <ele>533.8</ele>
      </trkpt>
      <trkpt lat="43.841784" lon="5.381410">
        <ele>534</ele>
      </trkpt>
      <trkpt lat="43.841716" lon="5.381469">
        <ele>534.2</ele>
      </trkpt>
      <trkpt lat="43.841577" lon="5.381611">
        <ele>532.4</ele>
      </trkpt>
      <trkpt lat="43.841484" lon="5.381724">
        <ele>533.5</ele>
      </trkpt>
      <trkpt lat="43.841389" lon="5.381799">
        <ele>532.8</ele>
      </trkpt>
      <trkpt lat="43.841304" lon="5.381836">
        <ele>532.3</ele>
      </trkpt>
      <trkpt lat="43.841213" lon="5.381901">
        <ele>531.8</ele>
      </trkpt>
      <trkpt lat="43.841147" lon="5.382040">
        <ele>532</ele>
      </trkpt>
      <trkpt lat="43.841047" lon="5.382190">
        <ele>532.3</ele>
      </trkpt>
      <trkpt lat="43.840911" lon="5.382239">
        <ele>532.2</ele>
      </trkpt>
      <trkpt lat="43.840764" lon="5.382357">
        <ele>530.8</ele>
      </trkpt>
      <trkpt lat="43.839838" lon="5.382231">
        <ele>531</ele>
      </trkpt>
      <trkpt lat="43.839514" lon="5.382370">
        <ele>531.7</ele>
      </trkpt>
      <trkpt lat="43.839449" lon="5.382357">
        <ele>531.9</ele>
      </trkpt>
      <trkpt lat="43.839476" lon="5.382190">
        <ele>531.3</ele>
      </trkpt>
      <trkpt lat="43.839466" lon="5.382059">
        <ele>531</ele>
      </trkpt>
      <trkpt lat="43.839412" lon="5.381898">
        <ele>530.8</ele>
      </trkpt>
      <trkpt lat="43.838744" lon="5.380993">
        <ele>530.1</ele>
      </trkpt>
      <trkpt lat="43.838729" lon="5.380973">
        <ele>530.1</ele>
      </trkpt>
      <trkpt lat="43.838621" lon="5.380573">
        <ele>526.5</ele>
      </trkpt>
      <trkpt lat="43.838323" lon="5.380192">
        <ele>528.6</ele>
      </trkpt>
      <trkpt lat="43.838280" lon="5.380085">
        <ele>528.4</ele>
      </trkpt>
      <trkpt lat="43.838207" lon="5.379629">
        <ele>526.2</ele>
      </trkpt>
      <trkpt lat="43.838013" lon="5.379189">
        <ele>525.4</ele>
      </trkpt>
      <trkpt lat="43.838021" lon="5.378966">
        <ele>522.4</ele>
      </trkpt>
      <trkpt lat="43.838013" lon="5.378787">
        <ele>521.9</ele>
      </trkpt>
      <trkpt lat="43.837934" lon="5.378588">
        <ele>521.6</ele>
      </trkpt>
      <trkpt lat="43.837251" lon="5.377449">
        <ele>517.8</ele>
      </trkpt>
      <trkpt lat="43.837228" lon="5.377411">
        <ele>517.7</ele>
      </trkpt>
      <trkpt lat="43.837158" lon="5.377336">
        <ele>517.5</ele>
      </trkpt>
      <trkpt lat="43.836342" lon="5.377223">
        <ele>517</ele>
      </trkpt>
      <trkpt lat="43.835510" lon="5.377319">
        <ele>517.6</ele>
      </trkpt>
      <trkpt lat="43.835417" lon="5.377349">
        <ele>517.8</ele>
      </trkpt>
      <trkpt lat="43.835286" lon="5.377309">
        <ele>518</ele>
      </trkpt>
      <trkpt lat="43.835071" lon="5.377215">
        <ele>518.3</ele>
      </trkpt>
      <trkpt lat="43.834777" lon="5.377038">
        <ele>520</ele>
      </trkpt>
      <trkpt lat="43.834529" lon="5.376960">
        <ele>520</ele>
      </trkpt>
      <trkpt lat="43.834436" lon="5.376855">
        <ele>519.9</ele>
      </trkpt>
      <trkpt lat="43.833836" lon="5.376126">
        <ele>517.7</ele>
      </trkpt>
      <trkpt lat="43.833227" lon="5.375496">
        <ele>517.6</ele>
      </trkpt>
      <trkpt lat="43.832950" lon="5.375139">
        <ele>517.3</ele>
      </trkpt>
      <trkpt lat="43.832759" lon="5.374970">
        <ele>515.7</ele>
      </trkpt>
      <trkpt lat="43.832701" lon="5.374924">
        <ele>516.1</ele>
      </trkpt>
      <trkpt lat="43.832614" lon="5.374905">
        <ele>516.7</ele>
      </trkpt>
      <trkpt lat="43.832602" lon="5.374841">
        <ele>516.3</ele>
      </trkpt>
      <trkpt lat="43.832548" lon="5.374686">
        <ele>515.5</ele>
      </trkpt>
      <trkpt lat="43.832546" lon="5.374527">
        <ele>515</ele>
      </trkpt>
      <trkpt lat="43.832632" lon="5.374449">
        <ele>514.6</ele>
      </trkpt>
      <trkpt lat="43.832782" lon="5.374412">
        <ele>514</ele>
      </trkpt>
      <trkpt lat="43.832921" lon="5.374297">
        <ele>512.9</ele>
      </trkpt>
      <trkpt lat="43.833090" lon="5.374050">
        <ele>508.6</ele>
      </trkpt>
      <trkpt lat="43.833244" lon="5.373897">
        <ele>507.9</ele>
      </trkpt>
      <trkpt lat="43.833267" lon="5.373859">
        <ele>507.8</ele>
      </trkpt>
      <trkpt lat="43.833429" lon="5.373302">
        <ele>497.2</ele>
      </trkpt>
      <trkpt lat="43.833716" lon="5.372733">
        <ele>488</ele>
      </trkpt>
      <trkpt lat="43.833819" lon="5.372475">
        <ele>481.7</ele>
      </trkpt>
      <trkpt lat="43.833878" lon="5.372207">
        <ele>480.3</ele>
      </trkpt>
      <trkpt lat="43.833886" lon="5.371821">
        <ele>478.2</ele>
      </trkpt>
      <trkpt lat="43.833778" lon="5.371488">
        <ele>471.5</ele>
      </trkpt>
      <trkpt lat="43.833654" lon="5.371209">
        <ele>470.3</ele>
      </trkpt>
      <trkpt lat="43.833459" lon="5.371014">
        <ele>469.2</ele>
      </trkpt>
      <trkpt lat="43.833042" lon="5.370759">
        <ele>462.9</ele>
      </trkpt>
      <trkpt lat="43.832957" lon="5.370684">
        <ele>462.3</ele>
      </trkpt>
      <trkpt lat="43.832970" lon="5.370619">
        <ele>461.9</ele>
      </trkpt>
      <trkpt lat="43.833019" lon="5.370587">
        <ele>461.6</ele>
      </trkpt>
      <trkpt lat="43.833174" lon="5.370555">
        <ele>461.6</ele>
      </trkpt>
      <trkpt lat="43.833343" lon="5.370525">
        <ele>458.5</ele>
      </trkpt>
      <trkpt lat="43.833401" lon="5.370480">
        <ele>457.6</ele>
      </trkpt>
      <trkpt lat="43.833446" lon="5.370364">
        <ele>455.9</ele>
      </trkpt>
      <trkpt lat="43.833457" lon="5.370163">
        <ele>453.7</ele>
      </trkpt>
      <trkpt lat="43.833484" lon="5.370115">
        <ele>453.3</ele>
      </trkpt>
      <trkpt lat="43.833513" lon="5.370115">
        <ele>453.4</ele>
      </trkpt>
      <trkpt lat="43.833608" lon="5.370257">
        <ele>454.6</ele>
      </trkpt>
      <trkpt lat="43.833664" lon="5.370319">
        <ele>455</ele>
      </trkpt>
      <trkpt lat="43.834245" lon="5.370507">
        <ele>449.4</ele>
      </trkpt>
      <trkpt lat="43.834390" lon="5.370587">
        <ele>449.2</ele>
      </trkpt>
      <trkpt lat="43.834550" lon="5.370665">
        <ele>447.9</ele>
      </trkpt>
      <trkpt lat="43.834639" lon="5.370654">
        <ele>446.9</ele>
      </trkpt>
      <trkpt lat="43.834684" lon="5.370603">
        <ele>446.3</ele>
      </trkpt>
      <trkpt lat="43.834740" lon="5.370488">
        <ele>445.5</ele>
      </trkpt>
      <trkpt lat="43.834183" lon="5.369780">
        <ele>440.2</ele>
      </trkpt>
      <trkpt lat="43.833873" lon="5.369351">
        <ele>441.4</ele>
      </trkpt>
      <trkpt lat="43.833782" lon="5.369267">
        <ele>441.6</ele>
      </trkpt>
      <trkpt lat="43.833686" lon="5.369217">
        <ele>441.8</ele>
      </trkpt>
      <trkpt lat="43.833494" lon="5.368999">
        <ele>436.6</ele>
      </trkpt>
      <trkpt lat="43.833419" lon="5.368932">
        <ele>436.3</ele>
      </trkpt>
      <trkpt lat="43.833355" lon="5.368895">
        <ele>436</ele>
      </trkpt>
      <trkpt lat="43.833300" lon="5.368905">
        <ele>439.3</ele>
      </trkpt>
      <trkpt lat="43.833219" lon="5.368940">
        <ele>439.6</ele>
      </trkpt>
      <trkpt lat="43.833141" lon="5.368994">
        <ele>439.9</ele>
      </trkpt>
      <trkpt lat="43.833072" lon="5.369064">
        <ele>440.2</ele>
      </trkpt>
      <trkpt lat="43.832886" lon="5.369080">
        <ele>441</ele>
      </trkpt>
      <trkpt lat="43.832799" lon="5.369023">
        <ele>441.4</ele>
      </trkpt>
      <trkpt lat="43.832642" lon="5.368806">
        <ele>440.6</ele>
      </trkpt>
      <trkpt lat="43.832406" lon="5.368581">
        <ele>445</ele>
      </trkpt>
      <trkpt lat="43.831930" lon="5.368259">
        <ele>442.3</ele>
      </trkpt>
      <trkpt lat="43.831601" lon="5.367782">
        <ele>440.5</ele>
      </trkpt>
      <trkpt lat="43.831319" lon="5.367610">
        <ele>439.4</ele>
      </trkpt>
      <trkpt lat="43.831075" lon="5.367615">
        <ele>438.4</ele>
      </trkpt>
      <trkpt lat="43.830889" lon="5.367664">
        <ele>437.5</ele>
      </trkpt>
      <trkpt lat="43.830734" lon="5.367765">
        <ele>435.8</ele>
      </trkpt>
      <trkpt lat="43.830518" lon="5.367937">
        <ele>436.4</ele>
      </trkpt>
      <trkpt lat="43.830328" lon="5.368141">
        <ele>436.9</ele>
      </trkpt>
      <trkpt lat="43.830169" lon="5.368162">
        <ele>436.8</ele>
      </trkpt>
      <trkpt lat="43.830015" lon="5.368114">
        <ele>436.5</ele>
      </trkpt>
      <trkpt lat="43.829802" lon="5.368023">
        <ele>436.2</ele>
      </trkpt>
      <trkpt lat="43.829647" lon="5.367910">
        <ele>436</ele>
      </trkpt>
      <trkpt lat="43.829546" lon="5.367787">
        <ele>435.7</ele>
      </trkpt>
      <trkpt lat="43.829334" lon="5.367642">
        <ele>435.7</ele>
      </trkpt>
      <trkpt lat="43.829206" lon="5.367465">
        <ele>434</ele>
      </trkpt>
      <trkpt lat="43.829164" lon="5.367352">
        <ele>439.1</ele>
      </trkpt>
      <trkpt lat="43.829117" lon="5.367208">
        <ele>440.9</ele>
      </trkpt>
      <trkpt lat="43.829028" lon="5.366726">
        <ele>438.8</ele>
      </trkpt>
      <trkpt lat="43.828970" lon="5.366499">
        <ele>436.4</ele>
      </trkpt>
      <trkpt lat="43.828898" lon="5.366373">
        <ele>436.8</ele>
      </trkpt>
      <trkpt lat="43.828594" lon="5.366124">
        <ele>437.4</ele>
      </trkpt>
      <trkpt lat="43.828115" lon="5.365925">
        <ele>443.8</ele>
      </trkpt>
      <trkpt lat="43.827895" lon="5.365911">
        <ele>446.8</ele>
      </trkpt>
      <trkpt lat="43.827829" lon="5.365840">
        <ele>447.3</ele>
      </trkpt>
      <trkpt lat="43.827655" lon="5.365456">
        <ele>440.8</ele>
      </trkpt>
      <trkpt lat="43.827600" lon="5.365195">
        <ele>440.8</ele>
      </trkpt>
      <trkpt lat="43.827598" lon="5.364028">
        <ele>430.3</ele>
      </trkpt>
      <trkpt lat="43.827213" lon="5.362577">
        <ele>437.9</ele>
      </trkpt>
      <trkpt lat="43.827213" lon="5.362577">
        <ele>437.9</ele>
      </trkpt>
      <trkpt lat="43.827213" lon="5.362577">
        <ele>437.9</ele>
      </trkpt>
      <trkpt lat="43.827213" lon="5.362577">
        <ele>437.9</ele>
      </trkpt>
      <trkpt lat="43.827213" lon="5.362577">
        <ele>437.9</ele>
      </trkpt>
      <trkpt lat="43.827213" lon="5.362577">
        <ele>437.9</ele>
      </trkpt>
      <trkpt lat="43.827213" lon="5.362577">
        <ele>437.9</ele>
      </trkpt>
      <trkpt lat="43.827213" lon="5.362577">
        <ele>437.9</ele>
      </trkpt>
      <trkpt lat="43.827213" lon="5.362577">
        <ele>437.9</ele>
      </trkpt>
      <trkpt lat="43.827213" lon="5.362577">
        <ele>437.9</ele>
      </trkpt>
      <trkpt lat="43.827213" lon="5.362577">
        <ele>437.9</ele>
      </trkpt>
      <trkpt lat="43.827213" lon="5.362577">
        <ele>437.9</ele>
      </trkpt>
      <trkpt lat="43.827213" lon="5.362577">
        <ele>437.9</ele>
      </trkpt>
      <trkpt lat="43.827213" lon="5.362577">
        <ele>437.9</ele>
      </trkpt>
      <trkpt lat="43.827166" lon="5.362402">
        <ele>431.9</ele>
      </trkpt>
      <trkpt lat="43.827166" lon="5.362402">
        <ele>431.9</ele>
      </trkpt>
      <trkpt lat="43.827166" lon="5.362402">
        <ele>431.9</ele>
      </trkpt>
      <trkpt lat="43.827166" lon="5.362402">
        <ele>431.9</ele>
      </trkpt>
      <trkpt lat="43.827166" lon="5.362402">
        <ele>431.9</ele>
      </trkpt>
      <trkpt lat="43.827166" lon="5.362402">
        <ele>431.9</ele>
      </trkpt>
      <trkpt lat="43.827166" lon="5.362402">
        <ele>431.9</ele>
      </trkpt>
      <trkpt lat="43.827142" lon="5.362311">
        <ele>432.1</ele>
      </trkpt>
      <trkpt lat="43.826917" lon="5.361768">
        <ele>432.2</ele>
      </trkpt>
      <trkpt lat="43.826753" lon="5.361600">
        <ele>429.2</ele>
      </trkpt>
      <trkpt lat="43.826468" lon="5.361449">
        <ele>431.9</ele>
      </trkpt>
      <trkpt lat="43.826283" lon="5.361426">
        <ele>431.8</ele>
      </trkpt>
      <trkpt lat="43.825881" lon="5.361356">
        <ele>432.9</ele>
      </trkpt>
      <trkpt lat="43.825379" lon="5.361458">
        <ele>432.1</ele>
      </trkpt>
      <trkpt lat="43.824483" lon="5.361987">
        <ele>435.6</ele>
      </trkpt>
      <trkpt lat="43.824483" lon="5.361987">
        <ele>435.6</ele>
      </trkpt>
      <trkpt lat="43.824483" lon="5.361987">
        <ele>435.6</ele>
      </trkpt>
      <trkpt lat="43.824483" lon="5.361987">
        <ele>435.6</ele>
      </trkpt>
      <trkpt lat="43.824483" lon="5.361987">
        <ele>435.6</ele>
      </trkpt>
      <trkpt lat="43.824483" lon="5.361987">
        <ele>435.6</ele>
      </trkpt>
      <trkpt lat="43.824483" lon="5.361987">
        <ele>435.6</ele>
      </trkpt>
      <trkpt lat="43.824483" lon="5.361987">
        <ele>435.6</ele>
      </trkpt>
      <trkpt lat="43.824483" lon="5.361987">
        <ele>435.6</ele>
      </trkpt>
      <trkpt lat="43.824483" lon="5.361987">
        <ele>435.6</ele>
      </trkpt>
      <trkpt lat="43.824483" lon="5.361987">
        <ele>435.6</ele>
      </trkpt>
      <trkpt lat="43.824483" lon="5.361987">
        <ele>435.6</ele>
      </trkpt>
      <trkpt lat="43.824483" lon="5.361987">
        <ele>435.6</ele>
      </trkpt>
      <trkpt lat="43.824483" lon="5.361987">
        <ele>435.6</ele>
      </trkpt>
      <trkpt lat="43.824359" lon="5.362060">
        <ele>435.1</ele>
      </trkpt>
      <trkpt lat="43.824359" lon="5.362060">
        <ele>435.1</ele>
      </trkpt>
      <trkpt lat="43.824359" lon="5.362060">
        <ele>435.1</ele>
      </trkpt>
      <trkpt lat="43.824359" lon="5.362060">
        <ele>435.1</ele>
      </trkpt>
      <trkpt lat="43.824359" lon="5.362060">
        <ele>435.1</ele>
      </trkpt>
      <trkpt lat="43.824359" lon="5.362060">
        <ele>435.1</ele>
      </trkpt>
      <trkpt lat="43.824359" lon="5.362060">
        <ele>435.1</ele>
      </trkpt>
      <trkpt lat="43.824325" lon="5.362080">
        <ele>435</ele>
      </trkpt>
      <trkpt lat="43.824139" lon="5.362456">
        <ele>428.5</ele>
      </trkpt>
      <trkpt lat="43.824015" lon="5.362923">
        <ele>421.2</ele>
      </trkpt>
      <trkpt lat="43.823930" lon="5.363475">
        <ele>427.4</ele>
      </trkpt>
      <trkpt lat="43.823864" lon="5.363596">
        <ele>423.9</ele>
      </trkpt>
      <trkpt lat="43.823797" lon="5.364343">
        <ele>423.9</ele>
      </trkpt>
      <trkpt lat="43.823848" lon="5.364556">
        <ele>424.8</ele>
      </trkpt>
      <trkpt lat="43.823839" lon="5.365102">
        <ele>423.7</ele>
      </trkpt>
      <trkpt lat="43.823985" lon="5.365536">
        <ele>426.7</ele>
      </trkpt>
      <trkpt lat="43.824000" lon="5.366635">
        <ele>426.9</ele>
      </trkpt>
      <trkpt lat="43.824515" lon="5.368185">
        <ele>449.2</ele>
      </trkpt>
      <trkpt lat="43.824571" lon="5.368355">
        <ele>447.1</ele>
      </trkpt>
      <trkpt lat="43.824571" lon="5.368355">
        <ele>447.1</ele>
      </trkpt>
      <trkpt lat="43.824571" lon="5.368355">
        <ele>447.1</ele>
      </trkpt>
      <trkpt lat="43.824571" lon="5.368355">
        <ele>447.1</ele>
      </trkpt>
      <trkpt lat="43.824571" lon="5.368355">
        <ele>447.1</ele>
      </trkpt>
      <trkpt lat="43.824571" lon="5.368355">
        <ele>447.1</ele>
      </trkpt>
      <trkpt lat="43.824571" lon="5.368355">
        <ele>447.1</ele>
      </trkpt>
      <trkpt lat="43.824583" lon="5.368392">
        <ele>447.4</ele>
      </trkpt>
      <trkpt lat="43.824738" lon="5.369552">
        <ele>442.1</ele>
      </trkpt>
      <trkpt lat="43.824738" lon="5.369552">
        <ele>442.1</ele>
      </trkpt>
      <trkpt lat="43.824738" lon="5.369552">
        <ele>442.1</ele>
      </trkpt>
      <trkpt lat="43.824738" lon="5.369552">
        <ele>442.1</ele>
      </trkpt>
      <trkpt lat="43.824738" lon="5.369552">
        <ele>442.1</ele>
      </trkpt>
      <trkpt lat="43.824738" lon="5.369552">
        <ele>442.1</ele>
      </trkpt>
      <trkpt lat="43.824738" lon="5.369552">
        <ele>442.1</ele>
      </trkpt>
      <trkpt lat="43.824738" lon="5.369552">
        <ele>442.1</ele>
      </trkpt>
      <trkpt lat="43.824738" lon="5.369552">
        <ele>442.1</ele>
      </trkpt>
      <trkpt lat="43.824766" lon="5.369765">
        <ele>442.8</ele>
      </trkpt>
      <trkpt lat="43.824817" lon="5.370144">
        <ele>441.7</ele>
      </trkpt>
      <trkpt lat="43.824949" lon="5.370704">
        <ele>447.2</ele>
      </trkpt>
      <trkpt lat="43.825112" lon="5.371682">
        <ele>457</ele>
      </trkpt>
      <trkpt lat="43.825713" lon="5.372494">
        <ele>458.2</ele>
      </trkpt>
      <trkpt lat="43.825790" lon="5.372597">
        <ele>453.7</ele>
      </trkpt>
      <trkpt lat="43.826338" lon="5.373514">
        <ele>456.5</ele>
      </trkpt>
      <trkpt lat="43.826407" lon="5.373630">
        <ele>456.5</ele>
      </trkpt>
      <trkpt lat="43.826977" lon="5.374330">
        <ele>461.2</ele>
      </trkpt>
      <trkpt lat="43.827944" lon="5.375295">
        <ele>461.9</ele>
      </trkpt>
      <trkpt lat="43.827944" lon="5.375295">
        <ele>461.9</ele>
      </trkpt>
      <trkpt lat="43.827944" lon="5.375295">
        <ele>461.9</ele>
      </trkpt>
      <trkpt lat="43.827944" lon="5.375295">
        <ele>461.9</ele>
      </trkpt>
      <trkpt lat="43.827944" lon="5.375295">
        <ele>461.9</ele>
      </trkpt>
      <trkpt lat="43.827944" lon="5.375295">
        <ele>461.9</ele>
      </trkpt>
      <trkpt lat="43.827944" lon="5.375295">
        <ele>461.9</ele>
      </trkpt>
      <trkpt lat="43.827944" lon="5.375295">
        <ele>461.9</ele>
      </trkpt>
      <trkpt lat="43.827944" lon="5.375295">
        <ele>461.9</ele>
      </trkpt>
      <trkpt lat="43.827944" lon="5.375295">
        <ele>461.9</ele>
      </trkpt>
      <trkpt lat="43.827944" lon="5.375295">
        <ele>461.9</ele>
      </trkpt>
      <trkpt lat="43.827944" lon="5.375295">
        <ele>461.9</ele>
      </trkpt>
      <trkpt lat="43.827944" lon="5.375295">
        <ele>461.9</ele>
      </trkpt>
      <trkpt lat="43.827944" lon="5.375295">
        <ele>461.9</ele>
      </trkpt>
      <trkpt lat="43.827994" lon="5.375345">
        <ele>462</ele>
      </trkpt>
      <trkpt lat="43.828618" lon="5.375842">
        <ele>466.7</ele>
      </trkpt>
      <trkpt lat="43.829027" lon="5.376391">
        <ele>467.5</ele>
      </trkpt>
      <trkpt lat="43.829800" lon="5.377272">
        <ele>467.3</ele>
      </trkpt>
      <trkpt lat="43.829827" lon="5.377343">
        <ele>466.9</ele>
      </trkpt>
      <trkpt lat="43.829912" lon="5.377389">
        <ele>466.8</ele>
      </trkpt>
      <trkpt lat="43.830133" lon="5.377451">
        <ele>471</ele>
      </trkpt>
      <trkpt lat="43.829991" lon="5.377510">
        <ele>465.6</ele>
      </trkpt>
      <trkpt lat="43.829779" lon="5.377907">
        <ele>459</ele>
      </trkpt>
      <trkpt lat="43.829676" lon="5.378006">
        <ele>458.3</ele>
      </trkpt>
      <trkpt lat="43.829609" lon="5.378183">
        <ele>457.7</ele>
      </trkpt>
      <trkpt lat="43.829330" lon="5.378382">
        <ele>457.1</ele>
      </trkpt>
      <trkpt lat="43.829160" lon="5.378403">
        <ele>456.3</ele>
      </trkpt>
      <trkpt lat="43.828986" lon="5.378489">
        <ele>458.2</ele>
      </trkpt>
      <trkpt lat="43.828638" lon="5.378875">
        <ele>461.1</ele>
      </trkpt>
      <trkpt lat="43.828529" lon="5.379106">
        <ele>462.9</ele>
      </trkpt>
      <trkpt lat="43.828293" lon="5.379229">
        <ele>467.6</ele>
      </trkpt>
      <trkpt lat="43.828142" lon="5.379218">
        <ele>469.3</ele>
      </trkpt>
      <trkpt lat="43.828042" lon="5.379138">
        <ele>465.9</ele>
      </trkpt>
      <trkpt lat="43.827941" lon="5.379138">
        <ele>466.4</ele>
      </trkpt>
      <trkpt lat="43.827825" lon="5.379176">
        <ele>471.6</ele>
      </trkpt>
      <trkpt lat="43.827670" lon="5.379224">
        <ele>472.3</ele>
      </trkpt>
      <trkpt lat="43.827570" lon="5.379224">
        <ele>472.7</ele>
      </trkpt>
      <trkpt lat="43.827504" lon="5.379127">
        <ele>471.8</ele>
      </trkpt>
      <trkpt lat="43.827373" lon="5.378859">
        <ele>471.4</ele>
      </trkpt>
      <trkpt lat="43.827152" lon="5.378607">
        <ele>470.6</ele>
      </trkpt>
      <trkpt lat="43.827051" lon="5.378569">
        <ele>470.9</ele>
      </trkpt>
      <trkpt lat="43.826919" lon="5.378564">
        <ele>471.5</ele>
      </trkpt>
      <trkpt lat="43.826668" lon="5.378618">
        <ele>472.2</ele>
      </trkpt>
      <trkpt lat="43.826494" lon="5.378526">
        <ele>476.9</ele>
      </trkpt>
      <trkpt lat="43.826134" lon="5.378140">
        <ele>473.6</ele>
      </trkpt>
      <trkpt lat="43.826064" lon="5.377958">
        <ele>472.9</ele>
      </trkpt>
      <trkpt lat="43.825762" lon="5.377572">
        <ele>476.2</ele>
      </trkpt>
      <trkpt lat="43.825344" lon="5.377384">
        <ele>475.4</ele>
      </trkpt>
      <trkpt lat="43.825011" lon="5.377196">
        <ele>476.3</ele>
      </trkpt>
      <trkpt lat="43.824729" lon="5.377051">
        <ele>480.2</ele>
      </trkpt>
      <trkpt lat="43.824121" lon="5.376971">
        <ele>480.8</ele>
      </trkpt>
      <trkpt lat="43.823889" lon="5.377035">
        <ele>480.7</ele>
      </trkpt>
      <trkpt lat="43.823438" lon="5.377242">
        <ele>481.1</ele>
      </trkpt>
      <trkpt lat="43.823305" lon="5.377362">
        <ele>473.1</ele>
      </trkpt>
      <trkpt lat="43.823034" lon="5.377733">
        <ele>473.1</ele>
      </trkpt>
      <trkpt lat="43.822802" lon="5.378081">
        <ele>470.9</ele>
      </trkpt>
      <trkpt lat="43.822538" lon="5.378612">
        <ele>474.7</ele>
      </trkpt>
      <trkpt lat="43.822411" lon="5.378993">
        <ele>453</ele>
      </trkpt>
      <trkpt lat="43.822384" lon="5.379444">
        <ele>453.3</ele>
      </trkpt>
      <trkpt lat="43.822412" lon="5.379701">
        <ele>455.4</ele>
      </trkpt>
      <trkpt lat="43.822434" lon="5.379835">
        <ele>461.3</ele>
      </trkpt>
      <trkpt lat="43.822531" lon="5.379916">
        <ele>481.2</ele>
      </trkpt>
      <trkpt lat="43.822584" lon="5.379927">
        <ele>481.8</ele>
      </trkpt>
      <trkpt lat="43.822813" lon="5.379878">
        <ele>486.1</ele>
      </trkpt>
      <trkpt lat="43.823100" lon="5.379809">
        <ele>491.4</ele>
      </trkpt>
      <trkpt lat="43.823185" lon="5.379819">
        <ele>493.2</ele>
      </trkpt>
      <trkpt lat="43.823262" lon="5.379927">
        <ele>497.6</ele>
      </trkpt>
      <trkpt lat="43.823285" lon="5.380141">
        <ele>496.9</ele>
      </trkpt>
      <trkpt lat="43.823345" lon="5.380337">
        <ele>506.1</ele>
      </trkpt>
      <trkpt lat="43.823781" lon="5.381053">
        <ele>507.8</ele>
      </trkpt>
      <trkpt lat="43.823936" lon="5.381445">
        <ele>509</ele>
      </trkpt>
      <trkpt lat="43.824214" lon="5.382357">
        <ele>516.1</ele>
      </trkpt>
      <trkpt lat="43.824311" lon="5.382679">
        <ele>517.1</ele>
      </trkpt>
      <trkpt lat="43.824481" lon="5.383199">
        <ele>518.4</ele>
      </trkpt>
      <trkpt lat="43.824543" lon="5.383215">
        <ele>519</ele>
      </trkpt>
      <trkpt lat="43.824946" lon="5.382915">
        <ele>521.1</ele>
      </trkpt>
      <trkpt lat="43.825035" lon="5.382963">
        <ele>523</ele>
      </trkpt>
      <trkpt lat="43.825235" lon="5.383105">
        <ele>522.8</ele>
      </trkpt>
      <trkpt lat="43.826139" lon="5.384126">
        <ele>521.5</ele>
      </trkpt>
      <trkpt lat="43.826139" lon="5.384126">
        <ele>521.5</ele>
      </trkpt>
      <trkpt lat="43.826344" lon="5.384358">
        <ele>524.5</ele>
      </trkpt>
      <trkpt lat="43.826738" lon="5.384889">
        <ele>527.2</ele>
      </trkpt>
      <trkpt lat="43.827051" lon="5.385339">
        <ele>529.9</ele>
      </trkpt>
      <trkpt lat="43.827376" lon="5.386187">
        <ele>531.4</ele>
      </trkpt>
      <trkpt lat="43.827682" lon="5.386498">
        <ele>533</ele>
      </trkpt>
      <trkpt lat="43.827782" lon="5.386627">
        <ele>533.1</ele>
      </trkpt>
      <trkpt lat="43.827818" lon="5.386629">
        <ele>533.1</ele>
      </trkpt>
      <trkpt lat="43.827848" lon="5.386597">
        <ele>533.1</ele>
      </trkpt>
      <trkpt lat="43.828603" lon="5.385661">
        <ele>531.7</ele>
      </trkpt>
      <trkpt lat="43.828746" lon="5.385602">
        <ele>531.4</ele>
      </trkpt>
      <trkpt lat="43.829346" lon="5.385114">
        <ele>525.8</ele>
      </trkpt>
      <trkpt lat="43.829404" lon="5.385125">
        <ele>525.1</ele>
      </trkpt>
      <trkpt lat="43.829444" lon="5.385152">
        <ele>524.7</ele>
      </trkpt>
      <trkpt lat="43.829474" lon="5.385205">
        <ele>524.4</ele>
      </trkpt>
      <trkpt lat="43.829539" lon="5.385618">
        <ele>524.5</ele>
      </trkpt>
      <trkpt lat="43.829710" lon="5.386037">
        <ele>526</ele>
      </trkpt>
      <trkpt lat="43.829834" lon="5.386444">
        <ele>527.1</ele>
      </trkpt>
      <trkpt lat="43.829973" lon="5.386627">
        <ele>527</ele>
      </trkpt>
      <trkpt lat="43.830383" lon="5.386831">
        <ele>524.9</ele>
      </trkpt>
      <trkpt lat="43.830770" lon="5.386831">
        <ele>520.7</ele>
      </trkpt>
      <trkpt lat="43.830844" lon="5.386873">
        <ele>516.9</ele>
      </trkpt>
      <trkpt lat="43.830994" lon="5.387085">
        <ele>518.8</ele>
      </trkpt>
      <trkpt lat="43.831188" lon="5.387410">
        <ele>520.8</ele>
      </trkpt>
      <trkpt lat="43.831277" lon="5.387759">
        <ele>529</ele>
      </trkpt>
      <trkpt lat="43.831161" lon="5.387839">
        <ele>529.6</ele>
      </trkpt>
      <trkpt lat="43.831110" lon="5.387911">
        <ele>529.9</ele>
      </trkpt>
      <trkpt lat="43.831010" lon="5.388094">
        <ele>530.8</ele>
      </trkpt>
      <trkpt lat="43.830963" lon="5.388177">
        <ele>531.3</ele>
      </trkpt>
      <trkpt lat="43.830632" lon="5.388673">
        <ele>531.8</ele>
      </trkpt>
      <trkpt lat="43.830609" lon="5.388711">
        <ele>531.7</ele>
      </trkpt>
      <trkpt lat="43.830601" lon="5.388778">
        <ele>531.8</ele>
      </trkpt>
      <trkpt lat="43.830625" lon="5.388874">
        <ele>532</ele>
      </trkpt>
      <trkpt lat="43.830758" lon="5.389127">
        <ele>534.4</ele>
      </trkpt>
      <trkpt lat="43.830899" lon="5.389387">
        <ele>536.6</ele>
      </trkpt>
      <trkpt lat="43.831513" lon="5.390154">
        <ele>538.1</ele>
      </trkpt>
      <trkpt lat="43.831964" lon="5.390653">
        <ele>539.8</ele>
      </trkpt>
      <trkpt lat="43.832370" lon="5.390983">
        <ele>539.5</ele>
      </trkpt>
      <trkpt lat="43.832447" lon="5.391017">
        <ele>539.5</ele>
      </trkpt>
      <trkpt lat="43.833271" lon="5.391242">
        <ele>539.3</ele>
      </trkpt>
      <trkpt lat="43.833271" lon="5.391242">
        <ele>539.3</ele>
      </trkpt>
      <trkpt lat="43.833271" lon="5.391242">
        <ele>539.3</ele>
      </trkpt>
      <trkpt lat="43.833271" lon="5.391242">
        <ele>539.3</ele>
      </trkpt>
      <trkpt lat="43.833271" lon="5.391242">
        <ele>539.3</ele>
      </trkpt>
      <trkpt lat="43.833271" lon="5.391242">
        <ele>539.3</ele>
      </trkpt>
      <trkpt lat="43.833271" lon="5.391242">
        <ele>539.3</ele>
      </trkpt>
      <trkpt lat="43.833345" lon="5.391262">
        <ele>539.7</ele>
      </trkpt>
      <trkpt lat="43.833886" lon="5.391208">
        <ele>540.1</ele>
      </trkpt>
      <trkpt lat="43.834860" lon="5.391531">
        <ele>539.1</ele>
      </trkpt>
      <trkpt lat="43.835229" lon="5.391653">
        <ele>538.1</ele>
      </trkpt>
      <trkpt lat="43.835503" lon="5.391744">
        <ele>540</ele>
      </trkpt>
      <trkpt lat="43.835828" lon="5.391937">
        <ele>540.1</ele>
      </trkpt>
      <trkpt lat="43.836339" lon="5.392077">
        <ele>539.1</ele>
      </trkpt>
      <trkpt lat="43.836955" lon="5.392973">
        <ele>542.1</ele>
      </trkpt>
      <trkpt lat="43.837216" lon="5.393353">
        <ele>544.1</ele>
      </trkpt>
      <trkpt lat="43.837216" lon="5.393353">
        <ele>544.1</ele>
      </trkpt>
      <trkpt lat="43.837276" lon="5.393440">
        <ele>544</ele>
      </trkpt>
      <trkpt lat="43.838217" lon="5.394362">
        <ele>545.5</ele>
      </trkpt>
      <trkpt lat="43.838491" lon="5.394630">
        <ele>545.5</ele>
      </trkpt>
      <trkpt lat="43.838900" lon="5.395188">
        <ele>546.3</ele>
      </trkpt>
      <trkpt lat="43.839391" lon="5.395703">
        <ele>546.4</ele>
      </trkpt>
      <trkpt lat="43.839596" lon="5.396138">
        <ele>548.3</ele>
      </trkpt>
      <trkpt lat="43.839898" lon="5.396905">
        <ele>550.9</ele>
      </trkpt>
      <trkpt lat="43.839972" lon="5.397297">
        <ele>551.3</ele>
      </trkpt>
      <trkpt lat="43.840320" lon="5.397978">
        <ele>552.1</ele>
      </trkpt>
      <trkpt lat="43.840657" lon="5.398546">
        <ele>553.4</ele>
      </trkpt>
      <trkpt lat="43.840885" lon="5.399051">
        <ele>553.3</ele>
      </trkpt>
      <trkpt lat="43.841461" lon="5.399839">
        <ele>553.6</ele>
      </trkpt>
      <trkpt lat="43.841694" lon="5.400295">
        <ele>555</ele>
      </trkpt>
      <trkpt lat="43.842015" lon="5.401415">
        <ele>557.4</ele>
      </trkpt>
      <trkpt lat="43.842022" lon="5.401438">
        <ele>557.4</ele>
      </trkpt>
      <trkpt lat="43.842096" lon="5.401620">
        <ele>557.5</ele>
      </trkpt>
      <trkpt lat="43.842801" lon="5.402638">
        <ele>558.2</ele>
      </trkpt>
      <trkpt lat="43.842947" lon="5.402849">
        <ele>558.1</ele>
      </trkpt>
      <trkpt lat="43.843706" lon="5.403514">
        <ele>558</ele>
      </trkpt>
      <trkpt lat="43.844352" lon="5.404222">
        <ele>559.2</ele>
      </trkpt>
      <trkpt lat="43.844781" lon="5.404512">
        <ele>559.2</ele>
      </trkpt>
      <trkpt lat="43.844916" lon="5.404565">
        <ele>559.3</ele>
      </trkpt>
      <trkpt lat="43.844356" lon="5.405037">
        <ele>561.6</ele>
      </trkpt>
      <trkpt lat="43.843523" lon="5.405203">
        <ele>561.7</ele>
      </trkpt>
      <trkpt lat="43.843411" lon="5.405225">
        <ele>561.7</ele>
      </trkpt>
      <trkpt lat="43.843008" lon="5.405542">
        <ele>562.3</ele>
      </trkpt>
      <trkpt lat="43.842436" lon="5.405681">
        <ele>563</ele>
      </trkpt>
      <trkpt lat="43.841561" lon="5.405931">
        <ele>564</ele>
      </trkpt>
      <trkpt lat="43.841190" lon="5.406037">
        <ele>564</ele>
      </trkpt>
      <trkpt lat="43.840594" lon="5.406207">
        <ele>561.6</ele>
      </trkpt>
      <trkpt lat="43.839620" lon="5.406400">
        <ele>549.7</ele>
      </trkpt>
      <trkpt lat="43.838988" lon="5.407160">
        <ele>534.8</ele>
      </trkpt>
      <trkpt lat="43.838771" lon="5.407422">
        <ele>532.5</ele>
      </trkpt>
      <trkpt lat="43.838771" lon="5.407422">
        <ele>532.5</ele>
      </trkpt>
      <trkpt lat="43.838684" lon="5.407526">
        <ele>533.2</ele>
      </trkpt>
      <trkpt lat="43.838591" lon="5.407698">
        <ele>531.9</ele>
      </trkpt>
      <trkpt lat="43.838491" lon="5.407956">
        <ele>531.7</ele>
      </trkpt>
      <trkpt lat="43.838449" lon="5.407988">
        <ele>531.2</ele>
      </trkpt>
      <trkpt lat="43.838414" lon="5.407942">
        <ele>531</ele>
      </trkpt>
      <trkpt lat="43.838333" lon="5.407701">
        <ele>515.4</ele>
      </trkpt>
      <trkpt lat="43.838304" lon="5.407510">
        <ele>519.6</ele>
      </trkpt>
      <trkpt lat="43.838323" lon="5.407374">
        <ele>516.5</ele>
      </trkpt>
      <trkpt lat="43.838286" lon="5.407304">
        <ele>514.8</ele>
      </trkpt>
      <trkpt lat="43.838149" lon="5.407548">
        <ele>514.5</ele>
      </trkpt>
      <trkpt lat="43.838021" lon="5.407524">
        <ele>511.5</ele>
      </trkpt>
      <trkpt lat="43.837969" lon="5.407551">
        <ele>510.3</ele>
      </trkpt>
      <trkpt lat="43.837928" lon="5.407631">
        <ele>509.4</ele>
      </trkpt>
      <trkpt lat="43.837882" lon="5.407596">
        <ele>508.4</ele>
      </trkpt>
      <trkpt lat="43.837847" lon="5.407473">
        <ele>507.7</ele>
      </trkpt>
      <trkpt lat="43.837803" lon="5.407191">
        <ele>507.7</ele>
      </trkpt>
      <trkpt lat="43.837776" lon="5.407084">
        <ele>507.6</ele>
      </trkpt>
      <trkpt lat="43.837735" lon="5.407020">
        <ele>507.2</ele>
      </trkpt>
      <trkpt lat="43.837712" lon="5.406875">
        <ele>506.6</ele>
      </trkpt>
      <trkpt lat="43.837522" lon="5.406722">
        <ele>502.7</ele>
      </trkpt>
      <trkpt lat="43.837485" lon="5.406663">
        <ele>500.6</ele>
      </trkpt>
      <trkpt lat="43.837408" lon="5.406462">
        <ele>497.4</ele>
      </trkpt>
      <trkpt lat="43.837367" lon="5.406413">
        <ele>496.9</ele>
      </trkpt>
      <trkpt lat="43.837317" lon="5.406427">
        <ele>496.5</ele>
      </trkpt>
      <trkpt lat="43.837292" lon="5.406537">
        <ele>496.6</ele>
      </trkpt>
      <trkpt lat="43.837292" lon="5.406733">
        <ele>496.4</ele>
      </trkpt>
      <trkpt lat="43.837282" lon="5.406794">
        <ele>496</ele>
      </trkpt>
      <trkpt lat="43.837278" lon="5.406928">
        <ele>495.3</ele>
      </trkpt>
      <trkpt lat="43.837255" lon="5.406955">
        <ele>495.1</ele>
      </trkpt>
      <trkpt lat="43.837216" lon="5.406961">
        <ele>494.8</ele>
      </trkpt>
      <trkpt lat="43.837162" lon="5.406880">
        <ele>494.4</ele>
      </trkpt>
      <trkpt lat="43.837108" lon="5.406735">
        <ele>494</ele>
      </trkpt>
      <trkpt lat="43.837021" lon="5.406598">
        <ele>493.1</ele>
      </trkpt>
      <trkpt lat="43.836961" lon="5.406499">
        <ele>492.6</ele>
      </trkpt>
      <trkpt lat="43.836885" lon="5.406389">
        <ele>492.1</ele>
      </trkpt>
      <trkpt lat="43.836963" lon="5.406754">
        <ele>492.2</ele>
      </trkpt>
      <trkpt lat="43.837007" lon="5.407138">
        <ele>493.3</ele>
      </trkpt>
      <trkpt lat="43.837030" lon="5.407309">
        <ele>493.5</ele>
      </trkpt>
      <trkpt lat="43.837021" lon="5.407374">
        <ele>493.5</ele>
      </trkpt>
      <trkpt lat="43.837013" lon="5.407441">
        <ele>493.4</ele>
      </trkpt>
      <trkpt lat="43.837005" lon="5.407481">
        <ele>493.4</ele>
      </trkpt>
      <trkpt lat="43.836965" lon="5.407486">
        <ele>493.1</ele>
      </trkpt>
      <trkpt lat="43.836973" lon="5.407548">
        <ele>494.9</ele>
      </trkpt>
      <trkpt lat="43.837029" lon="5.407701">
        <ele>495.5</ele>
      </trkpt>
      <trkpt lat="43.837228" lon="5.408219">
        <ele>496.6</ele>
      </trkpt>
      <trkpt lat="43.837274" lon="5.408438">
        <ele>499.3</ele>
      </trkpt>
      <trkpt lat="43.837290" lon="5.408715">
        <ele>500.1</ele>
      </trkpt>
      <trkpt lat="43.837346" lon="5.409581">
        <ele>502.4</ele>
      </trkpt>
      <trkpt lat="43.837342" lon="5.409844">
        <ele>501.4</ele>
      </trkpt>
      <trkpt lat="43.837387" lon="5.410142">
        <ele>500.9</ele>
      </trkpt>
      <trkpt lat="43.837394" lon="5.410327">
        <ele>502.4</ele>
      </trkpt>
      <trkpt lat="43.837364" lon="5.410547">
        <ele>502.6</ele>
      </trkpt>
      <trkpt lat="43.837497" lon="5.411408">
        <ele>502</ele>
      </trkpt>
      <trkpt lat="43.837486" lon="5.411512">
        <ele>500.9</ele>
      </trkpt>
      <trkpt lat="43.837464" lon="5.411650">
        <ele>498.4</ele>
      </trkpt>
      <trkpt lat="43.837455" lon="5.411716">
        <ele>499</ele>
      </trkpt>
      <trkpt lat="43.837476" lon="5.411794">
        <ele>500.2</ele>
      </trkpt>
      <trkpt lat="43.837458" lon="5.411924">
        <ele>501.8</ele>
      </trkpt>
      <trkpt lat="43.837421" lon="5.412011">
        <ele>502.4</ele>
      </trkpt>
      <trkpt lat="43.837472" lon="5.412114">
        <ele>502.1</ele>
      </trkpt>
      <trkpt lat="43.837465" lon="5.412185">
        <ele>501.9</ele>
      </trkpt>
      <trkpt lat="43.837411" lon="5.412346">
        <ele>500.7</ele>
      </trkpt>
      <trkpt lat="43.837380" lon="5.412474">
        <ele>499.7</ele>
      </trkpt>
      <trkpt lat="43.837178" lon="5.412861">
        <ele>504.7</ele>
      </trkpt>
      <trkpt lat="43.837106" lon="5.413120">
        <ele>505.6</ele>
      </trkpt>
      <trkpt lat="43.837088" lon="5.413299">
        <ele>505.8</ele>
      </trkpt>
      <trkpt lat="43.837083" lon="5.413362">
        <ele>507.3</ele>
      </trkpt>
      <trkpt lat="43.837092" lon="5.413422">
        <ele>507.3</ele>
      </trkpt>
      <trkpt lat="43.837067" lon="5.413461">
        <ele>507.4</ele>
      </trkpt>
      <trkpt lat="43.837040" lon="5.413501">
        <ele>507.5</ele>
      </trkpt>
      <trkpt lat="43.837035" lon="5.413522">
        <ele>507.6</ele>
      </trkpt>
      <trkpt lat="43.837028" lon="5.413699">
        <ele>507.7</ele>
      </trkpt>
      <trkpt lat="43.837046" lon="5.413789">
        <ele>507.8</ele>
      </trkpt>
      <trkpt lat="43.837058" lon="5.413839">
        <ele>507.9</ele>
      </trkpt>
      <trkpt lat="43.837027" lon="5.413964">
        <ele>508</ele>
      </trkpt>
      <trkpt lat="43.836965" lon="5.414135">
        <ele>508.1</ele>
      </trkpt>
      <trkpt lat="43.836903" lon="5.414275">
        <ele>509.2</ele>
      </trkpt>
      <trkpt lat="43.836876" lon="5.414420">
        <ele>509.2</ele>
      </trkpt>
      <trkpt lat="43.836849" lon="5.414543">
        <ele>509.2</ele>
      </trkpt>
      <trkpt lat="43.836834" lon="5.414640">
        <ele>509.1</ele>
      </trkpt>
      <trkpt lat="43.836849" lon="5.414806">
        <ele>508.8</ele>
      </trkpt>
      <trkpt lat="43.836857" lon="5.415042">
        <ele>509.2</ele>
      </trkpt>
      <trkpt lat="43.836780" lon="5.415246">
        <ele>509.5</ele>
      </trkpt>
      <trkpt lat="43.836722" lon="5.415407">
        <ele>509.7</ele>
      </trkpt>
      <trkpt lat="43.836656" lon="5.415557">
        <ele>515.8</ele>
      </trkpt>
      <trkpt lat="43.836629" lon="5.415804">
        <ele>509</ele>
      </trkpt>
      <trkpt lat="43.836640" lon="5.415959">
        <ele>513.4</ele>
      </trkpt>
      <trkpt lat="43.836683" lon="5.416163">
        <ele>510.2</ele>
      </trkpt>
      <trkpt lat="43.836760" lon="5.416389">
        <ele>510.7</ele>
      </trkpt>
      <trkpt lat="43.836838" lon="5.416560">
        <ele>510.7</ele>
      </trkpt>
      <trkpt lat="43.836934" lon="5.416667">
        <ele>510</ele>
      </trkpt>
      <trkpt lat="43.837020" lon="5.416850">
        <ele>510.1</ele>
      </trkpt>
      <trkpt lat="43.837070" lon="5.417032">
        <ele>509.9</ele>
      </trkpt>
      <trkpt lat="43.837105" lon="5.417145">
        <ele>509.6</ele>
      </trkpt>
      <trkpt lat="43.837147" lon="5.417215">
        <ele>509.5</ele>
      </trkpt>
      <trkpt lat="43.837128" lon="5.417300">
        <ele>509.3</ele>
      </trkpt>
      <trkpt lat="43.837112" lon="5.417402">
        <ele>509</ele>
      </trkpt>
      <trkpt lat="43.837058" lon="5.417585">
        <ele>507.5</ele>
      </trkpt>
      <trkpt lat="43.837054" lon="5.417730">
        <ele>507.5</ele>
      </trkpt>
      <trkpt lat="43.837062" lon="5.417885">
        <ele>507.5</ele>
      </trkpt>
      <trkpt lat="43.837116" lon="5.418062">
        <ele>507.5</ele>
      </trkpt>
      <trkpt lat="43.837198" lon="5.418207">
        <ele>507.3</ele>
      </trkpt>
      <trkpt lat="43.837526" lon="5.418502">
        <ele>510.1</ele>
      </trkpt>
      <trkpt lat="43.837681" lon="5.418797">
        <ele>513.2</ele>
      </trkpt>
      <trkpt lat="43.837820" lon="5.418996">
        <ele>513.7</ele>
      </trkpt>
      <trkpt lat="43.837964" lon="5.419221">
        <ele>516.4</ele>
      </trkpt>
      <trkpt lat="43.838103" lon="5.419468">
        <ele>516.6</ele>
      </trkpt>
      <trkpt lat="43.838192" lon="5.419623">
        <ele>516.9</ele>
      </trkpt>
      <trkpt lat="43.838374" lon="5.419870">
        <ele>515</ele>
      </trkpt>
      <trkpt lat="43.838428" lon="5.419945">
        <ele>514.9</ele>
      </trkpt>
      <trkpt lat="43.838509" lon="5.420031">
        <ele>515.9</ele>
      </trkpt>
      <trkpt lat="43.838544" lon="5.420160">
        <ele>516.5</ele>
      </trkpt>
      <trkpt lat="43.838575" lon="5.420337">
        <ele>517.6</ele>
      </trkpt>
      <trkpt lat="43.838641" lon="5.420739">
        <ele>519.7</ele>
      </trkpt>
      <trkpt lat="43.838761" lon="5.421077">
        <ele>524.6</ele>
      </trkpt>
      <trkpt lat="43.838846" lon="5.421275">
        <ele>524.8</ele>
      </trkpt>
      <trkpt lat="43.838946" lon="5.421544">
        <ele>523.7</ele>
      </trkpt>
      <trkpt lat="43.838966" lon="5.421667">
        <ele>528</ele>
      </trkpt>
      <trkpt lat="43.839275" lon="5.422472">
        <ele>524.4</ele>
      </trkpt>
      <trkpt lat="43.839349" lon="5.422719">
        <ele>526.9</ele>
      </trkpt>
      <trkpt lat="43.839449" lon="5.422882">
        <ele>527.6</ele>
      </trkpt>
      <trkpt lat="43.839573" lon="5.422992">
        <ele>527.6</ele>
      </trkpt>
      <trkpt lat="43.839802" lon="5.423099">
        <ele>526.5</ele>
      </trkpt>
      <trkpt lat="43.840128" lon="5.423330">
        <ele>529.2</ele>
      </trkpt>
      <trkpt lat="43.840430" lon="5.424269">
        <ele>535.2</ele>
      </trkpt>
      <trkpt lat="43.840483" lon="5.424285">
        <ele>536.2</ele>
      </trkpt>
      <trkpt lat="43.840510" lon="5.424301">
        <ele>536.7</ele>
      </trkpt>
      <trkpt lat="43.840590" lon="5.424210">
        <ele>538.7</ele>
      </trkpt>
      <trkpt lat="43.840602" lon="5.424049">
        <ele>539.5</ele>
      </trkpt>
      <trkpt lat="43.840375" lon="5.423309">
        <ele>535.7</ele>
      </trkpt>
      <trkpt lat="43.840352" lon="5.423107">
        <ele>535.5</ele>
      </trkpt>
      <trkpt lat="43.840356" lon="5.422912">
        <ele>535.8</ele>
      </trkpt>
      <trkpt lat="43.840397" lon="5.422708">
        <ele>536.4</ele>
      </trkpt>
      <trkpt lat="43.840513" lon="5.422268">
        <ele>541.2</ele>
      </trkpt>
      <trkpt lat="43.840520" lon="5.422043">
        <ele>541.9</ele>
      </trkpt>
      <trkpt lat="43.840331" lon="5.421630">
        <ele>542.4</ele>
      </trkpt>
      <trkpt lat="43.840037" lon="5.421056">
        <ele>540.7</ele>
      </trkpt>
      <trkpt lat="43.839990" lon="5.420825">
        <ele>535.3</ele>
      </trkpt>
      <trkpt lat="43.840095" lon="5.420589">
        <ele>540.2</ele>
      </trkpt>
      <trkpt lat="43.840831" lon="5.420066">
        <ele>547.9</ele>
      </trkpt>
      <trkpt lat="43.841045" lon="5.419914">
        <ele>552.8</ele>
      </trkpt>
      <trkpt lat="43.841136" lon="5.419849">
        <ele>553.9</ele>
      </trkpt>
      <trkpt lat="43.841287" lon="5.419816">
        <ele>555.3</ele>
      </trkpt>
      <trkpt lat="43.841393" lon="5.419835">
        <ele>556.3</ele>
      </trkpt>
      <trkpt lat="43.841523" lon="5.419929">
        <ele>558.1</ele>
      </trkpt>
      <trkpt lat="43.841629" lon="5.419945">
        <ele>559.6</ele>
      </trkpt>
      <trkpt lat="43.841697" lon="5.419908">
        <ele>562.5</ele>
      </trkpt>
      <trkpt lat="43.841741" lon="5.419862">
        <ele>563.1</ele>
      </trkpt>
      <trkpt lat="43.841739" lon="5.419722">
        <ele>563.9</ele>
      </trkpt>
      <trkpt lat="43.841534" lon="5.419071">
        <ele>560.5</ele>
      </trkpt>
      <trkpt lat="43.841542" lon="5.418845">
        <ele>561</ele>
      </trkpt>
      <trkpt lat="43.841699" lon="5.418564">
        <ele>566</ele>
      </trkpt>
      <trkpt lat="43.841844" lon="5.418438">
        <ele>566.3</ele>
      </trkpt>
      <trkpt lat="43.841969" lon="5.418408">
        <ele>566.7</ele>
      </trkpt>
      <trkpt lat="43.842376" lon="5.418475">
        <ele>568</ele>
      </trkpt>
      <trkpt lat="43.842587" lon="5.418561">
        <ele>569.7</ele>
      </trkpt>
      <trkpt lat="43.842867" lon="5.418639">
        <ele>569.9</ele>
      </trkpt>
      <trkpt lat="43.843117" lon="5.418760">
        <ele>570</ele>
      </trkpt>
      <trkpt lat="43.843260" lon="5.418835">
        <ele>570</ele>
      </trkpt>
      <trkpt lat="43.843458" lon="5.418996">
        <ele>571.1</ele>
      </trkpt>
      <trkpt lat="43.843568" lon="5.419116">
        <ele>571.3</ele>
      </trkpt>
      <trkpt lat="43.843775" lon="5.419387">
        <ele>572.3</ele>
      </trkpt>
      <trkpt lat="43.844001" lon="5.419650">
        <ele>572.8</ele>
      </trkpt>
      <trkpt lat="43.844187" lon="5.419819">
        <ele>574.1</ele>
      </trkpt>
      <trkpt lat="43.844481" lon="5.419988">
        <ele>574.1</ele>
      </trkpt>
      <trkpt lat="43.844966" lon="5.420165">
        <ele>574.3</ele>
      </trkpt>
      <trkpt lat="43.845388" lon="5.420267">
        <ele>575.6</ele>
      </trkpt>
      <trkpt lat="43.845717" lon="5.420264">
        <ele>576</ele>
      </trkpt>
      <trkpt lat="43.846144" lon="5.420208">
        <ele>577.2</ele>
      </trkpt>
      <trkpt lat="43.846275" lon="5.420101">
        <ele>577.2</ele>
      </trkpt>
      <trkpt lat="43.846572" lon="5.420026">
        <ele>577.1</ele>
      </trkpt>
      <trkpt lat="43.846866" lon="5.419908">
        <ele>577.5</ele>
      </trkpt>
      <trkpt lat="43.846880" lon="5.419798">
        <ele>577.6</ele>
      </trkpt>
      <trkpt lat="43.846924" lon="5.419317">
        <ele>577.5</ele>
      </trkpt>
      <trkpt lat="43.846755" lon="5.418894">
        <ele>577.4</ele>
      </trkpt>
      <trkpt lat="43.846726" lon="5.418499">
        <ele>577.4</ele>
      </trkpt>
      <trkpt lat="43.846668" lon="5.418188">
        <ele>577.2</ele>
      </trkpt>
      <trkpt lat="43.846684" lon="5.418027">
        <ele>577.3</ele>
      </trkpt>
      <trkpt lat="43.846810" lon="5.417424">
        <ele>576.5</ele>
      </trkpt>
      <trkpt lat="43.846844" lon="5.417097">
        <ele>575.9</ele>
      </trkpt>
      <trkpt lat="43.846846" lon="5.417013">
        <ele>575.7</ele>
      </trkpt>
      <trkpt lat="43.846968" lon="5.416836">
        <ele>575.6</ele>
      </trkpt>
      <trkpt lat="43.847080" lon="5.415916">
        <ele>574.7</ele>
      </trkpt>
      <trkpt lat="43.847191" lon="5.415782">
        <ele>574.1</ele>
      </trkpt>
      <trkpt lat="43.847268" lon="5.415431">
        <ele>573.8</ele>
      </trkpt>
      <trkpt lat="43.847307" lon="5.415275">
        <ele>573.5</ele>
      </trkpt>
      <trkpt lat="43.847303" lon="5.414768">
        <ele>572.7</ele>
      </trkpt>
      <trkpt lat="43.847222" lon="5.414299">
        <ele>572.7</ele>
      </trkpt>
      <trkpt lat="43.847148" lon="5.414071">
        <ele>571.8</ele>
      </trkpt>
      <trkpt lat="43.847117" lon="5.413832">
        <ele>571.6</ele>
      </trkpt>
      <trkpt lat="43.847080" lon="5.413663">
        <ele>571.4</ele>
      </trkpt>
      <trkpt lat="43.847016" lon="5.413484">
        <ele>571.3</ele>
      </trkpt>
      <trkpt lat="43.846904" lon="5.413154">
        <ele>570.8</ele>
      </trkpt>
      <trkpt lat="43.846839" lon="5.412880">
        <ele>571</ele>
      </trkpt>
      <trkpt lat="43.846842" lon="5.412674">
        <ele>571.2</ele>
      </trkpt>
      <trkpt lat="43.846864" lon="5.412448">
        <ele>571.3</ele>
      </trkpt>
      <trkpt lat="43.846895" lon="5.412253">
        <ele>571</ele>
      </trkpt>
      <trkpt lat="43.846879" lon="5.412167">
        <ele>571</ele>
      </trkpt>
      <trkpt lat="43.847653" lon="5.411402">
        <ele>568</ele>
      </trkpt>
      <trkpt lat="43.847653" lon="5.411402">
        <ele>568</ele>
      </trkpt>
      <trkpt lat="43.847677" lon="5.411379">
        <ele>567.9</ele>
      </trkpt>
      <trkpt lat="43.847829" lon="5.411228">
        <ele>567.3</ele>
      </trkpt>
      <trkpt lat="43.848794" lon="5.410362">
        <ele>561.9</ele>
      </trkpt>
      <trkpt lat="43.848794" lon="5.410362">
        <ele>561.9</ele>
      </trkpt>
      <trkpt lat="43.848876" lon="5.410288">
        <ele>561.7</ele>
      </trkpt>
      <trkpt lat="43.849006" lon="5.410171">
        <ele>561.2</ele>
      </trkpt>
      <trkpt lat="43.849006" lon="5.410171">
        <ele>561.2</ele>
      </trkpt>
      <trkpt lat="43.849030" lon="5.410149">
        <ele>561.1</ele>
      </trkpt>
      <trkpt lat="43.849167" lon="5.410026">
        <ele>559.4</ele>
      </trkpt>
      <trkpt lat="43.848881" lon="5.409329">
        <ele>564.1</ele>
      </trkpt>
      <trkpt lat="43.848417" lon="5.408348">
        <ele>563.3</ele>
      </trkpt>
      <trkpt lat="43.848417" lon="5.408348">
        <ele>563.3</ele>
      </trkpt>
      <trkpt lat="43.848401" lon="5.408314">
        <ele>562.9</ele>
      </trkpt>
      <trkpt lat="43.847959" lon="5.407377">
        <ele>561.8</ele>
      </trkpt>
      <trkpt lat="43.847516" lon="5.406440">
        <ele>559.9</ele>
      </trkpt>
      <trkpt lat="43.847440" lon="5.406280">
        <ele>560.5</ele>
      </trkpt>
      <trkpt lat="43.846550" lon="5.405770">
        <ele>561.1</ele>
      </trkpt>
      <trkpt lat="43.846421" lon="5.405681">
        <ele>561.3</ele>
      </trkpt>
      <trkpt lat="43.846405" lon="5.404435">
        <ele>559.2</ele>
      </trkpt>
      <trkpt lat="43.846405" lon="5.404435">
        <ele>559.2</ele>
      </trkpt>
      <trkpt lat="43.846405" lon="5.404423">
        <ele>559.2</ele>
      </trkpt>
      <trkpt lat="43.846370" lon="5.404297">
        <ele>559.1</ele>
      </trkpt>
      <trkpt lat="43.846361" lon="5.404128">
        <ele>557.8</ele>
      </trkpt>
      <trkpt lat="43.846823" lon="5.404018">
        <ele>556.9</ele>
      </trkpt>
      <trkpt lat="43.847159" lon="5.403814">
        <ele>556.2</ele>
      </trkpt>
      <trkpt lat="43.847312" lon="5.403686">
        <ele>556.1</ele>
      </trkpt>
      <trkpt lat="43.847523" lon="5.403589">
        <ele>555.6</ele>
      </trkpt>
      <trkpt lat="43.847791" lon="5.403565">
        <ele>555.6</ele>
      </trkpt>
      <trkpt lat="43.848332" lon="5.403380">
        <ele>555.1</ele>
      </trkpt>
      <trkpt lat="43.848636" lon="5.403326">
        <ele>551.6</ele>
      </trkpt>
      <trkpt lat="43.848800" lon="5.403315">
        <ele>551.1</ele>
      </trkpt>
      <trkpt lat="43.848994" lon="5.403399">
        <ele>553.9</ele>
      </trkpt>
      <trkpt lat="43.849139" lon="5.403420">
        <ele>553.5</ele>
      </trkpt>
      <trkpt lat="43.849303" lon="5.403356">
        <ele>553.2</ele>
      </trkpt>
      <trkpt lat="43.849731" lon="5.403095">
        <ele>549.1</ele>
      </trkpt>
      <trkpt lat="43.850029" lon="5.402798">
        <ele>550</ele>
      </trkpt>
      <trkpt lat="43.850481" lon="5.402213">
        <ele>548.3</ele>
      </trkpt>
      <trkpt lat="43.850526" lon="5.402090">
        <ele>548.2</ele>
      </trkpt>
      <trkpt lat="43.850833" lon="5.401427">
        <ele>547.4</ele>
      </trkpt>
      <trkpt lat="43.850994" lon="5.401148">
        <ele>551.6</ele>
      </trkpt>
      <trkpt lat="43.851394" lon="5.400403">
        <ele>551.5</ele>
      </trkpt>
      <trkpt lat="43.851472" lon="5.400177">
        <ele>552.1</ele>
      </trkpt>
      <trkpt lat="43.851524" lon="5.399901">
        <ele>552.1</ele>
      </trkpt>
      <trkpt lat="43.851574" lon="5.399670">
        <ele>551.4</ele>
      </trkpt>
      <trkpt lat="43.851692" lon="5.399399">
        <ele>553.3</ele>
      </trkpt>
      <trkpt lat="43.852259" lon="5.398522">
        <ele>548.8</ele>
      </trkpt>
      <trkpt lat="43.852601" lon="5.397978">
        <ele>544.2</ele>
      </trkpt>
      <trkpt lat="43.853152" lon="5.397471">
        <ele>541.3</ele>
      </trkpt>
      <trkpt lat="43.853746" lon="5.397039">
        <ele>540.1</ele>
      </trkpt>
      <trkpt lat="43.853903" lon="5.397023">
        <ele>539.7</ele>
      </trkpt>
      <trkpt lat="43.854328" lon="5.396680">
        <ele>535.5</ele>
      </trkpt>
      <trkpt lat="43.854504" lon="5.396377">
        <ele>535.9</ele>
      </trkpt>
      <trkpt lat="43.854671" lon="5.396374">
        <ele>534.9</ele>
      </trkpt>
      <trkpt lat="43.854829" lon="5.396350">
        <ele>534</ele>
      </trkpt>
      <trkpt lat="43.855224" lon="5.396226">
        <ele>528.1</ele>
      </trkpt>
      <trkpt lat="43.855408" lon="5.396149">
        <ele>527.5</ele>
      </trkpt>
      <trkpt lat="43.855651" lon="5.396106">
        <ele>526.6</ele>
      </trkpt>
      <trkpt lat="43.855911" lon="5.396079">
        <ele>521.2</ele>
      </trkpt>
      <trkpt lat="43.856057" lon="5.396047">
        <ele>520.5</ele>
      </trkpt>
      <trkpt lat="43.856121" lon="5.396095">
        <ele>519.6</ele>
      </trkpt>
      <trkpt lat="43.856309" lon="5.396154">
        <ele>518.1</ele>
      </trkpt>
      <trkpt lat="43.856398" lon="5.396194">
        <ele>517.4</ele>
      </trkpt>
      <trkpt lat="43.856547" lon="5.396197">
        <ele>516.8</ele>
      </trkpt>
      <trkpt lat="43.856674" lon="5.396232">
        <ele>508.7</ele>
      </trkpt>
      <trkpt lat="43.856827" lon="5.396232">
        <ele>508</ele>
      </trkpt>
      <trkpt lat="43.856992" lon="5.396202">
        <ele>507.1</ele>
      </trkpt>
      <trkpt lat="43.857175" lon="5.396200">
        <ele>505.6</ele>
      </trkpt>
      <trkpt lat="43.857398" lon="5.396205">
        <ele>504.2</ele>
      </trkpt>
      <trkpt lat="43.857678" lon="5.396175">
        <ele>486.2</ele>
      </trkpt>
      <trkpt lat="43.857810" lon="5.396122">
        <ele>484.1</ele>
      </trkpt>
      <trkpt lat="43.857968" lon="5.395953">
        <ele>481.5</ele>
      </trkpt>
      <trkpt lat="43.858046" lon="5.395859">
        <ele>479.6</ele>
      </trkpt>
      <trkpt lat="43.858119" lon="5.395848">
        <ele>477.5</ele>
      </trkpt>
      <trkpt lat="43.858177" lon="5.395768">
        <ele>485.8</ele>
      </trkpt>
      <trkpt lat="43.858233" lon="5.395631">
        <ele>488.5</ele>
      </trkpt>
      <trkpt lat="43.858355" lon="5.395483">
        <ele>472.4</ele>
      </trkpt>
      <trkpt lat="43.858390" lon="5.395341">
        <ele>475</ele>
      </trkpt>
      <trkpt lat="43.858535" lon="5.395097">
        <ele>478.5</ele>
      </trkpt>
      <trkpt lat="43.858674" lon="5.395027">
        <ele>474</ele>
      </trkpt>
      <trkpt lat="43.858738" lon="5.394950">
        <ele>483.8</ele>
      </trkpt>
      <trkpt lat="43.858885" lon="5.394931">
        <ele>479.1</ele>
      </trkpt>
      <trkpt lat="43.859032" lon="5.394866">
        <ele>474.6</ele>
      </trkpt>
      <trkpt lat="43.859314" lon="5.394834">
        <ele>458.5</ele>
      </trkpt>
      <trkpt lat="43.859510" lon="5.394931">
        <ele>455.6</ele>
      </trkpt>
      <trkpt lat="43.859614" lon="5.395009">
        <ele>446.8</ele>
      </trkpt>
      <trkpt lat="43.859709" lon="5.395027">
        <ele>445.2</ele>
      </trkpt>
      <trkpt lat="43.859773" lon="5.395027">
        <ele>444.2</ele>
      </trkpt>
      <trkpt lat="43.859846" lon="5.394976">
        <ele>447.4</ele>
      </trkpt>
      <trkpt lat="43.859966" lon="5.394711">
        <ele>450.1</ele>
      </trkpt>
      <trkpt lat="43.860057" lon="5.394673">
        <ele>435.9</ele>
      </trkpt>
      <trkpt lat="43.860100" lon="5.394671">
        <ele>435.6</ele>
      </trkpt>
      <trkpt lat="43.860163" lon="5.394638">
        <ele>435.1</ele>
      </trkpt>
      <trkpt lat="43.860266" lon="5.394427">
        <ele>435.2</ele>
      </trkpt>
      <trkpt lat="43.860374" lon="5.394301">
        <ele>433.9</ele>
      </trkpt>
      <trkpt lat="43.860411" lon="5.394212">
        <ele>433.4</ele>
      </trkpt>
      <trkpt lat="43.860401" lon="5.394118">
        <ele>438</ele>
      </trkpt>
      <trkpt lat="43.860430" lon="5.394086">
        <ele>437.5</ele>
      </trkpt>
      <trkpt lat="43.860531" lon="5.393922">
        <ele>436.6</ele>
      </trkpt>
      <trkpt lat="43.860566" lon="5.393845">
        <ele>436.8</ele>
      </trkpt>
      <trkpt lat="43.860637" lon="5.393791">
        <ele>436.5</ele>
      </trkpt>
      <trkpt lat="43.860786" lon="5.393788">
        <ele>435.3</ele>
      </trkpt>
      <trkpt lat="43.860879" lon="5.393810">
        <ele>420.9</ele>
      </trkpt>
      <trkpt lat="43.861138" lon="5.393721">
        <ele>418.9</ele>
      </trkpt>
      <trkpt lat="43.861248" lon="5.393700">
        <ele>417.4</ele>
      </trkpt>
      <trkpt lat="43.861364" lon="5.393659">
        <ele>415.8</ele>
      </trkpt>
      <trkpt lat="43.861448" lon="5.393592">
        <ele>414.8</ele>
      </trkpt>
      <trkpt lat="43.861504" lon="5.393515">
        <ele>414</ele>
      </trkpt>
      <trkpt lat="43.861566" lon="5.393322">
        <ele>415.6</ele>
      </trkpt>
      <trkpt lat="43.861618" lon="5.393260">
        <ele>414.9</ele>
      </trkpt>
      <trkpt lat="43.861687" lon="5.393233">
        <ele>407.7</ele>
      </trkpt>
      <trkpt lat="43.861687" lon="5.393158">
        <ele>407.4</ele>
      </trkpt>
      <trkpt lat="43.861718" lon="5.393045">
        <ele>407.5</ele>
      </trkpt>
      <trkpt lat="43.861852" lon="5.392774">
        <ele>409.3</ele>
      </trkpt>
      <trkpt lat="43.861896" lon="5.392638">
        <ele>410.6</ele>
      </trkpt>
      <trkpt lat="43.861937" lon="5.392603">
        <ele>409.9</ele>
      </trkpt>
      <trkpt lat="43.862055" lon="5.392619">
        <ele>407.1</ele>
      </trkpt>
      <trkpt lat="43.862231" lon="5.392630">
        <ele>403.9</ele>
      </trkpt>
      <trkpt lat="43.862422" lon="5.392643">
        <ele>401.4</ele>
      </trkpt>
      <trkpt lat="43.862573" lon="5.392635">
        <ele>394.6</ele>
      </trkpt>
      <trkpt lat="43.862728" lon="5.392651">
        <ele>392.6</ele>
      </trkpt>
      <trkpt lat="43.862859" lon="5.392694">
        <ele>391.2</ele>
      </trkpt>
      <trkpt lat="43.863128" lon="5.392734">
        <ele>389.9</ele>
      </trkpt>
      <trkpt lat="43.863515" lon="5.392723">
        <ele>386.1</ele>
      </trkpt>
      <trkpt lat="43.864082" lon="5.392900">
        <ele>383.2</ele>
      </trkpt>
      <trkpt lat="43.864242" lon="5.392973">
        <ele>378.7</ele>
      </trkpt>
      <trkpt lat="43.864379" lon="5.393032">
        <ele>377.9</ele>
      </trkpt>
      <trkpt lat="43.864664" lon="5.393091">
        <ele>376.7</ele>
      </trkpt>
      <trkpt lat="43.864977" lon="5.393249">
        <ele>372.4</ele>
      </trkpt>
      <trkpt lat="43.865070" lon="5.393246">
        <ele>370.5</ele>
      </trkpt>
      <trkpt lat="43.865168" lon="5.393217">
        <ele>370.6</ele>
      </trkpt>
      <trkpt lat="43.865203" lon="5.393198">
        <ele>370.6</ele>
      </trkpt>
      <trkpt lat="43.865340" lon="5.393233">
        <ele>370.2</ele>
      </trkpt>
      <trkpt lat="43.865514" lon="5.393324">
        <ele>369.1</ele>
      </trkpt>
      <trkpt lat="43.865605" lon="5.393402">
        <ele>364.2</ele>
      </trkpt>
      <trkpt lat="43.865632" lon="5.393442">
        <ele>364.1</ele>
      </trkpt>
      <trkpt lat="43.865739" lon="5.393507">
        <ele>363.8</ele>
      </trkpt>
      <trkpt lat="43.865816" lon="5.393558">
        <ele>363.5</ele>
      </trkpt>
      <trkpt lat="43.865878" lon="5.393659">
        <ele>359.4</ele>
      </trkpt>
      <trkpt lat="43.865921" lon="5.393737">
        <ele>358.6</ele>
      </trkpt>
      <trkpt lat="43.865969" lon="5.393847">
        <ele>357.7</ele>
      </trkpt>
      <trkpt lat="43.865982" lon="5.393946">
        <ele>357</ele>
      </trkpt>
      <trkpt lat="43.865963" lon="5.394046">
        <ele>356.4</ele>
      </trkpt>
      <trkpt lat="43.865915" lon="5.394107">
        <ele>355.9</ele>
      </trkpt>
      <trkpt lat="43.865890" lon="5.394193">
        <ele>353.5</ele>
      </trkpt>
      <trkpt lat="43.865905" lon="5.394284">
        <ele>352.2</ele>
      </trkpt>
      <trkpt lat="43.865959" lon="5.394338">
        <ele>351.2</ele>
      </trkpt>
      <trkpt lat="43.866110" lon="5.394357">
        <ele>350.1</ele>
      </trkpt>
      <trkpt lat="43.866623" lon="5.394402">
        <ele>348.8</ele>
      </trkpt>
      <trkpt lat="43.866754" lon="5.394424">
        <ele>346</ele>
      </trkpt>
      <trkpt lat="43.866829" lon="5.394443">
        <ele>345.6</ele>
      </trkpt>
      <trkpt lat="43.866870" lon="5.394491">
        <ele>345</ele>
      </trkpt>
      <trkpt lat="43.866895" lon="5.394512">
        <ele>344.7</ele>
      </trkpt>
      <trkpt lat="43.867052" lon="5.394547">
        <ele>344.1</ele>
      </trkpt>
      <trkpt lat="43.867193" lon="5.394601">
        <ele>343.4</ele>
      </trkpt>
      <trkpt lat="43.867371" lon="5.394743">
        <ele>341.3</ele>
      </trkpt>
      <trkpt lat="43.867493" lon="5.394805">
        <ele>339.9</ele>
      </trkpt>
      <trkpt lat="43.867742" lon="5.394834">
        <ele>333.6</ele>
      </trkpt>
      <trkpt lat="43.867881" lon="5.394866">
        <ele>332.2</ele>
      </trkpt>
      <trkpt lat="43.868034" lon="5.394974">
        <ele>329.8</ele>
      </trkpt>
      <trkpt lat="43.868183" lon="5.394952">
        <ele>327.1</ele>
      </trkpt>
      <trkpt lat="43.868351" lon="5.394936">
        <ele>321.4</ele>
      </trkpt>
      <trkpt lat="43.868446" lon="5.394963">
        <ele>321</ele>
      </trkpt>
      <trkpt lat="43.868496" lon="5.394990">
        <ele>320.6</ele>
      </trkpt>
      <trkpt lat="43.868456" lon="5.395076">
        <ele>318.9</ele>
      </trkpt>
      <trkpt lat="43.868400" lon="5.395261">
        <ele>317.6</ele>
      </trkpt>
      <trkpt lat="43.868376" lon="5.395467">
        <ele>316.7</ele>
      </trkpt>
      <trkpt lat="43.868388" lon="5.395813">
        <ele>317.4</ele>
      </trkpt>
      <trkpt lat="43.868388" lon="5.395980">
        <ele>313.5</ele>
      </trkpt>
      <trkpt lat="43.868363" lon="5.396098">
        <ele>311.7</ele>
      </trkpt>
      <trkpt lat="43.868287" lon="5.396253">
        <ele>314.9</ele>
      </trkpt>
      <trkpt lat="43.868113" lon="5.396607">
        <ele>312.5</ele>
      </trkpt>
      <trkpt lat="43.868057" lon="5.396779">
        <ele>309.2</ele>
      </trkpt>
      <trkpt lat="43.868023" lon="5.396913">
        <ele>309.3</ele>
      </trkpt>
      <trkpt lat="43.868023" lon="5.397018">
        <ele>309.1</ele>
      </trkpt>
      <trkpt lat="43.868026" lon="5.397173">
        <ele>308.8</ele>
      </trkpt>
      <trkpt lat="43.868092" lon="5.397516">
        <ele>305</ele>
      </trkpt>
      <trkpt lat="43.867980" lon="5.398788">
        <ele>298</ele>
      </trkpt>
      <trkpt lat="43.867992" lon="5.399069">
        <ele>296.6</ele>
      </trkpt>
      <trkpt lat="43.868028" lon="5.399177">
        <ele>292.1</ele>
      </trkpt>
      <trkpt lat="43.868096" lon="5.399212">
        <ele>291.6</ele>
      </trkpt>
      <trkpt lat="43.868165" lon="5.399193">
        <ele>291.2</ele>
      </trkpt>
      <trkpt lat="43.868241" lon="5.399115">
        <ele>292.9</ele>
      </trkpt>
      <trkpt lat="43.868315" lon="5.398973">
        <ele>294.5</ele>
      </trkpt>
      <trkpt lat="43.868510" lon="5.398863">
        <ele>290</ele>
      </trkpt>
      <trkpt lat="43.868661" lon="5.398842">
        <ele>289.4</ele>
      </trkpt>
      <trkpt lat="43.868813" lon="5.398850">
        <ele>288.5</ele>
      </trkpt>
      <trkpt lat="43.869045" lon="5.398933">
        <ele>286.6</ele>
      </trkpt>
      <trkpt lat="43.869639" lon="5.399295">
        <ele>274.7</ele>
      </trkpt>
      <trkpt lat="43.869960" lon="5.399351">
        <ele>273.8</ele>
      </trkpt>
      <trkpt lat="43.870063" lon="5.399399">
        <ele>269.1</ele>
      </trkpt>
      <trkpt lat="43.870107" lon="5.399461">
        <ele>268</ele>
      </trkpt>
      <trkpt lat="43.870124" lon="5.399507">
        <ele>267.4</ele>
      </trkpt>
      <trkpt lat="43.870407" lon="5.399504">
        <ele>266.2</ele>
      </trkpt>
      <trkpt lat="43.870633" lon="5.399464">
        <ele>265.8</ele>
      </trkpt>
      <trkpt lat="43.870882" lon="5.399389">
        <ele>261.1</ele>
      </trkpt>
      <trkpt lat="43.871227" lon="5.399222">
        <ele>257.9</ele>
      </trkpt>
      <trkpt lat="43.871847" lon="5.398683">
        <ele>254.8</ele>
      </trkpt>
      <trkpt lat="43.872226" lon="5.398332">
        <ele>256.7</ele>
      </trkpt>
      <trkpt lat="43.872688" lon="5.397849">
        <ele>245.8</ele>
      </trkpt>
      <trkpt lat="43.873063" lon="5.397364">
        <ele>244.9</ele>
      </trkpt>
      <trkpt lat="43.873131" lon="5.397270">
        <ele>244.6</ele>
      </trkpt>
      <trkpt lat="43.873238" lon="5.396988">
        <ele>244.5</ele>
      </trkpt>
      <trkpt lat="43.873272" lon="5.396932">
        <ele>244.1</ele>
      </trkpt>
      <trkpt lat="43.873328" lon="5.396908">
        <ele>243.7</ele>
      </trkpt>
      <trkpt lat="43.873415" lon="5.396924">
        <ele>237.5</ele>
      </trkpt>
      <trkpt lat="43.873738" lon="5.397168">
        <ele>236</ele>
      </trkpt>
      <trkpt lat="43.873688" lon="5.397455">
        <ele>236.2</ele>
      </trkpt>
      <trkpt lat="43.874011" lon="5.397718">
        <ele>234.2</ele>
      </trkpt>
      <trkpt lat="43.874069" lon="5.397782">
        <ele>234.1</ele>
      </trkpt>
      <trkpt lat="43.874063" lon="5.397852">
        <ele>234.3</ele>
      </trkpt>
      <trkpt lat="43.874481" lon="5.398351">
        <ele>231.2</ele>
      </trkpt>
      <trkpt lat="43.874618" lon="5.398640">
        <ele>230.7</ele>
      </trkpt>
    </trkseg>
  </trk>
</gpx>