<?xml version="1.0" ?>
<gpx xmlns="http://www.topografix.com/GPX/1/1" xmlns:xsi="http://www.w3.org/2001/XMLSchema-instance" xsi:schemaLocation="http://www.topografix.com/GPX/1/1 http://www.topografix.com/GPX/1/1/gpx.xsd" version="1.1" creator="EditGPX">
  <trk>
    <name>NewTrack</name>
    <trkseg>
      <trkpt lat="43.979269" lon="5.564363">
        <ele>638.8</ele>
      </trkpt>
      <trkpt lat="43.979225" lon="5.564323">
        <ele>638.8</ele>
      </trkpt>
      <trkpt lat="43.979233" lon="5.564216">
        <ele>638.9</ele>
      </trkpt>
      <trkpt lat="43.979515" lon="5.563422">
        <ele>647.2</ele>
      </trkpt>
      <trkpt lat="43.979553" lon="5.563218">
        <ele>654.8</ele>
      </trkpt>
      <trkpt lat="43.979449" lon="5.563132">
        <ele>654.3</ele>
      </trkpt>
      <trkpt lat="43.979140" lon="5.563030">
        <ele>652</ele>
      </trkpt>
      <trkpt lat="43.978901" lon="5.563170">
        <ele>651.7</ele>
      </trkpt>
      <trkpt lat="43.978735" lon="5.563320">
        <ele>651.7</ele>
      </trkpt>
      <trkpt lat="43.978634" lon="5.563379">
        <ele>644.8</ele>
      </trkpt>
      <trkpt lat="43.978299" lon="5.563594">
        <ele>645.1</ele>
      </trkpt>
      <trkpt lat="43.977588" lon="5.563540">
        <ele>645.9</ele>
      </trkpt>
      <trkpt lat="43.976677" lon="5.563379">
        <ele>646.4</ele>
      </trkpt>
      <trkpt lat="43.976580" lon="5.563325">
        <ele>648.7</ele>
      </trkpt>
      <trkpt lat="43.976497" lon="5.563223">
        <ele>650.3</ele>
      </trkpt>
      <trkpt lat="43.976172" lon="5.562816">
        <ele>654</ele>
      </trkpt>
      <trkpt lat="43.976049" lon="5.562687">
        <ele>654.9</ele>
      </trkpt>
      <trkpt lat="43.975836" lon="5.562665">
        <ele>655.4</ele>
      </trkpt>
      <trkpt lat="43.975662" lon="5.562596">
        <ele>650.3</ele>
      </trkpt>
      <trkpt lat="43.975276" lon="5.562333">
        <ele>658.5</ele>
      </trkpt>
      <trkpt lat="43.975222" lon="5.562290">
        <ele>658.4</ele>
      </trkpt>
      <trkpt lat="43.975164" lon="5.562301">
        <ele>657.2</ele>
      </trkpt>
      <trkpt lat="43.974994" lon="5.562172">
        <ele>654.4</ele>
      </trkpt>
      <trkpt lat="43.974708" lon="5.562118">
        <ele>655.4</ele>
      </trkpt>
      <trkpt lat="43.974527" lon="5.562097">
        <ele>655.5</ele>
      </trkpt>
      <trkpt lat="43.974338" lon="5.562177">
        <ele>654.1</ele>
      </trkpt>
      <trkpt lat="43.974164" lon="5.562167">
        <ele>652.5</ele>
      </trkpt>
      <trkpt lat="43.973793" lon="5.562054">
        <ele>653.6</ele>
      </trkpt>
      <trkpt lat="43.973678" lon="5.562054">
        <ele>653.4</ele>
      </trkpt>
      <trkpt lat="43.973539" lon="5.562124">
        <ele>652.6</ele>
      </trkpt>
      <trkpt lat="43.973458" lon="5.562156">
        <ele>652.2</ele>
      </trkpt>
      <trkpt lat="43.973292" lon="5.562188">
        <ele>648.6</ele>
      </trkpt>
      <trkpt lat="43.972987" lon="5.562885">
        <ele>636.9</ele>
      </trkpt>
      <trkpt lat="43.972917" lon="5.563073">
        <ele>635.1</ele>
      </trkpt>
      <trkpt lat="43.972797" lon="5.563213">
        <ele>633.3</ele>
      </trkpt>
      <trkpt lat="43.972454" lon="5.563218">
        <ele>627.6</ele>
      </trkpt>
      <trkpt lat="43.972184" lon="5.563416">
        <ele>621.5</ele>
      </trkpt>
      <trkpt lat="43.971794" lon="5.563803">
        <ele>618.5</ele>
      </trkpt>
      <trkpt lat="43.971774" lon="5.564028">
        <ele>616.3</ele>
      </trkpt>
      <trkpt lat="43.971705" lon="5.564328">
        <ele>612.5</ele>
      </trkpt>
      <trkpt lat="43.971581" lon="5.564672">
        <ele>609.3</ele>
      </trkpt>
      <trkpt lat="43.971431" lon="5.564983">
        <ele>608.7</ele>
      </trkpt>
      <trkpt lat="43.971083" lon="5.565600">
        <ele>608</ele>
      </trkpt>
      <trkpt lat="43.970817" lon="5.566061">
        <ele>610.7</ele>
      </trkpt>
      <trkpt lat="43.970786" lon="5.566168">
        <ele>611</ele>
      </trkpt>
      <trkpt lat="43.970829" lon="5.566222">
        <ele>611</ele>
      </trkpt>
      <trkpt lat="43.970960" lon="5.566265">
        <ele>608.3</ele>
      </trkpt>
      <trkpt lat="43.971315" lon="5.566565">
        <ele>607.6</ele>
      </trkpt>
      <trkpt lat="43.971616" lon="5.566941">
        <ele>605.8</ele>
      </trkpt>
      <trkpt lat="43.971678" lon="5.567118">
        <ele>604.8</ele>
      </trkpt>
      <trkpt lat="43.971689" lon="5.567204">
        <ele>604.6</ele>
      </trkpt>
      <trkpt lat="43.971670" lon="5.567338">
        <ele>604.4</ele>
      </trkpt>
      <trkpt lat="43.971678" lon="5.567451">
        <ele>604.1</ele>
      </trkpt>
      <trkpt lat="43.972083" lon="5.568325">
        <ele>603.2</ele>
      </trkpt>
      <trkpt lat="43.972230" lon="5.568577">
        <ele>603.4</ele>
      </trkpt>
      <trkpt lat="43.972261" lon="5.568690">
        <ele>603.5</ele>
      </trkpt>
      <trkpt lat="43.972303" lon="5.569875">
        <ele>605.1</ele>
      </trkpt>
      <trkpt lat="43.972330" lon="5.570181">
        <ele>605.2</ele>
      </trkpt>
      <trkpt lat="43.971332" lon="5.570210">
        <ele>601.2</ele>
      </trkpt>
      <trkpt lat="43.971234" lon="5.570213">
        <ele>601.1</ele>
      </trkpt>
      <trkpt lat="43.971184" lon="5.570369">
        <ele>601</ele>
      </trkpt>
      <trkpt lat="43.970363" lon="5.571261">
        <ele>597.9</ele>
      </trkpt>
      <trkpt lat="43.969966" lon="5.571692">
        <ele>594.1</ele>
      </trkpt>
      <trkpt lat="43.969481" lon="5.572219">
        <ele>594.8</ele>
      </trkpt>
      <trkpt lat="43.968880" lon="5.573059">
        <ele>591.9</ele>
      </trkpt>
      <trkpt lat="43.968775" lon="5.573206">
        <ele>591.6</ele>
      </trkpt>
      <trkpt lat="43.968578" lon="5.573480">
        <ele>588.7</ele>
      </trkpt>
      <trkpt lat="43.968527" lon="5.573657">
        <ele>588.2</ele>
      </trkpt>
      <trkpt lat="43.968458" lon="5.573743">
        <ele>587.9</ele>
      </trkpt>
      <trkpt lat="43.968234" lon="5.573947">
        <ele>587.7</ele>
      </trkpt>
      <trkpt lat="43.968010" lon="5.574108">
        <ele>587.9</ele>
      </trkpt>
      <trkpt lat="43.967794" lon="5.574151">
        <ele>588</ele>
      </trkpt>
      <trkpt lat="43.967033" lon="5.574827">
        <ele>583.2</ele>
      </trkpt>
      <trkpt lat="43.966701" lon="5.574955">
        <ele>581.6</ele>
      </trkpt>
      <trkpt lat="43.966562" lon="5.574923">
        <ele>582.5</ele>
      </trkpt>
      <trkpt lat="43.965701" lon="5.575057">
        <ele>581.5</ele>
      </trkpt>
      <trkpt lat="43.965443" lon="5.575063">
        <ele>581.3</ele>
      </trkpt>
      <trkpt lat="43.965304" lon="5.575047">
        <ele>581.5</ele>
      </trkpt>
      <trkpt lat="43.965157" lon="5.575079">
        <ele>581.9</ele>
      </trkpt>
      <trkpt lat="43.964763" lon="5.575057">
        <ele>581.9</ele>
      </trkpt>
      <trkpt lat="43.964520" lon="5.575063">
        <ele>581.4</ele>
      </trkpt>
      <trkpt lat="43.964331" lon="5.575020">
        <ele>580.9</ele>
      </trkpt>
      <trkpt lat="43.964288" lon="5.575143">
        <ele>581</ele>
      </trkpt>
      <trkpt lat="43.964226" lon="5.575368">
        <ele>581.5</ele>
      </trkpt>
      <trkpt lat="43.964161" lon="5.575588">
        <ele>585.9</ele>
      </trkpt>
      <trkpt lat="43.964080" lon="5.575669">
        <ele>586.1</ele>
      </trkpt>
      <trkpt lat="43.963859" lon="5.575663">
        <ele>588</ele>
      </trkpt>
      <trkpt lat="43.963547" lon="5.575503">
        <ele>590.1</ele>
      </trkpt>
      <trkpt lat="43.963265" lon="5.575304">
        <ele>599.2</ele>
      </trkpt>
      <trkpt lat="43.963130" lon="5.575154">
        <ele>597.9</ele>
      </trkpt>
      <trkpt lat="43.963018" lon="5.574773">
        <ele>590.3</ele>
      </trkpt>
      <trkpt lat="43.962898" lon="5.574456">
        <ele>589.9</ele>
      </trkpt>
      <trkpt lat="43.962639" lon="5.574199">
        <ele>588.7</ele>
      </trkpt>
      <trkpt lat="43.962400" lon="5.574086">
        <ele>588.6</ele>
      </trkpt>
      <trkpt lat="43.962049" lon="5.574043">
        <ele>590.8</ele>
      </trkpt>
      <trkpt lat="43.961639" lon="5.573888">
        <ele>594.7</ele>
      </trkpt>
      <trkpt lat="43.961010" lon="5.573550">
        <ele>592.7</ele>
      </trkpt>
      <trkpt lat="43.960713" lon="5.573325">
        <ele>587.2</ele>
      </trkpt>
      <trkpt lat="43.960628" lon="5.573255">
        <ele>588.4</ele>
      </trkpt>
      <trkpt lat="43.960581" lon="5.573105">
        <ele>588.9</ele>
      </trkpt>
      <trkpt lat="43.960516" lon="5.573019">
        <ele>589.1</ele>
      </trkpt>
      <trkpt lat="43.960481" lon="5.572922">
        <ele>588.8</ele>
      </trkpt>
      <trkpt lat="43.960415" lon="5.572815">
        <ele>588.2</ele>
      </trkpt>
      <trkpt lat="43.960253" lon="5.572504">
        <ele>584.9</ele>
      </trkpt>
      <trkpt lat="43.960068" lon="5.572252">
        <ele>582.3</ele>
      </trkpt>
      <trkpt lat="43.959898" lon="5.572150">
        <ele>578.1</ele>
      </trkpt>
      <trkpt lat="43.959639" lon="5.572187">
        <ele>578</ele>
      </trkpt>
      <trkpt lat="43.959488" lon="5.572236">
        <ele>577.8</ele>
      </trkpt>
      <trkpt lat="43.959415" lon="5.572295">
        <ele>577.7</ele>
      </trkpt>
      <trkpt lat="43.959183" lon="5.572338">
        <ele>577.5</ele>
      </trkpt>
      <trkpt lat="43.958882" lon="5.572574">
        <ele>579.5</ele>
      </trkpt>
      <trkpt lat="43.958755" lon="5.572665">
        <ele>579.5</ele>
      </trkpt>
      <trkpt lat="43.958396" lon="5.573126">
        <ele>579</ele>
      </trkpt>
      <trkpt lat="43.957569" lon="5.573464">
        <ele>576.9</ele>
      </trkpt>
      <trkpt lat="43.957160" lon="5.573781">
        <ele>578.9</ele>
      </trkpt>
      <trkpt lat="43.956975" lon="5.573909">
        <ele>578.3</ele>
      </trkpt>
      <trkpt lat="43.956731" lon="5.574237">
        <ele>573</ele>
      </trkpt>
      <trkpt lat="43.956550" lon="5.574274">
        <ele>573.9</ele>
      </trkpt>
      <trkpt lat="43.956469" lon="5.574338">
        <ele>575.5</ele>
      </trkpt>
      <trkpt lat="43.956391" lon="5.574499">
        <ele>576.6</ele>
      </trkpt>
      <trkpt lat="43.956422" lon="5.574735">
        <ele>575.3</ele>
      </trkpt>
      <trkpt lat="43.956480" lon="5.574843">
        <ele>573.8</ele>
      </trkpt>
      <trkpt lat="43.956488" lon="5.574923">
        <ele>573.1</ele>
      </trkpt>
      <trkpt lat="43.956395" lon="5.575266">
        <ele>570.8</ele>
      </trkpt>
      <trkpt lat="43.956395" lon="5.575497">
        <ele>570.4</ele>
      </trkpt>
      <trkpt lat="43.956395" lon="5.575798">
        <ele>569.7</ele>
      </trkpt>
      <trkpt lat="43.956476" lon="5.576114">
        <ele>565.9</ele>
      </trkpt>
      <trkpt lat="43.956600" lon="5.576323">
        <ele>563.6</ele>
      </trkpt>
      <trkpt lat="43.956608" lon="5.576532">
        <ele>559.8</ele>
      </trkpt>
      <trkpt lat="43.956608" lon="5.576795">
        <ele>557</ele>
      </trkpt>
      <trkpt lat="43.956565" lon="5.576881">
        <ele>558.1</ele>
      </trkpt>
      <trkpt lat="43.956457" lon="5.577031">
        <ele>559.2</ele>
      </trkpt>
      <trkpt lat="43.956419" lon="5.577369">
        <ele>557.5</ele>
      </trkpt>
      <trkpt lat="43.956268" lon="5.577772">
        <ele>556.7</ele>
      </trkpt>
      <trkpt lat="43.956005" lon="5.578115">
        <ele>557.8</ele>
      </trkpt>
      <trkpt lat="43.955673" lon="5.578871">
        <ele>571.9</ele>
      </trkpt>
      <trkpt lat="43.955573" lon="5.579199">
        <ele>567.2</ele>
      </trkpt>
      <trkpt lat="43.955496" lon="5.579622">
        <ele>569.2</ele>
      </trkpt>
      <trkpt lat="43.955306" lon="5.579960">
        <ele>573.9</ele>
      </trkpt>
      <trkpt lat="43.954874" lon="5.580626">
        <ele>592.3</ele>
      </trkpt>
      <trkpt lat="43.954719" lon="5.580770">
        <ele>594.8</ele>
      </trkpt>
      <trkpt lat="43.954580" lon="5.580910">
        <ele>591.3</ele>
      </trkpt>
      <trkpt lat="43.954507" lon="5.581076">
        <ele>592</ele>
      </trkpt>
      <trkpt lat="43.954426" lon="5.581323">
        <ele>591.2</ele>
      </trkpt>
      <trkpt lat="43.954337" lon="5.581334">
        <ele>592.4</ele>
      </trkpt>
      <trkpt lat="43.954078" lon="5.581537">
        <ele>601.9</ele>
      </trkpt>
      <trkpt lat="43.953850" lon="5.581843">
        <ele>595</ele>
      </trkpt>
      <trkpt lat="43.953584" lon="5.582128">
        <ele>594</ele>
      </trkpt>
      <trkpt lat="43.953341" lon="5.582262">
        <ele>593.2</ele>
      </trkpt>
      <trkpt lat="43.953225" lon="5.582331">
        <ele>594.7</ele>
      </trkpt>
      <trkpt lat="43.953090" lon="5.582750">
        <ele>590.6</ele>
      </trkpt>
      <trkpt lat="43.952850" lon="5.583324">
        <ele>590.5</ele>
      </trkpt>
      <trkpt lat="43.952796" lon="5.583463">
        <ele>589.7</ele>
      </trkpt>
      <trkpt lat="43.952630" lon="5.583882">
        <ele>591.4</ele>
      </trkpt>
      <trkpt lat="43.952588" lon="5.583994">
        <ele>592.9</ele>
      </trkpt>
      <trkpt lat="43.952588" lon="5.584220">
        <ele>594.4</ele>
      </trkpt>
      <trkpt lat="43.952649" lon="5.584348">
        <ele>591.6</ele>
      </trkpt>
      <trkpt lat="43.952854" lon="5.584756">
        <ele>588.2</ele>
      </trkpt>
      <trkpt lat="43.953012" lon="5.584971">
        <ele>586.4</ele>
      </trkpt>
      <trkpt lat="43.953101" lon="5.585169">
        <ele>583.9</ele>
      </trkpt>
      <trkpt lat="43.953283" lon="5.585877">
        <ele>579.7</ele>
      </trkpt>
      <trkpt lat="43.953383" lon="5.586092">
        <ele>574.2</ele>
      </trkpt>
      <trkpt lat="43.953503" lon="5.586156">
        <ele>573</ele>
      </trkpt>
      <trkpt lat="43.953592" lon="5.586333">
        <ele>571.7</ele>
      </trkpt>
      <trkpt lat="43.953696" lon="5.586462">
        <ele>571</ele>
      </trkpt>
      <trkpt lat="43.953789" lon="5.586816">
        <ele>566.8</ele>
      </trkpt>
      <trkpt lat="43.953831" lon="5.587240">
        <ele>564.9</ele>
      </trkpt>
      <trkpt lat="43.953839" lon="5.587433">
        <ele>564.2</ele>
      </trkpt>
      <trkpt lat="43.953781" lon="5.587610">
        <ele>558</ele>
      </trkpt>
      <trkpt lat="43.953897" lon="5.588125">
        <ele>554.6</ele>
      </trkpt>
      <trkpt lat="43.953986" lon="5.588484">
        <ele>546.5</ele>
      </trkpt>
      <trkpt lat="43.954171" lon="5.588704">
        <ele>538.5</ele>
      </trkpt>
      <trkpt lat="43.954476" lon="5.588978">
        <ele>534</ele>
      </trkpt>
      <trkpt lat="43.954561" lon="5.589032">
        <ele>532.6</ele>
      </trkpt>
      <trkpt lat="43.954588" lon="5.589160">
        <ele>531.6</ele>
      </trkpt>
      <trkpt lat="43.954580" lon="5.589311">
        <ele>522.3</ele>
      </trkpt>
      <trkpt lat="43.954476" lon="5.589552">
        <ele>521.8</ele>
      </trkpt>
      <trkpt lat="43.954233" lon="5.589997">
        <ele>522.3</ele>
      </trkpt>
      <trkpt lat="43.954067" lon="5.590298">
        <ele>520</ele>
      </trkpt>
      <trkpt lat="43.953997" lon="5.590491">
        <ele>518.1</ele>
      </trkpt>
      <trkpt lat="43.953843" lon="5.590727">
        <ele>517.1</ele>
      </trkpt>
      <trkpt lat="43.953889" lon="5.590813">
        <ele>516</ele>
      </trkpt>
      <trkpt lat="43.954260" lon="5.590872">
        <ele>506.2</ele>
      </trkpt>
      <trkpt lat="43.954352" lon="5.590818">
        <ele>508.5</ele>
      </trkpt>
      <trkpt lat="43.954534" lon="5.590426">
        <ele>509.6</ele>
      </trkpt>
      <trkpt lat="43.954650" lon="5.590324">
        <ele>509.1</ele>
      </trkpt>
      <trkpt lat="43.954920" lon="5.590239">
        <ele>507.1</ele>
      </trkpt>
      <trkpt lat="43.955067" lon="5.590233">
        <ele>507.8</ele>
      </trkpt>
      <trkpt lat="43.955075" lon="5.590314">
        <ele>508.3</ele>
      </trkpt>
      <trkpt lat="43.954951" lon="5.590577">
        <ele>506.1</ele>
      </trkpt>
      <trkpt lat="43.954839" lon="5.590721">
        <ele>505.7</ele>
      </trkpt>
      <trkpt lat="43.954712" lon="5.591038">
        <ele>503.5</ele>
      </trkpt>
      <trkpt lat="43.954410" lon="5.591413">
        <ele>501.9</ele>
      </trkpt>
      <trkpt lat="43.954194" lon="5.591698">
        <ele>496.7</ele>
      </trkpt>
      <trkpt lat="43.954028" lon="5.591837">
        <ele>497.4</ele>
      </trkpt>
      <trkpt lat="43.953932" lon="5.592170">
        <ele>498.4</ele>
      </trkpt>
      <trkpt lat="43.953816" lon="5.592320">
        <ele>498.3</ele>
      </trkpt>
      <trkpt lat="43.953692" lon="5.592465">
        <ele>497.7</ele>
      </trkpt>
      <trkpt lat="43.953572" lon="5.592969">
        <ele>498</ele>
      </trkpt>
      <trkpt lat="43.953445" lon="5.593194">
        <ele>495.9</ele>
      </trkpt>
      <trkpt lat="43.953298" lon="5.593452">
        <ele>491.2</ele>
      </trkpt>
      <trkpt lat="43.953163" lon="5.593715">
        <ele>490.3</ele>
      </trkpt>
      <trkpt lat="43.953086" lon="5.594358">
        <ele>488.5</ele>
      </trkpt>
      <trkpt lat="43.952927" lon="5.594997">
        <ele>487.6</ele>
      </trkpt>
      <trkpt lat="43.952487" lon="5.595812">
        <ele>483.6</ele>
      </trkpt>
      <trkpt lat="43.952232" lon="5.596241">
        <ele>485.4</ele>
      </trkpt>
      <trkpt lat="43.951769" lon="5.596268">
        <ele>483.5</ele>
      </trkpt>
      <trkpt lat="43.951441" lon="5.596139">
        <ele>478.4</ele>
      </trkpt>
      <trkpt lat="43.951120" lon="5.596123">
        <ele>477.7</ele>
      </trkpt>
      <trkpt lat="43.950877" lon="5.596038">
        <ele>476.5</ele>
      </trkpt>
      <trkpt lat="43.950726" lon="5.596021">
        <ele>476.7</ele>
      </trkpt>
      <trkpt lat="43.950603" lon="5.595850">
        <ele>477.1</ele>
      </trkpt>
      <trkpt lat="43.950491" lon="5.595807">
        <ele>483.6</ele>
      </trkpt>
      <trkpt lat="43.950355" lon="5.595903">
        <ele>479.2</ele>
      </trkpt>
      <trkpt lat="43.950247" lon="5.595957">
        <ele>480</ele>
      </trkpt>
      <trkpt lat="43.950035" lon="5.596102">
        <ele>480.2</ele>
      </trkpt>
      <trkpt lat="43.949718" lon="5.596209">
        <ele>477.3</ele>
      </trkpt>
      <trkpt lat="43.949475" lon="5.596150">
        <ele>476.5</ele>
      </trkpt>
      <trkpt lat="43.949204" lon="5.596048">
        <ele>476</ele>
      </trkpt>
      <trkpt lat="43.949216" lon="5.596193">
        <ele>475.5</ele>
      </trkpt>
      <trkpt lat="43.949382" lon="5.596327">
        <ele>475.3</ele>
      </trkpt>
      <trkpt lat="43.949540" lon="5.596601">
        <ele>474.9</ele>
      </trkpt>
      <trkpt lat="43.949548" lon="5.596708">
        <ele>473</ele>
      </trkpt>
      <trkpt lat="43.949444" lon="5.596762">
        <ele>472.5</ele>
      </trkpt>
      <trkpt lat="43.949328" lon="5.596783">
        <ele>471.9</ele>
      </trkpt>
      <trkpt lat="43.949313" lon="5.596864">
        <ele>472.2</ele>
      </trkpt>
      <trkpt lat="43.949374" lon="5.597014">
        <ele>472.8</ele>
      </trkpt>
      <trkpt lat="43.949459" lon="5.597105">
        <ele>473.2</ele>
      </trkpt>
      <trkpt lat="43.949525" lon="5.597132">
        <ele>473.4</ele>
      </trkpt>
      <trkpt lat="43.949734" lon="5.597459">
        <ele>474.6</ele>
      </trkpt>
      <trkpt lat="43.949865" lon="5.597641">
        <ele>478.7</ele>
      </trkpt>
      <trkpt lat="43.950008" lon="5.598033">
        <ele>484</ele>
      </trkpt>
      <trkpt lat="43.950340" lon="5.598548">
        <ele>487.5</ele>
      </trkpt>
      <trkpt lat="43.950491" lon="5.598929">
        <ele>487.9</ele>
      </trkpt>
      <trkpt lat="43.950722" lon="5.599498">
        <ele>488.2</ele>
      </trkpt>
      <trkpt lat="43.950830" lon="5.599546">
        <ele>487.8</ele>
      </trkpt>
      <trkpt lat="43.951108" lon="5.599937">
        <ele>489.2</ele>
      </trkpt>
      <trkpt lat="43.951441" lon="5.600522">
        <ele>488.3</ele>
      </trkpt>
      <trkpt lat="43.951638" lon="5.600892">
        <ele>486.4</ele>
      </trkpt>
      <trkpt lat="43.951958" lon="5.601096">
        <ele>490.1</ele>
      </trkpt>
      <trkpt lat="43.952310" lon="5.601450">
        <ele>490.5</ele>
      </trkpt>
      <trkpt lat="43.952630" lon="5.601831">
        <ele>489.9</ele>
      </trkpt>
      <trkpt lat="43.952746" lon="5.602164">
        <ele>489.3</ele>
      </trkpt>
      <trkpt lat="43.952846" lon="5.602196">
        <ele>489.7</ele>
      </trkpt>
      <trkpt lat="43.952954" lon="5.602335">
        <ele>489.4</ele>
      </trkpt>
      <trkpt lat="43.953005" lon="5.602384">
        <ele>489.3</ele>
      </trkpt>
      <trkpt lat="43.953058" lon="5.602408">
        <ele>489.3</ele>
      </trkpt>
      <trkpt lat="43.953066" lon="5.602469">
        <ele>489.1</ele>
      </trkpt>
      <trkpt lat="43.953068" lon="5.602566">
        <ele>487.5</ele>
      </trkpt>
      <trkpt lat="43.952944" lon="5.602598">
        <ele>487.3</ele>
      </trkpt>
      <trkpt lat="43.952838" lon="5.602601">
        <ele>486.8</ele>
      </trkpt>
      <trkpt lat="43.952767" lon="5.602574">
        <ele>486.3</ele>
      </trkpt>
      <trkpt lat="43.952717" lon="5.602638">
        <ele>486.2</ele>
      </trkpt>
      <trkpt lat="43.952672" lon="5.602727">
        <ele>486.6</ele>
      </trkpt>
      <trkpt lat="43.952607" lon="5.602925">
        <ele>487.9</ele>
      </trkpt>
      <trkpt lat="43.952530" lon="5.603092">
        <ele>489</ele>
      </trkpt>
      <trkpt lat="43.952414" lon="5.603317">
        <ele>492.7</ele>
      </trkpt>
      <trkpt lat="43.952286" lon="5.603671">
        <ele>498.1</ele>
      </trkpt>
      <trkpt lat="43.952109" lon="5.604331">
        <ele>500.3</ele>
      </trkpt>
      <trkpt lat="43.951877" lon="5.605141">
        <ele>501.9</ele>
      </trkpt>
      <trkpt lat="43.951807" lon="5.605302">
        <ele>502.5</ele>
      </trkpt>
      <trkpt lat="43.951811" lon="5.605522">
        <ele>503.4</ele>
      </trkpt>
      <trkpt lat="43.951804" lon="5.605806">
        <ele>501.5</ele>
      </trkpt>
      <trkpt lat="43.951649" lon="5.606289">
        <ele>504</ele>
      </trkpt>
      <trkpt lat="43.951375" lon="5.606906">
        <ele>505.1</ele>
      </trkpt>
      <trkpt lat="43.951267" lon="5.607255">
        <ele>505.4</ele>
      </trkpt>
      <trkpt lat="43.951170" lon="5.607759">
        <ele>506.4</ele>
      </trkpt>
      <trkpt lat="43.951016" lon="5.608515">
        <ele>505.4</ele>
      </trkpt>
      <trkpt lat="43.951081" lon="5.608708">
        <ele>506.6</ele>
      </trkpt>
      <trkpt lat="43.951193" lon="5.609250">
        <ele>505.2</ele>
      </trkpt>
      <trkpt lat="43.951425" lon="5.610269">
        <ele>505.5</ele>
      </trkpt>
      <trkpt lat="43.951506" lon="5.610425">
        <ele>505.7</ele>
      </trkpt>
      <trkpt lat="43.951811" lon="5.610645">
        <ele>511.6</ele>
      </trkpt>
      <trkpt lat="43.951966" lon="5.610752">
        <ele>512.3</ele>
      </trkpt>
      <trkpt lat="43.952120" lon="5.610827">
        <ele>513.1</ele>
      </trkpt>
      <trkpt lat="43.952344" lon="5.610875">
        <ele>513.7</ele>
      </trkpt>
      <trkpt lat="43.952839" lon="5.610682">
        <ele>518</ele>
      </trkpt>
      <trkpt lat="43.953306" lon="5.610623">
        <ele>518.4</ele>
      </trkpt>
      <trkpt lat="43.954188" lon="5.610348">
        <ele>525.4</ele>
      </trkpt>
      <trkpt lat="43.954334" lon="5.610303">
        <ele>525.8</ele>
      </trkpt>
      <trkpt lat="43.954407" lon="5.610280">
        <ele>525.9</ele>
      </trkpt>
      <trkpt lat="43.955418" lon="5.609939">
        <ele>534.6</ele>
      </trkpt>
      <trkpt lat="43.955693" lon="5.609846">
        <ele>534.4</ele>
      </trkpt>
      <trkpt lat="43.956098" lon="5.609534">
        <ele>536.4</ele>
      </trkpt>
      <trkpt lat="43.956546" lon="5.609073">
        <ele>541.1</ele>
      </trkpt>
      <trkpt lat="43.956731" lon="5.609041">
        <ele>540.6</ele>
      </trkpt>
      <trkpt lat="43.956859" lon="5.609062">
        <ele>541.1</ele>
      </trkpt>
      <trkpt lat="43.957253" lon="5.609341">
        <ele>539.6</ele>
      </trkpt>
      <trkpt lat="43.957469" lon="5.609406">
        <ele>539.9</ele>
      </trkpt>
      <trkpt lat="43.958237" lon="5.609357">
        <ele>543.3</ele>
      </trkpt>
      <trkpt lat="43.958423" lon="5.609438">
        <ele>544.8</ele>
      </trkpt>
      <trkpt lat="43.958705" lon="5.609738">
        <ele>544.6</ele>
      </trkpt>
      <trkpt lat="43.959350" lon="5.610706">
        <ele>544.6</ele>
      </trkpt>
      <trkpt lat="43.959900" lon="5.611530">
        <ele>543.3</ele>
      </trkpt>
      <trkpt lat="43.959921" lon="5.611562">
        <ele>543.2</ele>
      </trkpt>
      <trkpt lat="43.960079" lon="5.611696">
        <ele>543.4</ele>
      </trkpt>
      <trkpt lat="43.960442" lon="5.611798">
        <ele>544.2</ele>
      </trkpt>
      <trkpt lat="43.960743" lon="5.611836">
        <ele>544.6</ele>
      </trkpt>
      <trkpt lat="43.960875" lon="5.611492">
        <ele>545.2</ele>
      </trkpt>
      <trkpt lat="43.961354" lon="5.610107">
        <ele>543.5</ele>
      </trkpt>
      <trkpt lat="43.961547" lon="5.609550">
        <ele>543</ele>
      </trkpt>
      <trkpt lat="43.961987" lon="5.608317">
        <ele>536.2</ele>
      </trkpt>
      <trkpt lat="43.962353" lon="5.607517">
        <ele>528.8</ele>
      </trkpt>
      <trkpt lat="43.962473" lon="5.607432">
        <ele>524.2</ele>
      </trkpt>
      <trkpt lat="43.962565" lon="5.607394">
        <ele>519.7</ele>
      </trkpt>
      <trkpt lat="43.962686" lon="5.607415">
        <ele>517.9</ele>
      </trkpt>
      <trkpt lat="43.962890" lon="5.607448">
        <ele>515.5</ele>
      </trkpt>
      <trkpt lat="43.963041" lon="5.607523">
        <ele>522.8</ele>
      </trkpt>
      <trkpt lat="43.963446" lon="5.607700">
        <ele>515.8</ele>
      </trkpt>
      <trkpt lat="43.963643" lon="5.607748">
        <ele>515.2</ele>
      </trkpt>
      <trkpt lat="43.963944" lon="5.607635">
        <ele>511.3</ele>
      </trkpt>
      <trkpt lat="43.964037" lon="5.607517">
        <ele>508.5</ele>
      </trkpt>
      <trkpt lat="43.964276" lon="5.607013">
        <ele>503.8</ele>
      </trkpt>
      <trkpt lat="43.964358" lon="5.606868">
        <ele>503.7</ele>
      </trkpt>
      <trkpt lat="43.964292" lon="5.606777">
        <ele>503.5</ele>
      </trkpt>
      <trkpt lat="43.964265" lon="5.606627">
        <ele>505.1</ele>
      </trkpt>
      <trkpt lat="43.964342" lon="5.606605">
        <ele>506.2</ele>
      </trkpt>
      <trkpt lat="43.964396" lon="5.606477">
        <ele>507.4</ele>
      </trkpt>
      <trkpt lat="43.964454" lon="5.606348">
        <ele>508.6</ele>
      </trkpt>
      <trkpt lat="43.964578" lon="5.606310">
        <ele>509.3</ele>
      </trkpt>
      <trkpt lat="43.964690" lon="5.606251">
        <ele>510.2</ele>
      </trkpt>
      <trkpt lat="43.964921" lon="5.606305">
        <ele>510.3</ele>
      </trkpt>
      <trkpt lat="43.965130" lon="5.606600">
        <ele>511.4</ele>
      </trkpt>
      <trkpt lat="43.965288" lon="5.606841">
        <ele>507</ele>
      </trkpt>
      <trkpt lat="43.965443" lon="5.607174">
        <ele>506.7</ele>
      </trkpt>
      <trkpt lat="43.965983" lon="5.607496">
        <ele>507.7</ele>
      </trkpt>
      <trkpt lat="43.966481" lon="5.607641">
        <ele>507.1</ele>
      </trkpt>
      <trkpt lat="43.966647" lon="5.607609">
        <ele>507.5</ele>
      </trkpt>
      <trkpt lat="43.966829" lon="5.607641">
        <ele>510.1</ele>
      </trkpt>
      <trkpt lat="43.966933" lon="5.607523">
        <ele>510.7</ele>
      </trkpt>
      <trkpt lat="43.967165" lon="5.607759">
        <ele>512</ele>
      </trkpt>
      <trkpt lat="43.967319" lon="5.607775">
        <ele>512.8</ele>
      </trkpt>
      <trkpt lat="43.967512" lon="5.607914">
        <ele>515.5</ele>
      </trkpt>
      <trkpt lat="43.967789" lon="5.607802">
        <ele>516.5</ele>
      </trkpt>
      <trkpt lat="43.968018" lon="5.607651">
        <ele>518.4</ele>
      </trkpt>
      <trkpt lat="43.968122" lon="5.607716">
        <ele>518.6</ele>
      </trkpt>
      <trkpt lat="43.968246" lon="5.607861">
        <ele>517.3</ele>
      </trkpt>
      <trkpt lat="43.968381" lon="5.607973">
        <ele>519.5</ele>
      </trkpt>
      <trkpt lat="43.968431" lon="5.608268">
        <ele>513.9</ele>
      </trkpt>
      <trkpt lat="43.968470" lon="5.608537">
        <ele>512.4</ele>
      </trkpt>
      <trkpt lat="43.968717" lon="5.608730">
        <ele>513.9</ele>
      </trkpt>
      <trkpt lat="43.968929" lon="5.608805">
        <ele>514.4</ele>
      </trkpt>
      <trkpt lat="43.969053" lon="5.608987">
        <ele>513.9</ele>
      </trkpt>
      <trkpt lat="43.969087" lon="5.609137">
        <ele>513.4</ele>
      </trkpt>
      <trkpt lat="43.969103" lon="5.609293">
        <ele>514.1</ele>
      </trkpt>
      <trkpt lat="43.969087" lon="5.609341">
        <ele>514.4</ele>
      </trkpt>
      <trkpt lat="43.969145" lon="5.609416">
        <ele>514.6</ele>
      </trkpt>
      <trkpt lat="43.969107" lon="5.609556">
        <ele>515.1</ele>
      </trkpt>
      <trkpt lat="43.969018" lon="5.609744">
        <ele>515.5</ele>
      </trkpt>
      <trkpt lat="43.968894" lon="5.609808">
        <ele>515.8</ele>
      </trkpt>
      <trkpt lat="43.968778" lon="5.609905">
        <ele>516.4</ele>
      </trkpt>
      <trkpt lat="43.968624" lon="5.609942">
        <ele>517.3</ele>
      </trkpt>
      <trkpt lat="43.968512" lon="5.609980">
        <ele>518.3</ele>
      </trkpt>
      <trkpt lat="43.968458" lon="5.610071">
        <ele>522.8</ele>
      </trkpt>
      <trkpt lat="43.968906" lon="5.610361">
        <ele>524</ele>
      </trkpt>
      <trkpt lat="43.969268" lon="5.610666">
        <ele>522.7</ele>
      </trkpt>
      <trkpt lat="43.969609" lon="5.611004">
        <ele>524.9</ele>
      </trkpt>
      <trkpt lat="43.969693" lon="5.611171">
        <ele>525</ele>
      </trkpt>
      <trkpt lat="43.969968" lon="5.611686">
        <ele>524</ele>
      </trkpt>
      <trkpt lat="43.970435" lon="5.612356">
        <ele>523.9</ele>
      </trkpt>
      <trkpt lat="43.970771" lon="5.612785">
        <ele>528.9</ele>
      </trkpt>
      <trkpt lat="43.970898" lon="5.612946">
        <ele>524.1</ele>
      </trkpt>
      <trkpt lat="43.971168" lon="5.613129">
        <ele>524.3</ele>
      </trkpt>
      <trkpt lat="43.971265" lon="5.613214">
        <ele>523.9</ele>
      </trkpt>
      <trkpt lat="43.971508" lon="5.613268">
        <ele>522.9</ele>
      </trkpt>
      <trkpt lat="43.971913" lon="5.613370">
        <ele>525.7</ele>
      </trkpt>
      <trkpt lat="43.972299" lon="5.613424">
        <ele>524.2</ele>
      </trkpt>
      <trkpt lat="43.972940" lon="5.613284">
        <ele>519.7</ele>
      </trkpt>
      <trkpt lat="43.973056" lon="5.613247">
        <ele>520</ele>
      </trkpt>
      <trkpt lat="43.973253" lon="5.613021">
        <ele>520.1</ele>
      </trkpt>
      <trkpt lat="43.973392" lon="5.612968">
        <ele>521.2</ele>
      </trkpt>
      <trkpt lat="43.974025" lon="5.613075">
        <ele>521.2</ele>
      </trkpt>
      <trkpt lat="43.974230" lon="5.613005">
        <ele>522.4</ele>
      </trkpt>
      <trkpt lat="43.974411" lon="5.613016">
        <ele>522.6</ele>
      </trkpt>
      <trkpt lat="43.974685" lon="5.613107">
        <ele>523.3</ele>
      </trkpt>
      <trkpt lat="43.975156" lon="5.613053">
        <ele>525.1</ele>
      </trkpt>
      <trkpt lat="43.975430" lon="5.612839">
        <ele>525.2</ele>
      </trkpt>
      <trkpt lat="43.975542" lon="5.612576">
        <ele>525.1</ele>
      </trkpt>
      <trkpt lat="43.975627" lon="5.612383">
        <ele>524.8</ele>
      </trkpt>
      <trkpt lat="43.975940" lon="5.612292">
        <ele>525.5</ele>
      </trkpt>
      <trkpt lat="43.976249" lon="5.612437">
        <ele>525.6</ele>
      </trkpt>
      <trkpt lat="43.976507" lon="5.612528">
        <ele>525.8</ele>
      </trkpt>
      <trkpt lat="43.976781" lon="5.612538">
        <ele>526</ele>
      </trkpt>
      <trkpt lat="43.977206" lon="5.612710">
        <ele>527.2</ele>
      </trkpt>
      <trkpt lat="43.977380" lon="5.612737">
        <ele>527.2</ele>
      </trkpt>
      <trkpt lat="43.977824" lon="5.612576">
        <ele>527.7</ele>
      </trkpt>
      <trkpt lat="43.978538" lon="5.612571">
        <ele>529.1</ele>
      </trkpt>
      <trkpt lat="43.978939" lon="5.612608">
        <ele>531.3</ele>
      </trkpt>
      <trkpt lat="43.979198" lon="5.612689">
        <ele>532.4</ele>
      </trkpt>
      <trkpt lat="43.979295" lon="5.612812">
        <ele>531.7</ele>
      </trkpt>
      <trkpt lat="43.979356" lon="5.613070">
        <ele>530.8</ele>
      </trkpt>
      <trkpt lat="43.979642" lon="5.613225">
        <ele>530.9</ele>
      </trkpt>
      <trkpt lat="43.980059" lon="5.613434">
        <ele>532.1</ele>
      </trkpt>
      <trkpt lat="43.980877" lon="5.613617">
        <ele>536.5</ele>
      </trkpt>
      <trkpt lat="43.981217" lon="5.613633">
        <ele>537.5</ele>
      </trkpt>
      <trkpt lat="43.981993" lon="5.613987">
        <ele>540.9</ele>
      </trkpt>
      <trkpt lat="43.982201" lon="5.614008">
        <ele>541.3</ele>
      </trkpt>
      <trkpt lat="43.982622" lon="5.614244">
        <ele>542.2</ele>
      </trkpt>
      <trkpt lat="43.982769" lon="5.614266">
        <ele>543.1</ele>
      </trkpt>
      <trkpt lat="43.982873" lon="5.614116">
        <ele>546.1</ele>
      </trkpt>
      <trkpt lat="43.982838" lon="5.613949">
        <ele>546.3</ele>
      </trkpt>
      <trkpt lat="43.982745" lon="5.613542">
        <ele>546.8</ele>
      </trkpt>
      <trkpt lat="43.982637" lon="5.613107">
        <ele>547.9</ele>
      </trkpt>
      <trkpt lat="43.982637" lon="5.612833">
        <ele>548.1</ele>
      </trkpt>
      <trkpt lat="43.982684" lon="5.612635">
        <ele>547.6</ele>
      </trkpt>
      <trkpt lat="43.983020" lon="5.611932">
        <ele>550</ele>
      </trkpt>
      <trkpt lat="43.983352" lon="5.610752">
        <ele>557.9</ele>
      </trkpt>
      <trkpt lat="43.983398" lon="5.610334">
        <ele>568.6</ele>
      </trkpt>
      <trkpt lat="43.983175" lon="5.609947">
        <ele>566.2</ele>
      </trkpt>
      <trkpt lat="43.982634" lon="5.609250">
        <ele>564.3</ele>
      </trkpt>
      <trkpt lat="43.982534" lon="5.609014">
        <ele>566.5</ele>
      </trkpt>
      <trkpt lat="43.982449" lon="5.608703">
        <ele>570</ele>
      </trkpt>
      <trkpt lat="43.982441" lon="5.608209">
        <ele>566.3</ele>
      </trkpt>
      <trkpt lat="43.982356" lon="5.607845">
        <ele>568.1</ele>
      </trkpt>
      <trkpt lat="43.981909" lon="5.606862">
        <ele>563.7</ele>
      </trkpt>
      <trkpt lat="43.981638" lon="5.606267">
        <ele>566.8</ele>
      </trkpt>
      <trkpt lat="43.981330" lon="5.605484">
        <ele>568.1</ele>
      </trkpt>
      <trkpt lat="43.981121" lon="5.604883">
        <ele>569.5</ele>
      </trkpt>
      <trkpt lat="43.981055" lon="5.604615">
        <ele>569.4</ele>
      </trkpt>
      <trkpt lat="43.980974" lon="5.604476">
        <ele>568.7</ele>
      </trkpt>
      <trkpt lat="43.980869" lon="5.604208">
        <ele>564.6</ele>
      </trkpt>
      <trkpt lat="43.980746" lon="5.604063">
        <ele>568.5</ele>
      </trkpt>
      <trkpt lat="43.980638" lon="5.603789">
        <ele>573.1</ele>
      </trkpt>
      <trkpt lat="43.980557" lon="5.603424">
        <ele>573.6</ele>
      </trkpt>
      <trkpt lat="43.980263" lon="5.602555">
        <ele>576.6</ele>
      </trkpt>
      <trkpt lat="43.980206" lon="5.602453">
        <ele>577</ele>
      </trkpt>
      <trkpt lat="43.980070" lon="5.602298">
        <ele>577.6</ele>
      </trkpt>
      <trkpt lat="43.979885" lon="5.602030">
        <ele>584.8</ele>
      </trkpt>
      <trkpt lat="43.979808" lon="5.601847">
        <ele>584.5</ele>
      </trkpt>
      <trkpt lat="43.979642" lon="5.601686">
        <ele>585.5</ele>
      </trkpt>
      <trkpt lat="43.979480" lon="5.601472">
        <ele>587.9</ele>
      </trkpt>
      <trkpt lat="43.979406" lon="5.601391">
        <ele>588.4</ele>
      </trkpt>
      <trkpt lat="43.979352" lon="5.601321">
        <ele>588.7</ele>
      </trkpt>
      <trkpt lat="43.979298" lon="5.601279">
        <ele>589</ele>
      </trkpt>
      <trkpt lat="43.978966" lon="5.601279">
        <ele>591.9</ele>
      </trkpt>
      <trkpt lat="43.978762" lon="5.601321">
        <ele>592.1</ele>
      </trkpt>
      <trkpt lat="43.978623" lon="5.601348">
        <ele>592.3</ele>
      </trkpt>
      <trkpt lat="43.978549" lon="5.601300">
        <ele>592.5</ele>
      </trkpt>
      <trkpt lat="43.978507" lon="5.601182">
        <ele>592.7</ele>
      </trkpt>
      <trkpt lat="43.978511" lon="5.601069">
        <ele>592.9</ele>
      </trkpt>
      <trkpt lat="43.978580" lon="5.600978">
        <ele>592.9</ele>
      </trkpt>
      <trkpt lat="43.978658" lon="5.600962">
        <ele>592.8</ele>
      </trkpt>
      <trkpt lat="43.979213" lon="5.600962">
        <ele>591.1</ele>
      </trkpt>
      <trkpt lat="43.979360" lon="5.600930">
        <ele>590.4</ele>
      </trkpt>
      <trkpt lat="43.979708" lon="5.600769">
        <ele>594.1</ele>
      </trkpt>
      <trkpt lat="43.979819" lon="5.600774">
        <ele>593.3</ele>
      </trkpt>
      <trkpt lat="43.980005" lon="5.600908">
        <ele>588</ele>
      </trkpt>
      <trkpt lat="43.980128" lon="5.600957">
        <ele>586.1</ele>
      </trkpt>
      <trkpt lat="43.980298" lon="5.600924">
        <ele>584.9</ele>
      </trkpt>
      <trkpt lat="43.980711" lon="5.600640">
        <ele>592.7</ele>
      </trkpt>
      <trkpt lat="43.980804" lon="5.600485">
        <ele>594.5</ele>
      </trkpt>
      <trkpt lat="43.980835" lon="5.600340">
        <ele>594.6</ele>
      </trkpt>
      <trkpt lat="43.980804" lon="5.600179">
        <ele>598.4</ele>
      </trkpt>
      <trkpt lat="43.980576" lon="5.600039">
        <ele>598.3</ele>
      </trkpt>
      <trkpt lat="43.979694" lon="5.599575">
        <ele>604.7</ele>
      </trkpt>
      <trkpt lat="43.979557" lon="5.599503">
        <ele>604.8</ele>
      </trkpt>
      <trkpt lat="43.979626" lon="5.599321">
        <ele>605.6</ele>
      </trkpt>
      <trkpt lat="43.979796" lon="5.598924">
        <ele>610.4</ele>
      </trkpt>
      <trkpt lat="43.979827" lon="5.598714">
        <ele>611.3</ele>
      </trkpt>
      <trkpt lat="43.979781" lon="5.598462">
        <ele>612.3</ele>
      </trkpt>
      <trkpt lat="43.979673" lon="5.598183">
        <ele>615.6</ele>
      </trkpt>
      <trkpt lat="43.979584" lon="5.597969">
        <ele>616.1</ele>
      </trkpt>
      <trkpt lat="43.979445" lon="5.597572">
        <ele>617.7</ele>
      </trkpt>
      <trkpt lat="43.979364" lon="5.597228">
        <ele>621.7</ele>
      </trkpt>
      <trkpt lat="43.979484" lon="5.597121">
        <ele>621.6</ele>
      </trkpt>
      <trkpt lat="43.979777" lon="5.596198">
        <ele>622</ele>
      </trkpt>
      <trkpt lat="43.979866" lon="5.595812">
        <ele>617.1</ele>
      </trkpt>
      <trkpt lat="43.979897" lon="5.595394">
        <ele>619</ele>
      </trkpt>
      <trkpt lat="43.979901" lon="5.595254">
        <ele>617.8</ele>
      </trkpt>
      <trkpt lat="43.979874" lon="5.593972">
        <ele>610.9</ele>
      </trkpt>
      <trkpt lat="43.979833" lon="5.592794">
        <ele>610.1</ele>
      </trkpt>
      <trkpt lat="43.979827" lon="5.592631">
        <ele>610</ele>
      </trkpt>
      <trkpt lat="43.979912" lon="5.592631">
        <ele>609.7</ele>
      </trkpt>
      <trkpt lat="43.980117" lon="5.592846">
        <ele>608.8</ele>
      </trkpt>
      <trkpt lat="43.980229" lon="5.593001">
        <ele>608.6</ele>
      </trkpt>
      <trkpt lat="43.980491" lon="5.593210">
        <ele>608.1</ele>
      </trkpt>
      <trkpt lat="43.980595" lon="5.593323">
        <ele>607.7</ele>
      </trkpt>
      <trkpt lat="43.980815" lon="5.593699">
        <ele>605.9</ele>
      </trkpt>
      <trkpt lat="43.980958" lon="5.593774">
        <ele>606.2</ele>
      </trkpt>
      <trkpt lat="43.981001" lon="5.593822">
        <ele>606.1</ele>
      </trkpt>
      <trkpt lat="43.981487" lon="5.593414">
        <ele>609.2</ele>
      </trkpt>
      <trkpt lat="43.982136" lon="5.592910">
        <ele>617.2</ele>
      </trkpt>
      <trkpt lat="43.982904" lon="5.592513">
        <ele>622.1</ele>
      </trkpt>
      <trkpt lat="43.983409" lon="5.592443">
        <ele>626.8</ele>
      </trkpt>
      <trkpt lat="43.983761" lon="5.592481">
        <ele>629.6</ele>
      </trkpt>
      <trkpt lat="43.983811" lon="5.592470">
        <ele>629.9</ele>
      </trkpt>
      <trkpt lat="43.984058" lon="5.592293">
        <ele>630.8</ele>
      </trkpt>
      <trkpt lat="43.984170" lon="5.592245">
        <ele>633.8</ele>
      </trkpt>
      <trkpt lat="43.984587" lon="5.592068">
        <ele>635.5</ele>
      </trkpt>
      <trkpt lat="43.984922" lon="5.591977">
        <ele>636.6</ele>
      </trkpt>
      <trkpt lat="43.985359" lon="5.591751">
        <ele>640</ele>
      </trkpt>
      <trkpt lat="43.985463" lon="5.590990">
        <ele>642.7</ele>
      </trkpt>
      <trkpt lat="43.985648" lon="5.590222">
        <ele>641.6</ele>
      </trkpt>
      <trkpt lat="43.985679" lon="5.590040">
        <ele>640.4</ele>
      </trkpt>
      <trkpt lat="43.985629" lon="5.589960">
        <ele>638.7</ele>
      </trkpt>
      <trkpt lat="43.985571" lon="5.589836">
        <ele>638.9</ele>
      </trkpt>
      <trkpt lat="43.985142" lon="5.589257">
        <ele>641.3</ele>
      </trkpt>
      <trkpt lat="43.984919" lon="5.588951">
        <ele>644.5</ele>
      </trkpt>
      <trkpt lat="43.984830" lon="5.588801">
        <ele>644.5</ele>
      </trkpt>
      <trkpt lat="43.984683" lon="5.588538">
        <ele>644.3</ele>
      </trkpt>
      <trkpt lat="43.984405" lon="5.588243">
        <ele>642.6</ele>
      </trkpt>
      <trkpt lat="43.984154" lon="5.588098">
        <ele>648.3</ele>
      </trkpt>
      <trkpt lat="43.983919" lon="5.587867">
        <ele>647.2</ele>
      </trkpt>
      <trkpt lat="43.983710" lon="5.587594">
        <ele>647.7</ele>
      </trkpt>
      <trkpt lat="43.983483" lon="5.587261">
        <ele>644.9</ele>
      </trkpt>
      <trkpt lat="43.983328" lon="5.586998">
        <ele>650.1</ele>
      </trkpt>
      <trkpt lat="43.983259" lon="5.586821">
        <ele>648.8</ele>
      </trkpt>
      <trkpt lat="43.982691" lon="5.586076">
        <ele>647.1</ele>
      </trkpt>
      <trkpt lat="43.982564" lon="5.585834">
        <ele>649</ele>
      </trkpt>
      <trkpt lat="43.982383" lon="5.585690">
        <ele>647.9</ele>
      </trkpt>
      <trkpt lat="43.982271" lon="5.585518">
        <ele>646.6</ele>
      </trkpt>
      <trkpt lat="43.982132" lon="5.585373">
        <ele>646</ele>
      </trkpt>
      <trkpt lat="43.981753" lon="5.585169">
        <ele>647.2</ele>
      </trkpt>
      <trkpt lat="43.981514" lon="5.584976">
        <ele>646.8</ele>
      </trkpt>
      <trkpt lat="43.980885" lon="5.584466">
        <ele>645.9</ele>
      </trkpt>
      <trkpt lat="43.980688" lon="5.584300">
        <ele>648.2</ele>
      </trkpt>
      <trkpt lat="43.980537" lon="5.584166">
        <ele>645.1</ele>
      </trkpt>
      <trkpt lat="43.980456" lon="5.584048">
        <ele>645</ele>
      </trkpt>
      <trkpt lat="43.980310" lon="5.583946">
        <ele>645.3</ele>
      </trkpt>
      <trkpt lat="43.980206" lon="5.583909">
        <ele>645.6</ele>
      </trkpt>
      <trkpt lat="43.980090" lon="5.583909">
        <ele>646.2</ele>
      </trkpt>
      <trkpt lat="43.979970" lon="5.583946">
        <ele>647.9</ele>
      </trkpt>
      <trkpt lat="43.979816" lon="5.583989">
        <ele>647.6</ele>
      </trkpt>
      <trkpt lat="43.979565" lon="5.583866">
        <ele>645.9</ele>
      </trkpt>
      <trkpt lat="43.979410" lon="5.583812">
        <ele>645.4</ele>
      </trkpt>
      <trkpt lat="43.979325" lon="5.583742">
        <ele>644.8</ele>
      </trkpt>
      <trkpt lat="43.978631" lon="5.583313">
        <ele>640.5</ele>
      </trkpt>
      <trkpt lat="43.977777" lon="5.582192">
        <ele>636.7</ele>
      </trkpt>
      <trkpt lat="43.977306" lon="5.581752">
        <ele>638</ele>
      </trkpt>
      <trkpt lat="43.976420" lon="5.580964">
        <ele>634.2</ele>
      </trkpt>
      <trkpt lat="43.976222" lon="5.580788">
        <ele>625.9</ele>
      </trkpt>
      <trkpt lat="43.975541" lon="5.580181">
        <ele>629.1</ele>
      </trkpt>
      <trkpt lat="43.975396" lon="5.580052">
        <ele>629.8</ele>
      </trkpt>
      <trkpt lat="43.975237" lon="5.579923">
        <ele>620.3</ele>
      </trkpt>
      <trkpt lat="43.975117" lon="5.579853">
        <ele>621.6</ele>
      </trkpt>
      <trkpt lat="43.975083" lon="5.579751">
        <ele>619.4</ele>
      </trkpt>
      <trkpt lat="43.974952" lon="5.579714">
        <ele>624.7</ele>
      </trkpt>
      <trkpt lat="43.974492" lon="5.579236">
        <ele>620.6</ele>
      </trkpt>
      <trkpt lat="43.974056" lon="5.578914">
        <ele>611.9</ele>
      </trkpt>
      <trkpt lat="43.973817" lon="5.578834">
        <ele>611.1</ele>
      </trkpt>
      <trkpt lat="43.973577" lon="5.578716">
        <ele>610.4</ele>
      </trkpt>
      <trkpt lat="43.973087" lon="5.578566">
        <ele>612.8</ele>
      </trkpt>
      <trkpt lat="43.972913" lon="5.578533">
        <ele>613.6</ele>
      </trkpt>
      <trkpt lat="43.972755" lon="5.578437">
        <ele>612.4</ele>
      </trkpt>
      <trkpt lat="43.972570" lon="5.578292">
        <ele>603.2</ele>
      </trkpt>
      <trkpt lat="43.972477" lon="5.578136">
        <ele>602.2</ele>
      </trkpt>
      <trkpt lat="43.972442" lon="5.577959">
        <ele>599.6</ele>
      </trkpt>
      <trkpt lat="43.972280" lon="5.577739">
        <ele>597</ele>
      </trkpt>
      <trkpt lat="43.972168" lon="5.577552">
        <ele>596</ele>
      </trkpt>
      <trkpt lat="43.972126" lon="5.577418">
        <ele>589.3</ele>
      </trkpt>
      <trkpt lat="43.972126" lon="5.577203">
        <ele>589</ele>
      </trkpt>
      <trkpt lat="43.972187" lon="5.577047">
        <ele>588.6</ele>
      </trkpt>
      <trkpt lat="43.972296" lon="5.576903">
        <ele>588.3</ele>
      </trkpt>
      <trkpt lat="43.972381" lon="5.576651">
        <ele>587.8</ele>
      </trkpt>
      <trkpt lat="43.972411" lon="5.576468">
        <ele>588.4</ele>
      </trkpt>
      <trkpt lat="43.972361" lon="5.576275">
        <ele>589.2</ele>
      </trkpt>
      <trkpt lat="43.971917" lon="5.575781">
        <ele>593</ele>
      </trkpt>
      <trkpt lat="43.971720" lon="5.575503">
        <ele>593.8</ele>
      </trkpt>
      <trkpt lat="43.971605" lon="5.575288">
        <ele>594.1</ele>
      </trkpt>
      <trkpt lat="43.971566" lon="5.575148">
        <ele>595.1</ele>
      </trkpt>
      <trkpt lat="43.971920" lon="5.574058">
        <ele>602.5</ele>
      </trkpt>
      <trkpt lat="43.971967" lon="5.573915">
        <ele>602.6</ele>
      </trkpt>
      <trkpt lat="43.972122" lon="5.573491">
        <ele>603.4</ele>
      </trkpt>
      <trkpt lat="43.972319" lon="5.572933">
        <ele>606.2</ele>
      </trkpt>
      <trkpt lat="43.972446" lon="5.572659">
        <ele>607.5</ele>
      </trkpt>
      <trkpt lat="43.972465" lon="5.572557">
        <ele>608.3</ele>
      </trkpt>
      <trkpt lat="43.972693" lon="5.572182">
        <ele>609.4</ele>
      </trkpt>
      <trkpt lat="43.972813" lon="5.571994">
        <ele>609.6</ele>
      </trkpt>
      <trkpt lat="43.973384" lon="5.571356">
        <ele>612.2</ele>
      </trkpt>
      <trkpt lat="43.973867" lon="5.570868">
        <ele>612.8</ele>
      </trkpt>
      <trkpt lat="43.973998" lon="5.570626">
        <ele>613.8</ele>
      </trkpt>
      <trkpt lat="43.974017" lon="5.570503">
        <ele>613.9</ele>
      </trkpt>
      <trkpt lat="43.974064" lon="5.570439">
        <ele>614</ele>
      </trkpt>
      <trkpt lat="43.974156" lon="5.570363">
        <ele>614.2</ele>
      </trkpt>
      <trkpt lat="43.974346" lon="5.570163">
        <ele>614.7</ele>
      </trkpt>
      <trkpt lat="43.974990" lon="5.569483">
        <ele>618.5</ele>
      </trkpt>
      <trkpt lat="43.975650" lon="5.568786">
        <ele>620.8</ele>
      </trkpt>
      <trkpt lat="43.975786" lon="5.568663">
        <ele>621</ele>
      </trkpt>
      <trkpt lat="43.976149" lon="5.567954">
        <ele>622.5</ele>
      </trkpt>
      <trkpt lat="43.976760" lon="5.566762">
        <ele>625.6</ele>
      </trkpt>
      <trkpt lat="43.976839" lon="5.566608">
        <ele>627.2</ele>
      </trkpt>
      <trkpt lat="43.977106" lon="5.566324">
        <ele>628.3</ele>
      </trkpt>
      <trkpt lat="43.977185" lon="5.566261">
        <ele>628.4</ele>
      </trkpt>
      <trkpt lat="43.978063" lon="5.565562">
        <ele>632.2</ele>
      </trkpt>
      <trkpt lat="43.978430" lon="5.565208">
        <ele>633.9</ele>
      </trkpt>
      <trkpt lat="43.978565" lon="5.565101">
        <ele>633.9</ele>
      </trkpt>
      <trkpt lat="43.978905" lon="5.564618">
        <ele>636.9</ele>
      </trkpt>
      <trkpt lat="43.979001" lon="5.564516">
        <ele>637.2</ele>
      </trkpt>
      <trkpt lat="43.979098" lon="5.564532">
        <ele>637.2</ele>
      </trkpt>
      <trkpt lat="43.979142" lon="5.564519">
        <ele>637.2</ele>
      </trkpt>
      <trkpt lat="43.979223" lon="5.564417">
        <ele>638.6</ele>
      </trkpt>
    </trkseg>
  </trk>
</gpx>