<?xml version="1.0" ?>
<gpx xmlns="http://www.topografix.com/GPX/1/1" xmlns:xsi="http://www.w3.org/2001/XMLSchema-instance" xsi:schemaLocation="http://www.topografix.com/GPX/1/1 http://www.topografix.com/GPX/1/1/gpx.xsd" version="1.1" creator="EditGPX">
  <trk>
    <name>NewTrack</name>
    <trkseg>
      <trkpt lat="43.754280" lon="5.202633">
        <ele>155.6</ele>
      </trkpt>
      <trkpt lat="43.754249" lon="5.202965">
        <ele>156.1</ele>
      </trkpt>
      <trkpt lat="43.754284" lon="5.203003">
        <ele>156.2</ele>
      </trkpt>
      <trkpt lat="43.754757" lon="5.203051">
        <ele>158</ele>
      </trkpt>
      <trkpt lat="43.755218" lon="5.202928">
        <ele>162.8</ele>
      </trkpt>
      <trkpt lat="43.755761" lon="5.202531">
        <ele>166</ele>
      </trkpt>
      <trkpt lat="43.756120" lon="5.202390">
        <ele>167.8</ele>
      </trkpt>
      <trkpt lat="43.756030" lon="5.202010">
        <ele>168</ele>
      </trkpt>
      <trkpt lat="43.756240" lon="5.201250">
        <ele>170.5</ele>
      </trkpt>
      <trkpt lat="43.756280" lon="5.200810">
        <ele>174.8</ele>
      </trkpt>
      <trkpt lat="43.756310" lon="5.200630">
        <ele>175.5</ele>
      </trkpt>
      <trkpt lat="43.756340" lon="5.200400">
        <ele>176.6</ele>
      </trkpt>
      <trkpt lat="43.756380" lon="5.200200">
        <ele>178</ele>
      </trkpt>
      <trkpt lat="43.756410" lon="5.199900">
        <ele>182.4</ele>
      </trkpt>
      <trkpt lat="43.756460" lon="5.199460">
        <ele>183.3</ele>
      </trkpt>
      <trkpt lat="43.756520" lon="5.199210">
        <ele>185.1</ele>
      </trkpt>
      <trkpt lat="43.756540" lon="5.198940">
        <ele>184.8</ele>
      </trkpt>
      <trkpt lat="43.756610" lon="5.198830">
        <ele>184.7</ele>
      </trkpt>
      <trkpt lat="43.756700" lon="5.198470">
        <ele>192.7</ele>
      </trkpt>
      <trkpt lat="43.757010" lon="5.197730">
        <ele>196.7</ele>
      </trkpt>
      <trkpt lat="43.757040" lon="5.197210">
        <ele>194.8</ele>
      </trkpt>
      <trkpt lat="43.757090" lon="5.197110">
        <ele>195.1</ele>
      </trkpt>
      <trkpt lat="43.757390" lon="5.196850">
        <ele>197.8</ele>
      </trkpt>
      <trkpt lat="43.757442" lon="5.196678">
        <ele>199.7</ele>
      </trkpt>
      <trkpt lat="43.757578" lon="5.196410">
        <ele>202.7</ele>
      </trkpt>
      <trkpt lat="43.757682" lon="5.196260">
        <ele>202.6</ele>
      </trkpt>
      <trkpt lat="43.757799" lon="5.196077">
        <ele>202.2</ele>
      </trkpt>
      <trkpt lat="43.758019" lon="5.195879">
        <ele>204</ele>
      </trkpt>
      <trkpt lat="43.758147" lon="5.195407">
        <ele>193.4</ele>
      </trkpt>
      <trkpt lat="43.758344" lon="5.195240">
        <ele>199.6</ele>
      </trkpt>
      <trkpt lat="43.758459" lon="5.195165">
        <ele>199</ele>
      </trkpt>
      <trkpt lat="43.758515" lon="5.195163">
        <ele>199.7</ele>
      </trkpt>
      <trkpt lat="43.759137" lon="5.195297">
        <ele>204.8</ele>
      </trkpt>
      <trkpt lat="43.759344" lon="5.195353">
        <ele>207.6</ele>
      </trkpt>
      <trkpt lat="43.759563" lon="5.195393">
        <ele>207.7</ele>
      </trkpt>
      <trkpt lat="43.759675" lon="5.195369">
        <ele>207.4</ele>
      </trkpt>
      <trkpt lat="43.759794" lon="5.195412">
        <ele>207.4</ele>
      </trkpt>
      <trkpt lat="43.760185" lon="5.195651">
        <ele>201.7</ele>
      </trkpt>
      <trkpt lat="43.760437" lon="5.195809">
        <ele>198.6</ele>
      </trkpt>
      <trkpt lat="43.760501" lon="5.195876">
        <ele>198.8</ele>
      </trkpt>
      <trkpt lat="43.760607" lon="5.196482">
        <ele>197.5</ele>
      </trkpt>
      <trkpt lat="43.760594" lon="5.196796">
        <ele>196.5</ele>
      </trkpt>
      <trkpt lat="43.760594" lon="5.197134">
        <ele>196.5</ele>
      </trkpt>
      <trkpt lat="43.760497" lon="5.197595">
        <ele>196.2</ele>
      </trkpt>
      <trkpt lat="43.760534" lon="5.197780">
        <ele>196.2</ele>
      </trkpt>
      <trkpt lat="43.760576" lon="5.197829">
        <ele>195.7</ele>
      </trkpt>
      <trkpt lat="43.760611" lon="5.197955">
        <ele>195.5</ele>
      </trkpt>
      <trkpt lat="43.760627" lon="5.198094">
        <ele>194.9</ele>
      </trkpt>
      <trkpt lat="43.760588" lon="5.198277">
        <ele>194.6</ele>
      </trkpt>
      <trkpt lat="43.760570" lon="5.198357">
        <ele>198.1</ele>
      </trkpt>
      <trkpt lat="43.760566" lon="5.198456">
        <ele>198.9</ele>
      </trkpt>
      <trkpt lat="43.760578" lon="5.198518">
        <ele>199.3</ele>
      </trkpt>
      <trkpt lat="43.760605" lon="5.198585">
        <ele>199.6</ele>
      </trkpt>
      <trkpt lat="43.760663" lon="5.198612">
        <ele>199.1</ele>
      </trkpt>
      <trkpt lat="43.761033" lon="5.198601">
        <ele>192.7</ele>
      </trkpt>
      <trkpt lat="43.761159" lon="5.198639">
        <ele>193.4</ele>
      </trkpt>
      <trkpt lat="43.761347" lon="5.198792">
        <ele>194.2</ele>
      </trkpt>
      <trkpt lat="43.761461" lon="5.198886">
        <ele>194.3</ele>
      </trkpt>
      <trkpt lat="43.761605" lon="5.198993">
        <ele>194.3</ele>
      </trkpt>
      <trkpt lat="43.761897" lon="5.199052">
        <ele>198.7</ele>
      </trkpt>
      <trkpt lat="43.762139" lon="5.199060">
        <ele>200.8</ele>
      </trkpt>
      <trkpt lat="43.762254" lon="5.199127">
        <ele>201.3</ele>
      </trkpt>
      <trkpt lat="43.762356" lon="5.199245">
        <ele>201.4</ele>
      </trkpt>
      <trkpt lat="43.762385" lon="5.199341">
        <ele>201.5</ele>
      </trkpt>
      <trkpt lat="43.762424" lon="5.199561">
        <ele>201.8</ele>
      </trkpt>
      <trkpt lat="43.762457" lon="5.199669">
        <ele>202.1</ele>
      </trkpt>
      <trkpt lat="43.762506" lon="5.199784">
        <ele>205.2</ele>
      </trkpt>
      <trkpt lat="43.762635" lon="5.199969">
        <ele>205</ele>
      </trkpt>
      <trkpt lat="43.762836" lon="5.200165">
        <ele>209.2</ele>
      </trkpt>
      <trkpt lat="43.763102" lon="5.200339">
        <ele>209.5</ele>
      </trkpt>
      <trkpt lat="43.763185" lon="5.200358">
        <ele>209.3</ele>
      </trkpt>
      <trkpt lat="43.763251" lon="5.200358">
        <ele>209.1</ele>
      </trkpt>
      <trkpt lat="43.763354" lon="5.200286">
        <ele>207.4</ele>
      </trkpt>
      <trkpt lat="43.763612" lon="5.200084">
        <ele>207.3</ele>
      </trkpt>
      <trkpt lat="43.764007" lon="5.199926">
        <ele>207.9</ele>
      </trkpt>
      <trkpt lat="43.764373" lon="5.199527">
        <ele>209.5</ele>
      </trkpt>
      <trkpt lat="43.764425" lon="5.199500">
        <ele>209.5</ele>
      </trkpt>
      <trkpt lat="43.764516" lon="5.199513">
        <ele>209.3</ele>
      </trkpt>
      <trkpt lat="43.764588" lon="5.199529">
        <ele>209.2</ele>
      </trkpt>
      <trkpt lat="43.764665" lon="5.199527">
        <ele>209.1</ele>
      </trkpt>
      <trkpt lat="43.764830" lon="5.199409">
        <ele>208.4</ele>
      </trkpt>
      <trkpt lat="43.764880" lon="5.199390">
        <ele>208.1</ele>
      </trkpt>
      <trkpt lat="43.764958" lon="5.199395">
        <ele>207.9</ele>
      </trkpt>
      <trkpt lat="43.765078" lon="5.199473">
        <ele>211.7</ele>
      </trkpt>
      <trkpt lat="43.765156" lon="5.199489">
        <ele>212.3</ele>
      </trkpt>
      <trkpt lat="43.765221" lon="5.199470">
        <ele>212.5</ele>
      </trkpt>
      <trkpt lat="43.765310" lon="5.199438">
        <ele>213</ele>
      </trkpt>
      <trkpt lat="43.765398" lon="5.199360">
        <ele>213.3</ele>
      </trkpt>
      <trkpt lat="43.765450" lon="5.199250">
        <ele>213.5</ele>
      </trkpt>
      <trkpt lat="43.765454" lon="5.199116">
        <ele>212.1</ele>
      </trkpt>
      <trkpt lat="43.765421" lon="5.198861">
        <ele>212.3</ele>
      </trkpt>
      <trkpt lat="43.765423" lon="5.198714">
        <ele>212.6</ele>
      </trkpt>
      <trkpt lat="43.765465" lon="5.198475">
        <ele>213.1</ele>
      </trkpt>
      <trkpt lat="43.765591" lon="5.198180">
        <ele>217.9</ele>
      </trkpt>
      <trkpt lat="43.765754" lon="5.197925">
        <ele>219.4</ele>
      </trkpt>
      <trkpt lat="43.765901" lon="5.197794">
        <ele>220.2</ele>
      </trkpt>
      <trkpt lat="43.766016" lon="5.197716">
        <ele>220.5</ele>
      </trkpt>
      <trkpt lat="43.766386" lon="5.197619">
        <ele>219.5</ele>
      </trkpt>
      <trkpt lat="43.766639" lon="5.197569">
        <ele>218</ele>
      </trkpt>
      <trkpt lat="43.766767" lon="5.197453">
        <ele>218.5</ele>
      </trkpt>
      <trkpt lat="43.767000" lon="5.197158">
        <ele>220.8</ele>
      </trkpt>
      <trkpt lat="43.767294" lon="5.196691">
        <ele>221.2</ele>
      </trkpt>
      <trkpt lat="43.767428" lon="5.196539">
        <ele>223.6</ele>
      </trkpt>
      <trkpt lat="43.768096" lon="5.196195">
        <ele>228.2</ele>
      </trkpt>
      <trkpt lat="43.768613" lon="5.195825">
        <ele>234.4</ele>
      </trkpt>
      <trkpt lat="43.769103" lon="5.195543">
        <ele>236</ele>
      </trkpt>
      <trkpt lat="43.769330" lon="5.195468">
        <ele>235.4</ele>
      </trkpt>
      <trkpt lat="43.769442" lon="5.195444">
        <ele>235.5</ele>
      </trkpt>
      <trkpt lat="43.769731" lon="5.195490">
        <ele>235.5</ele>
      </trkpt>
      <trkpt lat="43.769870" lon="5.195490">
        <ele>235.5</ele>
      </trkpt>
      <trkpt lat="43.769977" lon="5.195409">
        <ele>235.3</ele>
      </trkpt>
      <trkpt lat="43.770085" lon="5.195208">
        <ele>237</ele>
      </trkpt>
      <trkpt lat="43.770130" lon="5.195047">
        <ele>236.1</ele>
      </trkpt>
      <trkpt lat="43.770126" lon="5.194851">
        <ele>238.1</ele>
      </trkpt>
      <trkpt lat="43.770089" lon="5.194602">
        <ele>240.1</ele>
      </trkpt>
      <trkpt lat="43.770050" lon="5.194412">
        <ele>240.4</ele>
      </trkpt>
      <trkpt lat="43.770054" lon="5.194339">
        <ele>240.3</ele>
      </trkpt>
      <trkpt lat="43.770077" lon="5.194264">
        <ele>240.1</ele>
      </trkpt>
      <trkpt lat="43.770110" lon="5.194210">
        <ele>240.2</ele>
      </trkpt>
      <trkpt lat="43.770316" lon="5.194001">
        <ele>243.5</ele>
      </trkpt>
      <trkpt lat="43.770397" lon="5.193883">
        <ele>244.1</ele>
      </trkpt>
      <trkpt lat="43.770465" lon="5.193666">
        <ele>244.3</ele>
      </trkpt>
      <trkpt lat="43.770471" lon="5.193400">
        <ele>244.2</ele>
      </trkpt>
      <trkpt lat="43.770552" lon="5.193186">
        <ele>245.9</ele>
      </trkpt>
      <trkpt lat="43.770707" lon="5.193049">
        <ele>245.5</ele>
      </trkpt>
      <trkpt lat="43.770759" lon="5.192950">
        <ele>245.8</ele>
      </trkpt>
      <trkpt lat="43.770930" lon="5.192590">
        <ele>245.5</ele>
      </trkpt>
      <trkpt lat="43.771055" lon="5.192502">
        <ele>246.2</ele>
      </trkpt>
      <trkpt lat="43.771179" lon="5.192443">
        <ele>249.6</ele>
      </trkpt>
      <trkpt lat="43.771344" lon="5.192322">
        <ele>250.4</ele>
      </trkpt>
      <trkpt lat="43.771513" lon="5.192228">
        <ele>250.6</ele>
      </trkpt>
      <trkpt lat="43.771667" lon="5.192172">
        <ele>250.1</ele>
      </trkpt>
      <trkpt lat="43.771859" lon="5.192008">
        <ele>250.5</ele>
      </trkpt>
      <trkpt lat="43.771927" lon="5.191992">
        <ele>250.5</ele>
      </trkpt>
      <trkpt lat="43.772012" lon="5.192000">
        <ele>250.4</ele>
      </trkpt>
      <trkpt lat="43.772148" lon="5.192070">
        <ele>250.5</ele>
      </trkpt>
      <trkpt lat="43.772221" lon="5.192089">
        <ele>250.6</ele>
      </trkpt>
      <trkpt lat="43.772316" lon="5.192094">
        <ele>250.7</ele>
      </trkpt>
      <trkpt lat="43.772675" lon="5.191947">
        <ele>252</ele>
      </trkpt>
      <trkpt lat="43.772744" lon="5.191936">
        <ele>252.3</ele>
      </trkpt>
      <trkpt lat="43.773083" lon="5.192108">
        <ele>254</ele>
      </trkpt>
      <trkpt lat="43.773260" lon="5.192169">
        <ele>254.6</ele>
      </trkpt>
      <trkpt lat="43.773531" lon="5.192204">
        <ele>256.9</ele>
      </trkpt>
      <trkpt lat="43.773680" lon="5.192207">
        <ele>257.1</ele>
      </trkpt>
      <trkpt lat="43.773734" lon="5.192185">
        <ele>257.1</ele>
      </trkpt>
      <trkpt lat="43.773856" lon="5.191759">
        <ele>256.8</ele>
      </trkpt>
      <trkpt lat="43.773928" lon="5.191437">
        <ele>258.2</ele>
      </trkpt>
      <trkpt lat="43.773974" lon="5.191303">
        <ele>258.5</ele>
      </trkpt>
      <trkpt lat="43.774019" lon="5.191252">
        <ele>258.7</ele>
      </trkpt>
      <trkpt lat="43.774377" lon="5.191161">
        <ele>257.9</ele>
      </trkpt>
      <trkpt lat="43.774447" lon="5.191104">
        <ele>257.9</ele>
      </trkpt>
      <trkpt lat="43.774487" lon="5.191104">
        <ele>257.8</ele>
      </trkpt>
      <trkpt lat="43.774553" lon="5.191129">
        <ele>257.6</ele>
      </trkpt>
      <trkpt lat="43.774584" lon="5.191121">
        <ele>257.6</ele>
      </trkpt>
      <trkpt lat="43.774640" lon="5.191140">
        <ele>257.5</ele>
      </trkpt>
      <trkpt lat="43.774762" lon="5.191410">
        <ele>257.3</ele>
      </trkpt>
      <trkpt lat="43.775084" lon="5.191464">
        <ele>258.4</ele>
      </trkpt>
      <trkpt lat="43.775290" lon="5.191610">
        <ele>259.1</ele>
      </trkpt>
      <trkpt lat="43.775440" lon="5.191720">
        <ele>261.9</ele>
      </trkpt>
      <trkpt lat="43.775650" lon="5.191930">
        <ele>262.9</ele>
      </trkpt>
      <trkpt lat="43.775890" lon="5.192090">
        <ele>272.1</ele>
      </trkpt>
      <trkpt lat="43.775970" lon="5.192360">
        <ele>271.4</ele>
      </trkpt>
      <trkpt lat="43.776029" lon="5.192596">
        <ele>272.7</ele>
      </trkpt>
      <trkpt lat="43.775990" lon="5.192687">
        <ele>273</ele>
      </trkpt>
      <trkpt lat="43.775930" lon="5.192740">
        <ele>272.9</ele>
      </trkpt>
      <trkpt lat="43.775700" lon="5.192850">
        <ele>268.1</ele>
      </trkpt>
      <trkpt lat="43.775480" lon="5.192860">
        <ele>267.9</ele>
      </trkpt>
      <trkpt lat="43.775250" lon="5.192850">
        <ele>267.4</ele>
      </trkpt>
      <trkpt lat="43.775060" lon="5.192850">
        <ele>267</ele>
      </trkpt>
      <trkpt lat="43.774960" lon="5.192870">
        <ele>264.8</ele>
      </trkpt>
      <trkpt lat="43.774750" lon="5.193010">
        <ele>265.1</ele>
      </trkpt>
      <trkpt lat="43.774450" lon="5.193410">
        <ele>267.3</ele>
      </trkpt>
      <trkpt lat="43.773870" lon="5.193810">
        <ele>265.4</ele>
      </trkpt>
      <trkpt lat="43.773433" lon="5.194119">
        <ele>267</ele>
      </trkpt>
      <trkpt lat="43.773130" lon="5.194180">
        <ele>270.5</ele>
      </trkpt>
      <trkpt lat="43.773070" lon="5.194590">
        <ele>271.1</ele>
      </trkpt>
      <trkpt lat="43.773070" lon="5.195120">
        <ele>267.6</ele>
      </trkpt>
      <trkpt lat="43.773040" lon="5.195390">
        <ele>267.5</ele>
      </trkpt>
      <trkpt lat="43.773310" lon="5.196160">
        <ele>258.9</ele>
      </trkpt>
      <trkpt lat="43.773330" lon="5.196300">
        <ele>257.8</ele>
      </trkpt>
      <trkpt lat="43.773440" lon="5.196510">
        <ele>255</ele>
      </trkpt>
      <trkpt lat="43.773540" lon="5.196780">
        <ele>253.5</ele>
      </trkpt>
      <trkpt lat="43.773620" lon="5.196920">
        <ele>253.7</ele>
      </trkpt>
      <trkpt lat="43.773560" lon="5.197150">
        <ele>253.9</ele>
      </trkpt>
      <trkpt lat="43.773468" lon="5.197381">
        <ele>254.3</ele>
      </trkpt>
      <trkpt lat="43.773519" lon="5.197874">
        <ele>257.1</ele>
      </trkpt>
      <trkpt lat="43.773588" lon="5.198073">
        <ele>258</ele>
      </trkpt>
      <trkpt lat="43.773500" lon="5.198090">
        <ele>258.5</ele>
      </trkpt>
      <trkpt lat="43.773410" lon="5.198121">
        <ele>259.2</ele>
      </trkpt>
      <trkpt lat="43.773325" lon="5.198239">
        <ele>262.2</ele>
      </trkpt>
      <trkpt lat="43.773236" lon="5.198443">
        <ele>265.4</ele>
      </trkpt>
      <trkpt lat="43.773108" lon="5.198529">
        <ele>266.8</ele>
      </trkpt>
      <trkpt lat="43.773020" lon="5.198650">
        <ele>267.8</ele>
      </trkpt>
      <trkpt lat="43.772787" lon="5.199140">
        <ele>270.6</ele>
      </trkpt>
      <trkpt lat="43.772752" lon="5.199505">
        <ele>273</ele>
      </trkpt>
      <trkpt lat="43.772694" lon="5.199682">
        <ele>273.6</ele>
      </trkpt>
      <trkpt lat="43.772779" lon="5.200412">
        <ele>274.2</ele>
      </trkpt>
      <trkpt lat="43.772770" lon="5.200940">
        <ele>274.6</ele>
      </trkpt>
      <trkpt lat="43.772600" lon="5.201700">
        <ele>273.3</ele>
      </trkpt>
      <trkpt lat="43.772490" lon="5.202370">
        <ele>269.1</ele>
      </trkpt>
      <trkpt lat="43.772490" lon="5.202680">
        <ele>268.1</ele>
      </trkpt>
      <trkpt lat="43.772390" lon="5.202720">
        <ele>267.6</ele>
      </trkpt>
      <trkpt lat="43.772290" lon="5.202790">
        <ele>267.1</ele>
      </trkpt>
      <trkpt lat="43.772220" lon="5.202870">
        <ele>266.8</ele>
      </trkpt>
      <trkpt lat="43.772120" lon="5.203150">
        <ele>266.6</ele>
      </trkpt>
      <trkpt lat="43.772090" lon="5.203130">
        <ele>266.6</ele>
      </trkpt>
      <trkpt lat="43.772060" lon="5.203070">
        <ele>266.6</ele>
      </trkpt>
      <trkpt lat="43.772020" lon="5.202840">
        <ele>266.3</ele>
      </trkpt>
      <trkpt lat="43.772010" lon="5.202840">
        <ele>266.3</ele>
      </trkpt>
      <trkpt lat="43.771990" lon="5.202880">
        <ele>266.3</ele>
      </trkpt>
      <trkpt lat="43.771980" lon="5.203180">
        <ele>266.7</ele>
      </trkpt>
      <trkpt lat="43.771950" lon="5.203310">
        <ele>266.9</ele>
      </trkpt>
      <trkpt lat="43.771850" lon="5.203290">
        <ele>267.1</ele>
      </trkpt>
      <trkpt lat="43.771740" lon="5.203720">
        <ele>268.3</ele>
      </trkpt>
      <trkpt lat="43.771790" lon="5.204370">
        <ele>270.2</ele>
      </trkpt>
      <trkpt lat="43.771730" lon="5.204530">
        <ele>270.6</ele>
      </trkpt>
      <trkpt lat="43.771710" lon="5.204880">
        <ele>271.9</ele>
      </trkpt>
      <trkpt lat="43.771620" lon="5.205050">
        <ele>274.8</ele>
      </trkpt>
      <trkpt lat="43.771480" lon="5.205850">
        <ele>279.9</ele>
      </trkpt>
      <trkpt lat="43.771349" lon="5.207058">
        <ele>284.2</ele>
      </trkpt>
      <trkpt lat="43.771241" lon="5.207364">
        <ele>284.7</ele>
      </trkpt>
      <trkpt lat="43.771110" lon="5.207590">
        <ele>285.9</ele>
      </trkpt>
      <trkpt lat="43.771098" lon="5.207691">
        <ele>285.8</ele>
      </trkpt>
      <trkpt lat="43.771148" lon="5.207879">
        <ele>285.4</ele>
      </trkpt>
      <trkpt lat="43.771171" lon="5.208244">
        <ele>285.5</ele>
      </trkpt>
      <trkpt lat="43.771140" lon="5.208528">
        <ele>287.5</ele>
      </trkpt>
      <trkpt lat="43.771060" lon="5.208890">
        <ele>288.4</ele>
      </trkpt>
      <trkpt lat="43.770940" lon="5.209810">
        <ele>291.9</ele>
      </trkpt>
      <trkpt lat="43.770770" lon="5.210310">
        <ele>297.7</ele>
      </trkpt>
      <trkpt lat="43.770753" lon="5.211570">
        <ele>300.8</ele>
      </trkpt>
      <trkpt lat="43.770672" lon="5.212706">
        <ele>304.2</ele>
      </trkpt>
      <trkpt lat="43.770656" lon="5.212927">
        <ele>304.6</ele>
      </trkpt>
      <trkpt lat="43.770625" lon="5.213040">
        <ele>304.7</ele>
      </trkpt>
      <trkpt lat="43.770699" lon="5.213115">
        <ele>304.8</ele>
      </trkpt>
      <trkpt lat="43.770808" lon="5.213131">
        <ele>304.8</ele>
      </trkpt>
      <trkpt lat="43.770877" lon="5.213133">
        <ele>307.8</ele>
      </trkpt>
      <trkpt lat="43.771129" lon="5.213184">
        <ele>309.6</ele>
      </trkpt>
      <trkpt lat="43.771583" lon="5.213308">
        <ele>316.4</ele>
      </trkpt>
      <trkpt lat="43.771676" lon="5.213377">
        <ele>321.1</ele>
      </trkpt>
      <trkpt lat="43.771722" lon="5.213453">
        <ele>324.1</ele>
      </trkpt>
      <trkpt lat="43.771796" lon="5.213994">
        <ele>326.4</ele>
      </trkpt>
      <trkpt lat="43.771838" lon="5.214107">
        <ele>326</ele>
      </trkpt>
      <trkpt lat="43.771997" lon="5.214236">
        <ele>329.2</ele>
      </trkpt>
      <trkpt lat="43.772028" lon="5.214306">
        <ele>329.9</ele>
      </trkpt>
      <trkpt lat="43.772005" lon="5.214370">
        <ele>329.5</ele>
      </trkpt>
      <trkpt lat="43.771931" lon="5.214477">
        <ele>328.3</ele>
      </trkpt>
      <trkpt lat="43.771865" lon="5.214654">
        <ele>327</ele>
      </trkpt>
      <trkpt lat="43.771842" lon="5.214799">
        <ele>325.4</ele>
      </trkpt>
      <trkpt lat="43.771850" lon="5.214906">
        <ele>324.3</ele>
      </trkpt>
      <trkpt lat="43.771893" lon="5.215062">
        <ele>323.5</ele>
      </trkpt>
      <trkpt lat="43.771943" lon="5.215180">
        <ele>325</ele>
      </trkpt>
      <trkpt lat="43.772028" lon="5.215309">
        <ele>326.5</ele>
      </trkpt>
      <trkpt lat="43.772055" lon="5.215386">
        <ele>326.9</ele>
      </trkpt>
      <trkpt lat="43.772055" lon="5.215494">
        <ele>326.7</ele>
      </trkpt>
      <trkpt lat="43.772014" lon="5.215590">
        <ele>325.8</ele>
      </trkpt>
      <trkpt lat="43.771768" lon="5.215893">
        <ele>318.2</ele>
      </trkpt>
      <trkpt lat="43.771654" lon="5.216081">
        <ele>309.4</ele>
      </trkpt>
      <trkpt lat="43.771576" lon="5.216237">
        <ele>308.5</ele>
      </trkpt>
      <trkpt lat="43.771166" lon="5.217387">
        <ele>300.4</ele>
      </trkpt>
      <trkpt lat="43.771127" lon="5.217503">
        <ele>293.2</ele>
      </trkpt>
      <trkpt lat="43.771119" lon="5.217631">
        <ele>292.6</ele>
      </trkpt>
      <trkpt lat="43.771137" lon="5.217712">
        <ele>292.2</ele>
      </trkpt>
      <trkpt lat="43.771166" lon="5.217736">
        <ele>292.1</ele>
      </trkpt>
      <trkpt lat="43.771237" lon="5.217758">
        <ele>292.2</ele>
      </trkpt>
      <trkpt lat="43.771536" lon="5.217717">
        <ele>295.1</ele>
      </trkpt>
      <trkpt lat="43.771776" lon="5.217749">
        <ele>297.5</ele>
      </trkpt>
      <trkpt lat="43.772637" lon="5.217888">
        <ele>294.6</ele>
      </trkpt>
      <trkpt lat="43.772644" lon="5.217889">
        <ele>294.6</ele>
      </trkpt>
      <trkpt lat="43.772807" lon="5.217894">
        <ele>293.6</ele>
      </trkpt>
      <trkpt lat="43.772965" lon="5.217803">
        <ele>293.7</ele>
      </trkpt>
      <trkpt lat="43.773486" lon="5.217162">
        <ele>300.8</ele>
      </trkpt>
      <trkpt lat="43.773600" lon="5.216942">
        <ele>303.3</ele>
      </trkpt>
      <trkpt lat="43.773782" lon="5.216647">
        <ele>314.5</ele>
      </trkpt>
      <trkpt lat="43.773881" lon="5.216551">
        <ele>312.9</ele>
      </trkpt>
      <trkpt lat="43.774336" lon="5.216229">
        <ele>303.4</ele>
      </trkpt>
      <trkpt lat="43.774410" lon="5.216154">
        <ele>303.8</ele>
      </trkpt>
      <trkpt lat="43.774476" lon="5.216019">
        <ele>304.5</ele>
      </trkpt>
      <trkpt lat="43.774516" lon="5.215918">
        <ele>304.6</ele>
      </trkpt>
      <trkpt lat="43.774668" lon="5.215735">
        <ele>313.7</ele>
      </trkpt>
      <trkpt lat="43.774819" lon="5.215585">
        <ele>312.9</ele>
      </trkpt>
      <trkpt lat="43.774929" lon="5.215537">
        <ele>312.7</ele>
      </trkpt>
      <trkpt lat="43.774989" lon="5.215419">
        <ele>315.1</ele>
      </trkpt>
      <trkpt lat="43.775080" lon="5.215314">
        <ele>307.7</ele>
      </trkpt>
      <trkpt lat="43.775233" lon="5.215258">
        <ele>307.4</ele>
      </trkpt>
      <trkpt lat="43.775527" lon="5.215199">
        <ele>304.8</ele>
      </trkpt>
      <trkpt lat="43.775663" lon="5.215199">
        <ele>303.8</ele>
      </trkpt>
      <trkpt lat="43.775746" lon="5.215118">
        <ele>303.3</ele>
      </trkpt>
      <trkpt lat="43.775799" lon="5.215099">
        <ele>302.9</ele>
      </trkpt>
      <trkpt lat="43.775886" lon="5.214965">
        <ele>303.1</ele>
      </trkpt>
      <trkpt lat="43.775950" lon="5.214845">
        <ele>304.7</ele>
      </trkpt>
      <trkpt lat="43.775994" lon="5.214735">
        <ele>305.7</ele>
      </trkpt>
      <trkpt lat="43.776012" lon="5.214694">
        <ele>306</ele>
      </trkpt>
      <trkpt lat="43.776038" lon="5.214686">
        <ele>306.1</ele>
      </trkpt>
      <trkpt lat="43.776056" lon="5.214729">
        <ele>305.9</ele>
      </trkpt>
      <trkpt lat="43.776103" lon="5.214871">
        <ele>305.4</ele>
      </trkpt>
      <trkpt lat="43.776105" lon="5.215073">
        <ele>303.5</ele>
      </trkpt>
      <trkpt lat="43.776120" lon="5.215185">
        <ele>303.6</ele>
      </trkpt>
      <trkpt lat="43.776070" lon="5.215403">
        <ele>303.4</ele>
      </trkpt>
      <trkpt lat="43.775921" lon="5.215504">
        <ele>302.5</ele>
      </trkpt>
      <trkpt lat="43.775835" lon="5.215663">
        <ele>301</ele>
      </trkpt>
      <trkpt lat="43.775744" lon="5.215730">
        <ele>300.3</ele>
      </trkpt>
      <trkpt lat="43.775603" lon="5.215759">
        <ele>301.2</ele>
      </trkpt>
      <trkpt lat="43.775446" lon="5.215711">
        <ele>302.1</ele>
      </trkpt>
      <trkpt lat="43.775334" lon="5.215767">
        <ele>301.8</ele>
      </trkpt>
      <trkpt lat="43.775181" lon="5.215915">
        <ele>297.9</ele>
      </trkpt>
      <trkpt lat="43.775028" lon="5.216113">
        <ele>297.7</ele>
      </trkpt>
      <trkpt lat="43.775010" lon="5.216250">
        <ele>297.5</ele>
      </trkpt>
      <trkpt lat="43.774997" lon="5.216438">
        <ele>297</ele>
      </trkpt>
      <trkpt lat="43.774941" lon="5.216620">
        <ele>294.2</ele>
      </trkpt>
      <trkpt lat="43.774850" lon="5.216749">
        <ele>293.7</ele>
      </trkpt>
      <trkpt lat="43.774693" lon="5.216816">
        <ele>294.4</ele>
      </trkpt>
      <trkpt lat="43.774573" lon="5.216956">
        <ele>294.6</ele>
      </trkpt>
      <trkpt lat="43.774331" lon="5.217111">
        <ele>293.5</ele>
      </trkpt>
      <trkpt lat="43.774292" lon="5.217165">
        <ele>292.9</ele>
      </trkpt>
      <trkpt lat="43.774218" lon="5.217216">
        <ele>292</ele>
      </trkpt>
      <trkpt lat="43.774168" lon="5.217272">
        <ele>291</ele>
      </trkpt>
      <trkpt lat="43.774110" lon="5.217379">
        <ele>290.9</ele>
      </trkpt>
      <trkpt lat="43.774090" lon="5.217559">
        <ele>286</ele>
      </trkpt>
      <trkpt lat="43.774046" lon="5.217752">
        <ele>286.8</ele>
      </trkpt>
      <trkpt lat="43.773879" lon="5.218020">
        <ele>287</ele>
      </trkpt>
      <trkpt lat="43.773769" lon="5.218114">
        <ele>286.6</ele>
      </trkpt>
      <trkpt lat="43.773593" lon="5.218332">
        <ele>284.8</ele>
      </trkpt>
      <trkpt lat="43.773536" lon="5.218672">
        <ele>285.2</ele>
      </trkpt>
      <trkpt lat="43.773480" lon="5.218758">
        <ele>285</ele>
      </trkpt>
      <trkpt lat="43.773465" lon="5.218855">
        <ele>284.8</ele>
      </trkpt>
      <trkpt lat="43.773438" lon="5.218935">
        <ele>284.2</ele>
      </trkpt>
      <trkpt lat="43.773382" lon="5.219005">
        <ele>283</ele>
      </trkpt>
      <trkpt lat="43.773273" lon="5.219083">
        <ele>279.3</ele>
      </trkpt>
      <trkpt lat="43.773149" lon="5.219133">
        <ele>279.3</ele>
      </trkpt>
      <trkpt lat="43.773015" lon="5.219144">
        <ele>279.2</ele>
      </trkpt>
      <trkpt lat="43.772975" lon="5.219219">
        <ele>282.3</ele>
      </trkpt>
      <trkpt lat="43.772888" lon="5.219316">
        <ele>282.6</ele>
      </trkpt>
      <trkpt lat="43.772801" lon="5.219324">
        <ele>282</ele>
      </trkpt>
      <trkpt lat="43.772750" lon="5.219343">
        <ele>281.8</ele>
      </trkpt>
      <trkpt lat="43.772601" lon="5.219327">
        <ele>280.1</ele>
      </trkpt>
      <trkpt lat="43.772531" lon="5.219364">
        <ele>280.3</ele>
      </trkpt>
      <trkpt lat="43.772456" lon="5.219345">
        <ele>274.9</ele>
      </trkpt>
      <trkpt lat="43.772268" lon="5.219359">
        <ele>274.3</ele>
      </trkpt>
      <trkpt lat="43.772119" lon="5.219418">
        <ele>273.5</ele>
      </trkpt>
      <trkpt lat="43.771972" lon="5.219415">
        <ele>272.3</ele>
      </trkpt>
      <trkpt lat="43.771759" lon="5.219375">
        <ele>270.1</ele>
      </trkpt>
      <trkpt lat="43.771638" lon="5.219359">
        <ele>265</ele>
      </trkpt>
      <trkpt lat="43.771594" lon="5.219375">
        <ele>264.9</ele>
      </trkpt>
      <trkpt lat="43.771524" lon="5.219378">
        <ele>264.9</ele>
      </trkpt>
      <trkpt lat="43.771491" lon="5.219396">
        <ele>264.8</ele>
      </trkpt>
      <trkpt lat="43.771373" lon="5.219412">
        <ele>264.6</ele>
      </trkpt>
      <trkpt lat="43.771292" lon="5.219471">
        <ele>264.4</ele>
      </trkpt>
      <trkpt lat="43.771146" lon="5.219482">
        <ele>264</ele>
      </trkpt>
      <trkpt lat="43.771055" lon="5.219501">
        <ele>263.7</ele>
      </trkpt>
      <trkpt lat="43.770984" lon="5.219536">
        <ele>263.5</ele>
      </trkpt>
      <trkpt lat="43.770914" lon="5.219622">
        <ele>263</ele>
      </trkpt>
      <trkpt lat="43.770885" lon="5.219707">
        <ele>262.4</ele>
      </trkpt>
      <trkpt lat="43.770848" lon="5.219748">
        <ele>262</ele>
      </trkpt>
      <trkpt lat="43.770806" lon="5.219914">
        <ele>260.2</ele>
      </trkpt>
      <trkpt lat="43.770763" lon="5.220180">
        <ele>257.7</ele>
      </trkpt>
      <trkpt lat="43.770773" lon="5.220362">
        <ele>257.2</ele>
      </trkpt>
      <trkpt lat="43.770769" lon="5.220657">
        <ele>256.1</ele>
      </trkpt>
      <trkpt lat="43.770738" lon="5.220770">
        <ele>255.7</ele>
      </trkpt>
      <trkpt lat="43.770604" lon="5.221086">
        <ele>253.7</ele>
      </trkpt>
      <trkpt lat="43.770521" lon="5.221212">
        <ele>253.4</ele>
      </trkpt>
      <trkpt lat="43.770347" lon="5.221454">
        <ele>252.4</ele>
      </trkpt>
      <trkpt lat="43.770223" lon="5.221539">
        <ele>251.2</ele>
      </trkpt>
      <trkpt lat="43.770046" lon="5.221644">
        <ele>248.2</ele>
      </trkpt>
      <trkpt lat="43.769798" lon="5.221668">
        <ele>249.7</ele>
      </trkpt>
      <trkpt lat="43.769707" lon="5.221601">
        <ele>248.6</ele>
      </trkpt>
      <trkpt lat="43.769676" lon="5.221542">
        <ele>248.8</ele>
      </trkpt>
      <trkpt lat="43.769537" lon="5.221676">
        <ele>249.7</ele>
      </trkpt>
      <trkpt lat="43.769421" lon="5.221762">
        <ele>249.2</ele>
      </trkpt>
      <trkpt lat="43.769041" lon="5.221773">
        <ele>244.7</ele>
      </trkpt>
      <trkpt lat="43.768929" lon="5.221939">
        <ele>245.1</ele>
      </trkpt>
      <trkpt lat="43.768836" lon="5.221993">
        <ele>245.1</ele>
      </trkpt>
      <trkpt lat="43.768634" lon="5.222167">
        <ele>244.6</ele>
      </trkpt>
      <trkpt lat="43.768414" lon="5.222264">
        <ele>243.5</ele>
      </trkpt>
      <trkpt lat="43.768286" lon="5.222264">
        <ele>243.9</ele>
      </trkpt>
      <trkpt lat="43.768065" lon="5.222392">
        <ele>244.4</ele>
      </trkpt>
      <trkpt lat="43.767920" lon="5.222467">
        <ele>244.8</ele>
      </trkpt>
      <trkpt lat="43.767732" lon="5.222626">
        <ele>243.1</ele>
      </trkpt>
      <trkpt lat="43.767461" lon="5.222956">
        <ele>245.9</ele>
      </trkpt>
      <trkpt lat="43.767277" lon="5.223310">
        <ele>243.5</ele>
      </trkpt>
      <trkpt lat="43.767023" lon="5.224214">
        <ele>238.1</ele>
      </trkpt>
      <trkpt lat="43.766848" lon="5.224557">
        <ele>237.5</ele>
      </trkpt>
      <trkpt lat="43.766779" lon="5.224683">
        <ele>236.9</ele>
      </trkpt>
      <trkpt lat="43.766674" lon="5.225064">
        <ele>235.6</ele>
      </trkpt>
      <trkpt lat="43.766579" lon="5.225128">
        <ele>232.7</ele>
      </trkpt>
      <trkpt lat="43.766424" lon="5.225155">
        <ele>232.9</ele>
      </trkpt>
      <trkpt lat="43.766122" lon="5.224863">
        <ele>227.5</ele>
      </trkpt>
      <trkpt lat="43.765469" lon="5.224836">
        <ele>225.4</ele>
      </trkpt>
      <trkpt lat="43.765258" lon="5.225008">
        <ele>219.1</ele>
      </trkpt>
      <trkpt lat="43.765053" lon="5.225337">
        <ele>218.5</ele>
      </trkpt>
      <trkpt lat="43.764958" lon="5.225710">
        <ele>214.4</ele>
      </trkpt>
      <trkpt lat="43.764673" lon="5.226263">
        <ele>212.6</ele>
      </trkpt>
      <trkpt lat="43.764562" lon="5.226611">
        <ele>211.4</ele>
      </trkpt>
      <trkpt lat="43.764545" lon="5.226673">
        <ele>212</ele>
      </trkpt>
      <trkpt lat="43.764474" lon="5.226818">
        <ele>211.5</ele>
      </trkpt>
      <trkpt lat="43.763924" lon="5.227470">
        <ele>206.7</ele>
      </trkpt>
      <trkpt lat="43.763759" lon="5.227810">
        <ele>206.1</ele>
      </trkpt>
      <trkpt lat="43.763619" lon="5.227958">
        <ele>205.8</ele>
      </trkpt>
      <trkpt lat="43.763399" lon="5.228510">
        <ele>200.2</ele>
      </trkpt>
      <trkpt lat="43.762969" lon="5.229315">
        <ele>192.7</ele>
      </trkpt>
      <trkpt lat="43.762883" lon="5.229519">
        <ele>192.4</ele>
      </trkpt>
      <trkpt lat="43.762416" lon="5.230200">
        <ele>191.5</ele>
      </trkpt>
      <trkpt lat="43.762190" lon="5.230230">
        <ele>193.5</ele>
      </trkpt>
      <trkpt lat="43.761874" lon="5.230216">
        <ele>196.9</ele>
      </trkpt>
      <trkpt lat="43.761740" lon="5.230283">
        <ele>197.3</ele>
      </trkpt>
      <trkpt lat="43.761663" lon="5.230401">
        <ele>209.1</ele>
      </trkpt>
      <trkpt lat="43.761624" lon="5.230546">
        <ele>207.2</ele>
      </trkpt>
      <trkpt lat="43.761620" lon="5.230766">
        <ele>199.8</ele>
      </trkpt>
      <trkpt lat="43.761814" lon="5.231083">
        <ele>189.2</ele>
      </trkpt>
      <trkpt lat="43.762004" lon="5.231324">
        <ele>186.9</ele>
      </trkpt>
      <trkpt lat="43.762126" lon="5.231681">
        <ele>180.3</ele>
      </trkpt>
      <trkpt lat="43.762074" lon="5.232032">
        <ele>179.5</ele>
      </trkpt>
      <trkpt lat="43.762097" lon="5.232314">
        <ele>178.5</ele>
      </trkpt>
      <trkpt lat="43.762077" lon="5.232539">
        <ele>178.5</ele>
      </trkpt>
      <trkpt lat="43.762021" lon="5.232773">
        <ele>178.8</ele>
      </trkpt>
      <trkpt lat="43.761944" lon="5.232944">
        <ele>178.9</ele>
      </trkpt>
      <trkpt lat="43.761839" lon="5.233030">
        <ele>178.1</ele>
      </trkpt>
      <trkpt lat="43.761738" lon="5.233078">
        <ele>177.2</ele>
      </trkpt>
      <trkpt lat="43.761525" lon="5.232963">
        <ele>170.9</ele>
      </trkpt>
      <trkpt lat="43.761427" lon="5.232920">
        <ele>170.7</ele>
      </trkpt>
      <trkpt lat="43.761175" lon="5.233035">
        <ele>169.5</ele>
      </trkpt>
      <trkpt lat="43.761047" lon="5.233129">
        <ele>168.1</ele>
      </trkpt>
      <trkpt lat="43.760458" lon="5.233269">
        <ele>162.8</ele>
      </trkpt>
      <trkpt lat="43.760165" lon="5.233336">
        <ele>160.5</ele>
      </trkpt>
      <trkpt lat="43.759718" lon="5.233486">
        <ele>156</ele>
      </trkpt>
      <trkpt lat="43.758995" lon="5.233776">
        <ele>150.8</ele>
      </trkpt>
      <trkpt lat="43.758598" lon="5.233872">
        <ele>150.5</ele>
      </trkpt>
      <trkpt lat="43.758437" lon="5.233853">
        <ele>150.4</ele>
      </trkpt>
      <trkpt lat="43.758244" lon="5.233760">
        <ele>147.7</ele>
      </trkpt>
      <trkpt lat="43.758164" lon="5.233650">
        <ele>147.3</ele>
      </trkpt>
      <trkpt lat="43.758067" lon="5.233537">
        <ele>147</ele>
      </trkpt>
      <trkpt lat="43.757215" lon="5.232909">
        <ele>146.7</ele>
      </trkpt>
      <trkpt lat="43.756938" lon="5.232708">
        <ele>146.4</ele>
      </trkpt>
      <trkpt lat="43.756845" lon="5.232644">
        <ele>146.2</ele>
      </trkpt>
      <trkpt lat="43.756754" lon="5.232566">
        <ele>146.1</ele>
      </trkpt>
      <trkpt lat="43.756682" lon="5.232467">
        <ele>147.2</ele>
      </trkpt>
      <trkpt lat="43.756589" lon="5.232236">
        <ele>143.1</ele>
      </trkpt>
      <trkpt lat="43.756578" lon="5.232118">
        <ele>143.2</ele>
      </trkpt>
      <trkpt lat="43.756574" lon="5.231855">
        <ele>145.6</ele>
      </trkpt>
      <trkpt lat="43.756551" lon="5.231775">
        <ele>146.6</ele>
      </trkpt>
      <trkpt lat="43.756422" lon="5.231472">
        <ele>146.4</ele>
      </trkpt>
      <trkpt lat="43.756376" lon="5.231174">
        <ele>146.1</ele>
      </trkpt>
      <trkpt lat="43.756398" lon="5.230962">
        <ele>147.5</ele>
      </trkpt>
      <trkpt lat="43.756452" lon="5.230793">
        <ele>150.6</ele>
      </trkpt>
      <trkpt lat="43.756552" lon="5.230619">
        <ele>151.1</ele>
      </trkpt>
      <trkpt lat="43.756570" lon="5.230528">
        <ele>150.8</ele>
      </trkpt>
      <trkpt lat="43.756566" lon="5.230458">
        <ele>150.7</ele>
      </trkpt>
      <trkpt lat="43.756537" lon="5.230391">
        <ele>150.6</ele>
      </trkpt>
      <trkpt lat="43.756438" lon="5.230211">
        <ele>150.6</ele>
      </trkpt>
      <trkpt lat="43.756409" lon="5.230114">
        <ele>150.8</ele>
      </trkpt>
      <trkpt lat="43.756396" lon="5.229999">
        <ele>151.7</ele>
      </trkpt>
      <trkpt lat="43.756428" lon="5.229881">
        <ele>151.9</ele>
      </trkpt>
      <trkpt lat="43.756535" lon="5.229927">
        <ele>154.3</ele>
      </trkpt>
      <trkpt lat="43.756659" lon="5.229916">
        <ele>156.2</ele>
      </trkpt>
      <trkpt lat="43.756772" lon="5.229723">
        <ele>161.5</ele>
      </trkpt>
      <trkpt lat="43.756872" lon="5.229540">
        <ele>161.8</ele>
      </trkpt>
      <trkpt lat="43.756985" lon="5.229481">
        <ele>162.4</ele>
      </trkpt>
      <trkpt lat="43.757136" lon="5.229481">
        <ele>163.5</ele>
      </trkpt>
      <trkpt lat="43.757310" lon="5.229567">
        <ele>164.7</ele>
      </trkpt>
      <trkpt lat="43.757663" lon="5.229589">
        <ele>173.3</ele>
      </trkpt>
      <trkpt lat="43.758190" lon="5.229911">
        <ele>178</ele>
      </trkpt>
      <trkpt lat="43.758442" lon="5.230050">
        <ele>183.5</ele>
      </trkpt>
      <trkpt lat="43.758608" lon="5.230039">
        <ele>186.1</ele>
      </trkpt>
      <trkpt lat="43.758717" lon="5.229948">
        <ele>189.9</ele>
      </trkpt>
      <trkpt lat="43.758872" lon="5.229498">
        <ele>192.3</ele>
      </trkpt>
      <trkpt lat="43.758903" lon="5.229203">
        <ele>194</ele>
      </trkpt>
      <trkpt lat="43.758883" lon="5.228344">
        <ele>196.2</ele>
      </trkpt>
      <trkpt lat="43.759015" lon="5.227727">
        <ele>199.5</ele>
      </trkpt>
      <trkpt lat="43.759236" lon="5.227422">
        <ele>214.2</ele>
      </trkpt>
      <trkpt lat="43.759267" lon="5.227261">
        <ele>219</ele>
      </trkpt>
      <trkpt lat="43.759286" lon="5.227116">
        <ele>220.8</ele>
      </trkpt>
      <trkpt lat="43.759325" lon="5.227008">
        <ele>221.3</ele>
      </trkpt>
      <trkpt lat="43.759217" lon="5.226831">
        <ele>217.5</ele>
      </trkpt>
      <trkpt lat="43.759155" lon="5.226638">
        <ele>208.7</ele>
      </trkpt>
      <trkpt lat="43.759193" lon="5.226225">
        <ele>222.6</ele>
      </trkpt>
      <trkpt lat="43.759193" lon="5.225828">
        <ele>214.8</ele>
      </trkpt>
      <trkpt lat="43.759275" lon="5.225506">
        <ele>224.7</ele>
      </trkpt>
      <trkpt lat="43.759255" lon="5.225126">
        <ele>221</ele>
      </trkpt>
      <trkpt lat="43.759406" lon="5.224348">
        <ele>218.5</ele>
      </trkpt>
      <trkpt lat="43.759527" lon="5.223876">
        <ele>214</ele>
      </trkpt>
      <trkpt lat="43.759786" lon="5.223318">
        <ele>216.8</ele>
      </trkpt>
      <trkpt lat="43.759883" lon="5.223044">
        <ele>216.9</ele>
      </trkpt>
      <trkpt lat="43.760007" lon="5.222926">
        <ele>236.4</ele>
      </trkpt>
      <trkpt lat="43.760123" lon="5.222824">
        <ele>237.5</ele>
      </trkpt>
      <trkpt lat="43.760150" lon="5.222733">
        <ele>237.2</ele>
      </trkpt>
      <trkpt lat="43.760096" lon="5.222636">
        <ele>234.8</ele>
      </trkpt>
      <trkpt lat="43.759898" lon="5.222481">
        <ele>225.3</ele>
      </trkpt>
      <trkpt lat="43.759651" lon="5.222234">
        <ele>220.6</ele>
      </trkpt>
      <trkpt lat="43.759600" lon="5.222062">
        <ele>220.7</ele>
      </trkpt>
      <trkpt lat="43.759569" lon="5.221848">
        <ele>221.3</ele>
      </trkpt>
      <trkpt lat="43.759662" lon="5.220973">
        <ele>225.6</ele>
      </trkpt>
      <trkpt lat="43.759771" lon="5.220534">
        <ele>218.5</ele>
      </trkpt>
      <trkpt lat="43.760011" lon="5.220121">
        <ele>219.4</ele>
      </trkpt>
      <trkpt lat="43.760212" lon="5.220003">
        <ele>221.7</ele>
      </trkpt>
      <trkpt lat="43.760604" lon="5.220072">
        <ele>225.3</ele>
      </trkpt>
      <trkpt lat="43.760824" lon="5.220008">
        <ele>220.5</ele>
      </trkpt>
      <trkpt lat="43.761007" lon="5.219911">
        <ele>222.2</ele>
      </trkpt>
      <trkpt lat="43.761022" lon="5.219826">
        <ele>222.3</ele>
      </trkpt>
      <trkpt lat="43.760960" lon="5.219788">
        <ele>221.7</ele>
      </trkpt>
      <trkpt lat="43.760693" lon="5.219793">
        <ele>213.4</ele>
      </trkpt>
      <trkpt lat="43.760573" lon="5.219659">
        <ele>211.1</ele>
      </trkpt>
      <trkpt lat="43.760406" lon="5.219348">
        <ele>207.9</ele>
      </trkpt>
      <trkpt lat="43.760379" lon="5.219166">
        <ele>206.4</ele>
      </trkpt>
      <trkpt lat="43.760406" lon="5.218956">
        <ele>207.4</ele>
      </trkpt>
      <trkpt lat="43.760406" lon="5.218817">
        <ele>208.3</ele>
      </trkpt>
      <trkpt lat="43.760363" lon="5.218769">
        <ele>208.6</ele>
      </trkpt>
      <trkpt lat="43.760236" lon="5.218785">
        <ele>208.2</ele>
      </trkpt>
      <trkpt lat="43.759720" lon="5.218806">
        <ele>204.1</ele>
      </trkpt>
      <trkpt lat="43.759348" lon="5.218522">
        <ele>205.1</ele>
      </trkpt>
      <trkpt lat="43.759178" lon="5.218264">
        <ele>210.7</ele>
      </trkpt>
      <trkpt lat="43.759116" lon="5.218093">
        <ele>206.7</ele>
      </trkpt>
      <trkpt lat="43.759081" lon="5.217905">
        <ele>208.4</ele>
      </trkpt>
      <trkpt lat="43.759065" lon="5.217363">
        <ele>219.1</ele>
      </trkpt>
      <trkpt lat="43.759151" lon="5.216392">
        <ele>221.9</ele>
      </trkpt>
      <trkpt lat="43.759236" lon="5.215845">
        <ele>233.7</ele>
      </trkpt>
      <trkpt lat="43.759426" lon="5.214799">
        <ele>238.3</ele>
      </trkpt>
      <trkpt lat="43.759468" lon="5.214574">
        <ele>239.5</ele>
      </trkpt>
      <trkpt lat="43.759658" lon="5.214043">
        <ele>244.6</ele>
      </trkpt>
      <trkpt lat="43.759666" lon="5.213909">
        <ele>244.6</ele>
      </trkpt>
      <trkpt lat="43.759600" lon="5.213560">
        <ele>243.6</ele>
      </trkpt>
      <trkpt lat="43.759484" lon="5.212427">
        <ele>247.4</ele>
      </trkpt>
      <trkpt lat="43.759480" lon="5.212385">
        <ele>247.5</ele>
      </trkpt>
      <trkpt lat="43.759313" lon="5.211039">
        <ele>250</ele>
      </trkpt>
      <trkpt lat="43.759209" lon="5.210550">
        <ele>251.1</ele>
      </trkpt>
      <trkpt lat="43.759093" lon="5.210062">
        <ele>233.3</ele>
      </trkpt>
      <trkpt lat="43.759104" lon="5.209553">
        <ele>224.4</ele>
      </trkpt>
      <trkpt lat="43.759344" lon="5.208619">
        <ele>233</ele>
      </trkpt>
      <trkpt lat="43.759697" lon="5.207857">
        <ele>221.7</ele>
      </trkpt>
      <trkpt lat="43.760003" lon="5.207251">
        <ele>219</ele>
      </trkpt>
      <trkpt lat="43.760174" lon="5.207037">
        <ele>217.5</ele>
      </trkpt>
      <trkpt lat="43.760325" lon="5.206967">
        <ele>217.8</ele>
      </trkpt>
      <trkpt lat="43.760518" lon="5.206999">
        <ele>219</ele>
      </trkpt>
      <trkpt lat="43.760608" lon="5.206988">
        <ele>219.3</ele>
      </trkpt>
      <trkpt lat="43.760627" lon="5.206887">
        <ele>218.9</ele>
      </trkpt>
      <trkpt lat="43.760631" lon="5.206683">
        <ele>218.5</ele>
      </trkpt>
      <trkpt lat="43.760569" lon="5.206436">
        <ele>218.6</ele>
      </trkpt>
      <trkpt lat="43.760080" lon="5.206205">
        <ele>216.5</ele>
      </trkpt>
      <trkpt lat="43.759929" lon="5.206205">
        <ele>207.7</ele>
      </trkpt>
      <trkpt lat="43.759682" lon="5.206286">
        <ele>205.7</ele>
      </trkpt>
      <trkpt lat="43.759170" lon="5.206184">
        <ele>202.5</ele>
      </trkpt>
      <trkpt lat="43.758217" lon="5.205379">
        <ele>186.1</ele>
      </trkpt>
      <trkpt lat="43.757895" lon="5.205159">
        <ele>184.7</ele>
      </trkpt>
      <trkpt lat="43.757095" lon="5.204766">
        <ele>176.6</ele>
      </trkpt>
      <trkpt lat="43.756911" lon="5.204676">
        <ele>175.6</ele>
      </trkpt>
      <trkpt lat="43.755795" lon="5.204076">
        <ele>166.7</ele>
      </trkpt>
      <trkpt lat="43.755760" lon="5.204510">
        <ele>165.3</ele>
      </trkpt>
      <trkpt lat="43.755700" lon="5.205610">
        <ele>164.5</ele>
      </trkpt>
      <trkpt lat="43.755170" lon="5.205480">
        <ele>162.7</ele>
      </trkpt>
      <trkpt lat="43.754810" lon="5.205400">
        <ele>158.1</ele>
      </trkpt>
      <trkpt lat="43.754470" lon="5.205300">
        <ele>156.8</ele>
      </trkpt>
      <trkpt lat="43.754640" lon="5.204260">
        <ele>158</ele>
      </trkpt>
      <trkpt lat="43.754760" lon="5.203110">
        <ele>158.2</ele>
      </trkpt>
      <trkpt lat="43.754483" lon="5.203094">
        <ele>156.8</ele>
      </trkpt>
      <trkpt lat="43.754214" lon="5.203048">
        <ele>155.9</ele>
      </trkpt>
      <trkpt lat="43.754207" lon="5.203008">
        <ele>155.69519819086665</ele>
      </trkpt>
    </trkseg>
  </trk>
</gpx>