<?xml version="1.0" ?>
<gpx xmlns="http://www.topografix.com/GPX/1/1" xmlns:xsi="http://www.w3.org/2001/XMLSchema-instance" xsi:schemaLocation="http://www.topografix.com/GPX/1/1 http://www.topografix.com/GPX/1/1/gpx.xsd" version="1.1" creator="EditGPX">
  <trk>
    <name>NewTrack</name>
    <trkseg>
      <trkpt lat="43.878819" lon="5.445568">
        <ele>256.9</ele>
      </trkpt>
      <trkpt lat="43.878758" lon="5.445670">
        <ele>257</ele>
      </trkpt>
      <trkpt lat="43.878693" lon="5.445810">
        <ele>257.2</ele>
      </trkpt>
      <trkpt lat="43.878649" lon="5.445847">
        <ele>255.9</ele>
      </trkpt>
      <trkpt lat="43.878123" lon="5.446250">
        <ele>258.5</ele>
      </trkpt>
      <trkpt lat="43.877932" lon="5.446384">
        <ele>258.8</ele>
      </trkpt>
      <trkpt lat="43.877456" lon="5.446636">
        <ele>261.4</ele>
      </trkpt>
      <trkpt lat="43.876664" lon="5.447011">
        <ele>263.5</ele>
      </trkpt>
      <trkpt lat="43.876625" lon="5.447030">
        <ele>263.4</ele>
      </trkpt>
      <trkpt lat="43.875365" lon="5.447733">
        <ele>261.9</ele>
      </trkpt>
      <trkpt lat="43.874758" lon="5.448081">
        <ele>263.9</ele>
      </trkpt>
      <trkpt lat="43.873693" lon="5.448793">
        <ele>260.2</ele>
      </trkpt>
      <trkpt lat="43.872964" lon="5.449281">
        <ele>258.6</ele>
      </trkpt>
      <trkpt lat="43.872817" lon="5.449380">
        <ele>259</ele>
      </trkpt>
      <trkpt lat="43.872338" lon="5.449766">
        <ele>262.5</ele>
      </trkpt>
      <trkpt lat="43.871704" lon="5.450653">
        <ele>259.5</ele>
      </trkpt>
      <trkpt lat="43.871556" lon="5.450860">
        <ele>260.3</ele>
      </trkpt>
      <trkpt lat="43.871007" lon="5.451761">
        <ele>261.6</ele>
      </trkpt>
      <trkpt lat="43.870952" lon="5.451898">
        <ele>261.3</ele>
      </trkpt>
      <trkpt lat="43.870950" lon="5.451944">
        <ele>261.1</ele>
      </trkpt>
      <trkpt lat="43.870964" lon="5.452016">
        <ele>260.8</ele>
      </trkpt>
      <trkpt lat="43.870946" lon="5.452086">
        <ele>260.6</ele>
      </trkpt>
      <trkpt lat="43.870859" lon="5.452217">
        <ele>260.5</ele>
      </trkpt>
      <trkpt lat="43.870594" lon="5.452502">
        <ele>262.9</ele>
      </trkpt>
      <trkpt lat="43.870254" lon="5.452802">
        <ele>264.2</ele>
      </trkpt>
      <trkpt lat="43.869896" lon="5.453229">
        <ele>265.6</ele>
      </trkpt>
      <trkpt lat="43.869701" lon="5.453489">
        <ele>264.7</ele>
      </trkpt>
      <trkpt lat="43.869386" lon="5.454031">
        <ele>265.3</ele>
      </trkpt>
      <trkpt lat="43.869179" lon="5.454420">
        <ele>262.1</ele>
      </trkpt>
      <trkpt lat="43.868848" lon="5.455299">
        <ele>263.4</ele>
      </trkpt>
      <trkpt lat="43.868831" lon="5.455345">
        <ele>263.5</ele>
      </trkpt>
      <trkpt lat="43.868765" lon="5.455468">
        <ele>263.5</ele>
      </trkpt>
      <trkpt lat="43.868293" lon="5.455838">
        <ele>263.6</ele>
      </trkpt>
      <trkpt lat="43.868094" lon="5.456066">
        <ele>266</ele>
      </trkpt>
      <trkpt lat="43.867456" lon="5.457129">
        <ele>266.3</ele>
      </trkpt>
      <trkpt lat="43.867092" lon="5.457772">
        <ele>262.2</ele>
      </trkpt>
      <trkpt lat="43.866876" lon="5.458306">
        <ele>261.9</ele>
      </trkpt>
      <trkpt lat="43.866810" lon="5.458488">
        <ele>261.3</ele>
      </trkpt>
      <trkpt lat="43.866791" lon="5.458609">
        <ele>261.2</ele>
      </trkpt>
      <trkpt lat="43.866768" lon="5.458837">
        <ele>260.9</ele>
      </trkpt>
      <trkpt lat="43.866750" lon="5.458899">
        <ele>260.8</ele>
      </trkpt>
      <trkpt lat="43.866851" lon="5.459395">
        <ele>261.1</ele>
      </trkpt>
      <trkpt lat="43.866884" lon="5.459591">
        <ele>261.4</ele>
      </trkpt>
      <trkpt lat="43.866887" lon="5.459851">
        <ele>261.6</ele>
      </trkpt>
      <trkpt lat="43.866871" lon="5.459892">
        <ele>261.6</ele>
      </trkpt>
      <trkpt lat="43.867017" lon="5.460058">
        <ele>261.2</ele>
      </trkpt>
      <trkpt lat="43.867061" lon="5.460130">
        <ele>261.2</ele>
      </trkpt>
      <trkpt lat="43.867073" lon="5.460178">
        <ele>261.1</ele>
      </trkpt>
      <trkpt lat="43.867009" lon="5.460326">
        <ele>261.1</ele>
      </trkpt>
      <trkpt lat="43.866363" lon="5.461133">
        <ele>262.2</ele>
      </trkpt>
      <trkpt lat="43.865334" lon="5.462402">
        <ele>262.7</ele>
      </trkpt>
      <trkpt lat="43.865164" lon="5.462611">
        <ele>263.2</ele>
      </trkpt>
      <trkpt lat="43.864151" lon="5.463882">
        <ele>267.2</ele>
      </trkpt>
      <trkpt lat="43.863577" lon="5.464658">
        <ele>269</ele>
      </trkpt>
      <trkpt lat="43.863540" lon="5.464714">
        <ele>269</ele>
      </trkpt>
      <trkpt lat="43.863672" lon="5.464867">
        <ele>269.2</ele>
      </trkpt>
      <trkpt lat="43.864302" lon="5.465567">
        <ele>273.5</ele>
      </trkpt>
      <trkpt lat="43.864963" lon="5.466463">
        <ele>278.2</ele>
      </trkpt>
      <trkpt lat="43.865556" lon="5.467214">
        <ele>286.8</ele>
      </trkpt>
      <trkpt lat="43.865648" lon="5.467285">
        <ele>287</ele>
      </trkpt>
      <trkpt lat="43.866155" lon="5.467544">
        <ele>292.6</ele>
      </trkpt>
      <trkpt lat="43.866433" lon="5.467699">
        <ele>293.3</ele>
      </trkpt>
      <trkpt lat="43.866710" lon="5.467876">
        <ele>294.4</ele>
      </trkpt>
      <trkpt lat="43.866773" lon="5.467933">
        <ele>294.8</ele>
      </trkpt>
      <trkpt lat="43.866800" lon="5.467989">
        <ele>295.1</ele>
      </trkpt>
      <trkpt lat="43.866820" lon="5.468016">
        <ele>295.3</ele>
      </trkpt>
      <trkpt lat="43.867073" lon="5.468013">
        <ele>295.3</ele>
      </trkpt>
      <trkpt lat="43.867297" lon="5.467975">
        <ele>295.4</ele>
      </trkpt>
      <trkpt lat="43.867543" lon="5.467892">
        <ele>296.9</ele>
      </trkpt>
      <trkpt lat="43.867578" lon="5.467836">
        <ele>296.9</ele>
      </trkpt>
      <trkpt lat="43.867543" lon="5.467721">
        <ele>296.5</ele>
      </trkpt>
      <trkpt lat="43.867336" lon="5.467528">
        <ele>294.8</ele>
      </trkpt>
      <trkpt lat="43.867301" lon="5.467463">
        <ele>295.2</ele>
      </trkpt>
      <trkpt lat="43.867299" lon="5.467409">
        <ele>295.2</ele>
      </trkpt>
      <trkpt lat="43.867332" lon="5.467241">
        <ele>295.7</ele>
      </trkpt>
      <trkpt lat="43.867367" lon="5.467088">
        <ele>296.4</ele>
      </trkpt>
      <trkpt lat="43.867363" lon="5.466884">
        <ele>297.6</ele>
      </trkpt>
      <trkpt lat="43.867301" lon="5.466632">
        <ele>302.2</ele>
      </trkpt>
      <trkpt lat="43.867301" lon="5.466524">
        <ele>302.5</ele>
      </trkpt>
      <trkpt lat="43.867711" lon="5.465757">
        <ele>313.5</ele>
      </trkpt>
      <trkpt lat="43.868156" lon="5.464864">
        <ele>322.9</ele>
      </trkpt>
      <trkpt lat="43.868365" lon="5.464800">
        <ele>328.7</ele>
      </trkpt>
      <trkpt lat="43.868506" lon="5.464827">
        <ele>329.4</ele>
      </trkpt>
      <trkpt lat="43.868775" lon="5.464886">
        <ele>331.7</ele>
      </trkpt>
      <trkpt lat="43.868937" lon="5.464918">
        <ele>333.2</ele>
      </trkpt>
      <trkpt lat="43.869061" lon="5.464896">
        <ele>334.2</ele>
      </trkpt>
      <trkpt lat="43.869248" lon="5.464953">
        <ele>337.6</ele>
      </trkpt>
      <trkpt lat="43.869689" lon="5.465178">
        <ele>337.4</ele>
      </trkpt>
      <trkpt lat="43.869848" lon="5.465264">
        <ele>337.9</ele>
      </trkpt>
      <trkpt lat="43.870117" lon="5.465277">
        <ele>342.5</ele>
      </trkpt>
      <trkpt lat="43.870503" lon="5.465339">
        <ele>343.3</ele>
      </trkpt>
      <trkpt lat="43.870732" lon="5.465304">
        <ele>344.4</ele>
      </trkpt>
      <trkpt lat="43.871035" lon="5.465087">
        <ele>350.2</ele>
      </trkpt>
      <trkpt lat="43.871550" lon="5.465111">
        <ele>354.2</ele>
      </trkpt>
      <trkpt lat="43.872261" lon="5.465451">
        <ele>358</ele>
      </trkpt>
      <trkpt lat="43.872735" lon="5.465572">
        <ele>362.5</ele>
      </trkpt>
      <trkpt lat="43.873139" lon="5.465741">
        <ele>364</ele>
      </trkpt>
      <trkpt lat="43.873236" lon="5.465800">
        <ele>364.5</ele>
      </trkpt>
      <trkpt lat="43.873570" lon="5.465838">
        <ele>364.2</ele>
      </trkpt>
      <trkpt lat="43.873839" lon="5.466039">
        <ele>364.1</ele>
      </trkpt>
      <trkpt lat="43.874637" lon="5.466492">
        <ele>366.4</ele>
      </trkpt>
      <trkpt lat="43.875281" lon="5.466776">
        <ele>367</ele>
      </trkpt>
      <trkpt lat="43.875631" lon="5.467152">
        <ele>367.2</ele>
      </trkpt>
      <trkpt lat="43.875981" lon="5.467436">
        <ele>367.7</ele>
      </trkpt>
      <trkpt lat="43.876124" lon="5.467469">
        <ele>367.4</ele>
      </trkpt>
      <trkpt lat="43.876434" lon="5.467823">
        <ele>363.4</ele>
      </trkpt>
      <trkpt lat="43.876880" lon="5.467994">
        <ele>361.8</ele>
      </trkpt>
      <trkpt lat="43.877422" lon="5.468163">
        <ele>361</ele>
      </trkpt>
      <trkpt lat="43.877901" lon="5.468354">
        <ele>363.1</ele>
      </trkpt>
      <trkpt lat="43.878278" lon="5.468423">
        <ele>364.6</ele>
      </trkpt>
      <trkpt lat="43.878541" lon="5.468557">
        <ele>367.8</ele>
      </trkpt>
      <trkpt lat="43.878763" lon="5.468713">
        <ele>368.9</ele>
      </trkpt>
      <trkpt lat="43.878935" lon="5.468753">
        <ele>369.4</ele>
      </trkpt>
      <trkpt lat="43.879048" lon="5.468788">
        <ele>369.9</ele>
      </trkpt>
      <trkpt lat="43.879658" lon="5.469030">
        <ele>375.2</ele>
      </trkpt>
      <trkpt lat="43.879999" lon="5.469190">
        <ele>380.5</ele>
      </trkpt>
      <trkpt lat="43.880109" lon="5.469233">
        <ele>382.1</ele>
      </trkpt>
      <trkpt lat="43.880370" lon="5.469515">
        <ele>383.8</ele>
      </trkpt>
      <trkpt lat="43.881079" lon="5.469783">
        <ele>390.1</ele>
      </trkpt>
      <trkpt lat="43.881449" lon="5.470183">
        <ele>392.4</ele>
      </trkpt>
      <trkpt lat="43.881797" lon="5.470298">
        <ele>396.4</ele>
      </trkpt>
      <trkpt lat="43.881895" lon="5.470360">
        <ele>396.9</ele>
      </trkpt>
      <trkpt lat="43.881926" lon="5.470451">
        <ele>397.1</ele>
      </trkpt>
      <trkpt lat="43.881928" lon="5.470829">
        <ele>397.3</ele>
      </trkpt>
      <trkpt lat="43.881980" lon="5.471041">
        <ele>400.8</ele>
      </trkpt>
      <trkpt lat="43.882425" lon="5.471878">
        <ele>407.5</ele>
      </trkpt>
      <trkpt lat="43.882711" lon="5.472189">
        <ele>411.1</ele>
      </trkpt>
      <trkpt lat="43.883028" lon="5.472414">
        <ele>412.1</ele>
      </trkpt>
      <trkpt lat="43.883017" lon="5.472500">
        <ele>414.9</ele>
      </trkpt>
      <trkpt lat="43.882910" lon="5.472999">
        <ele>416</ele>
      </trkpt>
      <trkpt lat="43.882868" lon="5.473088">
        <ele>416.1</ele>
      </trkpt>
      <trkpt lat="43.882777" lon="5.473222">
        <ele>416.3</ele>
      </trkpt>
      <trkpt lat="43.882479" lon="5.473579">
        <ele>418.5</ele>
      </trkpt>
      <trkpt lat="43.882388" lon="5.473638">
        <ele>418.8</ele>
      </trkpt>
      <trkpt lat="43.881891" lon="5.473662">
        <ele>418.4</ele>
      </trkpt>
      <trkpt lat="43.881590" lon="5.473710">
        <ele>417</ele>
      </trkpt>
      <trkpt lat="43.881130" lon="5.473858">
        <ele>416.9</ele>
      </trkpt>
      <trkpt lat="43.881045" lon="5.473849">
        <ele>416.8</ele>
      </trkpt>
      <trkpt lat="43.880820" lon="5.473922">
        <ele>414.8</ele>
      </trkpt>
      <trkpt lat="43.880376" lon="5.474225">
        <ele>416.9</ele>
      </trkpt>
      <trkpt lat="43.879819" lon="5.474724">
        <ele>412.5</ele>
      </trkpt>
      <trkpt lat="43.879734" lon="5.474871">
        <ele>412.7</ele>
      </trkpt>
      <trkpt lat="43.879703" lon="5.474925">
        <ele>412.6</ele>
      </trkpt>
      <trkpt lat="43.879370" lon="5.475695">
        <ele>416.7</ele>
      </trkpt>
      <trkpt lat="43.879328" lon="5.475735">
        <ele>416.5</ele>
      </trkpt>
      <trkpt lat="43.879249" lon="5.475757">
        <ele>416.3</ele>
      </trkpt>
      <trkpt lat="43.878982" lon="5.475722">
        <ele>412.1</ele>
      </trkpt>
      <trkpt lat="43.878717" lon="5.475875">
        <ele>414.7</ele>
      </trkpt>
      <trkpt lat="43.878478" lon="5.476068">
        <ele>413.9</ele>
      </trkpt>
      <trkpt lat="43.877944" lon="5.476449">
        <ele>413</ele>
      </trkpt>
      <trkpt lat="43.877704" lon="5.476524">
        <ele>413.5</ele>
      </trkpt>
      <trkpt lat="43.877464" lon="5.476690">
        <ele>416.5</ele>
      </trkpt>
      <trkpt lat="43.877383" lon="5.476668">
        <ele>417.1</ele>
      </trkpt>
      <trkpt lat="43.876258" lon="5.475708">
        <ele>408</ele>
      </trkpt>
      <trkpt lat="43.875976" lon="5.475553">
        <ele>408.6</ele>
      </trkpt>
      <trkpt lat="43.875469" lon="5.475456">
        <ele>409</ele>
      </trkpt>
      <trkpt lat="43.875133" lon="5.475499">
        <ele>409.2</ele>
      </trkpt>
      <trkpt lat="43.873802" lon="5.475598">
        <ele>404.9</ele>
      </trkpt>
      <trkpt lat="43.873485" lon="5.475622">
        <ele>403.6</ele>
      </trkpt>
      <trkpt lat="43.873393" lon="5.475649">
        <ele>403.4</ele>
      </trkpt>
      <trkpt lat="43.873410" lon="5.475743">
        <ele>403.4</ele>
      </trkpt>
      <trkpt lat="43.874084" lon="5.477011">
        <ele>420.7</ele>
      </trkpt>
      <trkpt lat="43.874185" lon="5.477202">
        <ele>425.7</ele>
      </trkpt>
      <trkpt lat="43.874231" lon="5.477355">
        <ele>426.4</ele>
      </trkpt>
      <trkpt lat="43.874282" lon="5.477698">
        <ele>431.6</ele>
      </trkpt>
      <trkpt lat="43.874382" lon="5.477857">
        <ele>433.6</ele>
      </trkpt>
      <trkpt lat="43.874535" lon="5.477959">
        <ele>434.7</ele>
      </trkpt>
      <trkpt lat="43.874605" lon="5.478055">
        <ele>435.4</ele>
      </trkpt>
      <trkpt lat="43.874676" lon="5.478238">
        <ele>436.6</ele>
      </trkpt>
      <trkpt lat="43.874751" lon="5.478323">
        <ele>437.3</ele>
      </trkpt>
      <trkpt lat="43.875198" lon="5.478643">
        <ele>445.2</ele>
      </trkpt>
      <trkpt lat="43.875335" lon="5.478793">
        <ele>446.4</ele>
      </trkpt>
      <trkpt lat="43.875390" lon="5.478892">
        <ele>447.1</ele>
      </trkpt>
      <trkpt lat="43.875368" lon="5.479069">
        <ele>448.1</ele>
      </trkpt>
      <trkpt lat="43.875304" lon="5.479294">
        <ele>454.9</ele>
      </trkpt>
      <trkpt lat="43.875310" lon="5.479439">
        <ele>455.5</ele>
      </trkpt>
      <trkpt lat="43.875554" lon="5.480107">
        <ele>462.1</ele>
      </trkpt>
      <trkpt lat="43.875560" lon="5.480201">
        <ele>462.3</ele>
      </trkpt>
      <trkpt lat="43.875473" lon="5.480475">
        <ele>463.5</ele>
      </trkpt>
      <trkpt lat="43.875409" lon="5.480753">
        <ele>464.4</ele>
      </trkpt>
      <trkpt lat="43.875386" lon="5.480979">
        <ele>469.9</ele>
      </trkpt>
      <trkpt lat="43.875390" lon="5.481207">
        <ele>471</ele>
      </trkpt>
      <trkpt lat="43.875438" lon="5.481352">
        <ele>471.8</ele>
      </trkpt>
      <trkpt lat="43.875408" lon="5.481384">
        <ele>472</ele>
      </trkpt>
      <trkpt lat="43.875215" lon="5.481443">
        <ele>472.8</ele>
      </trkpt>
      <trkpt lat="43.875074" lon="5.481523">
        <ele>474.2</ele>
      </trkpt>
      <trkpt lat="43.874974" lon="5.481625">
        <ele>475.8</ele>
      </trkpt>
      <trkpt lat="43.874888" lon="5.481759">
        <ele>476.8</ele>
      </trkpt>
      <trkpt lat="43.875221" lon="5.481832">
        <ele>478.8</ele>
      </trkpt>
      <trkpt lat="43.875637" lon="5.482089">
        <ele>480.3</ele>
      </trkpt>
      <trkpt lat="43.875789" lon="5.482213">
        <ele>481.7</ele>
      </trkpt>
      <trkpt lat="43.875911" lon="5.482374">
        <ele>483.6</ele>
      </trkpt>
      <trkpt lat="43.875954" lon="5.482518">
        <ele>488.4</ele>
      </trkpt>
      <trkpt lat="43.876002" lon="5.482674">
        <ele>489.5</ele>
      </trkpt>
      <trkpt lat="43.876164" lon="5.483023">
        <ele>491.8</ele>
      </trkpt>
      <trkpt lat="43.876304" lon="5.483224">
        <ele>493.2</ele>
      </trkpt>
      <trkpt lat="43.876260" lon="5.483323">
        <ele>493.3</ele>
      </trkpt>
      <trkpt lat="43.875946" lon="5.483752">
        <ele>501</ele>
      </trkpt>
      <trkpt lat="43.875772" lon="5.484146">
        <ele>503.8</ele>
      </trkpt>
      <trkpt lat="43.875724" lon="5.484227">
        <ele>508.2</ele>
      </trkpt>
      <trkpt lat="43.875260" lon="5.484466">
        <ele>509.9</ele>
      </trkpt>
      <trkpt lat="43.875132" lon="5.484610">
        <ele>511.1</ele>
      </trkpt>
      <trkpt lat="43.875082" lon="5.484678">
        <ele>511.8</ele>
      </trkpt>
      <trkpt lat="43.875014" lon="5.484841">
        <ele>513.8</ele>
      </trkpt>
      <trkpt lat="43.875014" lon="5.485048">
        <ele>517.4</ele>
      </trkpt>
      <trkpt lat="43.875273" lon="5.485981">
        <ele>526.1</ele>
      </trkpt>
      <trkpt lat="43.875349" lon="5.486585">
        <ele>526.3</ele>
      </trkpt>
      <trkpt lat="43.875353" lon="5.486767">
        <ele>523.6</ele>
      </trkpt>
      <trkpt lat="43.875342" lon="5.487016">
        <ele>522.8</ele>
      </trkpt>
      <trkpt lat="43.875237" lon="5.487682">
        <ele>517.7</ele>
      </trkpt>
      <trkpt lat="43.875233" lon="5.488052">
        <ele>517.8</ele>
      </trkpt>
      <trkpt lat="43.875206" lon="5.488127">
        <ele>517.4</ele>
      </trkpt>
      <trkpt lat="43.875032" lon="5.488438">
        <ele>515.8</ele>
      </trkpt>
      <trkpt lat="43.874655" lon="5.489530">
        <ele>512.4</ele>
      </trkpt>
      <trkpt lat="43.874516" lon="5.489822">
        <ele>512.1</ele>
      </trkpt>
      <trkpt lat="43.874479" lon="5.490037">
        <ele>514.7</ele>
      </trkpt>
      <trkpt lat="43.874392" lon="5.490235">
        <ele>514.6</ele>
      </trkpt>
      <trkpt lat="43.874349" lon="5.490458">
        <ele>515.3</ele>
      </trkpt>
      <trkpt lat="43.874342" lon="5.490804">
        <ele>515.4</ele>
      </trkpt>
      <trkpt lat="43.874365" lon="5.491305">
        <ele>517.9</ele>
      </trkpt>
      <trkpt lat="43.874278" lon="5.491810">
        <ele>517.8</ele>
      </trkpt>
      <trkpt lat="43.874121" lon="5.492142">
        <ele>519.8</ele>
      </trkpt>
      <trkpt lat="43.874071" lon="5.492236">
        <ele>519.8</ele>
      </trkpt>
      <trkpt lat="43.873961" lon="5.492325">
        <ele>520.1</ele>
      </trkpt>
      <trkpt lat="43.873895" lon="5.492357">
        <ele>520.5</ele>
      </trkpt>
      <trkpt lat="43.873814" lon="5.492467">
        <ele>521</ele>
      </trkpt>
      <trkpt lat="43.873566" lon="5.492547">
        <ele>523.1</ele>
      </trkpt>
      <trkpt lat="43.873491" lon="5.492587">
        <ele>523.6</ele>
      </trkpt>
      <trkpt lat="43.873193" lon="5.492520">
        <ele>525.7</ele>
      </trkpt>
      <trkpt lat="43.873058" lon="5.492520">
        <ele>526.1</ele>
      </trkpt>
      <trkpt lat="43.872932" lon="5.492593">
        <ele>526.5</ele>
      </trkpt>
      <trkpt lat="43.872855" lon="5.492649">
        <ele>526.6</ele>
      </trkpt>
      <trkpt lat="43.872499" lon="5.492869">
        <ele>528.9</ele>
      </trkpt>
      <trkpt lat="43.872331" lon="5.492783">
        <ele>529.2</ele>
      </trkpt>
      <trkpt lat="43.872215" lon="5.492767">
        <ele>529.4</ele>
      </trkpt>
      <trkpt lat="43.871998" lon="5.492829">
        <ele>530</ele>
      </trkpt>
      <trkpt lat="43.871826" lon="5.492915">
        <ele>530.4</ele>
      </trkpt>
      <trkpt lat="43.871667" lon="5.492963">
        <ele>530.6</ele>
      </trkpt>
      <trkpt lat="43.871563" lon="5.492963">
        <ele>533.9</ele>
      </trkpt>
      <trkpt lat="43.871375" lon="5.493194">
        <ele>534.2</ele>
      </trkpt>
      <trkpt lat="43.871352" lon="5.493354">
        <ele>535.2</ele>
      </trkpt>
      <trkpt lat="43.871331" lon="5.493497">
        <ele>535.5</ele>
      </trkpt>
      <trkpt lat="43.871261" lon="5.493534">
        <ele>535.9</ele>
      </trkpt>
      <trkpt lat="43.870836" lon="5.493859">
        <ele>537.3</ele>
      </trkpt>
      <trkpt lat="43.870619" lon="5.494065">
        <ele>539.5</ele>
      </trkpt>
      <trkpt lat="43.870538" lon="5.494167">
        <ele>539.9</ele>
      </trkpt>
      <trkpt lat="43.870503" lon="5.494213">
        <ele>540</ele>
      </trkpt>
      <trkpt lat="43.870472" lon="5.494320">
        <ele>540.1</ele>
      </trkpt>
      <trkpt lat="43.870347" lon="5.494371">
        <ele>540.3</ele>
      </trkpt>
      <trkpt lat="43.870169" lon="5.494730">
        <ele>540.5</ele>
      </trkpt>
      <trkpt lat="43.869716" lon="5.495677">
        <ele>542.7</ele>
      </trkpt>
      <trkpt lat="43.869305" lon="5.496208">
        <ele>543.9</ele>
      </trkpt>
      <trkpt lat="43.868703" lon="5.496874">
        <ele>541.9</ele>
      </trkpt>
      <trkpt lat="43.868624" lon="5.497010">
        <ele>541.5</ele>
      </trkpt>
      <trkpt lat="43.868483" lon="5.497228">
        <ele>540.7</ele>
      </trkpt>
      <trkpt lat="43.868349" lon="5.497499">
        <ele>538.2</ele>
      </trkpt>
      <trkpt lat="43.868353" lon="5.497673">
        <ele>537.8</ele>
      </trkpt>
      <trkpt lat="43.868326" lon="5.497949">
        <ele>533.7</ele>
      </trkpt>
      <trkpt lat="43.868301" lon="5.498094">
        <ele>533</ele>
      </trkpt>
      <trkpt lat="43.868266" lon="5.498185">
        <ele>532.7</ele>
      </trkpt>
      <trkpt lat="43.868073" lon="5.498486">
        <ele>528.6</ele>
      </trkpt>
      <trkpt lat="43.868005" lon="5.498663">
        <ele>527.6</ele>
      </trkpt>
      <trkpt lat="43.867905" lon="5.498976">
        <ele>526.2</ele>
      </trkpt>
      <trkpt lat="43.867794" lon="5.499127">
        <ele>524.9</ele>
      </trkpt>
      <trkpt lat="43.867779" lon="5.499178">
        <ele>523.4</ele>
      </trkpt>
      <trkpt lat="43.867698" lon="5.499290">
        <ele>522.9</ele>
      </trkpt>
      <trkpt lat="43.867613" lon="5.499438">
        <ele>522.9</ele>
      </trkpt>
      <trkpt lat="43.867489" lon="5.499558">
        <ele>518.9</ele>
      </trkpt>
      <trkpt lat="43.867379" lon="5.499687">
        <ele>518.7</ele>
      </trkpt>
      <trkpt lat="43.867363" lon="5.499789">
        <ele>518.6</ele>
      </trkpt>
      <trkpt lat="43.867315" lon="5.499972">
        <ele>518.4</ele>
      </trkpt>
      <trkpt lat="43.867205" lon="5.500057">
        <ele>518.1</ele>
      </trkpt>
      <trkpt lat="43.867150" lon="5.500146">
        <ele>518</ele>
      </trkpt>
      <trkpt lat="43.866998" lon="5.500259">
        <ele>517.3</ele>
      </trkpt>
      <trkpt lat="43.866791" lon="5.500492">
        <ele>516.6</ele>
      </trkpt>
      <trkpt lat="43.866623" lon="5.500765">
        <ele>512.1</ele>
      </trkpt>
      <trkpt lat="43.866586" lon="5.500851">
        <ele>511.4</ele>
      </trkpt>
      <trkpt lat="43.866487" lon="5.501079">
        <ele>509</ele>
      </trkpt>
      <trkpt lat="43.866307" lon="5.501431">
        <ele>507.4</ele>
      </trkpt>
      <trkpt lat="43.866195" lon="5.501766">
        <ele>504.4</ele>
      </trkpt>
      <trkpt lat="43.866141" lon="5.501997">
        <ele>503.9</ele>
      </trkpt>
      <trkpt lat="43.866100" lon="5.502123">
        <ele>503.5</ele>
      </trkpt>
      <trkpt lat="43.866112" lon="5.502313">
        <ele>503.2</ele>
      </trkpt>
      <trkpt lat="43.866156" lon="5.502477">
        <ele>503.3</ele>
      </trkpt>
      <trkpt lat="43.866164" lon="5.502554">
        <ele>504.4</ele>
      </trkpt>
      <trkpt lat="43.866122" lon="5.502613">
        <ele>504.1</ele>
      </trkpt>
      <trkpt lat="43.866068" lon="5.502640">
        <ele>503.6</ele>
      </trkpt>
      <trkpt lat="43.866027" lon="5.502635">
        <ele>503.1</ele>
      </trkpt>
      <trkpt lat="43.865946" lon="5.502579">
        <ele>501.5</ele>
      </trkpt>
      <trkpt lat="43.865843" lon="5.502549">
        <ele>499.5</ele>
      </trkpt>
      <trkpt lat="43.865702" lon="5.502410">
        <ele>498.4</ele>
      </trkpt>
      <trkpt lat="43.865640" lon="5.502402">
        <ele>498.4</ele>
      </trkpt>
      <trkpt lat="43.865590" lon="5.502442">
        <ele>498.4</ele>
      </trkpt>
      <trkpt lat="43.865499" lon="5.502581">
        <ele>496.9</ele>
      </trkpt>
      <trkpt lat="43.865437" lon="5.502801">
        <ele>496.8</ele>
      </trkpt>
      <trkpt lat="43.865282" lon="5.502968">
        <ele>496.1</ele>
      </trkpt>
      <trkpt lat="43.865193" lon="5.503123">
        <ele>495.2</ele>
      </trkpt>
      <trkpt lat="43.865006" lon="5.503236">
        <ele>492.9</ele>
      </trkpt>
      <trkpt lat="43.864894" lon="5.503362">
        <ele>491.2</ele>
      </trkpt>
      <trkpt lat="43.864520" lon="5.503748">
        <ele>490.8</ele>
      </trkpt>
      <trkpt lat="43.864513" lon="5.503820">
        <ele>490.6</ele>
      </trkpt>
      <trkpt lat="43.864493" lon="5.503890">
        <ele>490.4</ele>
      </trkpt>
      <trkpt lat="43.864391" lon="5.504043">
        <ele>488.9</ele>
      </trkpt>
      <trkpt lat="43.864294" lon="5.504207">
        <ele>487</ele>
      </trkpt>
      <trkpt lat="43.864232" lon="5.504309">
        <ele>487.2</ele>
      </trkpt>
      <trkpt lat="43.864205" lon="5.504427">
        <ele>488.3</ele>
      </trkpt>
      <trkpt lat="43.864201" lon="5.504512">
        <ele>488.7</ele>
      </trkpt>
      <trkpt lat="43.864271" lon="5.504655">
        <ele>489.3</ele>
      </trkpt>
      <trkpt lat="43.864285" lon="5.504673">
        <ele>489.4</ele>
      </trkpt>
      <trkpt lat="43.864267" lon="5.504708">
        <ele>489.3</ele>
      </trkpt>
      <trkpt lat="43.864132" lon="5.504757">
        <ele>484.2</ele>
      </trkpt>
      <trkpt lat="43.864066" lon="5.504732">
        <ele>483.9</ele>
      </trkpt>
      <trkpt lat="43.863958" lon="5.504770">
        <ele>483.6</ele>
      </trkpt>
      <trkpt lat="43.863683" lon="5.504995">
        <ele>482.3</ele>
      </trkpt>
      <trkpt lat="43.863577" lon="5.505135">
        <ele>485.9</ele>
      </trkpt>
      <trkpt lat="43.863439" lon="5.505239">
        <ele>485.9</ele>
      </trkpt>
      <trkpt lat="43.863202" lon="5.505379">
        <ele>479</ele>
      </trkpt>
      <trkpt lat="43.862939" lon="5.505669">
        <ele>478.5</ele>
      </trkpt>
      <trkpt lat="43.862846" lon="5.505891">
        <ele>485.4</ele>
      </trkpt>
      <trkpt lat="43.862679" lon="5.506436">
        <ele>487.5</ele>
      </trkpt>
      <trkpt lat="43.862687" lon="5.506503">
        <ele>487.8</ele>
      </trkpt>
      <trkpt lat="43.862581" lon="5.506795">
        <ele>491.5</ele>
      </trkpt>
      <trkpt lat="43.862434" lon="5.507230">
        <ele>484.8</ele>
      </trkpt>
      <trkpt lat="43.862327" lon="5.507436">
        <ele>486.8</ele>
      </trkpt>
      <trkpt lat="43.862258" lon="5.507653">
        <ele>491.4</ele>
      </trkpt>
      <trkpt lat="43.862144" lon="5.508042">
        <ele>491.7</ele>
      </trkpt>
      <trkpt lat="43.862088" lon="5.508182">
        <ele>491.8</ele>
      </trkpt>
      <trkpt lat="43.861927" lon="5.508396">
        <ele>495.2</ele>
      </trkpt>
      <trkpt lat="43.861819" lon="5.508589">
        <ele>495.5</ele>
      </trkpt>
      <trkpt lat="43.861763" lon="5.508791">
        <ele>497</ele>
      </trkpt>
      <trkpt lat="43.861631" lon="5.509094">
        <ele>493.4</ele>
      </trkpt>
      <trkpt lat="43.861521" lon="5.509335">
        <ele>493.9</ele>
      </trkpt>
      <trkpt lat="43.861502" lon="5.509458">
        <ele>493.5</ele>
      </trkpt>
      <trkpt lat="43.861490" lon="5.509646">
        <ele>494.1</ele>
      </trkpt>
      <trkpt lat="43.861490" lon="5.509732">
        <ele>494.8</ele>
      </trkpt>
      <trkpt lat="43.861509" lon="5.509788">
        <ele>495.6</ele>
      </trkpt>
      <trkpt lat="43.861550" lon="5.509815">
        <ele>496.4</ele>
      </trkpt>
      <trkpt lat="43.861579" lon="5.509877">
        <ele>497.9</ele>
      </trkpt>
      <trkpt lat="43.861581" lon="5.510177">
        <ele>499</ele>
      </trkpt>
      <trkpt lat="43.861608" lon="5.510456">
        <ele>497.5</ele>
      </trkpt>
      <trkpt lat="43.861602" lon="5.510539">
        <ele>497.4</ele>
      </trkpt>
      <trkpt lat="43.861552" lon="5.510582">
        <ele>497.3</ele>
      </trkpt>
      <trkpt lat="43.861450" lon="5.510596">
        <ele>496.9</ele>
      </trkpt>
      <trkpt lat="43.861357" lon="5.510590">
        <ele>496.4</ele>
      </trkpt>
      <trkpt lat="43.861314" lon="5.510617">
        <ele>496.2</ele>
      </trkpt>
      <trkpt lat="43.861297" lon="5.510660">
        <ele>496.1</ele>
      </trkpt>
      <trkpt lat="43.861308" lon="5.510813">
        <ele>496.2</ele>
      </trkpt>
      <trkpt lat="43.861293" lon="5.510867">
        <ele>491.2</ele>
      </trkpt>
      <trkpt lat="43.861235" lon="5.510907">
        <ele>490.7</ele>
      </trkpt>
      <trkpt lat="43.861159" lon="5.510918">
        <ele>490.4</ele>
      </trkpt>
      <trkpt lat="43.861007" lon="5.510923">
        <ele>490.5</ele>
      </trkpt>
      <trkpt lat="43.860836" lon="5.510934">
        <ele>491.2</ele>
      </trkpt>
      <trkpt lat="43.860740" lon="5.510934">
        <ele>488.4</ele>
      </trkpt>
      <trkpt lat="43.860682" lon="5.510936">
        <ele>487.3</ele>
      </trkpt>
      <trkpt lat="43.860645" lon="5.510979">
        <ele>486.3</ele>
      </trkpt>
      <trkpt lat="43.860643" lon="5.511030">
        <ele>485.6</ele>
      </trkpt>
      <trkpt lat="43.860674" lon="5.511068">
        <ele>485.4</ele>
      </trkpt>
      <trkpt lat="43.860753" lon="5.511092">
        <ele>485.6</ele>
      </trkpt>
      <trkpt lat="43.861007" lon="5.511079">
        <ele>489.2</ele>
      </trkpt>
      <trkpt lat="43.861065" lon="5.511092">
        <ele>489</ele>
      </trkpt>
      <trkpt lat="43.861103" lon="5.511172">
        <ele>488.3</ele>
      </trkpt>
      <trkpt lat="43.861310" lon="5.511290">
        <ele>487.8</ele>
      </trkpt>
      <trkpt lat="43.861479" lon="5.511414">
        <ele>486.9</ele>
      </trkpt>
      <trkpt lat="43.861865" lon="5.511728">
        <ele>482.1</ele>
      </trkpt>
      <trkpt lat="43.861939" lon="5.511784">
        <ele>482</ele>
      </trkpt>
      <trkpt lat="43.861952" lon="5.511835">
        <ele>481.8</ele>
      </trkpt>
      <trkpt lat="43.861952" lon="5.511905">
        <ele>481.3</ele>
      </trkpt>
      <trkpt lat="43.861887" lon="5.511942">
        <ele>480.7</ele>
      </trkpt>
      <trkpt lat="43.861502" lon="5.511762">
        <ele>477.6</ele>
      </trkpt>
      <trkpt lat="43.861318" lon="5.511722">
        <ele>475.8</ele>
      </trkpt>
      <trkpt lat="43.861117" lon="5.511698">
        <ele>475.1</ele>
      </trkpt>
      <trkpt lat="43.860885" lon="5.511693">
        <ele>476.2</ele>
      </trkpt>
      <trkpt lat="43.860767" lon="5.511690">
        <ele>475.5</ele>
      </trkpt>
      <trkpt lat="43.860684" lon="5.511717">
        <ele>474.2</ele>
      </trkpt>
      <trkpt lat="43.860564" lon="5.511819">
        <ele>472.7</ele>
      </trkpt>
      <trkpt lat="43.860486" lon="5.511931">
        <ele>471.8</ele>
      </trkpt>
      <trkpt lat="43.860467" lon="5.512055">
        <ele>470.7</ele>
      </trkpt>
      <trkpt lat="43.860527" lon="5.512218">
        <ele>469.3</ele>
      </trkpt>
      <trkpt lat="43.860637" lon="5.512269">
        <ele>468.7</ele>
      </trkpt>
      <trkpt lat="43.860867" lon="5.512441">
        <ele>466.1</ele>
      </trkpt>
      <trkpt lat="43.861533" lon="5.513138">
        <ele>461.3</ele>
      </trkpt>
      <trkpt lat="43.861838" lon="5.513423">
        <ele>458.5</ele>
      </trkpt>
      <trkpt lat="43.861933" lon="5.513482">
        <ele>458.2</ele>
      </trkpt>
      <trkpt lat="43.862351" lon="5.513678">
        <ele>458.1</ele>
      </trkpt>
      <trkpt lat="43.862670" lon="5.513801">
        <ele>459.3</ele>
      </trkpt>
      <trkpt lat="43.863084" lon="5.513997">
        <ele>458.3</ele>
      </trkpt>
      <trkpt lat="43.864198" lon="5.514431">
        <ele>451.8</ele>
      </trkpt>
      <trkpt lat="43.864462" lon="5.514506">
        <ele>450.7</ele>
      </trkpt>
      <trkpt lat="43.864830" lon="5.514498">
        <ele>451.5</ele>
      </trkpt>
      <trkpt lat="43.865089" lon="5.514547">
        <ele>453.7</ele>
      </trkpt>
      <trkpt lat="43.865217" lon="5.514598">
        <ele>453.3</ele>
      </trkpt>
      <trkpt lat="43.865516" lon="5.514885">
        <ele>451.6</ele>
      </trkpt>
      <trkpt lat="43.865818" lon="5.515515">
        <ele>442.5</ele>
      </trkpt>
      <trkpt lat="43.865948" lon="5.515668">
        <ele>445.9</ele>
      </trkpt>
      <trkpt lat="43.865998" lon="5.515716">
        <ele>446</ele>
      </trkpt>
      <trkpt lat="43.866244" lon="5.515874">
        <ele>442.9</ele>
      </trkpt>
      <trkpt lat="43.866315" lon="5.515901">
        <ele>443.3</ele>
      </trkpt>
      <trkpt lat="43.866396" lon="5.515815">
        <ele>448.6</ele>
      </trkpt>
      <trkpt lat="43.866915" lon="5.515729">
        <ele>452.6</ele>
      </trkpt>
      <trkpt lat="43.867083" lon="5.515649">
        <ele>453.5</ele>
      </trkpt>
      <trkpt lat="43.867305" lon="5.515424">
        <ele>455</ele>
      </trkpt>
      <trkpt lat="43.867469" lon="5.515126">
        <ele>458.4</ele>
      </trkpt>
      <trkpt lat="43.867734" lon="5.514831">
        <ele>466.5</ele>
      </trkpt>
      <trkpt lat="43.867934" lon="5.514649">
        <ele>468.5</ele>
      </trkpt>
      <trkpt lat="43.868224" lon="5.514399">
        <ele>471.7</ele>
      </trkpt>
      <trkpt lat="43.868521" lon="5.514297">
        <ele>471.8</ele>
      </trkpt>
      <trkpt lat="43.868875" lon="5.514327">
        <ele>470.5</ele>
      </trkpt>
      <trkpt lat="43.868987" lon="5.514327">
        <ele>470.9</ele>
      </trkpt>
      <trkpt lat="43.869196" lon="5.514241">
        <ele>472.7</ele>
      </trkpt>
      <trkpt lat="43.869359" lon="5.514064">
        <ele>475.9</ele>
      </trkpt>
      <trkpt lat="43.869602" lon="5.513517">
        <ele>477.6</ele>
      </trkpt>
      <trkpt lat="43.869658" lon="5.513436">
        <ele>477.6</ele>
      </trkpt>
      <trkpt lat="43.870047" lon="5.513179">
        <ele>478.7</ele>
      </trkpt>
      <trkpt lat="43.870113" lon="5.513165">
        <ele>479</ele>
      </trkpt>
      <trkpt lat="43.870202" lon="5.513214">
        <ele>479.2</ele>
      </trkpt>
      <trkpt lat="43.870343" lon="5.513350">
        <ele>477.3</ele>
      </trkpt>
      <trkpt lat="43.870670" lon="5.513318">
        <ele>480.6</ele>
      </trkpt>
      <trkpt lat="43.871230" lon="5.513525">
        <ele>480.4</ele>
      </trkpt>
      <trkpt lat="43.871317" lon="5.513541">
        <ele>480.4</ele>
      </trkpt>
      <trkpt lat="43.871615" lon="5.513511">
        <ele>480.9</ele>
      </trkpt>
      <trkpt lat="43.871892" lon="5.513533">
        <ele>480.8</ele>
      </trkpt>
      <trkpt lat="43.872101" lon="5.513533">
        <ele>480.7</ele>
      </trkpt>
      <trkpt lat="43.872532" lon="5.513600">
        <ele>479.5</ele>
      </trkpt>
      <trkpt lat="43.872683" lon="5.513643">
        <ele>479.1</ele>
      </trkpt>
      <trkpt lat="43.872849" lon="5.513637">
        <ele>478.6</ele>
      </trkpt>
      <trkpt lat="43.873203" lon="5.513517">
        <ele>478.1</ele>
      </trkpt>
      <trkpt lat="43.873404" lon="5.513495">
        <ele>477.7</ele>
      </trkpt>
      <trkpt lat="43.873696" lon="5.513527">
        <ele>477.9</ele>
      </trkpt>
      <trkpt lat="43.874034" lon="5.513573">
        <ele>478.6</ele>
      </trkpt>
      <trkpt lat="43.874247" lon="5.513549">
        <ele>480.1</ele>
      </trkpt>
      <trkpt lat="43.874719" lon="5.513678">
        <ele>480.3</ele>
      </trkpt>
      <trkpt lat="43.874986" lon="5.513817">
        <ele>479.8</ele>
      </trkpt>
      <trkpt lat="43.875361" lon="5.514064">
        <ele>479.8</ele>
      </trkpt>
      <trkpt lat="43.875449" lon="5.514096">
        <ele>479.8</ele>
      </trkpt>
      <trkpt lat="43.876605" lon="5.514246">
        <ele>473.5</ele>
      </trkpt>
      <trkpt lat="43.876683" lon="5.514295">
        <ele>471</ele>
      </trkpt>
      <trkpt lat="43.876807" lon="5.514289">
        <ele>469.7</ele>
      </trkpt>
      <trkpt lat="43.877403" lon="5.514278">
        <ele>465.6</ele>
      </trkpt>
      <trkpt lat="43.877557" lon="5.514182">
        <ele>463.1</ele>
      </trkpt>
      <trkpt lat="43.877959" lon="5.514155">
        <ele>457.6</ele>
      </trkpt>
      <trkpt lat="43.878095" lon="5.514064">
        <ele>455.4</ele>
      </trkpt>
      <trkpt lat="43.878427" lon="5.513806">
        <ele>449.6</ele>
      </trkpt>
      <trkpt lat="43.878555" lon="5.513817">
        <ele>449.4</ele>
      </trkpt>
      <trkpt lat="43.878779" lon="5.513908">
        <ele>448.5</ele>
      </trkpt>
      <trkpt lat="43.879204" lon="5.513662">
        <ele>448.4</ele>
      </trkpt>
      <trkpt lat="43.879464" lon="5.513479">
        <ele>448.6</ele>
      </trkpt>
      <trkpt lat="43.879781" lon="5.513173">
        <ele>449.5</ele>
      </trkpt>
      <trkpt lat="43.879931" lon="5.513007">
        <ele>449.7</ele>
      </trkpt>
      <trkpt lat="43.880167" lon="5.512948">
        <ele>447.1</ele>
      </trkpt>
      <trkpt lat="43.880303" lon="5.512927">
        <ele>447.3</ele>
      </trkpt>
      <trkpt lat="43.880395" lon="5.512948">
        <ele>447.4</ele>
      </trkpt>
      <trkpt lat="43.880566" lon="5.512841">
        <ele>447.6</ele>
      </trkpt>
      <trkpt lat="43.880658" lon="5.512894">
        <ele>447.7</ele>
      </trkpt>
      <trkpt lat="43.881343" lon="5.512707">
        <ele>452.8</ele>
      </trkpt>
      <trkpt lat="43.881814" lon="5.512680">
        <ele>457.6</ele>
      </trkpt>
      <trkpt lat="43.882054" lon="5.512755">
        <ele>460.3</ele>
      </trkpt>
      <trkpt lat="43.882715" lon="5.513039">
        <ele>469</ele>
      </trkpt>
      <trkpt lat="43.883202" lon="5.513104">
        <ele>471.1</ele>
      </trkpt>
      <trkpt lat="43.883531" lon="5.513093">
        <ele>470.9</ele>
      </trkpt>
      <trkpt lat="43.883744" lon="5.513120">
        <ele>470.1</ele>
      </trkpt>
      <trkpt lat="43.884018" lon="5.513259">
        <ele>470.6</ele>
      </trkpt>
      <trkpt lat="43.884301" lon="5.513404">
        <ele>477.5</ele>
      </trkpt>
      <trkpt lat="43.884703" lon="5.513506">
        <ele>480.8</ele>
      </trkpt>
      <trkpt lat="43.885082" lon="5.513640">
        <ele>480.3</ele>
      </trkpt>
      <trkpt lat="43.885789" lon="5.513291">
        <ele>471.1</ele>
      </trkpt>
      <trkpt lat="43.886006" lon="5.513324">
        <ele>470.8</ele>
      </trkpt>
      <trkpt lat="43.886207" lon="5.513425">
        <ele>477.4</ele>
      </trkpt>
      <trkpt lat="43.886655" lon="5.513517">
        <ele>477.1</ele>
      </trkpt>
      <trkpt lat="43.886922" lon="5.513431">
        <ele>476.6</ele>
      </trkpt>
      <trkpt lat="43.887119" lon="5.513549">
        <ele>477</ele>
      </trkpt>
      <trkpt lat="43.887564" lon="5.513699">
        <ele>476.2</ele>
      </trkpt>
      <trkpt lat="43.887656" lon="5.513731">
        <ele>476.5</ele>
      </trkpt>
      <trkpt lat="43.887753" lon="5.513694">
        <ele>476.2</ele>
      </trkpt>
      <trkpt lat="43.887900" lon="5.513774">
        <ele>476.7</ele>
      </trkpt>
      <trkpt lat="43.888739" lon="5.514096">
        <ele>476.7</ele>
      </trkpt>
      <trkpt lat="43.889257" lon="5.514375">
        <ele>481.2</ele>
      </trkpt>
      <trkpt lat="43.889926" lon="5.514826">
        <ele>485.6</ele>
      </trkpt>
      <trkpt lat="43.890289" lon="5.515029">
        <ele>492.7</ele>
      </trkpt>
      <trkpt lat="43.891012" lon="5.515308">
        <ele>497.6</ele>
      </trkpt>
      <trkpt lat="43.891855" lon="5.515818">
        <ele>505.4</ele>
      </trkpt>
      <trkpt lat="43.892323" lon="5.516086">
        <ele>511.6</ele>
      </trkpt>
      <trkpt lat="43.893022" lon="5.516344">
        <ele>515.1</ele>
      </trkpt>
      <trkpt lat="43.893614" lon="5.516408">
        <ele>518.5</ele>
      </trkpt>
      <trkpt lat="43.894248" lon="5.516376">
        <ele>520.9</ele>
      </trkpt>
      <trkpt lat="43.894557" lon="5.516397">
        <ele>520.6</ele>
      </trkpt>
      <trkpt lat="43.895257" lon="5.516714">
        <ele>527.5</ele>
      </trkpt>
      <trkpt lat="43.896007" lon="5.516869">
        <ele>529.1</ele>
      </trkpt>
      <trkpt lat="43.896239" lon="5.517041">
        <ele>530.6</ele>
      </trkpt>
      <trkpt lat="43.896382" lon="5.516939">
        <ele>530.4</ele>
      </trkpt>
      <trkpt lat="43.896583" lon="5.516939">
        <ele>530.6</ele>
      </trkpt>
      <trkpt lat="43.897232" lon="5.516987">
        <ele>534.7</ele>
      </trkpt>
      <trkpt lat="43.897650" lon="5.517079">
        <ele>537.5</ele>
      </trkpt>
      <trkpt lat="43.897986" lon="5.517175">
        <ele>538.2</ele>
      </trkpt>
      <trkpt lat="43.898303" lon="5.517288">
        <ele>539.5</ele>
      </trkpt>
      <trkpt lat="43.898580" lon="5.517384">
        <ele>539</ele>
      </trkpt>
      <trkpt lat="43.898812" lon="5.517545">
        <ele>542.5</ele>
      </trkpt>
      <trkpt lat="43.899272" lon="5.517792">
        <ele>540.4</ele>
      </trkpt>
      <trkpt lat="43.899790" lon="5.517878">
        <ele>540</ele>
      </trkpt>
      <trkpt lat="43.899957" lon="5.517803">
        <ele>539.3</ele>
      </trkpt>
      <trkpt lat="43.900544" lon="5.517089">
        <ele>534.9</ele>
      </trkpt>
      <trkpt lat="43.900846" lon="5.516966">
        <ele>531.9</ele>
      </trkpt>
      <trkpt lat="43.901089" lon="5.516993">
        <ele>531.1</ele>
      </trkpt>
      <trkpt lat="43.901371" lon="5.516928">
        <ele>528.8</ele>
      </trkpt>
      <trkpt lat="43.901514" lon="5.516987">
        <ele>528.3</ele>
      </trkpt>
      <trkpt lat="43.902051" lon="5.517663">
        <ele>528.9</ele>
      </trkpt>
      <trkpt lat="43.902365" lon="5.517926">
        <ele>527.2</ele>
      </trkpt>
      <trkpt lat="43.902612" lon="5.518194">
        <ele>521.2</ele>
      </trkpt>
      <trkpt lat="43.902720" lon="5.518178">
        <ele>520</ele>
      </trkpt>
      <trkpt lat="43.902780" lon="5.518082">
        <ele>519</ele>
      </trkpt>
      <trkpt lat="43.902813" lon="5.517921">
        <ele>518.1</ele>
      </trkpt>
      <trkpt lat="43.902736" lon="5.517706">
        <ele>517.4</ele>
      </trkpt>
      <trkpt lat="43.902388" lon="5.517240">
        <ele>518.9</ele>
      </trkpt>
      <trkpt lat="43.902183" lon="5.516746">
        <ele>518.5</ele>
      </trkpt>
      <trkpt lat="43.902167" lon="5.516569">
        <ele>515.4</ele>
      </trkpt>
      <trkpt lat="43.902240" lon="5.516387">
        <ele>515.2</ele>
      </trkpt>
      <trkpt lat="43.902310" lon="5.516253">
        <ele>515.2</ele>
      </trkpt>
      <trkpt lat="43.902770" lon="5.515899">
        <ele>518.6</ele>
      </trkpt>
      <trkpt lat="43.903041" lon="5.515823">
        <ele>525.7</ele>
      </trkpt>
      <trkpt lat="43.903327" lon="5.515882">
        <ele>525.5</ele>
      </trkpt>
      <trkpt lat="43.903497" lon="5.515845">
        <ele>524.8</ele>
      </trkpt>
      <trkpt lat="43.904204" lon="5.515272">
        <ele>534.5</ele>
      </trkpt>
      <trkpt lat="43.904204" lon="5.515272">
        <ele>534.5</ele>
      </trkpt>
      <trkpt lat="43.904371" lon="5.515137">
        <ele>535.1</ele>
      </trkpt>
      <trkpt lat="43.904480" lon="5.514971">
        <ele>540</ele>
      </trkpt>
      <trkpt lat="43.904640" lon="5.514724">
        <ele>539</ele>
      </trkpt>
      <trkpt lat="43.904720" lon="5.514392">
        <ele>539.3</ele>
      </trkpt>
      <trkpt lat="43.904730" lon="5.514156">
        <ele>540.4</ele>
      </trkpt>
      <trkpt lat="43.904664" lon="5.513898">
        <ele>541.6</ele>
      </trkpt>
      <trkpt lat="43.904660" lon="5.513576">
        <ele>541.4</ele>
      </trkpt>
      <trkpt lat="43.904641" lon="5.512342">
        <ele>535</ele>
      </trkpt>
      <trkpt lat="43.904452" lon="5.512029">
        <ele>535.9</ele>
      </trkpt>
      <trkpt lat="43.904185" lon="5.511610">
        <ele>536.7</ele>
      </trkpt>
      <trkpt lat="43.903891" lon="5.511251">
        <ele>541.3</ele>
      </trkpt>
      <trkpt lat="43.903683" lon="5.511063">
        <ele>542.7</ele>
      </trkpt>
      <trkpt lat="43.903567" lon="5.510848">
        <ele>544.4</ele>
      </trkpt>
      <trkpt lat="43.903482" lon="5.510628">
        <ele>542.7</ele>
      </trkpt>
      <trkpt lat="43.903389" lon="5.510296">
        <ele>542.4</ele>
      </trkpt>
      <trkpt lat="43.903339" lon="5.509915">
        <ele>545</ele>
      </trkpt>
      <trkpt lat="43.903250" lon="5.509293">
        <ele>547.7</ele>
      </trkpt>
      <trkpt lat="43.903211" lon="5.509094">
        <ele>547.8</ele>
      </trkpt>
      <trkpt lat="43.903207" lon="5.508928">
        <ele>548.2</ele>
      </trkpt>
      <trkpt lat="43.903250" lon="5.508665">
        <ele>548.6</ele>
      </trkpt>
      <trkpt lat="43.903238" lon="5.508375">
        <ele>548.9</ele>
      </trkpt>
      <trkpt lat="43.903196" lon="5.508075">
        <ele>551.3</ele>
      </trkpt>
      <trkpt lat="43.903238" lon="5.507748">
        <ele>552.9</ele>
      </trkpt>
      <trkpt lat="43.903269" lon="5.507512">
        <ele>554.3</ele>
      </trkpt>
      <trkpt lat="43.903304" lon="5.507351">
        <ele>555.7</ele>
      </trkpt>
      <trkpt lat="43.903455" lon="5.507109">
        <ele>553.9</ele>
      </trkpt>
      <trkpt lat="43.903601" lon="5.506922">
        <ele>554.2</ele>
      </trkpt>
      <trkpt lat="43.903752" lon="5.506664">
        <ele>557.4</ele>
      </trkpt>
      <trkpt lat="43.903891" lon="5.506396">
        <ele>557.2</ele>
      </trkpt>
      <trkpt lat="43.903996" lon="5.506096">
        <ele>557.7</ele>
      </trkpt>
      <trkpt lat="43.904027" lon="5.505881">
        <ele>558</ele>
      </trkpt>
      <trkpt lat="43.903996" lon="5.505414">
        <ele>560.1</ele>
      </trkpt>
      <trkpt lat="43.903976" lon="5.505205">
        <ele>560.3</ele>
      </trkpt>
      <trkpt lat="43.904030" lon="5.504846">
        <ele>561.3</ele>
      </trkpt>
      <trkpt lat="43.904135" lon="5.504406">
        <ele>562.4</ele>
      </trkpt>
      <trkpt lat="43.904212" lon="5.503912">
        <ele>560.9</ele>
      </trkpt>
      <trkpt lat="43.904266" lon="5.503360">
        <ele>563.6</ele>
      </trkpt>
      <trkpt lat="43.904266" lon="5.503359">
        <ele>563.6</ele>
      </trkpt>
      <trkpt lat="43.904316" lon="5.502925">
        <ele>563.4</ele>
      </trkpt>
      <trkpt lat="43.904328" lon="5.502705">
        <ele>564.3</ele>
      </trkpt>
      <trkpt lat="43.904382" lon="5.502480">
        <ele>565.8</ele>
      </trkpt>
      <trkpt lat="43.904394" lon="5.502303">
        <ele>565.4</ele>
      </trkpt>
      <trkpt lat="43.904347" lon="5.502061">
        <ele>565.6</ele>
      </trkpt>
      <trkpt lat="43.904278" lon="5.501718">
        <ele>568.3</ele>
      </trkpt>
      <trkpt lat="43.904208" lon="5.501520">
        <ele>567.2</ele>
      </trkpt>
      <trkpt lat="43.904166" lon="5.501160">
        <ele>569.1</ele>
      </trkpt>
      <trkpt lat="43.904123" lon="5.500806">
        <ele>568.9</ele>
      </trkpt>
      <trkpt lat="43.904077" lon="5.500715">
        <ele>568.8</ele>
      </trkpt>
      <trkpt lat="43.904042" lon="5.500581">
        <ele>568.6</ele>
      </trkpt>
      <trkpt lat="43.904034" lon="5.500431">
        <ele>568.4</ele>
      </trkpt>
      <trkpt lat="43.904027" lon="5.500173">
        <ele>567.7</ele>
      </trkpt>
      <trkpt lat="43.903969" lon="5.499830">
        <ele>567.5</ele>
      </trkpt>
      <trkpt lat="43.903934" lon="5.499352">
        <ele>567.6</ele>
      </trkpt>
      <trkpt lat="43.903926" lon="5.498891">
        <ele>566.7</ele>
      </trkpt>
      <trkpt lat="43.903953" lon="5.498333">
        <ele>564.3</ele>
      </trkpt>
      <trkpt lat="43.903949" lon="5.497926">
        <ele>563.7</ele>
      </trkpt>
      <trkpt lat="43.903887" lon="5.497614">
        <ele>562.8</ele>
      </trkpt>
      <trkpt lat="43.903853" lon="5.497357">
        <ele>560</ele>
      </trkpt>
      <trkpt lat="43.903837" lon="5.497073">
        <ele>559.4</ele>
      </trkpt>
      <trkpt lat="43.903822" lon="5.496879">
        <ele>558.8</ele>
      </trkpt>
      <trkpt lat="43.903814" lon="5.496820">
        <ele>558.6</ele>
      </trkpt>
      <trkpt lat="43.904162" lon="5.497062">
        <ele>558.4</ele>
      </trkpt>
      <trkpt lat="43.904641" lon="5.497368">
        <ele>551.1</ele>
      </trkpt>
      <trkpt lat="43.904807" lon="5.497475">
        <ele>549.2</ele>
      </trkpt>
      <trkpt lat="43.904900" lon="5.497384">
        <ele>548.5</ele>
      </trkpt>
      <trkpt lat="43.905120" lon="5.497453">
        <ele>544.6</ele>
      </trkpt>
      <trkpt lat="43.905352" lon="5.497566">
        <ele>536.2</ele>
      </trkpt>
      <trkpt lat="43.905441" lon="5.497518">
        <ele>535.1</ele>
      </trkpt>
      <trkpt lat="43.905669" lon="5.497180">
        <ele>541.5</ele>
      </trkpt>
      <trkpt lat="43.905816" lon="5.497014">
        <ele>543.1</ele>
      </trkpt>
      <trkpt lat="43.906017" lon="5.496772">
        <ele>536.3</ele>
      </trkpt>
      <trkpt lat="43.906160" lon="5.496536">
        <ele>541.9</ele>
      </trkpt>
      <trkpt lat="43.906326" lon="5.496182">
        <ele>541.7</ele>
      </trkpt>
      <trkpt lat="43.906404" lon="5.496016">
        <ele>541.9</ele>
      </trkpt>
      <trkpt lat="43.906481" lon="5.495892">
        <ele>541.7</ele>
      </trkpt>
      <trkpt lat="43.906520" lon="5.495705">
        <ele>545.2</ele>
      </trkpt>
      <trkpt lat="43.906535" lon="5.495597">
        <ele>546</ele>
      </trkpt>
      <trkpt lat="43.906643" lon="5.495474">
        <ele>546.4</ele>
      </trkpt>
      <trkpt lat="43.906693" lon="5.495404">
        <ele>534.2</ele>
      </trkpt>
      <trkpt lat="43.906879" lon="5.495431">
        <ele>532.2</ele>
      </trkpt>
      <trkpt lat="43.907018" lon="5.495361">
        <ele>530.3</ele>
      </trkpt>
      <trkpt lat="43.907076" lon="5.495125">
        <ele>530.2</ele>
      </trkpt>
      <trkpt lat="43.907057" lon="5.494846">
        <ele>530.5</ele>
      </trkpt>
      <trkpt lat="43.906983" lon="5.494401">
        <ele>530.2</ele>
      </trkpt>
      <trkpt lat="43.906790" lon="5.493827">
        <ele>524.9</ele>
      </trkpt>
      <trkpt lat="43.906489" lon="5.493162">
        <ele>528.2</ele>
      </trkpt>
      <trkpt lat="43.906276" lon="5.492743">
        <ele>527</ele>
      </trkpt>
      <trkpt lat="43.906179" lon="5.492395">
        <ele>521.5</ele>
      </trkpt>
      <trkpt lat="43.906063" lon="5.492094">
        <ele>521.9</ele>
      </trkpt>
      <trkpt lat="43.906017" lon="5.491676">
        <ele>524.4</ele>
      </trkpt>
      <trkpt lat="43.906052" lon="5.491118">
        <ele>520.6</ele>
      </trkpt>
      <trkpt lat="43.906114" lon="5.490689">
        <ele>521.4</ele>
      </trkpt>
      <trkpt lat="43.906206" lon="5.490415">
        <ele>519.2</ele>
      </trkpt>
      <trkpt lat="43.906206" lon="5.490099">
        <ele>519.6</ele>
      </trkpt>
      <trkpt lat="43.906098" lon="5.489734">
        <ele>518.7</ele>
      </trkpt>
      <trkpt lat="43.905781" lon="5.489021">
        <ele>523.3</ele>
      </trkpt>
      <trkpt lat="43.905573" lon="5.488613">
        <ele>520.5</ele>
      </trkpt>
      <trkpt lat="43.905495" lon="5.488393">
        <ele>520</ele>
      </trkpt>
      <trkpt lat="43.905464" lon="5.488087">
        <ele>513.6</ele>
      </trkpt>
      <trkpt lat="43.905290" lon="5.487690">
        <ele>513.5</ele>
      </trkpt>
      <trkpt lat="43.905136" lon="5.487433">
        <ele>509.9</ele>
      </trkpt>
      <trkpt lat="43.904831" lon="5.487020">
        <ele>513.8</ele>
      </trkpt>
      <trkpt lat="43.904529" lon="5.486419">
        <ele>509.1</ele>
      </trkpt>
      <trkpt lat="43.904371" lon="5.485941">
        <ele>510.1</ele>
      </trkpt>
      <trkpt lat="43.904301" lon="5.485405">
        <ele>504.7</ele>
      </trkpt>
      <trkpt lat="43.904270" lon="5.484826">
        <ele>502.6</ele>
      </trkpt>
      <trkpt lat="43.904201" lon="5.484541">
        <ele>499.6</ele>
      </trkpt>
      <trkpt lat="43.904038" lon="5.484118">
        <ele>505.6</ele>
      </trkpt>
      <trkpt lat="43.903876" lon="5.483662">
        <ele>505.7</ele>
      </trkpt>
      <trkpt lat="43.903766" lon="5.483309">
        <ele>503.9</ele>
      </trkpt>
      <trkpt lat="43.903727" lon="5.483140">
        <ele>504</ele>
      </trkpt>
      <trkpt lat="43.903820" lon="5.482836">
        <ele>502.4</ele>
      </trkpt>
      <trkpt lat="43.903814" lon="5.482764">
        <ele>502.1</ele>
      </trkpt>
      <trkpt lat="43.903654" lon="5.482504">
        <ele>503.9</ele>
      </trkpt>
      <trkpt lat="43.903416" lon="5.482187">
        <ele>501.1</ele>
      </trkpt>
      <trkpt lat="43.903279" lon="5.482102">
        <ele>506.9</ele>
      </trkpt>
      <trkpt lat="43.903211" lon="5.481951">
        <ele>506.3</ele>
      </trkpt>
      <trkpt lat="43.903155" lon="5.481876">
        <ele>506.1</ele>
      </trkpt>
      <trkpt lat="43.903070" lon="5.481831">
        <ele>506.2</ele>
      </trkpt>
      <trkpt lat="43.903027" lon="5.481664">
        <ele>505.3</ele>
      </trkpt>
      <trkpt lat="43.902993" lon="5.481544">
        <ele>505.5</ele>
      </trkpt>
      <trkpt lat="43.902900" lon="5.481418">
        <ele>505.9</ele>
      </trkpt>
      <trkpt lat="43.902784" lon="5.480986">
        <ele>507.3</ele>
      </trkpt>
      <trkpt lat="43.902768" lon="5.480840">
        <ele>507.9</ele>
      </trkpt>
      <trkpt lat="43.902712" lon="5.480771">
        <ele>510.7</ele>
      </trkpt>
      <trkpt lat="43.902500" lon="5.480826">
        <ele>513.9</ele>
      </trkpt>
      <trkpt lat="43.902291" lon="5.480960">
        <ele>507.8</ele>
      </trkpt>
      <trkpt lat="43.902082" lon="5.481094">
        <ele>504.7</ele>
      </trkpt>
      <trkpt lat="43.901874" lon="5.481244">
        <ele>502.7</ele>
      </trkpt>
      <trkpt lat="43.901731" lon="5.481384">
        <ele>501</ele>
      </trkpt>
      <trkpt lat="43.901584" lon="5.481452">
        <ele>493.5</ele>
      </trkpt>
      <trkpt lat="43.901514" lon="5.481517">
        <ele>493.3</ele>
      </trkpt>
      <trkpt lat="43.901402" lon="5.481608">
        <ele>492.5</ele>
      </trkpt>
      <trkpt lat="43.901309" lon="5.481624">
        <ele>491.7</ele>
      </trkpt>
      <trkpt lat="43.901244" lon="5.481644">
        <ele>491</ele>
      </trkpt>
      <trkpt lat="43.901159" lon="5.481692">
        <ele>487.2</ele>
      </trkpt>
      <trkpt lat="43.900844" lon="5.481883">
        <ele>485.4</ele>
      </trkpt>
      <trkpt lat="43.900732" lon="5.481944">
        <ele>478.2</ele>
      </trkpt>
      <trkpt lat="43.900475" lon="5.482162">
        <ele>475.4</ele>
      </trkpt>
      <trkpt lat="43.900417" lon="5.482320">
        <ele>474.5</ele>
      </trkpt>
      <trkpt lat="43.900399" lon="5.482454">
        <ele>474.1</ele>
      </trkpt>
      <trkpt lat="43.900355" lon="5.482599">
        <ele>471.3</ele>
      </trkpt>
      <trkpt lat="43.900272" lon="5.482674">
        <ele>470.6</ele>
      </trkpt>
      <trkpt lat="43.900193" lon="5.482674">
        <ele>469.9</ele>
      </trkpt>
      <trkpt lat="43.900042" lon="5.482816">
        <ele>469.5</ele>
      </trkpt>
      <trkpt lat="43.899982" lon="5.482905">
        <ele>463</ele>
      </trkpt>
      <trkpt lat="43.899876" lon="5.482945">
        <ele>462.7</ele>
      </trkpt>
      <trkpt lat="43.899791" lon="5.483017">
        <ele>462.4</ele>
      </trkpt>
      <trkpt lat="43.899708" lon="5.483133">
        <ele>462.2</ele>
      </trkpt>
      <trkpt lat="43.899537" lon="5.483261">
        <ele>461</ele>
      </trkpt>
      <trkpt lat="43.899460" lon="5.483248">
        <ele>460.4</ele>
      </trkpt>
      <trkpt lat="43.899037" lon="5.482840">
        <ele>452.6</ele>
      </trkpt>
      <trkpt lat="43.898844" lon="5.482545">
        <ele>451.5</ele>
      </trkpt>
      <trkpt lat="43.898629" lon="5.482172">
        <ele>450.1</ele>
      </trkpt>
      <trkpt lat="43.898560" lon="5.481821">
        <ele>449.8</ele>
      </trkpt>
      <trkpt lat="43.898480" lon="5.481593">
        <ele>450.4</ele>
      </trkpt>
      <trkpt lat="43.898324" lon="5.481437">
        <ele>443.7</ele>
      </trkpt>
      <trkpt lat="43.898167" lon="5.481357">
        <ele>442.8</ele>
      </trkpt>
      <trkpt lat="43.897879" lon="5.481132">
        <ele>441.2</ele>
      </trkpt>
      <trkpt lat="43.897746" lon="5.481078">
        <ele>440.2</ele>
      </trkpt>
      <trkpt lat="43.897689" lon="5.481376">
        <ele>439.1</ele>
      </trkpt>
      <trkpt lat="43.897630" lon="5.481550">
        <ele>437.2</ele>
      </trkpt>
      <trkpt lat="43.897579" lon="5.481644">
        <ele>435.3</ele>
      </trkpt>
      <trkpt lat="43.897530" lon="5.481673">
        <ele>433.7</ele>
      </trkpt>
      <trkpt lat="43.897383" lon="5.481695">
        <ele>430.6</ele>
      </trkpt>
      <trkpt lat="43.897197" lon="5.481647">
        <ele>429.2</ele>
      </trkpt>
      <trkpt lat="43.897135" lon="5.481609">
        <ele>428.5</ele>
      </trkpt>
      <trkpt lat="43.897004" lon="5.481700">
        <ele>426.2</ele>
      </trkpt>
      <trkpt lat="43.896904" lon="5.481700">
        <ele>425</ele>
      </trkpt>
      <trkpt lat="43.896876" lon="5.481746">
        <ele>424.8</ele>
      </trkpt>
      <trkpt lat="43.896903" lon="5.481877">
        <ele>425.5</ele>
      </trkpt>
      <trkpt lat="43.896905" lon="5.482003">
        <ele>425.8</ele>
      </trkpt>
      <trkpt lat="43.896886" lon="5.482159">
        <ele>425.8</ele>
      </trkpt>
      <trkpt lat="43.896055" lon="5.482238">
        <ele>420</ele>
      </trkpt>
      <trkpt lat="43.895985" lon="5.482245">
        <ele>419.8</ele>
      </trkpt>
      <trkpt lat="43.895794" lon="5.482371">
        <ele>421</ele>
      </trkpt>
      <trkpt lat="43.895566" lon="5.482843">
        <ele>425</ele>
      </trkpt>
      <trkpt lat="43.895338" lon="5.482969">
        <ele>426.5</ele>
      </trkpt>
      <trkpt lat="43.895108" lon="5.483197">
        <ele>428.1</ele>
      </trkpt>
      <trkpt lat="43.895023" lon="5.483342">
        <ele>429.8</ele>
      </trkpt>
      <trkpt lat="43.894779" lon="5.483567">
        <ele>433.4</ele>
      </trkpt>
      <trkpt lat="43.894717" lon="5.483637">
        <ele>433.9</ele>
      </trkpt>
      <trkpt lat="43.894561" lon="5.483916">
        <ele>434.9</ele>
      </trkpt>
      <trkpt lat="43.894495" lon="5.483956">
        <ele>435.5</ele>
      </trkpt>
      <trkpt lat="43.894238" lon="5.483894">
        <ele>437.1</ele>
      </trkpt>
      <trkpt lat="43.894089" lon="5.483913">
        <ele>444.1</ele>
      </trkpt>
      <trkpt lat="43.893625" lon="5.484168">
        <ele>451</ele>
      </trkpt>
      <trkpt lat="43.893358" lon="5.484476">
        <ele>452.6</ele>
      </trkpt>
      <trkpt lat="43.893034" lon="5.484734">
        <ele>461.2</ele>
      </trkpt>
      <trkpt lat="43.892964" lon="5.484830">
        <ele>461.7</ele>
      </trkpt>
      <trkpt lat="43.892949" lon="5.484930">
        <ele>461.9</ele>
      </trkpt>
      <trkpt lat="43.892970" lon="5.485134">
        <ele>466.4</ele>
      </trkpt>
      <trkpt lat="43.892951" lon="5.485273">
        <ele>467.3</ele>
      </trkpt>
      <trkpt lat="43.892910" lon="5.485353">
        <ele>467.9</ele>
      </trkpt>
      <trkpt lat="43.892835" lon="5.485426">
        <ele>468.6</ele>
      </trkpt>
      <trkpt lat="43.892463" lon="5.485579">
        <ele>473.3</ele>
      </trkpt>
      <trkpt lat="43.892376" lon="5.485649">
        <ele>473.6</ele>
      </trkpt>
      <trkpt lat="43.892272" lon="5.485769">
        <ele>473.9</ele>
      </trkpt>
      <trkpt lat="43.891870" lon="5.485986">
        <ele>479.2</ele>
      </trkpt>
      <trkpt lat="43.891383" lon="5.486273">
        <ele>483.3</ele>
      </trkpt>
      <trkpt lat="43.891137" lon="5.486456">
        <ele>484.7</ele>
      </trkpt>
      <trkpt lat="43.891081" lon="5.486544">
        <ele>485.4</ele>
      </trkpt>
      <trkpt lat="43.891039" lon="5.486703">
        <ele>489.4</ele>
      </trkpt>
      <trkpt lat="43.891058" lon="5.486810">
        <ele>489.6</ele>
      </trkpt>
      <trkpt lat="43.891224" lon="5.487110">
        <ele>490.2</ele>
      </trkpt>
      <trkpt lat="43.891236" lon="5.487161">
        <ele>490.3</ele>
      </trkpt>
      <trkpt lat="43.891221" lon="5.487234">
        <ele>490.7</ele>
      </trkpt>
      <trkpt lat="43.890795" lon="5.487751">
        <ele>502.2</ele>
      </trkpt>
      <trkpt lat="43.890511" lon="5.488205">
        <ele>505.9</ele>
      </trkpt>
      <trkpt lat="43.890283" lon="5.488510">
        <ele>512.1</ele>
      </trkpt>
      <trkpt lat="43.890053" lon="5.488902">
        <ele>515.4</ele>
      </trkpt>
      <trkpt lat="43.889954" lon="5.489079">
        <ele>521.3</ele>
      </trkpt>
      <trkpt lat="43.889885" lon="5.489261">
        <ele>525.1</ele>
      </trkpt>
      <trkpt lat="43.889831" lon="5.489342">
        <ele>526.7</ele>
      </trkpt>
      <trkpt lat="43.889761" lon="5.489371">
        <ele>527.7</ele>
      </trkpt>
      <trkpt lat="43.889690" lon="5.489261">
        <ele>528</ele>
      </trkpt>
      <trkpt lat="43.889125" lon="5.488532">
        <ele>528.9</ele>
      </trkpt>
      <trkpt lat="43.889029" lon="5.488358">
        <ele>527.6</ele>
      </trkpt>
      <trkpt lat="43.888878" lon="5.487928">
        <ele>526.6</ele>
      </trkpt>
      <trkpt lat="43.888754" lon="5.487700">
        <ele>527.1</ele>
      </trkpt>
      <trkpt lat="43.888366" lon="5.487008">
        <ele>524.6</ele>
      </trkpt>
      <trkpt lat="43.888192" lon="5.486614">
        <ele>529.1</ele>
      </trkpt>
      <trkpt lat="43.887929" lon="5.485893">
        <ele>529.9</ele>
      </trkpt>
      <trkpt lat="43.887884" lon="5.485828">
        <ele>527.3</ele>
      </trkpt>
      <trkpt lat="43.887774" lon="5.485721">
        <ele>529</ele>
      </trkpt>
      <trkpt lat="43.887505" lon="5.485563">
        <ele>530.7</ele>
      </trkpt>
      <trkpt lat="43.887407" lon="5.485458">
        <ele>542.5</ele>
      </trkpt>
      <trkpt lat="43.887353" lon="5.485364">
        <ele>542.8</ele>
      </trkpt>
      <trkpt lat="43.887343" lon="5.485286">
        <ele>542.5</ele>
      </trkpt>
      <trkpt lat="43.887331" lon="5.485131">
        <ele>541.3</ele>
      </trkpt>
      <trkpt lat="43.887447" lon="5.484790">
        <ele>539.5</ele>
      </trkpt>
      <trkpt lat="43.887548" lon="5.484425">
        <ele>528.6</ele>
      </trkpt>
      <trkpt lat="43.887581" lon="5.484197">
        <ele>531.2</ele>
      </trkpt>
      <trkpt lat="43.887585" lon="5.484028">
        <ele>528.4</ele>
      </trkpt>
      <trkpt lat="43.887575" lon="5.483921">
        <ele>526.6</ele>
      </trkpt>
      <trkpt lat="43.887546" lon="5.483798">
        <ele>525.4</ele>
      </trkpt>
      <trkpt lat="43.887438" lon="5.483658">
        <ele>533.1</ele>
      </trkpt>
      <trkpt lat="43.887320" lon="5.483602">
        <ele>533.2</ele>
      </trkpt>
      <trkpt lat="43.886937" lon="5.483409">
        <ele>534.8</ele>
      </trkpt>
      <trkpt lat="43.886943" lon="5.483296">
        <ele>527.4</ele>
      </trkpt>
      <trkpt lat="43.886937" lon="5.483224">
        <ele>527.1</ele>
      </trkpt>
      <trkpt lat="43.886877" lon="5.483015">
        <ele>525.7</ele>
      </trkpt>
      <trkpt lat="43.886836" lon="5.482854">
        <ele>524.3</ele>
      </trkpt>
      <trkpt lat="43.886815" lon="5.482647">
        <ele>523</ele>
      </trkpt>
      <trkpt lat="43.886765" lon="5.482457">
        <ele>518.2</ele>
      </trkpt>
      <trkpt lat="43.886636" lon="5.482215">
        <ele>517.7</ele>
      </trkpt>
      <trkpt lat="43.886543" lon="5.481813">
        <ele>513</ele>
      </trkpt>
      <trkpt lat="43.886504" lon="5.481641">
        <ele>506.6</ele>
      </trkpt>
      <trkpt lat="43.886508" lon="5.481303">
        <ele>503.8</ele>
      </trkpt>
      <trkpt lat="43.886470" lon="5.481003">
        <ele>500.8</ele>
      </trkpt>
      <trkpt lat="43.886454" lon="5.480751">
        <ele>494.4</ele>
      </trkpt>
      <trkpt lat="43.886470" lon="5.480252">
        <ele>491.7</ele>
      </trkpt>
      <trkpt lat="43.886477" lon="5.480112">
        <ele>490.9</ele>
      </trkpt>
      <trkpt lat="43.886450" lon="5.479941">
        <ele>485.1</ele>
      </trkpt>
      <trkpt lat="43.886395" lon="5.479828">
        <ele>484.3</ele>
      </trkpt>
      <trkpt lat="43.886245" lon="5.479297">
        <ele>480.5</ele>
      </trkpt>
      <trkpt lat="43.886090" lon="5.478455">
        <ele>469.4</ele>
      </trkpt>
      <trkpt lat="43.886037" lon="5.478348">
        <ele>469.1</ele>
      </trkpt>
      <trkpt lat="43.885994" lon="5.478262">
        <ele>464.7</ele>
      </trkpt>
      <trkpt lat="43.886029" lon="5.478171">
        <ele>463.8</ele>
      </trkpt>
      <trkpt lat="43.885951" lon="5.478074">
        <ele>463.5</ele>
      </trkpt>
      <trkpt lat="43.885847" lon="5.477865">
        <ele>462.4</ele>
      </trkpt>
      <trkpt lat="43.885797" lon="5.477607">
        <ele>463.8</ele>
      </trkpt>
      <trkpt lat="43.885801" lon="5.477178">
        <ele>459.3</ele>
      </trkpt>
      <trkpt lat="43.885774" lon="5.476695">
        <ele>454.5</ele>
      </trkpt>
      <trkpt lat="43.885719" lon="5.476298">
        <ele>452.2</ele>
      </trkpt>
      <trkpt lat="43.885719" lon="5.476213">
        <ele>451.9</ele>
      </trkpt>
      <trkpt lat="43.885951" lon="5.474978">
        <ele>443.5</ele>
      </trkpt>
      <trkpt lat="43.886077" lon="5.474307">
        <ele>441.3</ele>
      </trkpt>
      <trkpt lat="43.886098" lon="5.474195">
        <ele>441.2</ele>
      </trkpt>
      <trkpt lat="43.886152" lon="5.473970">
        <ele>440</ele>
      </trkpt>
      <trkpt lat="43.886172" lon="5.473879">
        <ele>439.9</ele>
      </trkpt>
      <trkpt lat="43.886137" lon="5.473589">
        <ele>439.3</ele>
      </trkpt>
      <trkpt lat="43.885909" lon="5.472124">
        <ele>427</ele>
      </trkpt>
      <trkpt lat="43.885789" lon="5.471358">
        <ele>419.4</ele>
      </trkpt>
      <trkpt lat="43.885658" lon="5.470542">
        <ele>417.9</ele>
      </trkpt>
      <trkpt lat="43.885592" lon="5.470199">
        <ele>417.7</ele>
      </trkpt>
      <trkpt lat="43.885522" lon="5.470097">
        <ele>417.4</ele>
      </trkpt>
      <trkpt lat="43.885426" lon="5.469850">
        <ele>416.6</ele>
      </trkpt>
      <trkpt lat="43.885372" lon="5.469743">
        <ele>416.3</ele>
      </trkpt>
      <trkpt lat="43.885317" lon="5.469561">
        <ele>416.2</ele>
      </trkpt>
      <trkpt lat="43.885136" lon="5.469062">
        <ele>414.7</ele>
      </trkpt>
      <trkpt lat="43.884985" lon="5.468638">
        <ele>411.7</ele>
      </trkpt>
      <trkpt lat="43.885027" lon="5.468439">
        <ele>413.7</ele>
      </trkpt>
      <trkpt lat="43.885236" lon="5.467667">
        <ele>411.1</ele>
      </trkpt>
      <trkpt lat="43.885383" lon="5.466508">
        <ele>405.3</ele>
      </trkpt>
      <trkpt lat="43.885553" lon="5.465966">
        <ele>403.1</ele>
      </trkpt>
      <trkpt lat="43.885584" lon="5.465516">
        <ele>399.9</ele>
      </trkpt>
      <trkpt lat="43.885511" lon="5.464936">
        <ele>391.1</ele>
      </trkpt>
      <trkpt lat="43.885375" lon="5.464513">
        <ele>390.5</ele>
      </trkpt>
      <trkpt lat="43.885066" lon="5.463944">
        <ele>382.4</ele>
      </trkpt>
      <trkpt lat="43.884687" lon="5.463156">
        <ele>380.6</ele>
      </trkpt>
      <trkpt lat="43.884378" lon="5.462013">
        <ele>367.9</ele>
      </trkpt>
      <trkpt lat="43.884185" lon="5.461342">
        <ele>357.7</ele>
      </trkpt>
      <trkpt lat="43.884107" lon="5.461106">
        <ele>375.1</ele>
      </trkpt>
      <trkpt lat="43.884119" lon="5.460865">
        <ele>365</ele>
      </trkpt>
      <trkpt lat="43.884219" lon="5.459931">
        <ele>349.6</ele>
      </trkpt>
      <trkpt lat="43.884246" lon="5.459352">
        <ele>342.4</ele>
      </trkpt>
      <trkpt lat="43.884298" lon="5.458974">
        <ele>338.3</ele>
      </trkpt>
      <trkpt lat="43.884331" lon="5.458387">
        <ele>337.8</ele>
      </trkpt>
      <trkpt lat="43.884130" lon="5.457748">
        <ele>345.1</ele>
      </trkpt>
      <trkpt lat="43.883887" lon="5.456342">
        <ele>327.1</ele>
      </trkpt>
      <trkpt lat="43.883875" lon="5.456273">
        <ele>327.1</ele>
      </trkpt>
      <trkpt lat="43.883847" lon="5.456061">
        <ele>326.1</ele>
      </trkpt>
      <trkpt lat="43.883670" lon="5.455474">
        <ele>322.2</ele>
      </trkpt>
      <trkpt lat="43.883597" lon="5.455066">
        <ele>322.9</ele>
      </trkpt>
      <trkpt lat="43.883670" lon="5.454149">
        <ele>309.4</ele>
      </trkpt>
      <trkpt lat="43.883625" lon="5.453693">
        <ele>307.6</ele>
      </trkpt>
      <trkpt lat="43.883579" lon="5.453465">
        <ele>308.1</ele>
      </trkpt>
      <trkpt lat="43.883384" lon="5.453070">
        <ele>303.8</ele>
      </trkpt>
      <trkpt lat="43.883378" lon="5.452850">
        <ele>300.9</ele>
      </trkpt>
      <trkpt lat="43.883424" lon="5.452510">
        <ele>300.6</ele>
      </trkpt>
      <trkpt lat="43.883420" lon="5.452293">
        <ele>295.2</ele>
      </trkpt>
      <trkpt lat="43.883384" lon="5.452148">
        <ele>293.8</ele>
      </trkpt>
      <trkpt lat="43.883260" lon="5.451796">
        <ele>302.6</ele>
      </trkpt>
      <trkpt lat="43.883223" lon="5.451574">
        <ele>297.4</ele>
      </trkpt>
      <trkpt lat="43.883136" lon="5.451343">
        <ele>296.8</ele>
      </trkpt>
      <trkpt lat="43.882959" lon="5.450898">
        <ele>294.7</ele>
      </trkpt>
      <trkpt lat="43.882878" lon="5.450726">
        <ele>284.1</ele>
      </trkpt>
      <trkpt lat="43.882758" lon="5.450613">
        <ele>284.4</ele>
      </trkpt>
      <trkpt lat="43.882681" lon="5.450538">
        <ele>283.9</ele>
      </trkpt>
      <trkpt lat="43.882607" lon="5.450474">
        <ele>283.1</ele>
      </trkpt>
      <trkpt lat="43.882534" lon="5.450442">
        <ele>282.7</ele>
      </trkpt>
      <trkpt lat="43.882452" lon="5.450394">
        <ele>289.3</ele>
      </trkpt>
      <trkpt lat="43.882425" lon="5.450375">
        <ele>289</ele>
      </trkpt>
      <trkpt lat="43.882417" lon="5.450335">
        <ele>288.2</ele>
      </trkpt>
      <trkpt lat="43.882454" lon="5.450292">
        <ele>286.8</ele>
      </trkpt>
      <trkpt lat="43.882817" lon="5.450351">
        <ele>280.2</ele>
      </trkpt>
      <trkpt lat="43.883256" lon="5.450380">
        <ele>278.4</ele>
      </trkpt>
      <trkpt lat="43.883365" lon="5.450318">
        <ele>273.9</ele>
      </trkpt>
      <trkpt lat="43.883649" lon="5.450133">
        <ele>273.2</ele>
      </trkpt>
      <trkpt lat="43.883606" lon="5.450007">
        <ele>272.5</ele>
      </trkpt>
      <trkpt lat="43.883490" lon="5.449782">
        <ele>272.4</ele>
      </trkpt>
      <trkpt lat="43.883432" lon="5.449715">
        <ele>272.6</ele>
      </trkpt>
      <trkpt lat="43.882922" lon="5.449417">
        <ele>268.4</ele>
      </trkpt>
      <trkpt lat="43.882833" lon="5.449356">
        <ele>268</ele>
      </trkpt>
      <trkpt lat="43.882560" lon="5.449272">
        <ele>266</ele>
      </trkpt>
      <trkpt lat="43.882336" lon="5.449189">
        <ele>268</ele>
      </trkpt>
      <trkpt lat="43.882237" lon="5.449146">
        <ele>265.5</ele>
      </trkpt>
      <trkpt lat="43.881741" lon="5.448736">
        <ele>265.4</ele>
      </trkpt>
      <trkpt lat="43.881547" lon="5.448562">
        <ele>264.2</ele>
      </trkpt>
      <trkpt lat="43.881035" lon="5.448060">
        <ele>259.8</ele>
      </trkpt>
      <trkpt lat="43.880550" lon="5.447709">
        <ele>257.2</ele>
      </trkpt>
      <trkpt lat="43.880494" lon="5.447671">
        <ele>257.1</ele>
      </trkpt>
      <trkpt lat="43.880380" lon="5.447604">
        <ele>256.8</ele>
      </trkpt>
      <trkpt lat="43.880242" lon="5.447379">
        <ele>253.4</ele>
      </trkpt>
      <trkpt lat="43.880059" lon="5.447084">
        <ele>252.5</ele>
      </trkpt>
      <trkpt lat="43.879745" lon="5.446730">
        <ele>250.2</ele>
      </trkpt>
      <trkpt lat="43.879620" lon="5.446647">
        <ele>250.2</ele>
      </trkpt>
      <trkpt lat="43.879597" lon="5.446622">
        <ele>250.3</ele>
      </trkpt>
      <trkpt lat="43.879618" lon="5.446507">
        <ele>250.3</ele>
      </trkpt>
      <trkpt lat="43.879428" lon="5.446343">
        <ele>250.8</ele>
      </trkpt>
      <trkpt lat="43.878761" lon="5.445834">
        <ele>255.4</ele>
      </trkpt>
      <trkpt lat="43.878754" lon="5.445751">
        <ele>257</ele>
      </trkpt>
    </trkseg>
  </trk>
</gpx>