<?xml version="1.0" ?>
<gpx xmlns="http://www.topografix.com/GPX/1/1" xmlns:xsi="http://www.w3.org/2001/XMLSchema-instance" xsi:schemaLocation="http://www.topografix.com/GPX/1/1 http://www.topografix.com/GPX/1/1/gpx.xsd" version="1.1" creator="EditGPX">
  <trk>
    <name>NewTrack</name>
    <trkseg>
      <trkpt lat="43.892226" lon="5.113902">
        <ele>116.7</ele>
      </trkpt>
      <trkpt lat="43.892172" lon="5.113975">
        <ele>116.9</ele>
      </trkpt>
      <trkpt lat="43.892000" lon="5.113802">
        <ele>116.4</ele>
      </trkpt>
      <trkpt lat="43.891854" lon="5.113572">
        <ele>115.9</ele>
      </trkpt>
      <trkpt lat="43.891715" lon="5.113315">
        <ele>114.4</ele>
      </trkpt>
      <trkpt lat="43.891425" lon="5.113320">
        <ele>115.4</ele>
      </trkpt>
      <trkpt lat="43.890930" lon="5.113441">
        <ele>118.7</ele>
      </trkpt>
      <trkpt lat="43.890600" lon="5.113646">
        <ele>123.5</ele>
      </trkpt>
      <trkpt lat="43.890439" lon="5.113481">
        <ele>124</ele>
      </trkpt>
      <trkpt lat="43.890280" lon="5.113346">
        <ele>124.7</ele>
      </trkpt>
      <trkpt lat="43.889690" lon="5.113465">
        <ele>130.9</ele>
      </trkpt>
      <trkpt lat="43.889210" lon="5.113890">
        <ele>135.3</ele>
      </trkpt>
      <trkpt lat="43.888935" lon="5.114028">
        <ele>141.5</ele>
      </trkpt>
      <trkpt lat="43.888770" lon="5.114006">
        <ele>142.5</ele>
      </trkpt>
      <trkpt lat="43.888440" lon="5.113827">
        <ele>143.7</ele>
      </trkpt>
      <trkpt lat="43.888030" lon="5.113783">
        <ele>148.2</ele>
      </trkpt>
      <trkpt lat="43.887410" lon="5.114009">
        <ele>150.4</ele>
      </trkpt>
      <trkpt lat="43.886618" lon="5.114267">
        <ele>146.9</ele>
      </trkpt>
      <trkpt lat="43.886270" lon="5.114381">
        <ele>145.1</ele>
      </trkpt>
      <trkpt lat="43.886410" lon="5.114548">
        <ele>145.6</ele>
      </trkpt>
      <trkpt lat="43.886538" lon="5.114924">
        <ele>146.6</ele>
      </trkpt>
      <trkpt lat="43.886900" lon="5.115486">
        <ele>151.8</ele>
      </trkpt>
      <trkpt lat="43.887190" lon="5.115868">
        <ele>155.2</ele>
      </trkpt>
      <trkpt lat="43.887331" lon="5.116072">
        <ele>155.8</ele>
      </trkpt>
      <trkpt lat="43.887532" lon="5.116217">
        <ele>158.4</ele>
      </trkpt>
      <trkpt lat="43.887768" lon="5.116480">
        <ele>159.1</ele>
      </trkpt>
      <trkpt lat="43.887940" lon="5.116610">
        <ele>159.2</ele>
      </trkpt>
      <trkpt lat="43.887419" lon="5.117513">
        <ele>168.2</ele>
      </trkpt>
      <trkpt lat="43.887380" lon="5.117581">
        <ele>168.9</ele>
      </trkpt>
      <trkpt lat="43.887120" lon="5.117792">
        <ele>170.7</ele>
      </trkpt>
      <trkpt lat="43.887010" lon="5.117898">
        <ele>171.3</ele>
      </trkpt>
      <trkpt lat="43.886850" lon="5.118065">
        <ele>172.4</ele>
      </trkpt>
      <trkpt lat="43.886790" lon="5.118373">
        <ele>178.3</ele>
      </trkpt>
      <trkpt lat="43.886890" lon="5.118838">
        <ele>182.1</ele>
      </trkpt>
      <trkpt lat="43.886782" lon="5.119286">
        <ele>187.2</ele>
      </trkpt>
      <trkpt lat="43.886463" lon="5.120371">
        <ele>188.8</ele>
      </trkpt>
      <trkpt lat="43.886463" lon="5.120371">
        <ele>188.8</ele>
      </trkpt>
      <trkpt lat="43.886454" lon="5.120402">
        <ele>188.8</ele>
      </trkpt>
      <trkpt lat="43.886454" lon="5.120402">
        <ele>188.8</ele>
      </trkpt>
      <trkpt lat="43.886430" lon="5.120482">
        <ele>189</ele>
      </trkpt>
      <trkpt lat="43.886270" lon="5.121669">
        <ele>193.9</ele>
      </trkpt>
      <trkpt lat="43.886270" lon="5.122141">
        <ele>194.1</ele>
      </trkpt>
      <trkpt lat="43.886320" lon="5.122331">
        <ele>194.3</ele>
      </trkpt>
      <trkpt lat="43.886620" lon="5.122724">
        <ele>194.1</ele>
      </trkpt>
      <trkpt lat="43.886950" lon="5.123034">
        <ele>196.6</ele>
      </trkpt>
      <trkpt lat="43.887130" lon="5.123316">
        <ele>197</ele>
      </trkpt>
      <trkpt lat="43.887323" lon="5.123765">
        <ele>196.8</ele>
      </trkpt>
      <trkpt lat="43.887580" lon="5.124706">
        <ele>200.3</ele>
      </trkpt>
      <trkpt lat="43.887660" lon="5.124833">
        <ele>200.3</ele>
      </trkpt>
      <trkpt lat="43.888010" lon="5.125205">
        <ele>200.9</ele>
      </trkpt>
      <trkpt lat="43.888150" lon="5.125455">
        <ele>201</ele>
      </trkpt>
      <trkpt lat="43.888530" lon="5.126139">
        <ele>203.5</ele>
      </trkpt>
      <trkpt lat="43.888890" lon="5.126959">
        <ele>203.7</ele>
      </trkpt>
      <trkpt lat="43.889102" lon="5.127735">
        <ele>204.6</ele>
      </trkpt>
      <trkpt lat="43.889206" lon="5.128094">
        <ele>207.2</ele>
      </trkpt>
      <trkpt lat="43.889442" lon="5.128850">
        <ele>207.1</ele>
      </trkpt>
      <trkpt lat="43.889651" lon="5.129279">
        <ele>208.1</ele>
      </trkpt>
      <trkpt lat="43.889906" lon="5.130202">
        <ele>209.7</ele>
      </trkpt>
      <trkpt lat="43.889930" lon="5.130443">
        <ele>210.2</ele>
      </trkpt>
      <trkpt lat="43.889948" lon="5.130744">
        <ele>210.8</ele>
      </trkpt>
      <trkpt lat="43.889940" lon="5.131911">
        <ele>218</ele>
      </trkpt>
      <trkpt lat="43.889870" lon="5.131520">
        <ele>216</ele>
      </trkpt>
      <trkpt lat="43.889640" lon="5.131042">
        <ele>213.9</ele>
      </trkpt>
      <trkpt lat="43.888703" lon="5.130401">
        <ele>210.2</ele>
      </trkpt>
      <trkpt lat="43.888646" lon="5.130362">
        <ele>210.1</ele>
      </trkpt>
      <trkpt lat="43.888646" lon="5.130362">
        <ele>210.1</ele>
      </trkpt>
      <trkpt lat="43.888610" lon="5.130337">
        <ele>210</ele>
      </trkpt>
      <trkpt lat="43.888321" lon="5.130299">
        <ele>209.2</ele>
      </trkpt>
      <trkpt lat="43.887969" lon="5.130229">
        <ele>209.1</ele>
      </trkpt>
      <trkpt lat="43.887800" lon="5.130276">
        <ele>209.1</ele>
      </trkpt>
      <trkpt lat="43.887570" lon="5.130017">
        <ele>209</ele>
      </trkpt>
      <trkpt lat="43.887374" lon="5.130631">
        <ele>208</ele>
      </trkpt>
      <trkpt lat="43.887281" lon="5.131270">
        <ele>207.7</ele>
      </trkpt>
      <trkpt lat="43.887335" lon="5.131881">
        <ele>207.8</ele>
      </trkpt>
      <trkpt lat="43.887350" lon="5.132096">
        <ele>207.6</ele>
      </trkpt>
      <trkpt lat="43.887273" lon="5.132423">
        <ele>207.5</ele>
      </trkpt>
      <trkpt lat="43.887280" lon="5.132528">
        <ele>207.5</ele>
      </trkpt>
      <trkpt lat="43.887118" lon="5.132729">
        <ele>207.3</ele>
      </trkpt>
      <trkpt lat="43.886650" lon="5.133080">
        <ele>205.6</ele>
      </trkpt>
      <trkpt lat="43.886763" lon="5.133464">
        <ele>206</ele>
      </trkpt>
      <trkpt lat="43.886879" lon="5.133689">
        <ele>205.9</ele>
      </trkpt>
      <trkpt lat="43.887050" lon="5.133970">
        <ele>205.6</ele>
      </trkpt>
      <trkpt lat="43.886740" lon="5.134266">
        <ele>202.6</ele>
      </trkpt>
      <trkpt lat="43.886666" lon="5.134284">
        <ele>202.7</ele>
      </trkpt>
      <trkpt lat="43.886330" lon="5.134065">
        <ele>204.1</ele>
      </trkpt>
      <trkpt lat="43.886040" lon="5.133995">
        <ele>203.8</ele>
      </trkpt>
      <trkpt lat="43.885970" lon="5.134054">
        <ele>203.6</ele>
      </trkpt>
      <trkpt lat="43.885943" lon="5.134150">
        <ele>203.4</ele>
      </trkpt>
      <trkpt lat="43.885951" lon="5.134381">
        <ele>201.7</ele>
      </trkpt>
      <trkpt lat="43.885935" lon="5.134274">
        <ele>202.1</ele>
      </trkpt>
      <trkpt lat="43.885950" lon="5.134588">
        <ele>201</ele>
      </trkpt>
      <trkpt lat="43.885890" lon="5.134668">
        <ele>200.8</ele>
      </trkpt>
      <trkpt lat="43.885850" lon="5.134920">
        <ele>200.2</ele>
      </trkpt>
      <trkpt lat="43.886140" lon="5.135697">
        <ele>195.4</ele>
      </trkpt>
      <trkpt lat="43.886280" lon="5.135788">
        <ele>194.4</ele>
      </trkpt>
      <trkpt lat="43.886370" lon="5.136004">
        <ele>191.7</ele>
      </trkpt>
      <trkpt lat="43.886360" lon="5.136222">
        <ele>191.8</ele>
      </trkpt>
      <trkpt lat="43.886270" lon="5.136730">
        <ele>190.1</ele>
      </trkpt>
      <trkpt lat="43.886030" lon="5.136845">
        <ele>191.4</ele>
      </trkpt>
      <trkpt lat="43.885960" lon="5.136841">
        <ele>191.8</ele>
      </trkpt>
      <trkpt lat="43.885850" lon="5.137084">
        <ele>190.8</ele>
      </trkpt>
      <trkpt lat="43.885710" lon="5.137138">
        <ele>190.6</ele>
      </trkpt>
      <trkpt lat="43.885540" lon="5.137263">
        <ele>189.8</ele>
      </trkpt>
      <trkpt lat="43.885400" lon="5.137314">
        <ele>189.1</ele>
      </trkpt>
      <trkpt lat="43.885390" lon="5.137460">
        <ele>188.8</ele>
      </trkpt>
      <trkpt lat="43.885470" lon="5.137527">
        <ele>185.8</ele>
      </trkpt>
      <trkpt lat="43.885500" lon="5.137834">
        <ele>185</ele>
      </trkpt>
      <trkpt lat="43.885510" lon="5.137894">
        <ele>184.9</ele>
      </trkpt>
      <trkpt lat="43.885375" lon="5.138260">
        <ele>182.7</ele>
      </trkpt>
      <trkpt lat="43.885332" lon="5.138469">
        <ele>176.7</ele>
      </trkpt>
      <trkpt lat="43.885406" lon="5.138737">
        <ele>176</ele>
      </trkpt>
      <trkpt lat="43.885456" lon="5.138844">
        <ele>175.7</ele>
      </trkpt>
      <trkpt lat="43.885193" lon="5.139204">
        <ele>165</ele>
      </trkpt>
      <trkpt lat="43.884992" lon="5.139456">
        <ele>158.4</ele>
      </trkpt>
      <trkpt lat="43.884810" lon="5.139709">
        <ele>155.7</ele>
      </trkpt>
      <trkpt lat="43.884594" lon="5.139933">
        <ele>154.2</ele>
      </trkpt>
      <trkpt lat="43.884451" lon="5.140041">
        <ele>149.3</ele>
      </trkpt>
      <trkpt lat="43.884350" lon="5.140073">
        <ele>149</ele>
      </trkpt>
      <trkpt lat="43.883650" lon="5.140534">
        <ele>144</ele>
      </trkpt>
      <trkpt lat="43.883059" lon="5.140765">
        <ele>139.7</ele>
      </trkpt>
      <trkpt lat="43.882962" lon="5.140942">
        <ele>137.7</ele>
      </trkpt>
      <trkpt lat="43.882923" lon="5.141011">
        <ele>137.5</ele>
      </trkpt>
      <trkpt lat="43.883025" lon="5.141087">
        <ele>137.8</ele>
      </trkpt>
      <trkpt lat="43.883156" lon="5.141290">
        <ele>137.9</ele>
      </trkpt>
      <trkpt lat="43.883191" lon="5.141467">
        <ele>138</ele>
      </trkpt>
      <trkpt lat="43.883218" lon="5.141762">
        <ele>137.7</ele>
      </trkpt>
      <trkpt lat="43.883291" lon="5.142159">
        <ele>137</ele>
      </trkpt>
      <trkpt lat="43.883400" lon="5.142809">
        <ele>139.4</ele>
      </trkpt>
      <trkpt lat="43.883489" lon="5.143034">
        <ele>139.2</ele>
      </trkpt>
      <trkpt lat="43.883810" lon="5.143265">
        <ele>140.3</ele>
      </trkpt>
      <trkpt lat="43.884374" lon="5.144104">
        <ele>139.3</ele>
      </trkpt>
      <trkpt lat="43.884374" lon="5.144104">
        <ele>139.3</ele>
      </trkpt>
      <trkpt lat="43.884390" lon="5.144128">
        <ele>139.4</ele>
      </trkpt>
      <trkpt lat="43.884459" lon="5.144230">
        <ele>137.4</ele>
      </trkpt>
      <trkpt lat="43.884911" lon="5.144654">
        <ele>138.3</ele>
      </trkpt>
      <trkpt lat="43.885634" lon="5.145351">
        <ele>141.6</ele>
      </trkpt>
      <trkpt lat="43.885955" lon="5.145797">
        <ele>145.2</ele>
      </trkpt>
      <trkpt lat="43.886141" lon="5.146108">
        <ele>146</ele>
      </trkpt>
      <trkpt lat="43.886373" lon="5.146354">
        <ele>146.5</ele>
      </trkpt>
      <trkpt lat="43.886489" lon="5.146419">
        <ele>146.6</ele>
      </trkpt>
      <trkpt lat="43.886860" lon="5.146800">
        <ele>148.9</ele>
      </trkpt>
      <trkpt lat="43.887534" lon="5.147473">
        <ele>152.5</ele>
      </trkpt>
      <trkpt lat="43.887586" lon="5.147525">
        <ele>152.6</ele>
      </trkpt>
      <trkpt lat="43.887586" lon="5.147525">
        <ele>152.6</ele>
      </trkpt>
      <trkpt lat="43.887676" lon="5.147615">
        <ele>153.2</ele>
      </trkpt>
      <trkpt lat="43.888148" lon="5.147856">
        <ele>154.7</ele>
      </trkpt>
      <trkpt lat="43.888310" lon="5.147948">
        <ele>154.9</ele>
      </trkpt>
      <trkpt lat="43.888488" lon="5.147980">
        <ele>158.2</ele>
      </trkpt>
      <trkpt lat="43.889342" lon="5.148093">
        <ele>163.3</ele>
      </trkpt>
      <trkpt lat="43.889748" lon="5.148044">
        <ele>164.8</ele>
      </trkpt>
      <trkpt lat="43.890030" lon="5.147953">
        <ele>168.1</ele>
      </trkpt>
      <trkpt lat="43.890185" lon="5.148103">
        <ele>167.7</ele>
      </trkpt>
      <trkpt lat="43.890347" lon="5.148371">
        <ele>167.4</ele>
      </trkpt>
      <trkpt lat="43.890432" lon="5.148634">
        <ele>167.9</ele>
      </trkpt>
      <trkpt lat="43.890424" lon="5.148884">
        <ele>168.2</ele>
      </trkpt>
      <trkpt lat="43.890391" lon="5.148999">
        <ele>168.2</ele>
      </trkpt>
      <trkpt lat="43.890710" lon="5.148999">
        <ele>169.3</ele>
      </trkpt>
      <trkpt lat="43.891133" lon="5.149160">
        <ele>172.4</ele>
      </trkpt>
      <trkpt lat="43.891740" lon="5.149190">
        <ele>176.4</ele>
      </trkpt>
      <trkpt lat="43.892010" lon="5.148581">
        <ele>176.7</ele>
      </trkpt>
      <trkpt lat="43.892225" lon="5.148495">
        <ele>177.4</ele>
      </trkpt>
      <trkpt lat="43.892272" lon="5.148624">
        <ele>177.4</ele>
      </trkpt>
      <trkpt lat="43.892346" lon="5.148672">
        <ele>177.6</ele>
      </trkpt>
      <trkpt lat="43.892384" lon="5.148648">
        <ele>177.7</ele>
      </trkpt>
      <trkpt lat="43.892672" lon="5.148618">
        <ele>179.7</ele>
      </trkpt>
      <trkpt lat="43.892763" lon="5.148661">
        <ele>179.8</ele>
      </trkpt>
      <trkpt lat="43.892908" lon="5.148626">
        <ele>180</ele>
      </trkpt>
      <trkpt lat="43.892964" lon="5.148302">
        <ele>180.1</ele>
      </trkpt>
      <trkpt lat="43.893024" lon="5.147564">
        <ele>180.4</ele>
      </trkpt>
      <trkpt lat="43.893024" lon="5.147148">
        <ele>181.6</ele>
      </trkpt>
      <trkpt lat="43.893020" lon="5.146789">
        <ele>182.3</ele>
      </trkpt>
      <trkpt lat="43.893739" lon="5.146746">
        <ele>185.8</ele>
      </trkpt>
      <trkpt lat="43.894197" lon="5.146894">
        <ele>188.6</ele>
      </trkpt>
      <trkpt lat="43.894487" lon="5.146845">
        <ele>189</ele>
      </trkpt>
      <trkpt lat="43.894891" lon="5.146832">
        <ele>190.2</ele>
      </trkpt>
      <trkpt lat="43.895829" lon="5.146979">
        <ele>194.8</ele>
      </trkpt>
      <trkpt lat="43.896643" lon="5.147041">
        <ele>199.3</ele>
      </trkpt>
      <trkpt lat="43.896742" lon="5.147048">
        <ele>202.3</ele>
      </trkpt>
      <trkpt lat="43.896848" lon="5.147056">
        <ele>202.6</ele>
      </trkpt>
      <trkpt lat="43.897039" lon="5.147071">
        <ele>203.1</ele>
      </trkpt>
      <trkpt lat="43.897580" lon="5.147092">
        <ele>209.3</ele>
      </trkpt>
      <trkpt lat="43.897677" lon="5.147363">
        <ele>208.5</ele>
      </trkpt>
      <trkpt lat="43.897797" lon="5.147696">
        <ele>209.3</ele>
      </trkpt>
      <trkpt lat="43.897943" lon="5.147958">
        <ele>210.4</ele>
      </trkpt>
      <trkpt lat="43.898257" lon="5.147985">
        <ele>211.6</ele>
      </trkpt>
      <trkpt lat="43.898887" lon="5.148275">
        <ele>218.2</ele>
      </trkpt>
      <trkpt lat="43.899157" lon="5.148489">
        <ele>218.1</ele>
      </trkpt>
      <trkpt lat="43.899176" lon="5.148543">
        <ele>221.7</ele>
      </trkpt>
      <trkpt lat="43.899273" lon="5.149004">
        <ele>222.7</ele>
      </trkpt>
      <trkpt lat="43.900073" lon="5.149460">
        <ele>233.5</ele>
      </trkpt>
      <trkpt lat="43.900073" lon="5.149460">
        <ele>233.5</ele>
      </trkpt>
      <trkpt lat="43.900073" lon="5.149460">
        <ele>233.5</ele>
      </trkpt>
      <trkpt lat="43.900514" lon="5.149664">
        <ele>235.5</ele>
      </trkpt>
      <trkpt lat="43.900993" lon="5.149755">
        <ele>241.4</ele>
      </trkpt>
      <trkpt lat="43.901275" lon="5.149793">
        <ele>242.8</ele>
      </trkpt>
      <trkpt lat="43.902311" lon="5.149708">
        <ele>252.4</ele>
      </trkpt>
      <trkpt lat="43.902458" lon="5.149696">
        <ele>252.9</ele>
      </trkpt>
      <trkpt lat="43.903208" lon="5.149691">
        <ele>262.7</ele>
      </trkpt>
      <trkpt lat="43.903641" lon="5.149573">
        <ele>269.7</ele>
      </trkpt>
      <trkpt lat="43.903803" lon="5.149605">
        <ele>270.6</ele>
      </trkpt>
      <trkpt lat="43.904481" lon="5.150481">
        <ele>277</ele>
      </trkpt>
      <trkpt lat="43.904598" lon="5.150632">
        <ele>277.4</ele>
      </trkpt>
      <trkpt lat="43.904598" lon="5.150632">
        <ele>277.4</ele>
      </trkpt>
      <trkpt lat="43.904681" lon="5.150740">
        <ele>277.9</ele>
      </trkpt>
      <trkpt lat="43.904816" lon="5.150914">
        <ele>278.6</ele>
      </trkpt>
      <trkpt lat="43.905140" lon="5.151279">
        <ele>280.5</ele>
      </trkpt>
      <trkpt lat="43.905662" lon="5.151279">
        <ele>280.2</ele>
      </trkpt>
      <trkpt lat="43.905948" lon="5.151424">
        <ele>281.9</ele>
      </trkpt>
      <trkpt lat="43.906261" lon="5.151477">
        <ele>282</ele>
      </trkpt>
      <trkpt lat="43.907251" lon="5.152025">
        <ele>291.5</ele>
      </trkpt>
      <trkpt lat="43.907575" lon="5.152035">
        <ele>294.9</ele>
      </trkpt>
      <trkpt lat="43.907753" lon="5.151982">
        <ele>295.2</ele>
      </trkpt>
      <trkpt lat="43.908259" lon="5.152025">
        <ele>297.1</ele>
      </trkpt>
      <trkpt lat="43.908955" lon="5.151950">
        <ele>304.3</ele>
      </trkpt>
      <trkpt lat="43.909226" lon="5.151848">
        <ele>309.3</ele>
      </trkpt>
      <trkpt lat="43.909674" lon="5.151880">
        <ele>312.3</ele>
      </trkpt>
      <trkpt lat="43.910224" lon="5.151762">
        <ele>317.6</ele>
      </trkpt>
      <trkpt lat="43.910483" lon="5.151754">
        <ele>319.3</ele>
      </trkpt>
      <trkpt lat="43.910634" lon="5.151703">
        <ele>319.3</ele>
      </trkpt>
      <trkpt lat="43.910804" lon="5.151612">
        <ele>319.6</ele>
      </trkpt>
      <trkpt lat="43.910899" lon="5.151579">
        <ele>322.4</ele>
      </trkpt>
      <trkpt lat="43.911140" lon="5.151657">
        <ele>326</ele>
      </trkpt>
      <trkpt lat="43.911521" lon="5.151585">
        <ele>327.3</ele>
      </trkpt>
      <trkpt lat="43.911683" lon="5.151638">
        <ele>326.3</ele>
      </trkpt>
      <trkpt lat="43.911853" lon="5.151617">
        <ele>330.5</ele>
      </trkpt>
      <trkpt lat="43.912168" lon="5.151571">
        <ele>333.5</ele>
      </trkpt>
      <trkpt lat="43.912278" lon="5.151553">
        <ele>333.6</ele>
      </trkpt>
      <trkpt lat="43.912753" lon="5.151343">
        <ele>339.5</ele>
      </trkpt>
      <trkpt lat="43.913075" lon="5.151359">
        <ele>340.4</ele>
      </trkpt>
      <trkpt lat="43.913469" lon="5.151343">
        <ele>344.6</ele>
      </trkpt>
      <trkpt lat="43.913882" lon="5.151402">
        <ele>346.1</ele>
      </trkpt>
      <trkpt lat="43.914029" lon="5.151472">
        <ele>345.8</ele>
      </trkpt>
      <trkpt lat="43.914188" lon="5.151719">
        <ele>346.2</ele>
      </trkpt>
      <trkpt lat="43.914304" lon="5.151751">
        <ele>349</ele>
      </trkpt>
      <trkpt lat="43.914462" lon="5.151762">
        <ele>351.1</ele>
      </trkpt>
      <trkpt lat="43.914655" lon="5.151665">
        <ele>352.3</ele>
      </trkpt>
      <trkpt lat="43.914729" lon="5.151671">
        <ele>351.6</ele>
      </trkpt>
      <trkpt lat="43.915104" lon="5.151783">
        <ele>354</ele>
      </trkpt>
      <trkpt lat="43.915266" lon="5.151832">
        <ele>356.8</ele>
      </trkpt>
      <trkpt lat="43.915594" lon="5.152105">
        <ele>359.8</ele>
      </trkpt>
      <trkpt lat="43.915861" lon="5.152470">
        <ele>361.2</ele>
      </trkpt>
      <trkpt lat="43.915942" lon="5.152507">
        <ele>363.9</ele>
      </trkpt>
      <trkpt lat="43.916232" lon="5.152491">
        <ele>365.8</ele>
      </trkpt>
      <trkpt lat="43.916576" lon="5.152588">
        <ele>366.8</ele>
      </trkpt>
      <trkpt lat="43.917121" lon="5.152776">
        <ele>372.7</ele>
      </trkpt>
      <trkpt lat="43.917627" lon="5.153178">
        <ele>376.3</ele>
      </trkpt>
      <trkpt lat="43.918415" lon="5.153763">
        <ele>382.4</ele>
      </trkpt>
      <trkpt lat="43.918721" lon="5.153763">
        <ele>383.9</ele>
      </trkpt>
      <trkpt lat="43.919420" lon="5.153199">
        <ele>392.5</ele>
      </trkpt>
      <trkpt lat="43.919698" lon="5.153140">
        <ele>394.2</ele>
      </trkpt>
      <trkpt lat="43.919973" lon="5.153199">
        <ele>392.7</ele>
      </trkpt>
      <trkpt lat="43.920023" lon="5.153253">
        <ele>394.1</ele>
      </trkpt>
      <trkpt lat="43.920656" lon="5.153747">
        <ele>402.4</ele>
      </trkpt>
      <trkpt lat="43.920973" lon="5.153768">
        <ele>407.2</ele>
      </trkpt>
      <trkpt lat="43.921507" lon="5.153553">
        <ele>407.9</ele>
      </trkpt>
      <trkpt lat="43.921974" lon="5.153634">
        <ele>413.7</ele>
      </trkpt>
      <trkpt lat="43.922197" lon="5.153800">
        <ele>415</ele>
      </trkpt>
      <trkpt lat="43.922422" lon="5.153891">
        <ele>415.7</ele>
      </trkpt>
      <trkpt lat="43.923187" lon="5.153629">
        <ele>423.6</ele>
      </trkpt>
      <trkpt lat="43.923511" lon="5.153532">
        <ele>428.2</ele>
      </trkpt>
      <trkpt lat="43.923794" lon="5.153655">
        <ele>429.3</ele>
      </trkpt>
      <trkpt lat="43.924014" lon="5.153940">
        <ele>429</ele>
      </trkpt>
      <trkpt lat="43.924161" lon="5.154347">
        <ele>430.9</ele>
      </trkpt>
      <trkpt lat="43.924335" lon="5.154664">
        <ele>436.6</ele>
      </trkpt>
      <trkpt lat="43.924586" lon="5.155297">
        <ele>442.5</ele>
      </trkpt>
      <trkpt lat="43.924988" lon="5.155410">
        <ele>443.3</ele>
      </trkpt>
      <trkpt lat="43.925587" lon="5.155356">
        <ele>449</ele>
      </trkpt>
      <trkpt lat="43.926321" lon="5.155426">
        <ele>456.5</ele>
      </trkpt>
      <trkpt lat="43.926692" lon="5.155490">
        <ele>461.3</ele>
      </trkpt>
      <trkpt lat="43.926997" lon="5.155721">
        <ele>461.2</ele>
      </trkpt>
      <trkpt lat="43.927155" lon="5.155844">
        <ele>463.4</ele>
      </trkpt>
      <trkpt lat="43.927480" lon="5.155839">
        <ele>460.5</ele>
      </trkpt>
      <trkpt lat="43.927700" lon="5.155748">
        <ele>466.5</ele>
      </trkpt>
      <trkpt lat="43.927882" lon="5.155533">
        <ele>470.1</ele>
      </trkpt>
      <trkpt lat="43.928195" lon="5.155522">
        <ele>471.9</ele>
      </trkpt>
      <trkpt lat="43.928770" lon="5.155206">
        <ele>482.4</ele>
      </trkpt>
      <trkpt lat="43.929087" lon="5.155082">
        <ele>484.3</ele>
      </trkpt>
      <trkpt lat="43.929941" lon="5.155025">
        <ele>492.4</ele>
      </trkpt>
      <trkpt lat="43.929964" lon="5.155023">
        <ele>492.3</ele>
      </trkpt>
      <trkpt lat="43.930227" lon="5.155136">
        <ele>498.2</ele>
      </trkpt>
      <trkpt lat="43.930972" lon="5.155597">
        <ele>507.1</ele>
      </trkpt>
      <trkpt lat="43.931254" lon="5.155935">
        <ele>510.9</ele>
      </trkpt>
      <trkpt lat="43.931660" lon="5.156418">
        <ele>514.4</ele>
      </trkpt>
      <trkpt lat="43.931931" lon="5.156456">
        <ele>516.9</ele>
      </trkpt>
      <trkpt lat="43.932124" lon="5.156445">
        <ele>517.6</ele>
      </trkpt>
      <trkpt lat="43.932417" lon="5.156295">
        <ele>518.4</ele>
      </trkpt>
      <trkpt lat="43.932626" lon="5.156246">
        <ele>525.5</ele>
      </trkpt>
      <trkpt lat="43.932734" lon="5.156123">
        <ele>525.9</ele>
      </trkpt>
      <trkpt lat="43.932788" lon="5.156048">
        <ele>526.2</ele>
      </trkpt>
      <trkpt lat="43.932931" lon="5.155973">
        <ele>527.3</ele>
      </trkpt>
      <trkpt lat="43.932862" lon="5.155887">
        <ele>526.6</ele>
      </trkpt>
      <trkpt lat="43.932738" lon="5.155812">
        <ele>528</ele>
      </trkpt>
      <trkpt lat="43.932668" lon="5.155833">
        <ele>526.6</ele>
      </trkpt>
      <trkpt lat="43.932572" lon="5.155742">
        <ele>525.4</ele>
      </trkpt>
      <trkpt lat="43.932371" lon="5.155737">
        <ele>520.8</ele>
      </trkpt>
      <trkpt lat="43.932216" lon="5.155683">
        <ele>520.2</ele>
      </trkpt>
      <trkpt lat="43.932155" lon="5.155571">
        <ele>520.3</ele>
      </trkpt>
      <trkpt lat="43.932155" lon="5.155399">
        <ele>521.4</ele>
      </trkpt>
      <trkpt lat="43.932189" lon="5.155243">
        <ele>522.9</ele>
      </trkpt>
      <trkpt lat="43.932158" lon="5.154938">
        <ele>532.1</ele>
      </trkpt>
      <trkpt lat="43.932077" lon="5.154793">
        <ele>532.2</ele>
      </trkpt>
      <trkpt lat="43.931934" lon="5.154723">
        <ele>531.4</ele>
      </trkpt>
      <trkpt lat="43.931795" lon="5.154557">
        <ele>532.3</ele>
      </trkpt>
      <trkpt lat="43.931575" lon="5.154337">
        <ele>526.1</ele>
      </trkpt>
      <trkpt lat="43.931479" lon="5.154144">
        <ele>530.8</ele>
      </trkpt>
      <trkpt lat="43.931448" lon="5.153993">
        <ele>529.9</ele>
      </trkpt>
      <trkpt lat="43.931467" lon="5.153741">
        <ele>530.1</ele>
      </trkpt>
      <trkpt lat="43.931513" lon="5.153564">
        <ele>531.6</ele>
      </trkpt>
      <trkpt lat="43.931629" lon="5.153387">
        <ele>535.7</ele>
      </trkpt>
      <trkpt lat="43.931764" lon="5.153205">
        <ele>543.3</ele>
      </trkpt>
      <trkpt lat="43.931741" lon="5.153140">
        <ele>544.2</ele>
      </trkpt>
      <trkpt lat="43.931656" lon="5.153001">
        <ele>537</ele>
      </trkpt>
      <trkpt lat="43.930907" lon="5.152786">
        <ele>534.2</ele>
      </trkpt>
      <trkpt lat="43.930775" lon="5.152819">
        <ele>528.4</ele>
      </trkpt>
      <trkpt lat="43.930551" lon="5.152813">
        <ele>527.4</ele>
      </trkpt>
      <trkpt lat="43.930486" lon="5.152840">
        <ele>526.9</ele>
      </trkpt>
      <trkpt lat="43.930408" lon="5.152802">
        <ele>526.7</ele>
      </trkpt>
      <trkpt lat="43.930497" lon="5.152566">
        <ele>528.3</ele>
      </trkpt>
      <trkpt lat="43.930625" lon="5.152266">
        <ele>530.1</ele>
      </trkpt>
      <trkpt lat="43.930833" lon="5.152078">
        <ele>530.5</ele>
      </trkpt>
      <trkpt lat="43.931285" lon="5.152019">
        <ele>539.7</ele>
      </trkpt>
      <trkpt lat="43.931404" lon="5.151944">
        <ele>540.5</ele>
      </trkpt>
      <trkpt lat="43.931900" lon="5.151987">
        <ele>550.2</ele>
      </trkpt>
      <trkpt lat="43.932085" lon="5.151832">
        <ele>551.8</ele>
      </trkpt>
      <trkpt lat="43.932240" lon="5.151638">
        <ele>551.2</ele>
      </trkpt>
      <trkpt lat="43.932359" lon="5.151595">
        <ele>553.4</ele>
      </trkpt>
      <trkpt lat="43.932997" lon="5.151869">
        <ele>566</ele>
      </trkpt>
      <trkpt lat="43.933248" lon="5.152271">
        <ele>569.7</ele>
      </trkpt>
      <trkpt lat="43.933467" lon="5.152470">
        <ele>578</ele>
      </trkpt>
      <trkpt lat="43.933630" lon="5.152706">
        <ele>582.5</ele>
      </trkpt>
      <trkpt lat="43.933874" lon="5.152942">
        <ele>584.8</ele>
      </trkpt>
      <trkpt lat="43.934021" lon="5.152942">
        <ele>586</ele>
      </trkpt>
      <trkpt lat="43.934233" lon="5.152856">
        <ele>593.8</ele>
      </trkpt>
      <trkpt lat="43.934557" lon="5.152827">
        <ele>594.9</ele>
      </trkpt>
      <trkpt lat="43.934768" lon="5.152794">
        <ele>596</ele>
      </trkpt>
      <trkpt lat="43.934940" lon="5.152867">
        <ele>596.2</ele>
      </trkpt>
      <trkpt lat="43.935647" lon="5.153006">
        <ele>599.8</ele>
      </trkpt>
      <trkpt lat="43.935948" lon="5.153108">
        <ele>602.7</ele>
      </trkpt>
      <trkpt lat="43.936435" lon="5.153146">
        <ele>604.9</ele>
      </trkpt>
      <trkpt lat="43.936717" lon="5.153366">
        <ele>608.3</ele>
      </trkpt>
      <trkpt lat="43.937022" lon="5.153553">
        <ele>609.7</ele>
      </trkpt>
      <trkpt lat="43.937215" lon="5.153634">
        <ele>610.5</ele>
      </trkpt>
      <trkpt lat="43.937447" lon="5.153763">
        <ele>610.9</ele>
      </trkpt>
      <trkpt lat="43.937799" lon="5.153827">
        <ele>615.2</ele>
      </trkpt>
      <trkpt lat="43.937945" lon="5.153849">
        <ele>615.6</ele>
      </trkpt>
      <trkpt lat="43.938150" lon="5.154085">
        <ele>615.7</ele>
      </trkpt>
      <trkpt lat="43.938679" lon="5.154272">
        <ele>611.4</ele>
      </trkpt>
      <trkpt lat="43.938934" lon="5.154144">
        <ele>615.4</ele>
      </trkpt>
      <trkpt lat="43.939792" lon="5.154294">
        <ele>610.2</ele>
      </trkpt>
      <trkpt lat="43.940275" lon="5.154465">
        <ele>612.4</ele>
      </trkpt>
      <trkpt lat="43.940707" lon="5.154734">
        <ele>613.9</ele>
      </trkpt>
      <trkpt lat="43.940935" lon="5.154948">
        <ele>617.6</ele>
      </trkpt>
      <trkpt lat="43.941182" lon="5.155431">
        <ele>618.1</ele>
      </trkpt>
      <trkpt lat="43.941364" lon="5.156005">
        <ele>616.8</ele>
      </trkpt>
      <trkpt lat="43.941522" lon="5.156311">
        <ele>616.7</ele>
      </trkpt>
      <trkpt lat="43.941955" lon="5.157008">
        <ele>618.5</ele>
      </trkpt>
      <trkpt lat="43.942152" lon="5.157443">
        <ele>618.3</ele>
      </trkpt>
      <trkpt lat="43.942290" lon="5.157900">
        <ele>617.9</ele>
      </trkpt>
      <trkpt lat="43.942300" lon="5.157940">
        <ele>617.9</ele>
      </trkpt>
      <trkpt lat="43.942280" lon="5.158950">
        <ele>617.9</ele>
      </trkpt>
      <trkpt lat="43.942200" lon="5.159420">
        <ele>617.1</ele>
      </trkpt>
      <trkpt lat="43.942170" lon="5.159870">
        <ele>616.8</ele>
      </trkpt>
      <trkpt lat="43.942210" lon="5.160230">
        <ele>615.4</ele>
      </trkpt>
      <trkpt lat="43.942570" lon="5.161480">
        <ele>611.1</ele>
      </trkpt>
      <trkpt lat="43.942650" lon="5.162240">
        <ele>608.5</ele>
      </trkpt>
      <trkpt lat="43.942660" lon="5.162980">
        <ele>604.5</ele>
      </trkpt>
      <trkpt lat="43.942770" lon="5.163400">
        <ele>600.5</ele>
      </trkpt>
      <trkpt lat="43.942920" lon="5.163680">
        <ele>599.2</ele>
      </trkpt>
      <trkpt lat="43.943110" lon="5.163850">
        <ele>597.5</ele>
      </trkpt>
      <trkpt lat="43.943300" lon="5.164080">
        <ele>592.9</ele>
      </trkpt>
      <trkpt lat="43.943590" lon="5.164140">
        <ele>591.2</ele>
      </trkpt>
      <trkpt lat="43.943920" lon="5.164370">
        <ele>586.4</ele>
      </trkpt>
      <trkpt lat="43.944430" lon="5.164430">
        <ele>580.5</ele>
      </trkpt>
      <trkpt lat="43.944640" lon="5.164590">
        <ele>579.6</ele>
      </trkpt>
      <trkpt lat="43.944740" lon="5.164890">
        <ele>577.2</ele>
      </trkpt>
      <trkpt lat="43.944880" lon="5.165230">
        <ele>575</ele>
      </trkpt>
      <trkpt lat="43.945050" lon="5.165510">
        <ele>573.2</ele>
      </trkpt>
      <trkpt lat="43.945210" lon="5.165730">
        <ele>572.6</ele>
      </trkpt>
      <trkpt lat="43.945340" lon="5.165980">
        <ele>567.1</ele>
      </trkpt>
      <trkpt lat="43.945530" lon="5.166870">
        <ele>554.5</ele>
      </trkpt>
      <trkpt lat="43.945750" lon="5.167190">
        <ele>550.7</ele>
      </trkpt>
      <trkpt lat="43.945810" lon="5.167520">
        <ele>542.4</ele>
      </trkpt>
      <trkpt lat="43.945820" lon="5.167670">
        <ele>540.2</ele>
      </trkpt>
      <trkpt lat="43.945760" lon="5.167900">
        <ele>537.5</ele>
      </trkpt>
      <trkpt lat="43.945760" lon="5.168020">
        <ele>536.1</ele>
      </trkpt>
      <trkpt lat="43.945940" lon="5.168230">
        <ele>536.2</ele>
      </trkpt>
      <trkpt lat="43.945770" lon="5.168240">
        <ele>533.3</ele>
      </trkpt>
      <trkpt lat="43.945650" lon="5.168480">
        <ele>532.3</ele>
      </trkpt>
      <trkpt lat="43.945530" lon="5.168860">
        <ele>534</ele>
      </trkpt>
      <trkpt lat="43.945290" lon="5.168730">
        <ele>532.9</ele>
      </trkpt>
      <trkpt lat="43.945170" lon="5.168540">
        <ele>531.5</ele>
      </trkpt>
      <trkpt lat="43.944980" lon="5.168400">
        <ele>529</ele>
      </trkpt>
      <trkpt lat="43.944740" lon="5.168310">
        <ele>532.2</ele>
      </trkpt>
      <trkpt lat="43.944480" lon="5.168210">
        <ele>532</ele>
      </trkpt>
      <trkpt lat="43.944230" lon="5.168200">
        <ele>528.5</ele>
      </trkpt>
      <trkpt lat="43.943930" lon="5.168290">
        <ele>528.4</ele>
      </trkpt>
      <trkpt lat="43.943760" lon="5.168340">
        <ele>526.6</ele>
      </trkpt>
      <trkpt lat="43.943550" lon="5.168420">
        <ele>525.3</ele>
      </trkpt>
      <trkpt lat="43.943310" lon="5.168540">
        <ele>521.4</ele>
      </trkpt>
      <trkpt lat="43.943080" lon="5.168630">
        <ele>522</ele>
      </trkpt>
      <trkpt lat="43.942440" lon="5.168860">
        <ele>517.6</ele>
      </trkpt>
      <trkpt lat="43.942360" lon="5.168680">
        <ele>514</ele>
      </trkpt>
      <trkpt lat="43.942360" lon="5.168370">
        <ele>510.3</ele>
      </trkpt>
      <trkpt lat="43.942360" lon="5.168140">
        <ele>511.5</ele>
      </trkpt>
      <trkpt lat="43.942270" lon="5.167960">
        <ele>513.5</ele>
      </trkpt>
      <trkpt lat="43.942120" lon="5.167980">
        <ele>512.7</ele>
      </trkpt>
      <trkpt lat="43.941890" lon="5.168000">
        <ele>511.4</ele>
      </trkpt>
      <trkpt lat="43.941740" lon="5.168200">
        <ele>506.6</ele>
      </trkpt>
      <trkpt lat="43.941610" lon="5.168540">
        <ele>503.9</ele>
      </trkpt>
      <trkpt lat="43.941130" lon="5.168830">
        <ele>506</ele>
      </trkpt>
      <trkpt lat="43.941020" lon="5.168810">
        <ele>505.5</ele>
      </trkpt>
      <trkpt lat="43.940890" lon="5.168670">
        <ele>502.7</ele>
      </trkpt>
      <trkpt lat="43.940800" lon="5.168150">
        <ele>492.5</ele>
      </trkpt>
      <trkpt lat="43.940700" lon="5.167810">
        <ele>494.4</ele>
      </trkpt>
      <trkpt lat="43.940460" lon="5.167700">
        <ele>493.7</ele>
      </trkpt>
      <trkpt lat="43.940060" lon="5.167870">
        <ele>492.5</ele>
      </trkpt>
      <trkpt lat="43.939840" lon="5.167880">
        <ele>489.6</ele>
      </trkpt>
      <trkpt lat="43.939550" lon="5.167900">
        <ele>488.9</ele>
      </trkpt>
      <trkpt lat="43.939390" lon="5.167780">
        <ele>489.1</ele>
      </trkpt>
      <trkpt lat="43.939090" lon="5.167810">
        <ele>489.8</ele>
      </trkpt>
      <trkpt lat="43.938870" lon="5.167910">
        <ele>489.4</ele>
      </trkpt>
      <trkpt lat="43.938700" lon="5.168100">
        <ele>487</ele>
      </trkpt>
      <trkpt lat="43.938310" lon="5.168670">
        <ele>472.6</ele>
      </trkpt>
      <trkpt lat="43.938120" lon="5.168970">
        <ele>471.4</ele>
      </trkpt>
      <trkpt lat="43.937910" lon="5.169200">
        <ele>475.7</ele>
      </trkpt>
      <trkpt lat="43.937220" lon="5.169010">
        <ele>468.4</ele>
      </trkpt>
      <trkpt lat="43.936430" lon="5.169220">
        <ele>458.2</ele>
      </trkpt>
      <trkpt lat="43.936140" lon="5.169470">
        <ele>458</ele>
      </trkpt>
      <trkpt lat="43.935880" lon="5.170140">
        <ele>455.1</ele>
      </trkpt>
      <trkpt lat="43.935820" lon="5.170290">
        <ele>450.2</ele>
      </trkpt>
      <trkpt lat="43.935680" lon="5.170330">
        <ele>450.3</ele>
      </trkpt>
      <trkpt lat="43.935470" lon="5.170320">
        <ele>449.4</ele>
      </trkpt>
      <trkpt lat="43.935190" lon="5.170130">
        <ele>446.4</ele>
      </trkpt>
      <trkpt lat="43.934960" lon="5.170120">
        <ele>443.9</ele>
      </trkpt>
      <trkpt lat="43.934710" lon="5.170200">
        <ele>445.9</ele>
      </trkpt>
      <trkpt lat="43.934550" lon="5.170560">
        <ele>445.4</ele>
      </trkpt>
      <trkpt lat="43.934350" lon="5.170770">
        <ele>442.7</ele>
      </trkpt>
      <trkpt lat="43.934060" lon="5.170900">
        <ele>439.7</ele>
      </trkpt>
      <trkpt lat="43.933900" lon="5.171040">
        <ele>441.3</ele>
      </trkpt>
      <trkpt lat="43.933760" lon="5.171540">
        <ele>439.3</ele>
      </trkpt>
      <trkpt lat="43.933520" lon="5.171790">
        <ele>437.6</ele>
      </trkpt>
      <trkpt lat="43.932860" lon="5.172160">
        <ele>434.1</ele>
      </trkpt>
      <trkpt lat="43.932490" lon="5.172230">
        <ele>429.4</ele>
      </trkpt>
      <trkpt lat="43.931790" lon="5.172030">
        <ele>427.8</ele>
      </trkpt>
      <trkpt lat="43.931460" lon="5.172150">
        <ele>425.5</ele>
      </trkpt>
      <trkpt lat="43.931320" lon="5.172150">
        <ele>425.6</ele>
      </trkpt>
      <trkpt lat="43.931200" lon="5.172200">
        <ele>424.9</ele>
      </trkpt>
      <trkpt lat="43.931110" lon="5.172530">
        <ele>419.9</ele>
      </trkpt>
      <trkpt lat="43.931030" lon="5.172720">
        <ele>420.2</ele>
      </trkpt>
      <trkpt lat="43.930890" lon="5.172840">
        <ele>420.5</ele>
      </trkpt>
      <trkpt lat="43.930600" lon="5.172920">
        <ele>413.9</ele>
      </trkpt>
      <trkpt lat="43.930370" lon="5.172920">
        <ele>413.1</ele>
      </trkpt>
      <trkpt lat="43.930010" lon="5.172890">
        <ele>411.8</ele>
      </trkpt>
      <trkpt lat="43.929740" lon="5.172640">
        <ele>406.1</ele>
      </trkpt>
      <trkpt lat="43.929610" lon="5.172640">
        <ele>405.7</ele>
      </trkpt>
      <trkpt lat="43.928570" lon="5.173000">
        <ele>401.4</ele>
      </trkpt>
      <trkpt lat="43.928500" lon="5.173200">
        <ele>397.1</ele>
      </trkpt>
      <trkpt lat="43.928510" lon="5.173540">
        <ele>398.1</ele>
      </trkpt>
      <trkpt lat="43.928470" lon="5.173780">
        <ele>401</ele>
      </trkpt>
      <trkpt lat="43.927530" lon="5.173600">
        <ele>391.3</ele>
      </trkpt>
      <trkpt lat="43.926960" lon="5.173640">
        <ele>389.9</ele>
      </trkpt>
      <trkpt lat="43.926630" lon="5.173960">
        <ele>383.6</ele>
      </trkpt>
      <trkpt lat="43.926370" lon="5.174040">
        <ele>382.5</ele>
      </trkpt>
      <trkpt lat="43.925930" lon="5.174150">
        <ele>374.7</ele>
      </trkpt>
      <trkpt lat="43.925270" lon="5.174070">
        <ele>373.3</ele>
      </trkpt>
      <trkpt lat="43.924940" lon="5.173630">
        <ele>363.9</ele>
      </trkpt>
      <trkpt lat="43.924560" lon="5.173490">
        <ele>361</ele>
      </trkpt>
      <trkpt lat="43.924310" lon="5.173330">
        <ele>353.5</ele>
      </trkpt>
      <trkpt lat="43.923700" lon="5.173250">
        <ele>350</ele>
      </trkpt>
      <trkpt lat="43.923310" lon="5.173240">
        <ele>342.7</ele>
      </trkpt>
      <trkpt lat="43.923130" lon="5.173420">
        <ele>341.1</ele>
      </trkpt>
      <trkpt lat="43.923020" lon="5.173560">
        <ele>341.4</ele>
      </trkpt>
      <trkpt lat="43.922880" lon="5.173680">
        <ele>341.4</ele>
      </trkpt>
      <trkpt lat="43.922250" lon="5.173030">
        <ele>339.4</ele>
      </trkpt>
      <trkpt lat="43.921740" lon="5.172710">
        <ele>336.7</ele>
      </trkpt>
      <trkpt lat="43.921430" lon="5.172630">
        <ele>331.7</ele>
      </trkpt>
      <trkpt lat="43.920640" lon="5.172850">
        <ele>332</ele>
      </trkpt>
      <trkpt lat="43.920250" lon="5.173370">
        <ele>325.4</ele>
      </trkpt>
      <trkpt lat="43.920220" lon="5.173610">
        <ele>324.1</ele>
      </trkpt>
      <trkpt lat="43.920200" lon="5.174360">
        <ele>318.6</ele>
      </trkpt>
      <trkpt lat="43.919930" lon="5.174670">
        <ele>313.6</ele>
      </trkpt>
      <trkpt lat="43.919640" lon="5.174820">
        <ele>313.3</ele>
      </trkpt>
      <trkpt lat="43.919260" lon="5.174790">
        <ele>312.4</ele>
      </trkpt>
      <trkpt lat="43.918970" lon="5.174670">
        <ele>310.6</ele>
      </trkpt>
      <trkpt lat="43.918710" lon="5.174700">
        <ele>308.8</ele>
      </trkpt>
      <trkpt lat="43.918410" lon="5.174680">
        <ele>306.9</ele>
      </trkpt>
      <trkpt lat="43.918220" lon="5.174790">
        <ele>304.5</ele>
      </trkpt>
      <trkpt lat="43.918109" lon="5.174748">
        <ele>305.8</ele>
      </trkpt>
      <trkpt lat="43.917966" lon="5.174523">
        <ele>308.2</ele>
      </trkpt>
      <trkpt lat="43.917870" lon="5.174008">
        <ele>318.5</ele>
      </trkpt>
      <trkpt lat="43.917890" lon="5.173863">
        <ele>319.3</ele>
      </trkpt>
      <trkpt lat="43.917925" lon="5.173622">
        <ele>320.9</ele>
      </trkpt>
      <trkpt lat="43.917925" lon="5.173348">
        <ele>322.4</ele>
      </trkpt>
      <trkpt lat="43.917952" lon="5.173042">
        <ele>329.7</ele>
      </trkpt>
      <trkpt lat="43.917909" lon="5.172672">
        <ele>331.3</ele>
      </trkpt>
      <trkpt lat="43.917882" lon="5.172415">
        <ele>336.9</ele>
      </trkpt>
      <trkpt lat="43.917855" lon="5.172302">
        <ele>337.4</ele>
      </trkpt>
      <trkpt lat="43.917778" lon="5.172265">
        <ele>337.5</ele>
      </trkpt>
      <trkpt lat="43.917731" lon="5.172393">
        <ele>336.5</ele>
      </trkpt>
      <trkpt lat="43.917720" lon="5.172790">
        <ele>330.9</ele>
      </trkpt>
      <trkpt lat="43.917658" lon="5.173037">
        <ele>329.8</ele>
      </trkpt>
      <trkpt lat="43.917619" lon="5.173225">
        <ele>329</ele>
      </trkpt>
      <trkpt lat="43.917523" lon="5.173477">
        <ele>324.6</ele>
      </trkpt>
      <trkpt lat="43.917445" lon="5.173654">
        <ele>329.4</ele>
      </trkpt>
      <trkpt lat="43.917349" lon="5.173992">
        <ele>326</ele>
      </trkpt>
      <trkpt lat="43.917074" lon="5.174046">
        <ele>329.4</ele>
      </trkpt>
      <trkpt lat="43.916816" lon="5.174062">
        <ele>331</ele>
      </trkpt>
      <trkpt lat="43.916572" lon="5.173906">
        <ele>336.7</ele>
      </trkpt>
      <trkpt lat="43.916317" lon="5.173906">
        <ele>337</ele>
      </trkpt>
      <trkpt lat="43.916081" lon="5.173874">
        <ele>336.6</ele>
      </trkpt>
      <trkpt lat="43.915985" lon="5.173831">
        <ele>337</ele>
      </trkpt>
      <trkpt lat="43.915683" lon="5.173702">
        <ele>339</ele>
      </trkpt>
      <trkpt lat="43.915274" lon="5.173568">
        <ele>340.9</ele>
      </trkpt>
      <trkpt lat="43.915034" lon="5.173638">
        <ele>340.6</ele>
      </trkpt>
      <trkpt lat="43.914829" lon="5.173793">
        <ele>340</ele>
      </trkpt>
      <trkpt lat="43.914574" lon="5.173911">
        <ele>339.4</ele>
      </trkpt>
      <trkpt lat="43.914346" lon="5.173869">
        <ele>340</ele>
      </trkpt>
      <trkpt lat="43.913724" lon="5.173284">
        <ele>351.3</ele>
      </trkpt>
      <trkpt lat="43.913593" lon="5.173230">
        <ele>349.9</ele>
      </trkpt>
      <trkpt lat="43.913403" lon="5.173252">
        <ele>346.6</ele>
      </trkpt>
      <trkpt lat="43.913160" lon="5.173241">
        <ele>342.9</ele>
      </trkpt>
      <trkpt lat="43.913063" lon="5.173284">
        <ele>342.4</ele>
      </trkpt>
      <trkpt lat="43.912986" lon="5.173278">
        <ele>342</ele>
      </trkpt>
      <trkpt lat="43.912905" lon="5.173257">
        <ele>341.5</ele>
      </trkpt>
      <trkpt lat="43.912847" lon="5.173155">
        <ele>341.5</ele>
      </trkpt>
      <trkpt lat="43.912800" lon="5.173010">
        <ele>341.9</ele>
      </trkpt>
      <trkpt lat="43.912773" lon="5.172914">
        <ele>342.3</ele>
      </trkpt>
      <trkpt lat="43.912708" lon="5.172849">
        <ele>342.3</ele>
      </trkpt>
      <trkpt lat="43.912623" lon="5.172855">
        <ele>341.9</ele>
      </trkpt>
      <trkpt lat="43.912572" lon="5.172790">
        <ele>342.1</ele>
      </trkpt>
      <trkpt lat="43.912603" lon="5.172281">
        <ele>345</ele>
      </trkpt>
      <trkpt lat="43.912603" lon="5.172120">
        <ele>345.4</ele>
      </trkpt>
      <trkpt lat="43.912696" lon="5.171138">
        <ele>345.2</ele>
      </trkpt>
      <trkpt lat="43.912712" lon="5.169999">
        <ele>342.8</ele>
      </trkpt>
      <trkpt lat="43.912712" lon="5.169999">
        <ele>342.8</ele>
      </trkpt>
      <trkpt lat="43.912713" lon="5.169944">
        <ele>342.9</ele>
      </trkpt>
      <trkpt lat="43.912713" lon="5.169909">
        <ele>343</ele>
      </trkpt>
      <trkpt lat="43.912715" lon="5.169786">
        <ele>343.4</ele>
      </trkpt>
      <trkpt lat="43.912704" lon="5.169556">
        <ele>343.8</ele>
      </trkpt>
      <trkpt lat="43.912623" lon="5.169674">
        <ele>343.2</ele>
      </trkpt>
      <trkpt lat="43.912232" lon="5.170183">
        <ele>335.7</ele>
      </trkpt>
      <trkpt lat="43.912140" lon="5.170312">
        <ele>335.1</ele>
      </trkpt>
      <trkpt lat="43.911819" lon="5.170628">
        <ele>333</ele>
      </trkpt>
      <trkpt lat="43.911660" lon="5.170800">
        <ele>329.3</ele>
      </trkpt>
      <trkpt lat="43.911483" lon="5.171009">
        <ele>326.9</ele>
      </trkpt>
      <trkpt lat="43.911193" lon="5.171272">
        <ele>324.9</ele>
      </trkpt>
      <trkpt lat="43.911046" lon="5.171385">
        <ele>324.1</ele>
      </trkpt>
      <trkpt lat="43.910930" lon="5.171417">
        <ele>323.5</ele>
      </trkpt>
      <trkpt lat="43.910868" lon="5.171406">
        <ele>323.3</ele>
      </trkpt>
      <trkpt lat="43.910854" lon="5.171320">
        <ele>323.5</ele>
      </trkpt>
      <trkpt lat="43.910858" lon="5.171186">
        <ele>323.4</ele>
      </trkpt>
      <trkpt lat="43.910868" lon="5.171071">
        <ele>322.9</ele>
      </trkpt>
      <trkpt lat="43.910825" lon="5.170974">
        <ele>318.7</ele>
      </trkpt>
      <trkpt lat="43.910775" lon="5.170873">
        <ele>319.2</ele>
      </trkpt>
      <trkpt lat="43.910742" lon="5.170792">
        <ele>318.5</ele>
      </trkpt>
      <trkpt lat="43.910657" lon="5.170690">
        <ele>317.3</ele>
      </trkpt>
      <trkpt lat="43.910537" lon="5.170521">
        <ele>316.2</ele>
      </trkpt>
      <trkpt lat="43.910504" lon="5.170457">
        <ele>316</ele>
      </trkpt>
      <trkpt lat="43.910433" lon="5.170387">
        <ele>315.5</ele>
      </trkpt>
      <trkpt lat="43.910331" lon="5.170272">
        <ele>314.8</ele>
      </trkpt>
      <trkpt lat="43.910275" lon="5.170159">
        <ele>314.2</ele>
      </trkpt>
      <trkpt lat="43.910228" lon="5.170003">
        <ele>313.4</ele>
      </trkpt>
      <trkpt lat="43.910220" lon="5.169802">
        <ele>311.2</ele>
      </trkpt>
      <trkpt lat="43.910205" lon="5.169692">
        <ele>310.8</ele>
      </trkpt>
      <trkpt lat="43.910213" lon="5.169547">
        <ele>310.2</ele>
      </trkpt>
      <trkpt lat="43.910164" lon="5.169419">
        <ele>308.9</ele>
      </trkpt>
      <trkpt lat="43.910195" lon="5.168389">
        <ele>302</ele>
      </trkpt>
      <trkpt lat="43.910149" lon="5.168290">
        <ele>300</ele>
      </trkpt>
      <trkpt lat="43.910041" lon="5.168204">
        <ele>299.4</ele>
      </trkpt>
      <trkpt lat="43.909794" lon="5.168150">
        <ele>292.2</ele>
      </trkpt>
      <trkpt lat="43.909271" lon="5.167097">
        <ele>290.9</ele>
      </trkpt>
      <trkpt lat="43.909236" lon="5.167027">
        <ele>290.9</ele>
      </trkpt>
      <trkpt lat="43.909222" lon="5.166999">
        <ele>290.8</ele>
      </trkpt>
      <trkpt lat="43.909133" lon="5.166820">
        <ele>285.3</ele>
      </trkpt>
      <trkpt lat="43.909098" lon="5.166557">
        <ele>287</ele>
      </trkpt>
      <trkpt lat="43.909071" lon="5.166423">
        <ele>286.6</ele>
      </trkpt>
      <trkpt lat="43.909013" lon="5.166315">
        <ele>286.4</ele>
      </trkpt>
      <trkpt lat="43.908955" lon="5.166192">
        <ele>286.5</ele>
      </trkpt>
      <trkpt lat="43.908897" lon="5.165935">
        <ele>287.2</ele>
      </trkpt>
      <trkpt lat="43.908816" lon="5.165843">
        <ele>286.5</ele>
      </trkpt>
      <trkpt lat="43.908402" lon="5.165500">
        <ele>287.2</ele>
      </trkpt>
      <trkpt lat="43.908302" lon="5.165527">
        <ele>280.6</ele>
      </trkpt>
      <trkpt lat="43.907896" lon="5.165653">
        <ele>278.6</ele>
      </trkpt>
      <trkpt lat="43.907772" lon="5.165693">
        <ele>277.7</ele>
      </trkpt>
      <trkpt lat="43.907670" lon="5.165693">
        <ele>276.9</ele>
      </trkpt>
      <trkpt lat="43.906988" lon="5.165658">
        <ele>269.2</ele>
      </trkpt>
      <trkpt lat="43.906758" lon="5.165618">
        <ele>268.1</ele>
      </trkpt>
      <trkpt lat="43.906560" lon="5.165728">
        <ele>264.1</ele>
      </trkpt>
      <trkpt lat="43.906354" lon="5.165752">
        <ele>262.7</ele>
      </trkpt>
      <trkpt lat="43.906160" lon="5.165924">
        <ele>262</ele>
      </trkpt>
      <trkpt lat="43.905958" lon="5.165902">
        <ele>260.5</ele>
      </trkpt>
      <trkpt lat="43.905747" lon="5.165913">
        <ele>257.2</ele>
      </trkpt>
      <trkpt lat="43.905681" lon="5.165876">
        <ele>256.6</ele>
      </trkpt>
      <trkpt lat="43.905619" lon="5.165752">
        <ele>255.6</ele>
      </trkpt>
      <trkpt lat="43.905252" lon="5.165438">
        <ele>252.7</ele>
      </trkpt>
      <trkpt lat="43.904640" lon="5.165489">
        <ele>244.9</ele>
      </trkpt>
      <trkpt lat="43.903961" lon="5.165524">
        <ele>238.7</ele>
      </trkpt>
      <trkpt lat="43.903679" lon="5.165473">
        <ele>237.9</ele>
      </trkpt>
      <trkpt lat="43.902839" lon="5.165266">
        <ele>234.8</ele>
      </trkpt>
      <trkpt lat="43.902755" lon="5.165245">
        <ele>234.7</ele>
      </trkpt>
      <trkpt lat="43.902597" lon="5.165221">
        <ele>234.5</ele>
      </trkpt>
      <trkpt lat="43.902684" lon="5.164803">
        <ele>234.4</ele>
      </trkpt>
      <trkpt lat="43.902782" lon="5.164065">
        <ele>236.3</ele>
      </trkpt>
      <trkpt lat="43.902873" lon="5.163622">
        <ele>238.1</ele>
      </trkpt>
      <trkpt lat="43.902914" lon="5.163317">
        <ele>241.4</ele>
      </trkpt>
      <trkpt lat="43.902974" lon="5.162853">
        <ele>242.3</ele>
      </trkpt>
      <trkpt lat="43.903020" lon="5.162485">
        <ele>245.4</ele>
      </trkpt>
      <trkpt lat="43.903049" lon="5.162096">
        <ele>246</ele>
      </trkpt>
      <trkpt lat="43.903053" lon="5.161935">
        <ele>246.5</ele>
      </trkpt>
      <trkpt lat="43.903111" lon="5.161809">
        <ele>247.4</ele>
      </trkpt>
      <trkpt lat="43.903213" lon="5.161410">
        <ele>251.2</ele>
      </trkpt>
      <trkpt lat="43.903289" lon="5.161045">
        <ele>253.9</ele>
      </trkpt>
      <trkpt lat="43.902693" lon="5.160203">
        <ele>256.4</ele>
      </trkpt>
      <trkpt lat="43.902573" lon="5.160033">
        <ele>255.6</ele>
      </trkpt>
      <trkpt lat="43.902570" lon="5.160028">
        <ele>255.6</ele>
      </trkpt>
      <trkpt lat="43.902153" lon="5.159277">
        <ele>255.6</ele>
      </trkpt>
      <trkpt lat="43.902029" lon="5.159111">
        <ele>258.1</ele>
      </trkpt>
      <trkpt lat="43.901909" lon="5.158827">
        <ele>258.2</ele>
      </trkpt>
      <trkpt lat="43.901844" lon="5.158660">
        <ele>258.5</ele>
      </trkpt>
      <trkpt lat="43.901759" lon="5.158467">
        <ele>258.5</ele>
      </trkpt>
      <trkpt lat="43.901627" lon="5.158365">
        <ele>256.6</ele>
      </trkpt>
      <trkpt lat="43.901608" lon="5.158253">
        <ele>256.8</ele>
      </trkpt>
      <trkpt lat="43.901612" lon="5.158060">
        <ele>256</ele>
      </trkpt>
      <trkpt lat="43.901581" lon="5.157915">
        <ele>256</ele>
      </trkpt>
      <trkpt lat="43.901418" lon="5.157421">
        <ele>258.1</ele>
      </trkpt>
      <trkpt lat="43.901271" lon="5.157126">
        <ele>257.1</ele>
      </trkpt>
      <trkpt lat="43.901183" lon="5.156896">
        <ele>256.7</ele>
      </trkpt>
      <trkpt lat="43.901086" lon="5.156810">
        <ele>256</ele>
      </trkpt>
      <trkpt lat="43.900951" lon="5.156515">
        <ele>254.6</ele>
      </trkpt>
      <trkpt lat="43.900881" lon="5.156450">
        <ele>254.5</ele>
      </trkpt>
      <trkpt lat="43.900850" lon="5.156364">
        <ele>254.5</ele>
      </trkpt>
      <trkpt lat="43.900750" lon="5.156289">
        <ele>249.8</ele>
      </trkpt>
      <trkpt lat="43.900657" lon="5.156123">
        <ele>249.3</ele>
      </trkpt>
      <trkpt lat="43.900533" lon="5.156005">
        <ele>248.8</ele>
      </trkpt>
      <trkpt lat="43.900437" lon="5.155925">
        <ele>248.4</ele>
      </trkpt>
      <trkpt lat="43.900324" lon="5.155849">
        <ele>247.8</ele>
      </trkpt>
      <trkpt lat="43.900294" lon="5.155753">
        <ele>244.3</ele>
      </trkpt>
      <trkpt lat="43.900197" lon="5.155624">
        <ele>243.8</ele>
      </trkpt>
      <trkpt lat="43.900193" lon="5.155495">
        <ele>243.1</ele>
      </trkpt>
      <trkpt lat="43.900054" lon="5.155163">
        <ele>240.1</ele>
      </trkpt>
      <trkpt lat="43.899977" lon="5.154862">
        <ele>234.7</ele>
      </trkpt>
      <trkpt lat="43.899923" lon="5.154659">
        <ele>232.6</ele>
      </trkpt>
      <trkpt lat="43.899718" lon="5.153645">
        <ele>226</ele>
      </trkpt>
      <trkpt lat="43.899387" lon="5.153591">
        <ele>224.7</ele>
      </trkpt>
      <trkpt lat="43.899360" lon="5.153497">
        <ele>224.2</ele>
      </trkpt>
      <trkpt lat="43.899205" lon="5.153047">
        <ele>222.8</ele>
      </trkpt>
      <trkpt lat="43.898996" lon="5.152389">
        <ele>218.6</ele>
      </trkpt>
      <trkpt lat="43.898822" lon="5.151778">
        <ele>216.8</ele>
      </trkpt>
      <trkpt lat="43.898652" lon="5.150936">
        <ele>215.8</ele>
      </trkpt>
      <trkpt lat="43.898621" lon="5.150828">
        <ele>216.3</ele>
      </trkpt>
      <trkpt lat="43.898556" lon="5.150737">
        <ele>215.9</ele>
      </trkpt>
      <trkpt lat="43.898463" lon="5.150346">
        <ele>216.1</ele>
      </trkpt>
      <trkpt lat="43.898151" lon="5.149189">
        <ele>211.4</ele>
      </trkpt>
      <trkpt lat="43.898030" lon="5.148739">
        <ele>211.1</ele>
      </trkpt>
      <trkpt lat="43.897989" lon="5.148530">
        <ele>211.1</ele>
      </trkpt>
      <trkpt lat="43.897966" lon="5.148227">
        <ele>210.8</ele>
      </trkpt>
      <trkpt lat="43.897943" lon="5.147958">
        <ele>210.4</ele>
      </trkpt>
      <trkpt lat="43.897797" lon="5.147696">
        <ele>209.3</ele>
      </trkpt>
      <trkpt lat="43.897580" lon="5.147092">
        <ele>209.3</ele>
      </trkpt>
      <trkpt lat="43.897616" lon="5.147041">
        <ele>209.5</ele>
      </trkpt>
      <trkpt lat="43.897609" lon="5.146961">
        <ele>209.5</ele>
      </trkpt>
      <trkpt lat="43.897507" lon="5.146762">
        <ele>208.2</ele>
      </trkpt>
      <trkpt lat="43.897387" lon="5.146596">
        <ele>208</ele>
      </trkpt>
      <trkpt lat="43.896911" lon="5.146065">
        <ele>209.8</ele>
      </trkpt>
      <trkpt lat="43.896687" lon="5.145625">
        <ele>215.9</ele>
      </trkpt>
      <trkpt lat="43.896648" lon="5.144783">
        <ele>221.1</ele>
      </trkpt>
      <trkpt lat="43.896664" lon="5.144691">
        <ele>221.5</ele>
      </trkpt>
      <trkpt lat="43.896590" lon="5.144600">
        <ele>221.9</ele>
      </trkpt>
      <trkpt lat="43.896575" lon="5.144300">
        <ele>225.4</ele>
      </trkpt>
      <trkpt lat="43.896590" lon="5.143517">
        <ele>233.4</ele>
      </trkpt>
      <trkpt lat="43.896560" lon="5.143313">
        <ele>237.8</ele>
      </trkpt>
      <trkpt lat="43.896641" lon="5.143195">
        <ele>237.9</ele>
      </trkpt>
      <trkpt lat="43.896919" lon="5.143120">
        <ele>242.2</ele>
      </trkpt>
      <trkpt lat="43.896911" lon="5.142927">
        <ele>242.8</ele>
      </trkpt>
      <trkpt lat="43.896570" lon="5.142720">
        <ele>239.5</ele>
      </trkpt>
      <trkpt lat="43.896480" lon="5.142613">
        <ele>239.7</ele>
      </trkpt>
      <trkpt lat="43.896296" lon="5.142463">
        <ele>241.2</ele>
      </trkpt>
      <trkpt lat="43.896120" lon="5.142259">
        <ele>241</ele>
      </trkpt>
      <trkpt lat="43.896018" lon="5.142194">
        <ele>241</ele>
      </trkpt>
      <trkpt lat="43.895854" lon="5.142044">
        <ele>241</ele>
      </trkpt>
      <trkpt lat="43.895728" lon="5.141942">
        <ele>239</ele>
      </trkpt>
      <trkpt lat="43.895660" lon="5.141846">
        <ele>239.1</ele>
      </trkpt>
      <trkpt lat="43.895591" lon="5.141803">
        <ele>238.9</ele>
      </trkpt>
      <trkpt lat="43.895411" lon="5.141768">
        <ele>238.3</ele>
      </trkpt>
      <trkpt lat="43.895301" lon="5.141658">
        <ele>237.4</ele>
      </trkpt>
      <trkpt lat="43.894899" lon="5.141497">
        <ele>235.8</ele>
      </trkpt>
      <trkpt lat="43.894684" lon="5.141392">
        <ele>234.6</ele>
      </trkpt>
      <trkpt lat="43.894466" lon="5.141285">
        <ele>234</ele>
      </trkpt>
      <trkpt lat="43.894128" lon="5.141221">
        <ele>231.8</ele>
      </trkpt>
      <trkpt lat="43.894019" lon="5.141154">
        <ele>231.5</ele>
      </trkpt>
      <trkpt lat="43.893971" lon="5.141143">
        <ele>231.5</ele>
      </trkpt>
      <trkpt lat="43.893903" lon="5.141167">
        <ele>231.4</ele>
      </trkpt>
      <trkpt lat="43.893764" lon="5.141229">
        <ele>231.3</ele>
      </trkpt>
      <trkpt lat="43.893672" lon="5.141215">
        <ele>231.1</ele>
      </trkpt>
      <trkpt lat="43.893563" lon="5.141100">
        <ele>230.8</ele>
      </trkpt>
      <trkpt lat="43.893471" lon="5.141049">
        <ele>230.7</ele>
      </trkpt>
      <trkpt lat="43.893329" lon="5.140939">
        <ele>228.5</ele>
      </trkpt>
      <trkpt lat="43.893198" lon="5.140934">
        <ele>227.8</ele>
      </trkpt>
      <trkpt lat="43.893072" lon="5.140864">
        <ele>226.9</ele>
      </trkpt>
      <trkpt lat="43.892813" lon="5.140751">
        <ele>223.2</ele>
      </trkpt>
      <trkpt lat="43.892742" lon="5.140757">
        <ele>223.1</ele>
      </trkpt>
      <trkpt lat="43.892684" lon="5.140773">
        <ele>223.1</ele>
      </trkpt>
      <trkpt lat="43.892608" lon="5.140848">
        <ele>224.4</ele>
      </trkpt>
      <trkpt lat="43.892442" lon="5.140877">
        <ele>222.9</ele>
      </trkpt>
      <trkpt lat="43.892369" lon="5.140893">
        <ele>222.2</ele>
      </trkpt>
      <trkpt lat="43.892315" lon="5.140845">
        <ele>222</ele>
      </trkpt>
      <trkpt lat="43.892303" lon="5.140786">
        <ele>222.6</ele>
      </trkpt>
      <trkpt lat="43.892297" lon="5.140719">
        <ele>222.4</ele>
      </trkpt>
      <trkpt lat="43.892330" lon="5.140566">
        <ele>221.9</ele>
      </trkpt>
      <trkpt lat="43.892392" lon="5.140451">
        <ele>221.2</ele>
      </trkpt>
      <trkpt lat="43.892407" lon="5.140357">
        <ele>220.6</ele>
      </trkpt>
      <trkpt lat="43.892549" lon="5.140252">
        <ele>219.7</ele>
      </trkpt>
      <trkpt lat="43.892678" lon="5.140209">
        <ele>219.8</ele>
      </trkpt>
      <trkpt lat="43.892751" lon="5.140134">
        <ele>219.6</ele>
      </trkpt>
      <trkpt lat="43.892867" lon="5.140091">
        <ele>219.9</ele>
      </trkpt>
      <trkpt lat="43.893018" lon="5.139995">
        <ele>214.3</ele>
      </trkpt>
      <trkpt lat="43.893171" lon="5.139847">
        <ele>214.5</ele>
      </trkpt>
      <trkpt lat="43.893287" lon="5.139630">
        <ele>213.5</ele>
      </trkpt>
      <trkpt lat="43.893312" lon="5.139542">
        <ele>213</ele>
      </trkpt>
      <trkpt lat="43.893329" lon="5.139453">
        <ele>212.7</ele>
      </trkpt>
      <trkpt lat="43.893399" lon="5.139279">
        <ele>214.5</ele>
      </trkpt>
      <trkpt lat="43.893471" lon="5.139112">
        <ele>214.7</ele>
      </trkpt>
      <trkpt lat="43.893573" lon="5.138724">
        <ele>216.9</ele>
      </trkpt>
      <trkpt lat="43.893596" lon="5.138563">
        <ele>217</ele>
      </trkpt>
      <trkpt lat="43.893637" lon="5.138356">
        <ele>217.2</ele>
      </trkpt>
      <trkpt lat="43.893641" lon="5.138265">
        <ele>219.6</ele>
      </trkpt>
      <trkpt lat="43.893954" lon="5.137766">
        <ele>223.4</ele>
      </trkpt>
      <trkpt lat="43.894399" lon="5.137267">
        <ele>233.6</ele>
      </trkpt>
      <trkpt lat="43.894620" lon="5.136856">
        <ele>236.1</ele>
      </trkpt>
      <trkpt lat="43.894646" lon="5.136387">
        <ele>240.6</ele>
      </trkpt>
      <trkpt lat="43.894557" lon="5.135309">
        <ele>245.5</ele>
      </trkpt>
      <trkpt lat="43.894526" lon="5.134853">
        <ele>246.9</ele>
      </trkpt>
      <trkpt lat="43.894441" lon="5.134698">
        <ele>246.9</ele>
      </trkpt>
      <trkpt lat="43.894391" lon="5.134504">
        <ele>246.7</ele>
      </trkpt>
      <trkpt lat="43.894317" lon="5.134311">
        <ele>246.5</ele>
      </trkpt>
      <trkpt lat="43.894256" lon="5.134113">
        <ele>246.1</ele>
      </trkpt>
      <trkpt lat="43.894205" lon="5.133936">
        <ele>246.1</ele>
      </trkpt>
      <trkpt lat="43.894100" lon="5.133727">
        <ele>242.6</ele>
      </trkpt>
      <trkpt lat="43.893881" lon="5.133051">
        <ele>238.9</ele>
      </trkpt>
      <trkpt lat="43.893745" lon="5.132589">
        <ele>237.8</ele>
      </trkpt>
      <trkpt lat="43.893687" lon="5.132300">
        <ele>235.6</ele>
      </trkpt>
      <trkpt lat="43.893656" lon="5.132128">
        <ele>235.2</ele>
      </trkpt>
      <trkpt lat="43.893684" lon="5.131913">
        <ele>234.9</ele>
      </trkpt>
      <trkpt lat="43.893711" lon="5.131769">
        <ele>234.8</ele>
      </trkpt>
      <trkpt lat="43.894043" lon="5.131570">
        <ele>235.3</ele>
      </trkpt>
      <trkpt lat="43.894213" lon="5.131581">
        <ele>239.7</ele>
      </trkpt>
      <trkpt lat="43.894348" lon="5.131747">
        <ele>242.3</ele>
      </trkpt>
      <trkpt lat="43.894410" lon="5.131962">
        <ele>244.4</ele>
      </trkpt>
      <trkpt lat="43.894526" lon="5.132053">
        <ele>245.7</ele>
      </trkpt>
      <trkpt lat="43.894658" lon="5.131989">
        <ele>246.9</ele>
      </trkpt>
      <trkpt lat="43.894750" lon="5.131613">
        <ele>247.9</ele>
      </trkpt>
      <trkpt lat="43.894851" lon="5.131474">
        <ele>248.6</ele>
      </trkpt>
      <trkpt lat="43.895037" lon="5.131345">
        <ele>255.3</ele>
      </trkpt>
      <trkpt lat="43.895152" lon="5.131184">
        <ele>255.3</ele>
      </trkpt>
      <trkpt lat="43.895265" lon="5.131055">
        <ele>255.4</ele>
      </trkpt>
      <trkpt lat="43.895392" lon="5.131093">
        <ele>256.1</ele>
      </trkpt>
      <trkpt lat="43.895469" lon="5.131200">
        <ele>256.6</ele>
      </trkpt>
      <trkpt lat="43.895547" lon="5.131425">
        <ele>257.5</ele>
      </trkpt>
      <trkpt lat="43.895686" lon="5.131677">
        <ele>260.6</ele>
      </trkpt>
      <trkpt lat="43.895864" lon="5.131946">
        <ele>265.2</ele>
      </trkpt>
      <trkpt lat="43.896146" lon="5.132225">
        <ele>267.1</ele>
      </trkpt>
      <trkpt lat="43.896370" lon="5.132289">
        <ele>268.4</ele>
      </trkpt>
      <trkpt lat="43.896510" lon="5.132404">
        <ele>270.3</ele>
      </trkpt>
      <trkpt lat="43.896641" lon="5.132498">
        <ele>273.3</ele>
      </trkpt>
      <trkpt lat="43.897023" lon="5.132595">
        <ele>275.7</ele>
      </trkpt>
      <trkpt lat="43.897163" lon="5.132713">
        <ele>275.9</ele>
      </trkpt>
      <trkpt lat="43.897545" lon="5.133399">
        <ele>281.5</ele>
      </trkpt>
      <trkpt lat="43.897835" lon="5.133802">
        <ele>283.1</ele>
      </trkpt>
      <trkpt lat="43.898253" lon="5.134140">
        <ele>285.1</ele>
      </trkpt>
      <trkpt lat="43.898682" lon="5.134209">
        <ele>288.3</ele>
      </trkpt>
      <trkpt lat="43.899049" lon="5.134247">
        <ele>288.6</ele>
      </trkpt>
      <trkpt lat="43.899200" lon="5.134284">
        <ele>290.8</ele>
      </trkpt>
      <trkpt lat="43.899269" lon="5.134204">
        <ele>290.6</ele>
      </trkpt>
      <trkpt lat="43.899211" lon="5.133957">
        <ele>291.8</ele>
      </trkpt>
      <trkpt lat="43.899010" lon="5.133694">
        <ele>287.4</ele>
      </trkpt>
      <trkpt lat="43.898844" lon="5.133453">
        <ele>287</ele>
      </trkpt>
      <trkpt lat="43.898802" lon="5.133356">
        <ele>286.7</ele>
      </trkpt>
      <trkpt lat="43.898693" lon="5.133196">
        <ele>285.9</ele>
      </trkpt>
      <trkpt lat="43.898585" lon="5.133002">
        <ele>285.4</ele>
      </trkpt>
      <trkpt lat="43.898531" lon="5.132697">
        <ele>285.1</ele>
      </trkpt>
      <trkpt lat="43.898543" lon="5.132461">
        <ele>283.4</ele>
      </trkpt>
      <trkpt lat="43.898623" lon="5.132225">
        <ele>283.6</ele>
      </trkpt>
      <trkpt lat="43.898674" lon="5.132171">
        <ele>283.7</ele>
      </trkpt>
      <trkpt lat="43.898836" lon="5.132074">
        <ele>284.1</ele>
      </trkpt>
      <trkpt lat="43.899018" lon="5.132166">
        <ele>285.4</ele>
      </trkpt>
      <trkpt lat="43.899161" lon="5.132294">
        <ele>287.4</ele>
      </trkpt>
      <trkpt lat="43.899567" lon="5.132536">
        <ele>295.7</ele>
      </trkpt>
      <trkpt lat="43.899899" lon="5.132691">
        <ele>297.5</ele>
      </trkpt>
      <trkpt lat="43.900127" lon="5.132718">
        <ele>302.1</ele>
      </trkpt>
      <trkpt lat="43.900197" lon="5.132697">
        <ele>302.3</ele>
      </trkpt>
      <trkpt lat="43.900320" lon="5.132740">
        <ele>303.1</ele>
      </trkpt>
      <trkpt lat="43.900375" lon="5.132761">
        <ele>303.5</ele>
      </trkpt>
      <trkpt lat="43.900437" lon="5.132691">
        <ele>303.6</ele>
      </trkpt>
      <trkpt lat="43.900715" lon="5.132541">
        <ele>304.6</ele>
      </trkpt>
      <trkpt lat="43.900885" lon="5.132418">
        <ele>307.4</ele>
      </trkpt>
      <trkpt lat="43.900974" lon="5.132294">
        <ele>309.7</ele>
      </trkpt>
      <trkpt lat="43.901156" lon="5.132359">
        <ele>311</ele>
      </trkpt>
      <trkpt lat="43.901403" lon="5.132359">
        <ele>313.2</ele>
      </trkpt>
      <trkpt lat="43.901550" lon="5.132493">
        <ele>314.6</ele>
      </trkpt>
      <trkpt lat="43.901612" lon="5.132579">
        <ele>314.9</ele>
      </trkpt>
      <trkpt lat="43.901735" lon="5.132520">
        <ele>317.6</ele>
      </trkpt>
      <trkpt lat="43.901894" lon="5.132589">
        <ele>320.1</ele>
      </trkpt>
      <trkpt lat="43.902025" lon="5.132455">
        <ele>321.9</ele>
      </trkpt>
      <trkpt lat="43.902284" lon="5.132391">
        <ele>324.3</ele>
      </trkpt>
      <trkpt lat="43.902454" lon="5.132471">
        <ele>326.2</ele>
      </trkpt>
      <trkpt lat="43.902586" lon="5.132675">
        <ele>325.5</ele>
      </trkpt>
      <trkpt lat="43.902791" lon="5.132868">
        <ele>324.3</ele>
      </trkpt>
      <trkpt lat="43.902879" lon="5.132911">
        <ele>323.9</ele>
      </trkpt>
      <trkpt lat="43.902977" lon="5.132954">
        <ele>323.4</ele>
      </trkpt>
      <trkpt lat="43.903051" lon="5.132973">
        <ele>323</ele>
      </trkpt>
      <trkpt lat="43.903082" lon="5.132973">
        <ele>322.9</ele>
      </trkpt>
      <trkpt lat="43.903080" lon="5.132892">
        <ele>323.3</ele>
      </trkpt>
      <trkpt lat="43.903084" lon="5.132825">
        <ele>323.5</ele>
      </trkpt>
      <trkpt lat="43.903099" lon="5.132772">
        <ele>323.7</ele>
      </trkpt>
      <trkpt lat="43.903177" lon="5.132721">
        <ele>323.8</ele>
      </trkpt>
      <trkpt lat="43.903240" lon="5.132667">
        <ele>324</ele>
      </trkpt>
      <trkpt lat="43.903287" lon="5.132670">
        <ele>324</ele>
      </trkpt>
      <trkpt lat="43.903343" lon="5.132605">
        <ele>316.7</ele>
      </trkpt>
      <trkpt lat="43.903403" lon="5.132528">
        <ele>318.4</ele>
      </trkpt>
      <trkpt lat="43.903455" lon="5.132530">
        <ele>315</ele>
      </trkpt>
      <trkpt lat="43.903511" lon="5.132477">
        <ele>317.4</ele>
      </trkpt>
      <trkpt lat="43.903573" lon="5.132420">
        <ele>315.2</ele>
      </trkpt>
      <trkpt lat="43.903620" lon="5.132334">
        <ele>313.7</ele>
      </trkpt>
      <trkpt lat="43.903666" lon="5.132133">
        <ele>313.3</ele>
      </trkpt>
      <trkpt lat="43.903671" lon="5.132058">
        <ele>313.8</ele>
      </trkpt>
      <trkpt lat="43.903766" lon="5.131822">
        <ele>313.6</ele>
      </trkpt>
      <trkpt lat="43.903981" lon="5.131229">
        <ele>316.8</ele>
      </trkpt>
      <trkpt lat="43.904004" lon="5.131130">
        <ele>316.6</ele>
      </trkpt>
      <trkpt lat="43.904004" lon="5.131077">
        <ele>316.5</ele>
      </trkpt>
      <trkpt lat="43.904050" lon="5.130827">
        <ele>312.2</ele>
      </trkpt>
      <trkpt lat="43.904066" lon="5.130720">
        <ele>312.1</ele>
      </trkpt>
      <trkpt lat="43.904042" lon="5.130634">
        <ele>312.1</ele>
      </trkpt>
      <trkpt lat="43.903988" lon="5.130529">
        <ele>312</ele>
      </trkpt>
      <trkpt lat="43.903940" lon="5.130470">
        <ele>311.9</ele>
      </trkpt>
      <trkpt lat="43.903841" lon="5.130436">
        <ele>312.6</ele>
      </trkpt>
      <trkpt lat="43.903778" lon="5.130336">
        <ele>312.5</ele>
      </trkpt>
      <trkpt lat="43.903710" lon="5.130259">
        <ele>312.7</ele>
      </trkpt>
      <trkpt lat="43.903637" lon="5.130199">
        <ele>313.2</ele>
      </trkpt>
      <trkpt lat="43.903588" lon="5.130114">
        <ele>313.5</ele>
      </trkpt>
      <trkpt lat="43.903526" lon="5.130076">
        <ele>314.1</ele>
      </trkpt>
      <trkpt lat="43.903474" lon="5.130095">
        <ele>314.6</ele>
      </trkpt>
      <trkpt lat="43.903407" lon="5.130143">
        <ele>315.1</ele>
      </trkpt>
      <trkpt lat="43.903370" lon="5.130167">
        <ele>315.2</ele>
      </trkpt>
      <trkpt lat="43.903322" lon="5.130140">
        <ele>317.2</ele>
      </trkpt>
      <trkpt lat="43.903237" lon="5.130167">
        <ele>317.4</ele>
      </trkpt>
      <trkpt lat="43.903184" lon="5.130178">
        <ele>317.4</ele>
      </trkpt>
      <trkpt lat="43.903150" lon="5.130157">
        <ele>317.2</ele>
      </trkpt>
      <trkpt lat="43.903063" lon="5.130189">
        <ele>317.2</ele>
      </trkpt>
      <trkpt lat="43.902864" lon="5.130250">
        <ele>316.4</ele>
      </trkpt>
      <trkpt lat="43.902788" lon="5.130293">
        <ele>316.2</ele>
      </trkpt>
      <trkpt lat="43.902661" lon="5.130309">
        <ele>315.4</ele>
      </trkpt>
      <trkpt lat="43.902549" lon="5.130377">
        <ele>315.9</ele>
      </trkpt>
      <trkpt lat="43.902431" lon="5.130342">
        <ele>312.1</ele>
      </trkpt>
      <trkpt lat="43.902309" lon="5.130320">
        <ele>312</ele>
      </trkpt>
      <trkpt lat="43.902164" lon="5.130309">
        <ele>312.1</ele>
      </trkpt>
      <trkpt lat="43.902017" lon="5.130197">
        <ele>311.3</ele>
      </trkpt>
      <trkpt lat="43.901729" lon="5.129934">
        <ele>304.1</ele>
      </trkpt>
      <trkpt lat="43.901644" lon="5.129805">
        <ele>303.6</ele>
      </trkpt>
      <trkpt lat="43.901549" lon="5.129687">
        <ele>302.2</ele>
      </trkpt>
      <trkpt lat="43.901395" lon="5.129564">
        <ele>301.1</ele>
      </trkpt>
      <trkpt lat="43.901331" lon="5.129516">
        <ele>300.9</ele>
      </trkpt>
      <trkpt lat="43.901241" lon="5.129451">
        <ele>300.7</ele>
      </trkpt>
      <trkpt lat="43.901040" lon="5.129440">
        <ele>301</ele>
      </trkpt>
      <trkpt lat="43.900943" lon="5.129440">
        <ele>301</ele>
      </trkpt>
      <trkpt lat="43.900866" lon="5.129392">
        <ele>300.7</ele>
      </trkpt>
      <trkpt lat="43.900680" lon="5.129457">
        <ele>299.8</ele>
      </trkpt>
      <trkpt lat="43.900541" lon="5.129414">
        <ele>299.3</ele>
      </trkpt>
      <trkpt lat="43.900380" lon="5.129354">
        <ele>298.4</ele>
      </trkpt>
      <trkpt lat="43.900310" lon="5.129389">
        <ele>298.2</ele>
      </trkpt>
      <trkpt lat="43.900260" lon="5.129543">
        <ele>298.7</ele>
      </trkpt>
      <trkpt lat="43.900140" lon="5.129688">
        <ele>298.9</ele>
      </trkpt>
      <trkpt lat="43.900035" lon="5.129891">
        <ele>299.1</ele>
      </trkpt>
      <trkpt lat="43.899903" lon="5.130116">
        <ele>294.1</ele>
      </trkpt>
      <trkpt lat="43.899772" lon="5.130256">
        <ele>290.8</ele>
      </trkpt>
      <trkpt lat="43.899733" lon="5.130379">
        <ele>290.1</ele>
      </trkpt>
      <trkpt lat="43.899733" lon="5.130519">
        <ele>290.3</ele>
      </trkpt>
      <trkpt lat="43.899756" lon="5.130690">
        <ele>291.4</ele>
      </trkpt>
      <trkpt lat="43.899756" lon="5.130819">
        <ele>292</ele>
      </trkpt>
      <trkpt lat="43.899633" lon="5.131248">
        <ele>290.2</ele>
      </trkpt>
      <trkpt lat="43.899578" lon="5.131275">
        <ele>289.7</ele>
      </trkpt>
      <trkpt lat="43.899408" lon="5.131323">
        <ele>288.1</ele>
      </trkpt>
      <trkpt lat="43.899142" lon="5.131474">
        <ele>280.8</ele>
      </trkpt>
      <trkpt lat="43.899006" lon="5.131479">
        <ele>280.4</ele>
      </trkpt>
      <trkpt lat="43.898887" lon="5.131479">
        <ele>279.8</ele>
      </trkpt>
      <trkpt lat="43.898740" lon="5.131522">
        <ele>279.2</ele>
      </trkpt>
      <trkpt lat="43.898554" lon="5.131516">
        <ele>278.6</ele>
      </trkpt>
      <trkpt lat="43.898427" lon="5.131559">
        <ele>278.3</ele>
      </trkpt>
      <trkpt lat="43.898334" lon="5.131640">
        <ele>278.1</ele>
      </trkpt>
      <trkpt lat="43.897835" lon="5.130905">
        <ele>271.2</ele>
      </trkpt>
      <trkpt lat="43.897754" lon="5.130626">
        <ele>268.3</ele>
      </trkpt>
      <trkpt lat="43.897754" lon="5.130422">
        <ele>267.8</ele>
      </trkpt>
      <trkpt lat="43.897735" lon="5.130224">
        <ele>267.3</ele>
      </trkpt>
      <trkpt lat="43.897677" lon="5.129993">
        <ele>263.8</ele>
      </trkpt>
      <trkpt lat="43.897468" lon="5.129735">
        <ele>261.7</ele>
      </trkpt>
      <trkpt lat="43.897221" lon="5.129328">
        <ele>259.7</ele>
      </trkpt>
      <trkpt lat="43.897105" lon="5.129092">
        <ele>258.2</ele>
      </trkpt>
      <trkpt lat="43.896946" lon="5.128845">
        <ele>257.9</ele>
      </trkpt>
      <trkpt lat="43.896873" lon="5.128663">
        <ele>257.8</ele>
      </trkpt>
      <trkpt lat="43.896846" lon="5.128507">
        <ele>257.7</ele>
      </trkpt>
      <trkpt lat="43.896795" lon="5.128314">
        <ele>256.7</ele>
      </trkpt>
      <trkpt lat="43.896633" lon="5.128153">
        <ele>252.6</ele>
      </trkpt>
      <trkpt lat="43.896571" lon="5.128008">
        <ele>250.4</ele>
      </trkpt>
      <trkpt lat="43.896560" lon="5.127858">
        <ele>249.8</ele>
      </trkpt>
      <trkpt lat="43.896598" lon="5.127681">
        <ele>250.9</ele>
      </trkpt>
      <trkpt lat="43.896575" lon="5.127418">
        <ele>250.2</ele>
      </trkpt>
      <trkpt lat="43.896517" lon="5.127193">
        <ele>246.3</ele>
      </trkpt>
      <trkpt lat="43.896459" lon="5.127000">
        <ele>244.9</ele>
      </trkpt>
      <trkpt lat="43.896417" lon="5.126887">
        <ele>244.5</ele>
      </trkpt>
      <trkpt lat="43.896424" lon="5.126731">
        <ele>244.8</ele>
      </trkpt>
      <trkpt lat="43.896467" lon="5.126629">
        <ele>242.6</ele>
      </trkpt>
      <trkpt lat="43.896865" lon="5.126415">
        <ele>242.8</ele>
      </trkpt>
      <trkpt lat="43.896913" lon="5.126385">
        <ele>242.3</ele>
      </trkpt>
      <trkpt lat="43.897050" lon="5.126211">
        <ele>240.6</ele>
      </trkpt>
      <trkpt lat="43.897158" lon="5.125873">
        <ele>238.7</ele>
      </trkpt>
      <trkpt lat="43.897270" lon="5.125616">
        <ele>233</ele>
      </trkpt>
      <trkpt lat="43.897398" lon="5.125380">
        <ele>232</ele>
      </trkpt>
      <trkpt lat="43.897421" lon="5.125178">
        <ele>230.9</ele>
      </trkpt>
      <trkpt lat="43.897365" lon="5.125039">
        <ele>230.4</ele>
      </trkpt>
      <trkpt lat="43.897113" lon="5.124663">
        <ele>222.9</ele>
      </trkpt>
      <trkpt lat="43.897123" lon="5.124588">
        <ele>222.3</ele>
      </trkpt>
      <trkpt lat="43.897200" lon="5.124575">
        <ele>222.1</ele>
      </trkpt>
      <trkpt lat="43.897670" lon="5.124830">
        <ele>217.4</ele>
      </trkpt>
      <trkpt lat="43.897755" lon="5.124924">
        <ele>216.5</ele>
      </trkpt>
      <trkpt lat="43.897813" lon="5.124950">
        <ele>215.1</ele>
      </trkpt>
      <trkpt lat="43.897860" lon="5.124913">
        <ele>213.8</ele>
      </trkpt>
      <trkpt lat="43.897860" lon="5.124803">
        <ele>213</ele>
      </trkpt>
      <trkpt lat="43.897802" lon="5.124653">
        <ele>212.6</ele>
      </trkpt>
      <trkpt lat="43.897195" lon="5.123848">
        <ele>206.8</ele>
      </trkpt>
      <trkpt lat="43.896961" lon="5.123663">
        <ele>205.6</ele>
      </trkpt>
      <trkpt lat="43.896466" lon="5.123320">
        <ele>197</ele>
      </trkpt>
      <trkpt lat="43.895987" lon="5.122821">
        <ele>191.8</ele>
      </trkpt>
      <trkpt lat="43.895581" lon="5.122558">
        <ele>188</ele>
      </trkpt>
      <trkpt lat="43.895492" lon="5.122381">
        <ele>182.1</ele>
      </trkpt>
      <trkpt lat="43.895418" lon="5.122075">
        <ele>180.2</ele>
      </trkpt>
      <trkpt lat="43.895341" lon="5.121984">
        <ele>179.7</ele>
      </trkpt>
      <trkpt lat="43.895229" lon="5.122000">
        <ele>179.7</ele>
      </trkpt>
      <trkpt lat="43.895101" lon="5.122113">
        <ele>180.2</ele>
      </trkpt>
      <trkpt lat="43.895047" lon="5.122078">
        <ele>180</ele>
      </trkpt>
      <trkpt lat="43.895105" lon="5.121930">
        <ele>179.2</ele>
      </trkpt>
      <trkpt lat="43.895262" lon="5.121818">
        <ele>178.9</ele>
      </trkpt>
      <trkpt lat="43.895376" lon="5.121823">
        <ele>178.9</ele>
      </trkpt>
      <trkpt lat="43.895440" lon="5.121863">
        <ele>179.1</ele>
      </trkpt>
      <trkpt lat="43.895652" lon="5.121909">
        <ele>178.8</ele>
      </trkpt>
      <trkpt lat="43.895842" lon="5.121890">
        <ele>177</ele>
      </trkpt>
      <trkpt lat="43.895992" lon="5.121759">
        <ele>176.1</ele>
      </trkpt>
      <trkpt lat="43.897008" lon="5.122032">
        <ele>171.7</ele>
      </trkpt>
      <trkpt lat="43.897041" lon="5.122041">
        <ele>171.7</ele>
      </trkpt>
      <trkpt lat="43.897376" lon="5.122131">
        <ele>170.9</ele>
      </trkpt>
      <trkpt lat="43.897707" lon="5.122161">
        <ele>169</ele>
      </trkpt>
      <trkpt lat="43.897954" lon="5.122204">
        <ele>169.2</ele>
      </trkpt>
      <trkpt lat="43.898650" lon="5.121877">
        <ele>171.5</ele>
      </trkpt>
      <trkpt lat="43.898720" lon="5.122097">
        <ele>172.4</ele>
      </trkpt>
      <trkpt lat="43.898928" lon="5.122322">
        <ele>173.9</ele>
      </trkpt>
      <trkpt lat="43.899114" lon="5.122579">
        <ele>177.1</ele>
      </trkpt>
      <trkpt lat="43.899195" lon="5.122767">
        <ele>180</ele>
      </trkpt>
      <trkpt lat="43.899286" lon="5.123003">
        <ele>181.2</ele>
      </trkpt>
      <trkpt lat="43.899414" lon="5.123113">
        <ele>181.7</ele>
      </trkpt>
      <trkpt lat="43.899561" lon="5.123212">
        <ele>182.5</ele>
      </trkpt>
      <trkpt lat="43.899839" lon="5.123298">
        <ele>185</ele>
      </trkpt>
      <trkpt lat="43.900127" lon="5.123422">
        <ele>189.1</ele>
      </trkpt>
      <trkpt lat="43.900533" lon="5.123722">
        <ele>190.4</ele>
      </trkpt>
      <trkpt lat="43.900719" lon="5.123819">
        <ele>190.9</ele>
      </trkpt>
      <trkpt lat="43.901125" lon="5.123861">
        <ele>190.7</ele>
      </trkpt>
      <trkpt lat="43.901404" lon="5.123963">
        <ele>190.8</ele>
      </trkpt>
      <trkpt lat="43.901582" lon="5.124041">
        <ele>191.2</ele>
      </trkpt>
      <trkpt lat="43.901979" lon="5.124307">
        <ele>192.7</ele>
      </trkpt>
      <trkpt lat="43.902052" lon="5.124339">
        <ele>192.7</ele>
      </trkpt>
      <trkpt lat="43.902295" lon="5.124438">
        <ele>192.1</ele>
      </trkpt>
      <trkpt lat="43.902482" lon="5.124511">
        <ele>192.1</ele>
      </trkpt>
      <trkpt lat="43.903177" lon="5.124827">
        <ele>190.9</ele>
      </trkpt>
      <trkpt lat="43.903300" lon="5.124942">
        <ele>191.6</ele>
      </trkpt>
      <trkpt lat="43.903343" lon="5.124999">
        <ele>191.9</ele>
      </trkpt>
      <trkpt lat="43.904339" lon="5.125230">
        <ele>195.3</ele>
      </trkpt>
      <trkpt lat="43.904372" lon="5.125238">
        <ele>195.5</ele>
      </trkpt>
      <trkpt lat="43.904461" lon="5.125259">
        <ele>195.9</ele>
      </trkpt>
      <trkpt lat="43.905318" lon="5.125546">
        <ele>197.6</ele>
      </trkpt>
      <trkpt lat="43.905419" lon="5.125540">
        <ele>197.4</ele>
      </trkpt>
      <trkpt lat="43.905635" lon="5.125583">
        <ele>197.3</ele>
      </trkpt>
      <trkpt lat="43.905817" lon="5.125680">
        <ele>197.6</ele>
      </trkpt>
      <trkpt lat="43.905948" lon="5.125846">
        <ele>197.8</ele>
      </trkpt>
      <trkpt lat="43.906053" lon="5.126023">
        <ele>197.7</ele>
      </trkpt>
      <trkpt lat="43.906138" lon="5.126066">
        <ele>197.5</ele>
      </trkpt>
      <trkpt lat="43.906354" lon="5.126388">
        <ele>196.7</ele>
      </trkpt>
      <trkpt lat="43.906714" lon="5.126635">
        <ele>191.7</ele>
      </trkpt>
      <trkpt lat="43.906783" lon="5.126688">
        <ele>189.1</ele>
      </trkpt>
      <trkpt lat="43.906841" lon="5.126670">
        <ele>188.2</ele>
      </trkpt>
      <trkpt lat="43.906889" lon="5.126490">
        <ele>190.8</ele>
      </trkpt>
      <trkpt lat="43.907015" lon="5.126243">
        <ele>191.1</ele>
      </trkpt>
      <trkpt lat="43.907111" lon="5.125996">
        <ele>192</ele>
      </trkpt>
      <trkpt lat="43.907218" lon="5.125819">
        <ele>197.2</ele>
      </trkpt>
      <trkpt lat="43.907523" lon="5.125532">
        <ele>197.6</ele>
      </trkpt>
      <trkpt lat="43.907878" lon="5.125291">
        <ele>199.2</ele>
      </trkpt>
      <trkpt lat="43.908035" lon="5.125165">
        <ele>199.8</ele>
      </trkpt>
      <trkpt lat="43.908155" lon="5.124875">
        <ele>204.4</ele>
      </trkpt>
      <trkpt lat="43.908286" lon="5.124261">
        <ele>206.3</ele>
      </trkpt>
      <trkpt lat="43.908313" lon="5.123824">
        <ele>204.8</ele>
      </trkpt>
      <trkpt lat="43.908127" lon="5.123743">
        <ele>204.4</ele>
      </trkpt>
      <trkpt lat="43.907857" lon="5.123727">
        <ele>204.1</ele>
      </trkpt>
      <trkpt lat="43.907520" lon="5.123595">
        <ele>203.2</ele>
      </trkpt>
      <trkpt lat="43.906980" lon="5.123730">
        <ele>201.2</ele>
      </trkpt>
      <trkpt lat="43.906825" lon="5.123695">
        <ele>200.8</ele>
      </trkpt>
      <trkpt lat="43.906490" lon="5.123432">
        <ele>196.9</ele>
      </trkpt>
      <trkpt lat="43.906340" lon="5.123412">
        <ele>196.2</ele>
      </trkpt>
      <trkpt lat="43.906070" lon="5.123237">
        <ele>188.9</ele>
      </trkpt>
      <trkpt lat="43.905739" lon="5.123373">
        <ele>190</ele>
      </trkpt>
      <trkpt lat="43.905534" lon="5.123395">
        <ele>188.4</ele>
      </trkpt>
      <trkpt lat="43.905368" lon="5.123464">
        <ele>187</ele>
      </trkpt>
      <trkpt lat="43.905202" lon="5.123481">
        <ele>185.2</ele>
      </trkpt>
      <trkpt lat="43.905030" lon="5.123534">
        <ele>184.3</ele>
      </trkpt>
      <trkpt lat="43.904750" lon="5.123770">
        <ele>183.5</ele>
      </trkpt>
      <trkpt lat="43.904378" lon="5.123684">
        <ele>182.7</ele>
      </trkpt>
      <trkpt lat="43.904119" lon="5.123577">
        <ele>182.4</ele>
      </trkpt>
      <trkpt lat="43.903829" lon="5.123733">
        <ele>184</ele>
      </trkpt>
      <trkpt lat="43.903702" lon="5.123652">
        <ele>184.1</ele>
      </trkpt>
      <trkpt lat="43.903563" lon="5.123454">
        <ele>184.2</ele>
      </trkpt>
      <trkpt lat="43.903630" lon="5.123304">
        <ele>182.6</ele>
      </trkpt>
      <trkpt lat="43.903680" lon="5.123046">
        <ele>182.2</ele>
      </trkpt>
      <trkpt lat="43.903610" lon="5.122882">
        <ele>182.6</ele>
      </trkpt>
      <trkpt lat="43.903270" lon="5.121990">
        <ele>189.6</ele>
      </trkpt>
      <trkpt lat="43.902860" lon="5.121460">
        <ele>191.4</ele>
      </trkpt>
      <trkpt lat="43.902010" lon="5.121270">
        <ele>190.4</ele>
      </trkpt>
      <trkpt lat="43.901330" lon="5.121038">
        <ele>187.2</ele>
      </trkpt>
      <trkpt lat="43.900950" lon="5.120783">
        <ele>184.4</ele>
      </trkpt>
      <trkpt lat="43.900714" lon="5.120686">
        <ele>181.8</ele>
      </trkpt>
      <trkpt lat="43.900480" lon="5.120552">
        <ele>179.8</ele>
      </trkpt>
      <trkpt lat="43.900130" lon="5.120319">
        <ele>178.4</ele>
      </trkpt>
      <trkpt lat="43.899860" lon="5.120244">
        <ele>174.8</ele>
      </trkpt>
      <trkpt lat="43.899670" lon="5.120049">
        <ele>174.2</ele>
      </trkpt>
      <trkpt lat="43.899360" lon="5.119884">
        <ele>171.2</ele>
      </trkpt>
      <trkpt lat="43.898810" lon="5.119857">
        <ele>165.4</ele>
      </trkpt>
      <trkpt lat="43.898186" lon="5.119967">
        <ele>158.8</ele>
      </trkpt>
      <trkpt lat="43.898070" lon="5.119994">
        <ele>157.8</ele>
      </trkpt>
      <trkpt lat="43.897989" lon="5.119806">
        <ele>157</ele>
      </trkpt>
      <trkpt lat="43.897424" lon="5.118984">
        <ele>149.9</ele>
      </trkpt>
      <trkpt lat="43.897340" lon="5.118862">
        <ele>149.5</ele>
      </trkpt>
      <trkpt lat="43.897429" lon="5.118814">
        <ele>149.6</ele>
      </trkpt>
      <trkpt lat="43.897444" lon="5.118701">
        <ele>149.5</ele>
      </trkpt>
      <trkpt lat="43.897510" lon="5.118583">
        <ele>151.4</ele>
      </trkpt>
      <trkpt lat="43.897500" lon="5.118313">
        <ele>149.7</ele>
      </trkpt>
      <trkpt lat="43.897280" lon="5.117929">
        <ele>146.9</ele>
      </trkpt>
      <trkpt lat="43.897119" lon="5.117751">
        <ele>146.8</ele>
      </trkpt>
      <trkpt lat="43.897003" lon="5.117692">
        <ele>147.2</ele>
      </trkpt>
      <trkpt lat="43.896833" lon="5.117564">
        <ele>148.3</ele>
      </trkpt>
      <trkpt lat="43.896670" lon="5.117315">
        <ele>145.9</ele>
      </trkpt>
      <trkpt lat="43.896600" lon="5.117149">
        <ele>146.4</ele>
      </trkpt>
      <trkpt lat="43.896308" lon="5.116920">
        <ele>145.7</ele>
      </trkpt>
      <trkpt lat="43.896049" lon="5.116684">
        <ele>146.6</ele>
      </trkpt>
      <trkpt lat="43.895875" lon="5.116464">
        <ele>144.2</ele>
      </trkpt>
      <trkpt lat="43.895701" lon="5.116357">
        <ele>144</ele>
      </trkpt>
      <trkpt lat="43.895534" lon="5.116153">
        <ele>142.9</ele>
      </trkpt>
      <trkpt lat="43.895400" lon="5.116083">
        <ele>142.7</ele>
      </trkpt>
      <trkpt lat="43.895256" lon="5.115906">
        <ele>142.4</ele>
      </trkpt>
      <trkpt lat="43.895190" lon="5.115749">
        <ele>139.2</ele>
      </trkpt>
      <trkpt lat="43.895063" lon="5.115665">
        <ele>139.3</ele>
      </trkpt>
      <trkpt lat="43.895005" lon="5.115520">
        <ele>138</ele>
      </trkpt>
      <trkpt lat="43.894600" lon="5.115135">
        <ele>136</ele>
      </trkpt>
      <trkpt lat="43.894510" lon="5.115206">
        <ele>136.1</ele>
      </trkpt>
      <trkpt lat="43.894450" lon="5.115588">
        <ele>136.3</ele>
      </trkpt>
      <trkpt lat="43.894360" lon="5.115845">
        <ele>136.4</ele>
      </trkpt>
      <trkpt lat="43.894077" lon="5.115659">
        <ele>133.8</ele>
      </trkpt>
      <trkpt lat="43.893450" lon="5.115403">
        <ele>132.7</ele>
      </trkpt>
      <trkpt lat="43.893385" lon="5.115219">
        <ele>131.6</ele>
      </trkpt>
      <trkpt lat="43.893366" lon="5.115021">
        <ele>129.7</ele>
      </trkpt>
      <trkpt lat="43.893366" lon="5.114828">
        <ele>128.2</ele>
      </trkpt>
      <trkpt lat="43.892341" lon="5.114136">
        <ele>117.7</ele>
      </trkpt>
      <trkpt lat="43.892253" lon="5.114055">
        <ele>117.2</ele>
      </trkpt>
      <trkpt lat="43.892237" lon="5.114037">
        <ele>117.1</ele>
      </trkpt>
    </trkseg>
  </trk>
</gpx>