<?xml version="1.0" ?>
<gpx xmlns="http://www.topografix.com/GPX/1/1" xmlns:xsi="http://www.w3.org/2001/XMLSchema-instance" xsi:schemaLocation="http://www.topografix.com/GPX/1/1 http://www.topografix.com/GPX/1/1/gpx.xsd" version="1.1" creator="EditGPX">
  <trk>
    <name>NewTrack</name>
    <trkseg>
      <trkpt lat="43.901019" lon="5.192821">
        <ele>268.6</ele>
      </trkpt>
      <trkpt lat="43.901240" lon="5.192896">
        <ele>269.4</ele>
      </trkpt>
      <trkpt lat="43.901329" lon="5.193119">
        <ele>270.3</ele>
      </trkpt>
      <trkpt lat="43.901318" lon="5.193325">
        <ele>270.7</ele>
      </trkpt>
      <trkpt lat="43.901411" lon="5.193438">
        <ele>273.9</ele>
      </trkpt>
      <trkpt lat="43.901527" lon="5.193685">
        <ele>274.5</ele>
      </trkpt>
      <trkpt lat="43.901581" lon="5.193894">
        <ele>275.2</ele>
      </trkpt>
      <trkpt lat="43.901577" lon="5.194055">
        <ele>275.9</ele>
      </trkpt>
      <trkpt lat="43.901507" lon="5.194264">
        <ele>278</ele>
      </trkpt>
      <trkpt lat="43.901333" lon="5.194637">
        <ele>279.2</ele>
      </trkpt>
      <trkpt lat="43.901304" lon="5.194656">
        <ele>279.2</ele>
      </trkpt>
      <trkpt lat="43.901232" lon="5.194656">
        <ele>279.2</ele>
      </trkpt>
      <trkpt lat="43.901200" lon="5.194685">
        <ele>279.3</ele>
      </trkpt>
      <trkpt lat="43.901161" lon="5.194851">
        <ele>279.8</ele>
      </trkpt>
      <trkpt lat="43.901134" lon="5.194948">
        <ele>280.1</ele>
      </trkpt>
      <trkpt lat="43.901074" lon="5.195012">
        <ele>280.7</ele>
      </trkpt>
      <trkpt lat="43.900985" lon="5.195042">
        <ele>281</ele>
      </trkpt>
      <trkpt lat="43.900419" lon="5.194725">
        <ele>280.5</ele>
      </trkpt>
      <trkpt lat="43.900295" lon="5.194704">
        <ele>280.6</ele>
      </trkpt>
      <trkpt lat="43.900171" lon="5.194701">
        <ele>280.8</ele>
      </trkpt>
      <trkpt lat="43.899824" lon="5.194513">
        <ele>279.8</ele>
      </trkpt>
      <trkpt lat="43.899644" lon="5.194457">
        <ele>279.6</ele>
      </trkpt>
      <trkpt lat="43.899296" lon="5.194390">
        <ele>279.3</ele>
      </trkpt>
      <trkpt lat="43.898596" lon="5.194087">
        <ele>277</ele>
      </trkpt>
      <trkpt lat="43.898253" lon="5.194017">
        <ele>277.1</ele>
      </trkpt>
      <trkpt lat="43.898025" lon="5.194103">
        <ele>276.8</ele>
      </trkpt>
      <trkpt lat="43.897847" lon="5.194076">
        <ele>276.6</ele>
      </trkpt>
      <trkpt lat="43.897514" lon="5.193899">
        <ele>276.4</ele>
      </trkpt>
      <trkpt lat="43.897360" lon="5.193771">
        <ele>275.9</ele>
      </trkpt>
      <trkpt lat="43.897170" lon="5.193567">
        <ele>275.7</ele>
      </trkpt>
      <trkpt lat="43.896266" lon="5.193105">
        <ele>273.4</ele>
      </trkpt>
      <trkpt lat="43.895725" lon="5.192757">
        <ele>272.8</ele>
      </trkpt>
      <trkpt lat="43.895505" lon="5.192542">
        <ele>272.8</ele>
      </trkpt>
      <trkpt lat="43.895281" lon="5.192317">
        <ele>268.6</ele>
      </trkpt>
      <trkpt lat="43.894887" lon="5.192177">
        <ele>269.4</ele>
      </trkpt>
      <trkpt lat="43.894670" lon="5.192242">
        <ele>269.8</ele>
      </trkpt>
      <trkpt lat="43.894531" lon="5.192317">
        <ele>270.2</ele>
      </trkpt>
      <trkpt lat="43.894407" lon="5.192424">
        <ele>271.1</ele>
      </trkpt>
      <trkpt lat="43.894283" lon="5.192531">
        <ele>274.8</ele>
      </trkpt>
      <trkpt lat="43.894229" lon="5.192682">
        <ele>275.4</ele>
      </trkpt>
      <trkpt lat="43.893788" lon="5.193828">
        <ele>280.3</ele>
      </trkpt>
      <trkpt lat="43.893758" lon="5.193905">
        <ele>280.3</ele>
      </trkpt>
      <trkpt lat="43.893680" lon="5.194087">
        <ele>280.2</ele>
      </trkpt>
      <trkpt lat="43.893472" lon="5.194656">
        <ele>281.5</ele>
      </trkpt>
      <trkpt lat="43.893371" lon="5.194988">
        <ele>280.3</ele>
      </trkpt>
      <trkpt lat="43.893340" lon="5.195589">
        <ele>281.8</ele>
      </trkpt>
      <trkpt lat="43.893297" lon="5.195798">
        <ele>281.4</ele>
      </trkpt>
      <trkpt lat="43.893322" lon="5.195828">
        <ele>281.8</ele>
      </trkpt>
      <trkpt lat="43.893360" lon="5.195857">
        <ele>281.9</ele>
      </trkpt>
      <trkpt lat="43.893621" lon="5.195957">
        <ele>281.3</ele>
      </trkpt>
      <trkpt lat="43.893637" lon="5.195981">
        <ele>281.3</ele>
      </trkpt>
      <trkpt lat="43.893853" lon="5.196944">
        <ele>281.1</ele>
      </trkpt>
      <trkpt lat="43.893896" lon="5.197333">
        <ele>281</ele>
      </trkpt>
      <trkpt lat="43.893886" lon="5.197687">
        <ele>281.6</ele>
      </trkpt>
      <trkpt lat="43.893873" lon="5.197810">
        <ele>281.8</ele>
      </trkpt>
      <trkpt lat="43.893739" lon="5.198336">
        <ele>282.9</ele>
      </trkpt>
      <trkpt lat="43.893714" lon="5.198542">
        <ele>283.2</ele>
      </trkpt>
      <trkpt lat="43.893702" lon="5.198784">
        <ele>283.3</ele>
      </trkpt>
      <trkpt lat="43.893689" lon="5.198902">
        <ele>283.5</ele>
      </trkpt>
      <trkpt lat="43.893677" lon="5.199033">
        <ele>283.7</ele>
      </trkpt>
      <trkpt lat="43.893511" lon="5.199830">
        <ele>287.6</ele>
      </trkpt>
      <trkpt lat="43.893503" lon="5.199929">
        <ele>288.1</ele>
      </trkpt>
      <trkpt lat="43.893492" lon="5.200133">
        <ele>290.8</ele>
      </trkpt>
      <trkpt lat="43.893494" lon="5.200186">
        <ele>291</ele>
      </trkpt>
      <trkpt lat="43.893579" lon="5.200524">
        <ele>292</ele>
      </trkpt>
      <trkpt lat="43.893569" lon="5.200683">
        <ele>292.4</ele>
      </trkpt>
      <trkpt lat="43.893548" lon="5.200793">
        <ele>292.6</ele>
      </trkpt>
      <trkpt lat="43.893540" lon="5.200878">
        <ele>295.7</ele>
      </trkpt>
      <trkpt lat="43.893542" lon="5.200932">
        <ele>295.9</ele>
      </trkpt>
      <trkpt lat="43.893575" lon="5.201157">
        <ele>297.1</ele>
      </trkpt>
      <trkpt lat="43.893610" lon="5.201519">
        <ele>298.3</ele>
      </trkpt>
      <trkpt lat="43.893683" lon="5.201949">
        <ele>302</ele>
      </trkpt>
      <trkpt lat="43.893693" lon="5.202069">
        <ele>302.2</ele>
      </trkpt>
      <trkpt lat="43.893685" lon="5.202182">
        <ele>302.4</ele>
      </trkpt>
      <trkpt lat="43.893648" lon="5.202635">
        <ele>303.8</ele>
      </trkpt>
      <trkpt lat="43.893660" lon="5.202751">
        <ele>304.1</ele>
      </trkpt>
      <trkpt lat="43.893660" lon="5.202842">
        <ele>304.2</ele>
      </trkpt>
      <trkpt lat="43.893650" lon="5.203019">
        <ele>304.3</ele>
      </trkpt>
      <trkpt lat="43.893596" lon="5.203322">
        <ele>303.8</ele>
      </trkpt>
      <trkpt lat="43.893418" lon="5.203797">
        <ele>304.7</ele>
      </trkpt>
      <trkpt lat="43.893411" lon="5.204011">
        <ele>304.4</ele>
      </trkpt>
      <trkpt lat="43.893374" lon="5.204164">
        <ele>303.4</ele>
      </trkpt>
      <trkpt lat="43.893088" lon="5.205140">
        <ele>302.7</ele>
      </trkpt>
      <trkpt lat="43.893096" lon="5.205186">
        <ele>302.7</ele>
      </trkpt>
      <trkpt lat="43.893128" lon="5.205210">
        <ele>302.8</ele>
      </trkpt>
      <trkpt lat="43.893196" lon="5.205382">
        <ele>303</ele>
      </trkpt>
      <trkpt lat="43.893231" lon="5.205567">
        <ele>303.5</ele>
      </trkpt>
      <trkpt lat="43.893252" lon="5.205739">
        <ele>304.5</ele>
      </trkpt>
      <trkpt lat="43.893198" lon="5.206229">
        <ele>305.2</ele>
      </trkpt>
      <trkpt lat="43.893126" lon="5.206372">
        <ele>305.4</ele>
      </trkpt>
      <trkpt lat="43.893090" lon="5.206503">
        <ele>305.6</ele>
      </trkpt>
      <trkpt lat="43.893036" lon="5.206669">
        <ele>307.6</ele>
      </trkpt>
      <trkpt lat="43.893016" lon="5.206742">
        <ele>307.7</ele>
      </trkpt>
      <trkpt lat="43.892997" lon="5.206838">
        <ele>307.7</ele>
      </trkpt>
      <trkpt lat="43.893007" lon="5.206943">
        <ele>308</ele>
      </trkpt>
      <trkpt lat="43.893047" lon="5.207066">
        <ele>308.4</ele>
      </trkpt>
      <trkpt lat="43.893119" lon="5.207216">
        <ele>309.3</ele>
      </trkpt>
      <trkpt lat="43.893252" lon="5.207318">
        <ele>310.7</ele>
      </trkpt>
      <trkpt lat="43.893341" lon="5.207351">
        <ele>313.8</ele>
      </trkpt>
      <trkpt lat="43.893451" lon="5.207463">
        <ele>314</ele>
      </trkpt>
      <trkpt lat="43.893484" lon="5.207487">
        <ele>314.1</ele>
      </trkpt>
      <trkpt lat="43.893600" lon="5.207471">
        <ele>314.4</ele>
      </trkpt>
      <trkpt lat="43.893656" lon="5.207426">
        <ele>314.5</ele>
      </trkpt>
      <trkpt lat="43.893836" lon="5.207216">
        <ele>314.7</ele>
      </trkpt>
      <trkpt lat="43.893869" lon="5.207149">
        <ele>314.6</ele>
      </trkpt>
      <trkpt lat="43.893880" lon="5.207074">
        <ele>314.4</ele>
      </trkpt>
      <trkpt lat="43.894039" lon="5.207149">
        <ele>315.2</ele>
      </trkpt>
      <trkpt lat="43.894095" lon="5.207144">
        <ele>315.3</ele>
      </trkpt>
      <trkpt lat="43.894439" lon="5.206954">
        <ele>317.9</ele>
      </trkpt>
      <trkpt lat="43.894679" lon="5.206828">
        <ele>318.1</ele>
      </trkpt>
      <trkpt lat="43.894943" lon="5.206734">
        <ele>318.2</ele>
      </trkpt>
      <trkpt lat="43.894982" lon="5.206731">
        <ele>318.1</ele>
      </trkpt>
      <trkpt lat="43.895052" lon="5.206744">
        <ele>315.6</ele>
      </trkpt>
      <trkpt lat="43.895113" lon="5.206766">
        <ele>314.5</ele>
      </trkpt>
      <trkpt lat="43.895177" lon="5.206833">
        <ele>313.1</ele>
      </trkpt>
      <trkpt lat="43.895216" lon="5.206921">
        <ele>312.2</ele>
      </trkpt>
      <trkpt lat="43.895247" lon="5.207115">
        <ele>311.8</ele>
      </trkpt>
      <trkpt lat="43.895311" lon="5.207613">
        <ele>311.6</ele>
      </trkpt>
      <trkpt lat="43.895355" lon="5.208035">
        <ele>310.6</ele>
      </trkpt>
      <trkpt lat="43.895409" lon="5.208504">
        <ele>311.1</ele>
      </trkpt>
      <trkpt lat="43.895469" lon="5.209354">
        <ele>311.9</ele>
      </trkpt>
      <trkpt lat="43.895461" lon="5.209939">
        <ele>312.2</ele>
      </trkpt>
      <trkpt lat="43.895477" lon="5.210784">
        <ele>312</ele>
      </trkpt>
      <trkpt lat="43.895535" lon="5.210982">
        <ele>309.9</ele>
      </trkpt>
      <trkpt lat="43.895577" lon="5.211267">
        <ele>309.3</ele>
      </trkpt>
      <trkpt lat="43.895581" lon="5.211433">
        <ele>308.4</ele>
      </trkpt>
      <trkpt lat="43.895531" lon="5.211725">
        <ele>307.1</ele>
      </trkpt>
      <trkpt lat="43.895539" lon="5.211996">
        <ele>307.6</ele>
      </trkpt>
      <trkpt lat="43.895572" lon="5.212170">
        <ele>307</ele>
      </trkpt>
      <trkpt lat="43.895548" lon="5.212463">
        <ele>306.2</ele>
      </trkpt>
      <trkpt lat="43.895587" lon="5.212626">
        <ele>302.8</ele>
      </trkpt>
      <trkpt lat="43.895614" lon="5.212699">
        <ele>302.5</ele>
      </trkpt>
      <trkpt lat="43.895631" lon="5.212742">
        <ele>302.3</ele>
      </trkpt>
      <trkpt lat="43.895722" lon="5.212640">
        <ele>300.8</ele>
      </trkpt>
      <trkpt lat="43.896004" lon="5.211934">
        <ele>290.8</ele>
      </trkpt>
      <trkpt lat="43.896074" lon="5.211677">
        <ele>291.1</ele>
      </trkpt>
      <trkpt lat="43.896122" lon="5.211425">
        <ele>290.5</ele>
      </trkpt>
      <trkpt lat="43.896167" lon="5.211232">
        <ele>289.9</ele>
      </trkpt>
      <trkpt lat="43.896476" lon="5.210583">
        <ele>284.3</ele>
      </trkpt>
      <trkpt lat="43.896795" lon="5.210231">
        <ele>264</ele>
      </trkpt>
      <trkpt lat="43.896855" lon="5.210116">
        <ele>263.9</ele>
      </trkpt>
      <trkpt lat="43.896895" lon="5.210078">
        <ele>263.1</ele>
      </trkpt>
      <trkpt lat="43.896959" lon="5.210129">
        <ele>261</ele>
      </trkpt>
      <trkpt lat="43.896986" lon="5.210298">
        <ele>260</ele>
      </trkpt>
      <trkpt lat="43.897033" lon="5.210336">
        <ele>259.1</ele>
      </trkpt>
      <trkpt lat="43.897098" lon="5.210253">
        <ele>257.6</ele>
      </trkpt>
      <trkpt lat="43.897137" lon="5.210145">
        <ele>256.3</ele>
      </trkpt>
      <trkpt lat="43.897149" lon="5.209968">
        <ele>252.7</ele>
      </trkpt>
      <trkpt lat="43.897054" lon="5.209504">
        <ele>253.7</ele>
      </trkpt>
      <trkpt lat="43.897069" lon="5.209365">
        <ele>253.1</ele>
      </trkpt>
      <trkpt lat="43.897116" lon="5.209217">
        <ele>251.6</ele>
      </trkpt>
      <trkpt lat="43.897243" lon="5.208952">
        <ele>247.5</ele>
      </trkpt>
      <trkpt lat="43.897272" lon="5.208818">
        <ele>247.7</ele>
      </trkpt>
      <trkpt lat="43.897278" lon="5.208638">
        <ele>247.6</ele>
      </trkpt>
      <trkpt lat="43.897297" lon="5.208515">
        <ele>246.7</ele>
      </trkpt>
      <trkpt lat="43.897483" lon="5.208335">
        <ele>239.8</ele>
      </trkpt>
      <trkpt lat="43.897531" lon="5.208209">
        <ele>237.6</ele>
      </trkpt>
      <trkpt lat="43.897574" lon="5.208018">
        <ele>236.7</ele>
      </trkpt>
      <trkpt lat="43.897667" lon="5.207927">
        <ele>236.4</ele>
      </trkpt>
      <trkpt lat="43.898084" lon="5.207804">
        <ele>234.5</ele>
      </trkpt>
      <trkpt lat="43.898248" lon="5.207782">
        <ele>233.9</ele>
      </trkpt>
      <trkpt lat="43.898391" lon="5.207807">
        <ele>228.7</ele>
      </trkpt>
      <trkpt lat="43.898531" lon="5.207836">
        <ele>228.1</ele>
      </trkpt>
      <trkpt lat="43.898627" lon="5.207860">
        <ele>227.7</ele>
      </trkpt>
      <trkpt lat="43.898962" lon="5.208018">
        <ele>225.8</ele>
      </trkpt>
      <trkpt lat="43.899062" lon="5.208102">
        <ele>225.1</ele>
      </trkpt>
      <trkpt lat="43.899271" lon="5.208096">
        <ele>217.3</ele>
      </trkpt>
      <trkpt lat="43.899768" lon="5.207584">
        <ele>211.5</ele>
      </trkpt>
      <trkpt lat="43.899858" lon="5.207522">
        <ele>209.7</ele>
      </trkpt>
      <trkpt lat="43.899986" lon="5.207490">
        <ele>206.5</ele>
      </trkpt>
      <trkpt lat="43.900237" lon="5.207498">
        <ele>204.4</ele>
      </trkpt>
      <trkpt lat="43.900486" lon="5.207399">
        <ele>203.1</ele>
      </trkpt>
      <trkpt lat="43.900711" lon="5.207281">
        <ele>202.3</ele>
      </trkpt>
      <trkpt lat="43.900800" lon="5.207407">
        <ele>201.2</ele>
      </trkpt>
      <trkpt lat="43.901558" lon="5.207477">
        <ele>200.2</ele>
      </trkpt>
      <trkpt lat="43.902453" lon="5.207297">
        <ele>202.9</ele>
      </trkpt>
      <trkpt lat="43.903255" lon="5.207136">
        <ele>205.9</ele>
      </trkpt>
      <trkpt lat="43.903405" lon="5.207106">
        <ele>208.8</ele>
      </trkpt>
      <trkpt lat="43.903869" lon="5.207031">
        <ele>210.1</ele>
      </trkpt>
      <trkpt lat="43.904012" lon="5.206667">
        <ele>211.4</ele>
      </trkpt>
      <trkpt lat="43.904572" lon="5.205899">
        <ele>214.4</ele>
      </trkpt>
      <trkpt lat="43.904646" lon="5.205696">
        <ele>214.8</ele>
      </trkpt>
      <trkpt lat="43.904916" lon="5.204730">
        <ele>217.7</ele>
      </trkpt>
      <trkpt lat="43.904990" lon="5.205014">
        <ele>218.7</ele>
      </trkpt>
      <trkpt lat="43.905048" lon="5.205234">
        <ele>220.3</ele>
      </trkpt>
      <trkpt lat="43.905175" lon="5.205390">
        <ele>220.6</ele>
      </trkpt>
      <trkpt lat="43.905341" lon="5.205529">
        <ele>220.9</ele>
      </trkpt>
      <trkpt lat="43.905983" lon="5.205814">
        <ele>220.4</ele>
      </trkpt>
      <trkpt lat="43.906269" lon="5.205765">
        <ele>218.6</ele>
      </trkpt>
      <trkpt lat="43.906613" lon="5.206790">
        <ele>211.2</ele>
      </trkpt>
      <trkpt lat="43.906628" lon="5.206929">
        <ele>211.5</ele>
      </trkpt>
      <trkpt lat="43.906625" lon="5.207128">
        <ele>210.9</ele>
      </trkpt>
      <trkpt lat="43.906636" lon="5.207375">
        <ele>208.3</ele>
      </trkpt>
      <trkpt lat="43.906555" lon="5.207766">
        <ele>206.9</ele>
      </trkpt>
      <trkpt lat="43.906223" lon="5.208823">
        <ele>202.7</ele>
      </trkpt>
      <trkpt lat="43.906060" lon="5.209290">
        <ele>200</ele>
      </trkpt>
      <trkpt lat="43.905890" lon="5.209960">
        <ele>198</ele>
      </trkpt>
      <trkpt lat="43.905856" lon="5.210148">
        <ele>196.5</ele>
      </trkpt>
      <trkpt lat="43.905879" lon="5.210175">
        <ele>196.3</ele>
      </trkpt>
      <trkpt lat="43.905933" lon="5.210186">
        <ele>196.1</ele>
      </trkpt>
      <trkpt lat="43.906362" lon="5.210786">
        <ele>194.1</ele>
      </trkpt>
      <trkpt lat="43.906377" lon="5.210840">
        <ele>192.2</ele>
      </trkpt>
      <trkpt lat="43.906428" lon="5.210878">
        <ele>192.3</ele>
      </trkpt>
      <trkpt lat="43.906501" lon="5.210894">
        <ele>192.3</ele>
      </trkpt>
      <trkpt lat="43.906590" lon="5.210883">
        <ele>192.6</ele>
      </trkpt>
      <trkpt lat="43.906868" lon="5.210797">
        <ele>193.5</ele>
      </trkpt>
      <trkpt lat="43.907027" lon="5.210813">
        <ele>193.8</ele>
      </trkpt>
      <trkpt lat="43.907787" lon="5.210167">
        <ele>195.3</ele>
      </trkpt>
      <trkpt lat="43.907834" lon="5.210127">
        <ele>195.4</ele>
      </trkpt>
      <trkpt lat="43.908785" lon="5.209499">
        <ele>200.3</ele>
      </trkpt>
      <trkpt lat="43.908886" lon="5.209370">
        <ele>201.1</ele>
      </trkpt>
      <trkpt lat="43.908947" lon="5.209183">
        <ele>202.1</ele>
      </trkpt>
      <trkpt lat="43.908916" lon="5.208764">
        <ele>205.1</ele>
      </trkpt>
      <trkpt lat="43.908855" lon="5.208319">
        <ele>208.1</ele>
      </trkpt>
      <trkpt lat="43.908882" lon="5.208195">
        <ele>208.3</ele>
      </trkpt>
      <trkpt lat="43.908924" lon="5.208013">
        <ele>208.5</ele>
      </trkpt>
      <trkpt lat="43.909067" lon="5.207739">
        <ele>209.8</ele>
      </trkpt>
      <trkpt lat="43.909137" lon="5.207734">
        <ele>210.1</ele>
      </trkpt>
      <trkpt lat="43.909199" lon="5.207793">
        <ele>216.1</ele>
      </trkpt>
      <trkpt lat="43.909307" lon="5.208115">
        <ele>215.7</ele>
      </trkpt>
      <trkpt lat="43.909442" lon="5.208399">
        <ele>213.7</ele>
      </trkpt>
      <trkpt lat="43.909701" lon="5.208684">
        <ele>215.1</ele>
      </trkpt>
      <trkpt lat="43.909948" lon="5.208898">
        <ele>215.7</ele>
      </trkpt>
      <trkpt lat="43.910014" lon="5.208989">
        <ele>220.2</ele>
      </trkpt>
      <trkpt lat="43.910057" lon="5.209022">
        <ele>219.9</ele>
      </trkpt>
      <trkpt lat="43.910103" lon="5.209000">
        <ele>220.5</ele>
      </trkpt>
      <trkpt lat="43.910261" lon="5.209166">
        <ele>221</ele>
      </trkpt>
      <trkpt lat="43.910574" lon="5.209311">
        <ele>217</ele>
      </trkpt>
      <trkpt lat="43.910830" lon="5.209376">
        <ele>218</ele>
      </trkpt>
      <trkpt lat="43.910972" lon="5.209451">
        <ele>222.1</ele>
      </trkpt>
      <trkpt lat="43.910949" lon="5.209365">
        <ele>222.5</ele>
      </trkpt>
      <trkpt lat="43.910899" lon="5.209242">
        <ele>222.8</ele>
      </trkpt>
      <trkpt lat="43.910640" lon="5.209236">
        <ele>218.2</ele>
      </trkpt>
      <trkpt lat="43.910551" lon="5.209118">
        <ele>222.8</ele>
      </trkpt>
      <trkpt lat="43.910520" lon="5.208946">
        <ele>223.1</ele>
      </trkpt>
      <trkpt lat="43.910601" lon="5.208389">
        <ele>226.4</ele>
      </trkpt>
      <trkpt lat="43.910640" lon="5.207584">
        <ele>233.7</ele>
      </trkpt>
      <trkpt lat="43.910659" lon="5.207085">
        <ele>236.4</ele>
      </trkpt>
      <trkpt lat="43.910840" lon="5.205928">
        <ele>248.7</ele>
      </trkpt>
      <trkpt lat="43.910903" lon="5.205529">
        <ele>252.9</ele>
      </trkpt>
      <trkpt lat="43.910934" lon="5.205320">
        <ele>253.7</ele>
      </trkpt>
      <trkpt lat="43.910953" lon="5.205240">
        <ele>253.7</ele>
      </trkpt>
      <trkpt lat="43.910899" lon="5.204741">
        <ele>256.6</ele>
      </trkpt>
      <trkpt lat="43.910899" lon="5.204408">
        <ele>257.5</ele>
      </trkpt>
      <trkpt lat="43.910972" lon="5.204076">
        <ele>261.3</ele>
      </trkpt>
      <trkpt lat="43.911100" lon="5.203775">
        <ele>267.3</ele>
      </trkpt>
      <trkpt lat="43.911197" lon="5.203544">
        <ele>270</ele>
      </trkpt>
      <trkpt lat="43.911166" lon="5.203367">
        <ele>270.2</ele>
      </trkpt>
      <trkpt lat="43.911104" lon="5.203174">
        <ele>280.7</ele>
      </trkpt>
      <trkpt lat="43.910802" lon="5.202799">
        <ele>272.2</ele>
      </trkpt>
      <trkpt lat="43.910263" lon="5.201952">
        <ele>289.5</ele>
      </trkpt>
      <trkpt lat="43.910263" lon="5.201952">
        <ele>289.5</ele>
      </trkpt>
      <trkpt lat="43.910263" lon="5.201952">
        <ele>289.5</ele>
      </trkpt>
      <trkpt lat="43.910113" lon="5.201716">
        <ele>290.7</ele>
      </trkpt>
      <trkpt lat="43.909813" lon="5.201243">
        <ele>294.2</ele>
      </trkpt>
      <trkpt lat="43.909593" lon="5.200948">
        <ele>293.9</ele>
      </trkpt>
      <trkpt lat="43.909608" lon="5.200873">
        <ele>294.8</ele>
      </trkpt>
      <trkpt lat="43.910470" lon="5.201275">
        <ele>315.9</ele>
      </trkpt>
      <trkpt lat="43.911050" lon="5.201538">
        <ele>328.9</ele>
      </trkpt>
      <trkpt lat="43.911371" lon="5.201705">
        <ele>319.1</ele>
      </trkpt>
      <trkpt lat="43.911726" lon="5.201731">
        <ele>332.2</ele>
      </trkpt>
      <trkpt lat="43.911997" lon="5.201892">
        <ele>328.2</ele>
      </trkpt>
      <trkpt lat="43.912101" lon="5.201817">
        <ele>329.7</ele>
      </trkpt>
      <trkpt lat="43.912364" lon="5.201935">
        <ele>330.6</ele>
      </trkpt>
      <trkpt lat="43.912364" lon="5.201871">
        <ele>332.1</ele>
      </trkpt>
      <trkpt lat="43.911765" lon="5.201468">
        <ele>342.8</ele>
      </trkpt>
      <trkpt lat="43.911529" lon="5.201238">
        <ele>338.9</ele>
      </trkpt>
      <trkpt lat="43.911382" lon="5.201114">
        <ele>339.5</ele>
      </trkpt>
      <trkpt lat="43.911162" lon="5.200868">
        <ele>339.3</ele>
      </trkpt>
      <trkpt lat="43.910961" lon="5.200669">
        <ele>345.7</ele>
      </trkpt>
      <trkpt lat="43.910814" lon="5.200465">
        <ele>336.2</ele>
      </trkpt>
      <trkpt lat="43.910791" lon="5.200261">
        <ele>338.6</ele>
      </trkpt>
      <trkpt lat="43.911000" lon="5.199763">
        <ele>347.9</ele>
      </trkpt>
      <trkpt lat="43.911096" lon="5.199661">
        <ele>347.4</ele>
      </trkpt>
      <trkpt lat="43.911255" lon="5.199698">
        <ele>348.4</ele>
      </trkpt>
      <trkpt lat="43.911343" lon="5.199752">
        <ele>349.2</ele>
      </trkpt>
      <trkpt lat="43.911374" lon="5.199596">
        <ele>348.6</ele>
      </trkpt>
      <trkpt lat="43.911378" lon="5.199398">
        <ele>347.9</ele>
      </trkpt>
      <trkpt lat="43.911556" lon="5.198926">
        <ele>340.4</ele>
      </trkpt>
      <trkpt lat="43.911861" lon="5.198432">
        <ele>345.7</ele>
      </trkpt>
      <trkpt lat="43.912286" lon="5.197976">
        <ele>339.9</ele>
      </trkpt>
      <trkpt lat="43.912449" lon="5.197917">
        <ele>340</ele>
      </trkpt>
      <trkpt lat="43.912924" lon="5.197831">
        <ele>348.7</ele>
      </trkpt>
      <trkpt lat="43.913260" lon="5.197670">
        <ele>348.6</ele>
      </trkpt>
      <trkpt lat="43.913647" lon="5.197499">
        <ele>350.1</ele>
      </trkpt>
      <trkpt lat="43.913786" lon="5.197413">
        <ele>351</ele>
      </trkpt>
      <trkpt lat="43.913840" lon="5.197263">
        <ele>351.4</ele>
      </trkpt>
      <trkpt lat="43.913853" lon="5.197131">
        <ele>351.7</ele>
      </trkpt>
      <trkpt lat="43.913831" lon="5.197064">
        <ele>351.7</ele>
      </trkpt>
      <trkpt lat="43.913712" lon="5.196925">
        <ele>351.2</ele>
      </trkpt>
      <trkpt lat="43.913387" lon="5.196732">
        <ele>348.3</ele>
      </trkpt>
      <trkpt lat="43.913183" lon="5.196651">
        <ele>347.7</ele>
      </trkpt>
      <trkpt lat="43.912719" lon="5.196598">
        <ele>346.1</ele>
      </trkpt>
      <trkpt lat="43.912402" lon="5.196480">
        <ele>343.3</ele>
      </trkpt>
      <trkpt lat="43.912256" lon="5.196463">
        <ele>343.3</ele>
      </trkpt>
      <trkpt lat="43.912043" lon="5.196442">
        <ele>342.9</ele>
      </trkpt>
      <trkpt lat="43.911869" lon="5.196442">
        <ele>342</ele>
      </trkpt>
      <trkpt lat="43.911865" lon="5.196329">
        <ele>342.8</ele>
      </trkpt>
      <trkpt lat="43.911904" lon="5.196303">
        <ele>343.1</ele>
      </trkpt>
      <trkpt lat="43.912031" lon="5.196260">
        <ele>343.8</ele>
      </trkpt>
      <trkpt lat="43.912132" lon="5.196270">
        <ele>344</ele>
      </trkpt>
      <trkpt lat="43.912128" lon="5.196099">
        <ele>344.9</ele>
      </trkpt>
      <trkpt lat="43.912109" lon="5.195825">
        <ele>347.5</ele>
      </trkpt>
      <trkpt lat="43.912182" lon="5.195423">
        <ele>347.1</ele>
      </trkpt>
      <trkpt lat="43.912302" lon="5.194929">
        <ele>345.8</ele>
      </trkpt>
      <trkpt lat="43.912263" lon="5.194720">
        <ele>344.6</ele>
      </trkpt>
      <trkpt lat="43.912070" lon="5.194017">
        <ele>341.4</ele>
      </trkpt>
      <trkpt lat="43.911908" lon="5.193567">
        <ele>340.6</ele>
      </trkpt>
      <trkpt lat="43.911784" lon="5.193127">
        <ele>339.1</ele>
      </trkpt>
      <trkpt lat="43.911684" lon="5.192794">
        <ele>338.5</ele>
      </trkpt>
      <trkpt lat="43.911587" lon="5.192547">
        <ele>336.6</ele>
      </trkpt>
      <trkpt lat="43.911456" lon="5.192344">
        <ele>333.9</ele>
      </trkpt>
      <trkpt lat="43.911115" lon="5.191904">
        <ele>331.4</ele>
      </trkpt>
      <trkpt lat="43.910884" lon="5.191458">
        <ele>327.4</ele>
      </trkpt>
      <trkpt lat="43.910648" lon="5.191174">
        <ele>324.8</ele>
      </trkpt>
      <trkpt lat="43.910744" lon="5.190906">
        <ele>324.2</ele>
      </trkpt>
      <trkpt lat="43.910837" lon="5.190793">
        <ele>323.4</ele>
      </trkpt>
      <trkpt lat="43.911018" lon="5.190458">
        <ele>320.4</ele>
      </trkpt>
      <trkpt lat="43.911139" lon="5.190343">
        <ele>319.9</ele>
      </trkpt>
      <trkpt lat="43.911158" lon="5.190289">
        <ele>319.7</ele>
      </trkpt>
      <trkpt lat="43.911136" lon="5.190235">
        <ele>319.4</ele>
      </trkpt>
      <trkpt lat="43.911092" lon="5.190219">
        <ele>319.1</ele>
      </trkpt>
      <trkpt lat="43.911000" lon="5.190074">
        <ele>317.5</ele>
      </trkpt>
      <trkpt lat="43.910992" lon="5.189908">
        <ele>316.7</ele>
      </trkpt>
      <trkpt lat="43.910926" lon="5.189710">
        <ele>317.4</ele>
      </trkpt>
      <trkpt lat="43.910876" lon="5.189511">
        <ele>317.8</ele>
      </trkpt>
      <trkpt lat="43.910799" lon="5.189275">
        <ele>315</ele>
      </trkpt>
      <trkpt lat="43.910775" lon="5.189211">
        <ele>315.2</ele>
      </trkpt>
      <trkpt lat="43.910520" lon="5.188948">
        <ele>314.3</ele>
      </trkpt>
      <trkpt lat="43.910308" lon="5.188701">
        <ele>313.9</ele>
      </trkpt>
      <trkpt lat="43.910218" lon="5.188621">
        <ele>313.8</ele>
      </trkpt>
      <trkpt lat="43.910122" lon="5.188610">
        <ele>313.5</ele>
      </trkpt>
      <trkpt lat="43.909917" lon="5.188602">
        <ele>308.5</ele>
      </trkpt>
      <trkpt lat="43.909757" lon="5.188677">
        <ele>307.3</ele>
      </trkpt>
      <trkpt lat="43.909616" lon="5.188688">
        <ele>306.5</ele>
      </trkpt>
      <trkpt lat="43.909401" lon="5.188637">
        <ele>305.3</ele>
      </trkpt>
      <trkpt lat="43.909177" lon="5.188272">
        <ele>302.9</ele>
      </trkpt>
      <trkpt lat="43.908906" lon="5.187915">
        <ele>299.5</ele>
      </trkpt>
      <trkpt lat="43.908760" lon="5.187717">
        <ele>299.1</ele>
      </trkpt>
      <trkpt lat="43.908684" lon="5.187575">
        <ele>298.7</ele>
      </trkpt>
      <trkpt lat="43.908431" lon="5.187451">
        <ele>297.6</ele>
      </trkpt>
      <trkpt lat="43.908476" lon="5.187204">
        <ele>300</ele>
      </trkpt>
      <trkpt lat="43.908545" lon="5.186963">
        <ele>301</ele>
      </trkpt>
      <trkpt lat="43.908495" lon="5.186856">
        <ele>300.7</ele>
      </trkpt>
      <trkpt lat="43.908144" lon="5.186437">
        <ele>295</ele>
      </trkpt>
      <trkpt lat="43.907936" lon="5.186201">
        <ele>293.4</ele>
      </trkpt>
      <trkpt lat="43.907776" lon="5.186073">
        <ele>292.4</ele>
      </trkpt>
      <trkpt lat="43.907668" lon="5.185917">
        <ele>291.3</ele>
      </trkpt>
      <trkpt lat="43.907648" lon="5.185863">
        <ele>291</ele>
      </trkpt>
      <trkpt lat="43.907500" lon="5.185662">
        <ele>287.3</ele>
      </trkpt>
      <trkpt lat="43.907277" lon="5.185423">
        <ele>285.9</ele>
      </trkpt>
      <trkpt lat="43.907219" lon="5.185391">
        <ele>285.6</ele>
      </trkpt>
      <trkpt lat="43.907136" lon="5.185410">
        <ele>285.2</ele>
      </trkpt>
      <trkpt lat="43.907102" lon="5.185399">
        <ele>285.1</ele>
      </trkpt>
      <trkpt lat="43.907061" lon="5.185327">
        <ele>284.8</ele>
      </trkpt>
      <trkpt lat="43.906862" lon="5.185147">
        <ele>282.9</ele>
      </trkpt>
      <trkpt lat="43.906806" lon="5.185067">
        <ele>281.9</ele>
      </trkpt>
      <trkpt lat="43.906789" lon="5.185018">
        <ele>281.4</ele>
      </trkpt>
      <trkpt lat="43.906750" lon="5.184989">
        <ele>280.5</ele>
      </trkpt>
      <trkpt lat="43.906632" lon="5.184951">
        <ele>278.4</ele>
      </trkpt>
      <trkpt lat="43.906491" lon="5.184764">
        <ele>277.1</ele>
      </trkpt>
      <trkpt lat="43.906174" lon="5.184450">
        <ele>275.5</ele>
      </trkpt>
      <trkpt lat="43.906118" lon="5.184345">
        <ele>275</ele>
      </trkpt>
      <trkpt lat="43.905851" lon="5.183846">
        <ele>273.7</ele>
      </trkpt>
      <trkpt lat="43.906083" lon="5.183680">
        <ele>274.6</ele>
      </trkpt>
      <trkpt lat="43.906127" lon="5.183608">
        <ele>274.8</ele>
      </trkpt>
      <trkpt lat="43.906152" lon="5.183519">
        <ele>274.8</ele>
      </trkpt>
      <trkpt lat="43.906114" lon="5.183356">
        <ele>274.4</ele>
      </trkpt>
      <trkpt lat="43.906100" lon="5.183110">
        <ele>273.4</ele>
      </trkpt>
      <trkpt lat="43.906300" lon="5.182340">
        <ele>272.1</ele>
      </trkpt>
      <trkpt lat="43.906450" lon="5.182146">
        <ele>272.5</ele>
      </trkpt>
      <trkpt lat="43.906660" lon="5.181950">
        <ele>272.5</ele>
      </trkpt>
      <trkpt lat="43.906890" lon="5.181820">
        <ele>276.8</ele>
      </trkpt>
      <trkpt lat="43.906894" lon="5.181615">
        <ele>276.5</ele>
      </trkpt>
      <trkpt lat="43.906871" lon="5.181384">
        <ele>277.4</ele>
      </trkpt>
      <trkpt lat="43.906670" lon="5.181336">
        <ele>277.2</ele>
      </trkpt>
      <trkpt lat="43.906473" lon="5.181196">
        <ele>274</ele>
      </trkpt>
      <trkpt lat="43.906427" lon="5.181094">
        <ele>274.3</ele>
      </trkpt>
      <trkpt lat="43.906369" lon="5.180933">
        <ele>274.6</ele>
      </trkpt>
      <trkpt lat="43.906400" lon="5.180720">
        <ele>276.7</ele>
      </trkpt>
      <trkpt lat="43.906554" lon="5.180612">
        <ele>277.3</ele>
      </trkpt>
      <trkpt lat="43.906540" lon="5.180480">
        <ele>277.2</ele>
      </trkpt>
      <trkpt lat="43.906340" lon="5.180010">
        <ele>276.9</ele>
      </trkpt>
      <trkpt lat="43.906284" lon="5.179764">
        <ele>275.9</ele>
      </trkpt>
      <trkpt lat="43.906674" lon="5.179614">
        <ele>283.1</ele>
      </trkpt>
      <trkpt lat="43.906879" lon="5.179448">
        <ele>283.6</ele>
      </trkpt>
      <trkpt lat="43.906875" lon="5.179029">
        <ele>282.6</ele>
      </trkpt>
      <trkpt lat="43.906844" lon="5.178820">
        <ele>283</ele>
      </trkpt>
      <trkpt lat="43.906879" lon="5.178600">
        <ele>283</ele>
      </trkpt>
      <trkpt lat="43.906780" lon="5.177660">
        <ele>279.3</ele>
      </trkpt>
      <trkpt lat="43.906790" lon="5.177520">
        <ele>278.4</ele>
      </trkpt>
      <trkpt lat="43.906933" lon="5.177366">
        <ele>271.2</ele>
      </trkpt>
      <trkpt lat="43.907014" lon="5.177221">
        <ele>269.6</ele>
      </trkpt>
      <trkpt lat="43.907323" lon="5.177280">
        <ele>272.9</ele>
      </trkpt>
      <trkpt lat="43.907374" lon="5.177372">
        <ele>275.8</ele>
      </trkpt>
      <trkpt lat="43.907648" lon="5.177441">
        <ele>278.1</ele>
      </trkpt>
      <trkpt lat="43.907800" lon="5.177530">
        <ele>286.8</ele>
      </trkpt>
      <trkpt lat="43.908000" lon="5.177480">
        <ele>275.9</ele>
      </trkpt>
      <trkpt lat="43.908240" lon="5.177520">
        <ele>285.5</ele>
      </trkpt>
      <trkpt lat="43.908650" lon="5.177650">
        <ele>286.5</ele>
      </trkpt>
      <trkpt lat="43.909050" lon="5.177690">
        <ele>283</ele>
      </trkpt>
      <trkpt lat="43.909510" lon="5.177680">
        <ele>285.3</ele>
      </trkpt>
      <trkpt lat="43.909680" lon="5.177620">
        <ele>285.1</ele>
      </trkpt>
      <trkpt lat="43.909560" lon="5.177620">
        <ele>284.9</ele>
      </trkpt>
      <trkpt lat="43.909440" lon="5.177580">
        <ele>283.3</ele>
      </trkpt>
      <trkpt lat="43.909440" lon="5.177540">
        <ele>282.9</ele>
      </trkpt>
      <trkpt lat="43.909610" lon="5.177500">
        <ele>284.1</ele>
      </trkpt>
      <trkpt lat="43.909950" lon="5.177290">
        <ele>270.2</ele>
      </trkpt>
      <trkpt lat="43.910170" lon="5.177080">
        <ele>273.8</ele>
      </trkpt>
      <trkpt lat="43.910310" lon="5.176890">
        <ele>272.4</ele>
      </trkpt>
      <trkpt lat="43.910300" lon="5.176790">
        <ele>270.9</ele>
      </trkpt>
      <trkpt lat="43.910270" lon="5.176710">
        <ele>269.5</ele>
      </trkpt>
      <trkpt lat="43.910400" lon="5.176580">
        <ele>264.8</ele>
      </trkpt>
      <trkpt lat="43.910560" lon="5.176460">
        <ele>266.3</ele>
      </trkpt>
      <trkpt lat="43.910680" lon="5.176350">
        <ele>266.4</ele>
      </trkpt>
      <trkpt lat="43.910850" lon="5.176210">
        <ele>270.1</ele>
      </trkpt>
      <trkpt lat="43.910972" lon="5.176103">
        <ele>269</ele>
      </trkpt>
      <trkpt lat="43.911034" lon="5.175977">
        <ele>267.7</ele>
      </trkpt>
      <trkpt lat="43.911170" lon="5.175970">
        <ele>269</ele>
      </trkpt>
      <trkpt lat="43.911310" lon="5.175910">
        <ele>269</ele>
      </trkpt>
      <trkpt lat="43.911390" lon="5.175920">
        <ele>268.9</ele>
      </trkpt>
      <trkpt lat="43.911520" lon="5.175820">
        <ele>265.9</ele>
      </trkpt>
      <trkpt lat="43.911570" lon="5.175760">
        <ele>265.7</ele>
      </trkpt>
      <trkpt lat="43.911890" lon="5.175690">
        <ele>267.9</ele>
      </trkpt>
      <trkpt lat="43.912090" lon="5.175680">
        <ele>269</ele>
      </trkpt>
      <trkpt lat="43.912250" lon="5.175780">
        <ele>268.5</ele>
      </trkpt>
      <trkpt lat="43.912490" lon="5.175810">
        <ele>266.5</ele>
      </trkpt>
      <trkpt lat="43.912540" lon="5.175770">
        <ele>268.7</ele>
      </trkpt>
      <trkpt lat="43.912540" lon="5.175700">
        <ele>270.5</ele>
      </trkpt>
      <trkpt lat="43.912590" lon="5.175670">
        <ele>271.5</ele>
      </trkpt>
      <trkpt lat="43.912650" lon="5.175660">
        <ele>272.3</ele>
      </trkpt>
      <trkpt lat="43.912740" lon="5.175670">
        <ele>273.2</ele>
      </trkpt>
      <trkpt lat="43.912850" lon="5.175690">
        <ele>273.9</ele>
      </trkpt>
      <trkpt lat="43.912920" lon="5.175770">
        <ele>273.9</ele>
      </trkpt>
      <trkpt lat="43.912930" lon="5.175870">
        <ele>274.6</ele>
      </trkpt>
      <trkpt lat="43.913030" lon="5.175910">
        <ele>274.7</ele>
      </trkpt>
      <trkpt lat="43.913250" lon="5.176030">
        <ele>274.7</ele>
      </trkpt>
      <trkpt lat="43.913310" lon="5.176070">
        <ele>275</ele>
      </trkpt>
      <trkpt lat="43.913340" lon="5.176160">
        <ele>274.5</ele>
      </trkpt>
      <trkpt lat="43.913360" lon="5.176190">
        <ele>274.7</ele>
      </trkpt>
      <trkpt lat="43.913440" lon="5.176220">
        <ele>274.9</ele>
      </trkpt>
      <trkpt lat="43.913520" lon="5.176280">
        <ele>275.1</ele>
      </trkpt>
      <trkpt lat="43.913570" lon="5.176300">
        <ele>275.1</ele>
      </trkpt>
      <trkpt lat="43.913670" lon="5.176330">
        <ele>275</ele>
      </trkpt>
      <trkpt lat="43.913800" lon="5.176470">
        <ele>274.5</ele>
      </trkpt>
      <trkpt lat="43.913880" lon="5.176540">
        <ele>273.8</ele>
      </trkpt>
      <trkpt lat="43.913990" lon="5.176610">
        <ele>272.5</ele>
      </trkpt>
      <trkpt lat="43.914380" lon="5.176750">
        <ele>273.3</ele>
      </trkpt>
      <trkpt lat="43.914470" lon="5.176960">
        <ele>275.4</ele>
      </trkpt>
      <trkpt lat="43.914650" lon="5.176990">
        <ele>275.3</ele>
      </trkpt>
      <trkpt lat="43.914730" lon="5.176830">
        <ele>274</ele>
      </trkpt>
      <trkpt lat="43.914900" lon="5.176690">
        <ele>271.8</ele>
      </trkpt>
      <trkpt lat="43.915020" lon="5.176600">
        <ele>271.7</ele>
      </trkpt>
      <trkpt lat="43.915160" lon="5.176480">
        <ele>274.3</ele>
      </trkpt>
      <trkpt lat="43.915290" lon="5.176470">
        <ele>275</ele>
      </trkpt>
      <trkpt lat="43.915550" lon="5.176350">
        <ele>276.2</ele>
      </trkpt>
      <trkpt lat="43.915760" lon="5.176340">
        <ele>276.4</ele>
      </trkpt>
      <trkpt lat="43.915990" lon="5.176380">
        <ele>280.5</ele>
      </trkpt>
      <trkpt lat="43.916320" lon="5.176520">
        <ele>281.7</ele>
      </trkpt>
      <trkpt lat="43.916520" lon="5.176550">
        <ele>282</ele>
      </trkpt>
      <trkpt lat="43.916680" lon="5.176440">
        <ele>287</ele>
      </trkpt>
      <trkpt lat="43.917060" lon="5.176250">
        <ele>290.4</ele>
      </trkpt>
      <trkpt lat="43.917270" lon="5.176130">
        <ele>291.1</ele>
      </trkpt>
      <trkpt lat="43.917450" lon="5.176210">
        <ele>291.3</ele>
      </trkpt>
      <trkpt lat="43.917590" lon="5.176290">
        <ele>300.3</ele>
      </trkpt>
      <trkpt lat="43.917760" lon="5.176190">
        <ele>301.5</ele>
      </trkpt>
      <trkpt lat="43.917790" lon="5.175970">
        <ele>300.5</ele>
      </trkpt>
      <trkpt lat="43.917750" lon="5.175740">
        <ele>298.3</ele>
      </trkpt>
      <trkpt lat="43.917800" lon="5.175400">
        <ele>300.7</ele>
      </trkpt>
      <trkpt lat="43.917950" lon="5.175120">
        <ele>301.4</ele>
      </trkpt>
      <trkpt lat="43.918060" lon="5.174990">
        <ele>304.7</ele>
      </trkpt>
      <trkpt lat="43.918170" lon="5.174930">
        <ele>303.5</ele>
      </trkpt>
      <trkpt lat="43.918220" lon="5.174790">
        <ele>304.5</ele>
      </trkpt>
      <trkpt lat="43.918109" lon="5.174748">
        <ele>305.8</ele>
      </trkpt>
      <trkpt lat="43.917966" lon="5.174523">
        <ele>308.2</ele>
      </trkpt>
      <trkpt lat="43.917870" lon="5.174008">
        <ele>318.5</ele>
      </trkpt>
      <trkpt lat="43.917890" lon="5.173863">
        <ele>319.3</ele>
      </trkpt>
      <trkpt lat="43.917925" lon="5.173622">
        <ele>320.9</ele>
      </trkpt>
      <trkpt lat="43.917925" lon="5.173348">
        <ele>322.4</ele>
      </trkpt>
      <trkpt lat="43.917952" lon="5.173042">
        <ele>329.7</ele>
      </trkpt>
      <trkpt lat="43.917909" lon="5.172672">
        <ele>331.3</ele>
      </trkpt>
      <trkpt lat="43.917882" lon="5.172415">
        <ele>336.9</ele>
      </trkpt>
      <trkpt lat="43.917855" lon="5.172302">
        <ele>337.4</ele>
      </trkpt>
      <trkpt lat="43.917778" lon="5.172265">
        <ele>337.5</ele>
      </trkpt>
      <trkpt lat="43.917731" lon="5.172393">
        <ele>336.5</ele>
      </trkpt>
      <trkpt lat="43.917720" lon="5.172790">
        <ele>330.9</ele>
      </trkpt>
      <trkpt lat="43.917658" lon="5.173037">
        <ele>329.8</ele>
      </trkpt>
      <trkpt lat="43.917619" lon="5.173225">
        <ele>329</ele>
      </trkpt>
      <trkpt lat="43.917523" lon="5.173477">
        <ele>324.6</ele>
      </trkpt>
      <trkpt lat="43.917445" lon="5.173654">
        <ele>329.4</ele>
      </trkpt>
      <trkpt lat="43.917349" lon="5.173992">
        <ele>326</ele>
      </trkpt>
      <trkpt lat="43.917074" lon="5.174046">
        <ele>329.4</ele>
      </trkpt>
      <trkpt lat="43.916816" lon="5.174062">
        <ele>331</ele>
      </trkpt>
      <trkpt lat="43.916572" lon="5.173906">
        <ele>336.7</ele>
      </trkpt>
      <trkpt lat="43.916317" lon="5.173906">
        <ele>337</ele>
      </trkpt>
      <trkpt lat="43.916081" lon="5.173874">
        <ele>336.6</ele>
      </trkpt>
      <trkpt lat="43.915985" lon="5.173831">
        <ele>337</ele>
      </trkpt>
      <trkpt lat="43.915683" lon="5.173702">
        <ele>339</ele>
      </trkpt>
      <trkpt lat="43.915274" lon="5.173568">
        <ele>340.9</ele>
      </trkpt>
      <trkpt lat="43.915034" lon="5.173638">
        <ele>340.6</ele>
      </trkpt>
      <trkpt lat="43.914829" lon="5.173793">
        <ele>340</ele>
      </trkpt>
      <trkpt lat="43.914574" lon="5.173911">
        <ele>339.4</ele>
      </trkpt>
      <trkpt lat="43.914346" lon="5.173869">
        <ele>340</ele>
      </trkpt>
      <trkpt lat="43.913724" lon="5.173284">
        <ele>351.3</ele>
      </trkpt>
      <trkpt lat="43.913593" lon="5.173230">
        <ele>349.9</ele>
      </trkpt>
      <trkpt lat="43.913403" lon="5.173252">
        <ele>346.6</ele>
      </trkpt>
      <trkpt lat="43.913160" lon="5.173241">
        <ele>342.9</ele>
      </trkpt>
      <trkpt lat="43.913063" lon="5.173284">
        <ele>342.4</ele>
      </trkpt>
      <trkpt lat="43.912986" lon="5.173278">
        <ele>342</ele>
      </trkpt>
      <trkpt lat="43.912905" lon="5.173257">
        <ele>341.5</ele>
      </trkpt>
      <trkpt lat="43.912847" lon="5.173155">
        <ele>341.5</ele>
      </trkpt>
      <trkpt lat="43.912800" lon="5.173010">
        <ele>341.9</ele>
      </trkpt>
      <trkpt lat="43.912773" lon="5.172914">
        <ele>342.3</ele>
      </trkpt>
      <trkpt lat="43.912708" lon="5.172849">
        <ele>342.3</ele>
      </trkpt>
      <trkpt lat="43.912623" lon="5.172855">
        <ele>341.9</ele>
      </trkpt>
      <trkpt lat="43.912572" lon="5.172790">
        <ele>342.1</ele>
      </trkpt>
      <trkpt lat="43.912603" lon="5.172281">
        <ele>345</ele>
      </trkpt>
      <trkpt lat="43.912603" lon="5.172120">
        <ele>345.4</ele>
      </trkpt>
      <trkpt lat="43.912696" lon="5.171138">
        <ele>345.2</ele>
      </trkpt>
      <trkpt lat="43.912713" lon="5.169944">
        <ele>342.9</ele>
      </trkpt>
      <trkpt lat="43.912713" lon="5.169909">
        <ele>343</ele>
      </trkpt>
      <trkpt lat="43.912715" lon="5.169786">
        <ele>343.4</ele>
      </trkpt>
      <trkpt lat="43.912704" lon="5.169556">
        <ele>343.8</ele>
      </trkpt>
      <trkpt lat="43.912623" lon="5.169674">
        <ele>343.2</ele>
      </trkpt>
      <trkpt lat="43.912232" lon="5.170183">
        <ele>335.7</ele>
      </trkpt>
      <trkpt lat="43.912140" lon="5.170312">
        <ele>335.1</ele>
      </trkpt>
      <trkpt lat="43.911819" lon="5.170628">
        <ele>333</ele>
      </trkpt>
      <trkpt lat="43.911660" lon="5.170800">
        <ele>329.3</ele>
      </trkpt>
      <trkpt lat="43.911483" lon="5.171009">
        <ele>326.9</ele>
      </trkpt>
      <trkpt lat="43.911193" lon="5.171272">
        <ele>324.9</ele>
      </trkpt>
      <trkpt lat="43.911046" lon="5.171385">
        <ele>324.1</ele>
      </trkpt>
      <trkpt lat="43.910930" lon="5.171417">
        <ele>323.5</ele>
      </trkpt>
      <trkpt lat="43.910868" lon="5.171406">
        <ele>323.3</ele>
      </trkpt>
      <trkpt lat="43.910854" lon="5.171320">
        <ele>323.5</ele>
      </trkpt>
      <trkpt lat="43.910858" lon="5.171186">
        <ele>323.4</ele>
      </trkpt>
      <trkpt lat="43.910868" lon="5.171071">
        <ele>322.9</ele>
      </trkpt>
      <trkpt lat="43.910825" lon="5.170974">
        <ele>318.7</ele>
      </trkpt>
      <trkpt lat="43.910775" lon="5.170873">
        <ele>319.2</ele>
      </trkpt>
      <trkpt lat="43.910742" lon="5.170792">
        <ele>318.5</ele>
      </trkpt>
      <trkpt lat="43.910657" lon="5.170690">
        <ele>317.3</ele>
      </trkpt>
      <trkpt lat="43.910537" lon="5.170521">
        <ele>316.2</ele>
      </trkpt>
      <trkpt lat="43.910504" lon="5.170457">
        <ele>316</ele>
      </trkpt>
      <trkpt lat="43.910433" lon="5.170387">
        <ele>315.5</ele>
      </trkpt>
      <trkpt lat="43.910331" lon="5.170272">
        <ele>314.8</ele>
      </trkpt>
      <trkpt lat="43.910275" lon="5.170159">
        <ele>314.2</ele>
      </trkpt>
      <trkpt lat="43.910228" lon="5.170003">
        <ele>313.4</ele>
      </trkpt>
      <trkpt lat="43.910220" lon="5.169802">
        <ele>311.2</ele>
      </trkpt>
      <trkpt lat="43.910205" lon="5.169692">
        <ele>310.8</ele>
      </trkpt>
      <trkpt lat="43.910213" lon="5.169547">
        <ele>310.2</ele>
      </trkpt>
      <trkpt lat="43.910164" lon="5.169419">
        <ele>308.9</ele>
      </trkpt>
      <trkpt lat="43.910195" lon="5.168389">
        <ele>302</ele>
      </trkpt>
      <trkpt lat="43.910149" lon="5.168290">
        <ele>300</ele>
      </trkpt>
      <trkpt lat="43.910041" lon="5.168204">
        <ele>299.4</ele>
      </trkpt>
      <trkpt lat="43.909794" lon="5.168150">
        <ele>292.2</ele>
      </trkpt>
      <trkpt lat="43.909236" lon="5.167027">
        <ele>290.9</ele>
      </trkpt>
      <trkpt lat="43.909222" lon="5.166999">
        <ele>290.8</ele>
      </trkpt>
      <trkpt lat="43.909133" lon="5.166820">
        <ele>285.3</ele>
      </trkpt>
      <trkpt lat="43.909098" lon="5.166557">
        <ele>287</ele>
      </trkpt>
      <trkpt lat="43.909071" lon="5.166423">
        <ele>286.6</ele>
      </trkpt>
      <trkpt lat="43.909013" lon="5.166315">
        <ele>286.4</ele>
      </trkpt>
      <trkpt lat="43.908955" lon="5.166192">
        <ele>286.5</ele>
      </trkpt>
      <trkpt lat="43.908897" lon="5.165935">
        <ele>287.2</ele>
      </trkpt>
      <trkpt lat="43.908816" lon="5.165843">
        <ele>286.5</ele>
      </trkpt>
      <trkpt lat="43.908402" lon="5.165500">
        <ele>287.2</ele>
      </trkpt>
      <trkpt lat="43.908302" lon="5.165527">
        <ele>280.6</ele>
      </trkpt>
      <trkpt lat="43.907896" lon="5.165653">
        <ele>278.6</ele>
      </trkpt>
      <trkpt lat="43.907772" lon="5.165693">
        <ele>277.7</ele>
      </trkpt>
      <trkpt lat="43.907670" lon="5.165693">
        <ele>276.9</ele>
      </trkpt>
      <trkpt lat="43.906988" lon="5.165658">
        <ele>269.2</ele>
      </trkpt>
      <trkpt lat="43.906758" lon="5.165618">
        <ele>268.1</ele>
      </trkpt>
      <trkpt lat="43.906560" lon="5.165728">
        <ele>264.1</ele>
      </trkpt>
      <trkpt lat="43.906354" lon="5.165752">
        <ele>262.7</ele>
      </trkpt>
      <trkpt lat="43.906160" lon="5.165924">
        <ele>262</ele>
      </trkpt>
      <trkpt lat="43.905958" lon="5.165902">
        <ele>260.5</ele>
      </trkpt>
      <trkpt lat="43.905747" lon="5.165913">
        <ele>257.2</ele>
      </trkpt>
      <trkpt lat="43.905681" lon="5.165876">
        <ele>256.6</ele>
      </trkpt>
      <trkpt lat="43.905619" lon="5.165752">
        <ele>255.6</ele>
      </trkpt>
      <trkpt lat="43.905252" lon="5.165438">
        <ele>252.7</ele>
      </trkpt>
      <trkpt lat="43.904640" lon="5.165489">
        <ele>244.9</ele>
      </trkpt>
      <trkpt lat="43.903961" lon="5.165524">
        <ele>238.7</ele>
      </trkpt>
      <trkpt lat="43.903679" lon="5.165473">
        <ele>237.9</ele>
      </trkpt>
      <trkpt lat="43.902755" lon="5.165245">
        <ele>234.7</ele>
      </trkpt>
      <trkpt lat="43.902597" lon="5.165221">
        <ele>234.5</ele>
      </trkpt>
      <trkpt lat="43.902578" lon="5.165302">
        <ele>234.6</ele>
      </trkpt>
      <trkpt lat="43.902545" lon="5.165492">
        <ele>234.6</ele>
      </trkpt>
      <trkpt lat="43.902525" lon="5.165664">
        <ele>234.5</ele>
      </trkpt>
      <trkpt lat="43.902520" lon="5.165859">
        <ele>234.2</ele>
      </trkpt>
      <trkpt lat="43.902539" lon="5.165951">
        <ele>234.6</ele>
      </trkpt>
      <trkpt lat="43.902593" lon="5.166122">
        <ele>235.1</ele>
      </trkpt>
      <trkpt lat="43.902698" lon="5.166283">
        <ele>235.3</ele>
      </trkpt>
      <trkpt lat="43.902748" lon="5.166401">
        <ele>235.4</ele>
      </trkpt>
      <trkpt lat="43.902837" lon="5.166739">
        <ele>236.8</ele>
      </trkpt>
      <trkpt lat="43.902876" lon="5.166900">
        <ele>237.3</ele>
      </trkpt>
      <trkpt lat="43.902953" lon="5.167066">
        <ele>237.8</ele>
      </trkpt>
      <trkpt lat="43.903015" lon="5.167281">
        <ele>238.5</ele>
      </trkpt>
      <trkpt lat="43.903026" lon="5.167361">
        <ele>238.7</ele>
      </trkpt>
      <trkpt lat="43.903065" lon="5.167504">
        <ele>240.9</ele>
      </trkpt>
      <trkpt lat="43.903138" lon="5.168134">
        <ele>242.1</ele>
      </trkpt>
      <trkpt lat="43.903215" lon="5.169164">
        <ele>246.3</ele>
      </trkpt>
      <trkpt lat="43.903204" lon="5.169451">
        <ele>246</ele>
      </trkpt>
      <trkpt lat="43.903225" lon="5.169775">
        <ele>246.2</ele>
      </trkpt>
      <trkpt lat="43.903296" lon="5.170205">
        <ele>246.8</ele>
      </trkpt>
      <trkpt lat="43.903410" lon="5.170701">
        <ele>250.4</ele>
      </trkpt>
      <trkpt lat="43.903422" lon="5.170972">
        <ele>250.9</ele>
      </trkpt>
      <trkpt lat="43.903422" lon="5.171562">
        <ele>251.3</ele>
      </trkpt>
      <trkpt lat="43.903391" lon="5.171994">
        <ele>253</ele>
      </trkpt>
      <trkpt lat="43.903383" lon="5.172426">
        <ele>252.7</ele>
      </trkpt>
      <trkpt lat="43.903399" lon="5.172825">
        <ele>254.1</ele>
      </trkpt>
      <trkpt lat="43.903351" lon="5.173211">
        <ele>253.2</ele>
      </trkpt>
      <trkpt lat="43.903355" lon="5.173563">
        <ele>253.9</ele>
      </trkpt>
      <trkpt lat="43.903339" lon="5.173675">
        <ele>254.2</ele>
      </trkpt>
      <trkpt lat="43.903270" lon="5.173756">
        <ele>250.4</ele>
      </trkpt>
      <trkpt lat="43.903189" lon="5.173767">
        <ele>250.2</ele>
      </trkpt>
      <trkpt lat="43.903077" lon="5.173842">
        <ele>249.9</ele>
      </trkpt>
      <trkpt lat="43.902656" lon="5.175034">
        <ele>248.9</ele>
      </trkpt>
      <trkpt lat="43.902624" lon="5.175124">
        <ele>248.9</ele>
      </trkpt>
      <trkpt lat="43.902566" lon="5.175333">
        <ele>249.4</ele>
      </trkpt>
      <trkpt lat="43.902520" lon="5.175730">
        <ele>248.2</ele>
      </trkpt>
      <trkpt lat="43.902551" lon="5.175945">
        <ele>248.4</ele>
      </trkpt>
      <trkpt lat="43.902671" lon="5.176798">
        <ele>249.1</ele>
      </trkpt>
      <trkpt lat="43.902620" lon="5.177098">
        <ele>249</ele>
      </trkpt>
      <trkpt lat="43.902458" lon="5.177715">
        <ele>244.8</ele>
      </trkpt>
      <trkpt lat="43.902378" lon="5.178294">
        <ele>244.8</ele>
      </trkpt>
      <trkpt lat="43.902138" lon="5.179067">
        <ele>241.5</ele>
      </trkpt>
      <trkpt lat="43.902053" lon="5.179378">
        <ele>239.4</ele>
      </trkpt>
      <trkpt lat="43.902022" lon="5.179549">
        <ele>239.1</ele>
      </trkpt>
      <trkpt lat="43.901883" lon="5.179700">
        <ele>238.6</ele>
      </trkpt>
      <trkpt lat="43.901798" lon="5.180011">
        <ele>236.2</ele>
      </trkpt>
      <trkpt lat="43.901612" lon="5.180440">
        <ele>233.7</ele>
      </trkpt>
      <trkpt lat="43.901512" lon="5.180708">
        <ele>233.4</ele>
      </trkpt>
      <trkpt lat="43.901365" lon="5.180944">
        <ele>230.9</ele>
      </trkpt>
      <trkpt lat="43.901482" lon="5.181081">
        <ele>230.7</ele>
      </trkpt>
      <trkpt lat="43.901507" lon="5.181145">
        <ele>230.3</ele>
      </trkpt>
      <trkpt lat="43.901551" lon="5.181290">
        <ele>229.2</ele>
      </trkpt>
      <trkpt lat="43.901602" lon="5.181328">
        <ele>228.8</ele>
      </trkpt>
      <trkpt lat="43.901748" lon="5.181336">
        <ele>226.8</ele>
      </trkpt>
      <trkpt lat="43.901779" lon="5.181368">
        <ele>226.5</ele>
      </trkpt>
      <trkpt lat="43.901785" lon="5.181408">
        <ele>226.2</ele>
      </trkpt>
      <trkpt lat="43.901760" lon="5.181427">
        <ele>226</ele>
      </trkpt>
      <trkpt lat="43.901708" lon="5.181446">
        <ele>225.8</ele>
      </trkpt>
      <trkpt lat="43.901677" lon="5.181470">
        <ele>225.5</ele>
      </trkpt>
      <trkpt lat="43.901671" lon="5.181505">
        <ele>225.2</ele>
      </trkpt>
      <trkpt lat="43.901690" lon="5.181532">
        <ele>224.9</ele>
      </trkpt>
      <trkpt lat="43.901748" lon="5.181497">
        <ele>225.4</ele>
      </trkpt>
      <trkpt lat="43.901814" lon="5.181489">
        <ele>225.6</ele>
      </trkpt>
      <trkpt lat="43.901857" lon="5.181518">
        <ele>225.6</ele>
      </trkpt>
      <trkpt lat="43.901882" lon="5.181583">
        <ele>225.3</ele>
      </trkpt>
      <trkpt lat="43.901932" lon="5.181875">
        <ele>221.8</ele>
      </trkpt>
      <trkpt lat="43.901967" lon="5.182092">
        <ele>221.3</ele>
      </trkpt>
      <trkpt lat="43.901984" lon="5.182194">
        <ele>221</ele>
      </trkpt>
      <trkpt lat="43.902021" lon="5.182473">
        <ele>220.6</ele>
      </trkpt>
      <trkpt lat="43.902060" lon="5.182610">
        <ele>222.4</ele>
      </trkpt>
      <trkpt lat="43.902067" lon="5.182688">
        <ele>222.7</ele>
      </trkpt>
      <trkpt lat="43.901965" lon="5.182811">
        <ele>222.7</ele>
      </trkpt>
      <trkpt lat="43.901727" lon="5.183098">
        <ele>223.1</ele>
      </trkpt>
      <trkpt lat="43.901663" lon="5.183264">
        <ele>222.5</ele>
      </trkpt>
      <trkpt lat="43.901578" lon="5.183610">
        <ele>223.2</ele>
      </trkpt>
      <trkpt lat="43.901520" lon="5.184522">
        <ele>230.3</ele>
      </trkpt>
      <trkpt lat="43.901538" lon="5.184766">
        <ele>232.7</ele>
      </trkpt>
      <trkpt lat="43.901607" lon="5.185035">
        <ele>239.3</ele>
      </trkpt>
      <trkpt lat="43.901830" lon="5.185464">
        <ele>244</ele>
      </trkpt>
      <trkpt lat="43.901911" lon="5.185783">
        <ele>244.4</ele>
      </trkpt>
      <trkpt lat="43.901932" lon="5.185979">
        <ele>246.6</ele>
      </trkpt>
      <trkpt lat="43.901928" lon="5.186295">
        <ele>247.5</ele>
      </trkpt>
      <trkpt lat="43.901959" lon="5.186408">
        <ele>247.7</ele>
      </trkpt>
      <trkpt lat="43.902062" lon="5.186633">
        <ele>248.4</ele>
      </trkpt>
      <trkpt lat="43.902071" lon="5.186714">
        <ele>250.9</ele>
      </trkpt>
      <trkpt lat="43.901971" lon="5.187011">
        <ele>251.1</ele>
      </trkpt>
      <trkpt lat="43.901967" lon="5.187376">
        <ele>251.9</ele>
      </trkpt>
      <trkpt lat="43.901952" lon="5.187537">
        <ele>253.7</ele>
      </trkpt>
      <trkpt lat="43.901994" lon="5.187923">
        <ele>254.5</ele>
      </trkpt>
      <trkpt lat="43.901882" lon="5.188256">
        <ele>254.2</ele>
      </trkpt>
      <trkpt lat="43.901759" lon="5.188889">
        <ele>255.5</ele>
      </trkpt>
      <trkpt lat="43.901716" lon="5.189168">
        <ele>255.3</ele>
      </trkpt>
      <trkpt lat="43.901724" lon="5.189860">
        <ele>255.3</ele>
      </trkpt>
      <trkpt lat="43.901724" lon="5.189946">
        <ele>254.8</ele>
      </trkpt>
      <trkpt lat="43.901789" lon="5.190198">
        <ele>256.3</ele>
      </trkpt>
      <trkpt lat="43.901786" lon="5.190316">
        <ele>256.7</ele>
      </trkpt>
      <trkpt lat="43.901728" lon="5.190412">
        <ele>256.8</ele>
      </trkpt>
      <trkpt lat="43.901534" lon="5.190600">
        <ele>254.3</ele>
      </trkpt>
      <trkpt lat="43.901515" lon="5.190804">
        <ele>254.9</ele>
      </trkpt>
      <trkpt lat="43.901546" lon="5.190960">
        <ele>257.3</ele>
      </trkpt>
      <trkpt lat="43.901643" lon="5.191281">
        <ele>258.9</ele>
      </trkpt>
      <trkpt lat="43.901681" lon="5.191442">
        <ele>261.1</ele>
      </trkpt>
      <trkpt lat="43.901694" lon="5.191563">
        <ele>261.6</ele>
      </trkpt>
      <trkpt lat="43.901621" lon="5.191735">
        <ele>262.7</ele>
      </trkpt>
      <trkpt lat="43.901557" lon="5.191952">
        <ele>264</ele>
      </trkpt>
      <trkpt lat="43.901491" lon="5.192408">
        <ele>266.4</ele>
      </trkpt>
      <trkpt lat="43.901449" lon="5.192464">
        <ele>266.3</ele>
      </trkpt>
      <trkpt lat="43.901350" lon="5.192491">
        <ele>265.7</ele>
      </trkpt>
      <trkpt lat="43.901159" lon="5.192692">
        <ele>268.6</ele>
      </trkpt>
    </trkseg>
  </trk>
</gpx>