<?xml version="1.0" ?>
<gpx xmlns="http://www.topografix.com/GPX/1/1" xmlns:xsi="http://www.w3.org/2001/XMLSchema-instance" xsi:schemaLocation="http://www.topografix.com/GPX/1/1 http://www.topografix.com/GPX/1/1/gpx.xsd" version="1.1" creator="EditGPX">
  <trk>
    <name>NewTrack</name>
    <trkseg>
      <trkpt lat="43.695531" lon="5.500685">
        <ele>204.6</ele>
      </trkpt>
      <trkpt lat="43.695647" lon="5.500881">
        <ele>208.8</ele>
      </trkpt>
      <trkpt lat="43.695624" lon="5.501018">
        <ele>210.2</ele>
      </trkpt>
      <trkpt lat="43.695515" lon="5.501050">
        <ele>211.3</ele>
      </trkpt>
      <trkpt lat="43.695451" lon="5.501095">
        <ele>211.9</ele>
      </trkpt>
      <trkpt lat="43.695443" lon="5.501189">
        <ele>212.5</ele>
      </trkpt>
      <trkpt lat="43.695758" lon="5.501211">
        <ele>211.6</ele>
      </trkpt>
      <trkpt lat="43.695907" lon="5.501240">
        <ele>207.4</ele>
      </trkpt>
      <trkpt lat="43.696099" lon="5.501329">
        <ele>207.5</ele>
      </trkpt>
      <trkpt lat="43.696264" lon="5.501500">
        <ele>207.3</ele>
      </trkpt>
      <trkpt lat="43.696448" lon="5.501820">
        <ele>209.9</ele>
      </trkpt>
      <trkpt lat="43.696803" lon="5.502276">
        <ele>206.5</ele>
      </trkpt>
      <trkpt lat="43.696906" lon="5.502445">
        <ele>206.6</ele>
      </trkpt>
      <trkpt lat="43.696913" lon="5.502681">
        <ele>206.3</ele>
      </trkpt>
      <trkpt lat="43.696869" lon="5.502941">
        <ele>205.7</ele>
      </trkpt>
      <trkpt lat="43.696774" lon="5.503182">
        <ele>205.7</ele>
      </trkpt>
      <trkpt lat="43.696626" lon="5.503397">
        <ele>206.7</ele>
      </trkpt>
      <trkpt lat="43.696500" lon="5.503542">
        <ele>207.8</ele>
      </trkpt>
      <trkpt lat="43.696467" lon="5.503764">
        <ele>207.9</ele>
      </trkpt>
      <trkpt lat="43.696467" lon="5.504048">
        <ele>207.2</ele>
      </trkpt>
      <trkpt lat="43.696510" lon="5.504362">
        <ele>206.3</ele>
      </trkpt>
      <trkpt lat="43.696562" lon="5.504566">
        <ele>206.5</ele>
      </trkpt>
      <trkpt lat="43.696275" lon="5.504832">
        <ele>206.8</ele>
      </trkpt>
      <trkpt lat="43.695988" lon="5.505073">
        <ele>206.6</ele>
      </trkpt>
      <trkpt lat="43.695773" lon="5.505253">
        <ele>208.9</ele>
      </trkpt>
      <trkpt lat="43.695511" lon="5.505266">
        <ele>209.8</ele>
      </trkpt>
      <trkpt lat="43.695488" lon="5.505154">
        <ele>209.8</ele>
      </trkpt>
      <trkpt lat="43.695424" lon="5.505108">
        <ele>210.1</ele>
      </trkpt>
      <trkpt lat="43.695350" lon="5.505119">
        <ele>210.5</ele>
      </trkpt>
      <trkpt lat="43.695317" lon="5.505191">
        <ele>210.6</ele>
      </trkpt>
      <trkpt lat="43.695311" lon="5.505293">
        <ele>210.6</ele>
      </trkpt>
      <trkpt lat="43.695302" lon="5.505352">
        <ele>210.7</ele>
      </trkpt>
      <trkpt lat="43.695071" lon="5.505969">
        <ele>212.2</ele>
      </trkpt>
      <trkpt lat="43.695026" lon="5.506031">
        <ele>212</ele>
      </trkpt>
      <trkpt lat="43.694997" lon="5.506100">
        <ele>213.5</ele>
      </trkpt>
      <trkpt lat="43.694861" lon="5.506226">
        <ele>213.3</ele>
      </trkpt>
      <trkpt lat="43.694749" lon="5.506460">
        <ele>213.2</ele>
      </trkpt>
      <trkpt lat="43.694088" lon="5.507476">
        <ele>214.1</ele>
      </trkpt>
      <trkpt lat="43.693961" lon="5.507801">
        <ele>215.3</ele>
      </trkpt>
      <trkpt lat="43.693826" lon="5.508211">
        <ele>215.9</ele>
      </trkpt>
      <trkpt lat="43.693769" lon="5.508536">
        <ele>216.9</ele>
      </trkpt>
      <trkpt lat="43.693771" lon="5.508839">
        <ele>217.1</ele>
      </trkpt>
      <trkpt lat="43.693775" lon="5.508949">
        <ele>217.1</ele>
      </trkpt>
      <trkpt lat="43.693729" lon="5.508981">
        <ele>217.1</ele>
      </trkpt>
      <trkpt lat="43.693686" lon="5.509062">
        <ele>217.1</ele>
      </trkpt>
      <trkpt lat="43.693663" lon="5.509163">
        <ele>217.1</ele>
      </trkpt>
      <trkpt lat="43.693588" lon="5.510132">
        <ele>220</ele>
      </trkpt>
      <trkpt lat="43.693499" lon="5.511283">
        <ele>220.8</ele>
      </trkpt>
      <trkpt lat="43.693479" lon="5.511540">
        <ele>220.9</ele>
      </trkpt>
      <trkpt lat="43.693304" lon="5.512286">
        <ele>224.7</ele>
      </trkpt>
      <trkpt lat="43.693129" lon="5.512897">
        <ele>227.4</ele>
      </trkpt>
      <trkpt lat="43.692961" lon="5.513208">
        <ele>228.1</ele>
      </trkpt>
      <trkpt lat="43.692928" lon="5.513302">
        <ele>228.2</ele>
      </trkpt>
      <trkpt lat="43.692560" lon="5.514342">
        <ele>234.1</ele>
      </trkpt>
      <trkpt lat="43.692363" lon="5.514901">
        <ele>235.4</ele>
      </trkpt>
      <trkpt lat="43.692148" lon="5.515421">
        <ele>237.2</ele>
      </trkpt>
      <trkpt lat="43.692069" lon="5.515582">
        <ele>237.6</ele>
      </trkpt>
      <trkpt lat="43.691991" lon="5.515759">
        <ele>238</ele>
      </trkpt>
      <trkpt lat="43.691931" lon="5.515874">
        <ele>240.1</ele>
      </trkpt>
      <trkpt lat="43.691857" lon="5.516041">
        <ele>240.4</ele>
      </trkpt>
      <trkpt lat="43.691754" lon="5.516341">
        <ele>241.1</ele>
      </trkpt>
      <trkpt lat="43.691667" lon="5.516649">
        <ele>242.8</ele>
      </trkpt>
      <trkpt lat="43.691588" lon="5.517017">
        <ele>245</ele>
      </trkpt>
      <trkpt lat="43.691270" lon="5.518023">
        <ele>248.7</ele>
      </trkpt>
      <trkpt lat="43.691186" lon="5.518213">
        <ele>249.3</ele>
      </trkpt>
      <trkpt lat="43.691142" lon="5.518296">
        <ele>249.6</ele>
      </trkpt>
      <trkpt lat="43.691124" lon="5.518382">
        <ele>251.7</ele>
      </trkpt>
      <trkpt lat="43.690558" lon="5.519863">
        <ele>258.5</ele>
      </trkpt>
      <trkpt lat="43.690418" lon="5.520397">
        <ele>261.2</ele>
      </trkpt>
      <trkpt lat="43.689838" lon="5.521864">
        <ele>268.4</ele>
      </trkpt>
      <trkpt lat="43.689674" lon="5.522265">
        <ele>268.8</ele>
      </trkpt>
      <trkpt lat="43.689261" lon="5.523273">
        <ele>268.4</ele>
      </trkpt>
      <trkpt lat="43.689249" lon="5.523301">
        <ele>268.4</ele>
      </trkpt>
      <trkpt lat="43.688791" lon="5.524132">
        <ele>263.8</ele>
      </trkpt>
      <trkpt lat="43.688284" lon="5.525054">
        <ele>258.1</ele>
      </trkpt>
      <trkpt lat="43.687883" lon="5.525782">
        <ele>255.4</ele>
      </trkpt>
      <trkpt lat="43.687429" lon="5.526458">
        <ele>249.6</ele>
      </trkpt>
      <trkpt lat="43.687051" lon="5.527153">
        <ele>247.6</ele>
      </trkpt>
      <trkpt lat="43.686908" lon="5.527625">
        <ele>247.1</ele>
      </trkpt>
      <trkpt lat="43.686842" lon="5.527917">
        <ele>247.4</ele>
      </trkpt>
      <trkpt lat="43.686629" lon="5.528856">
        <ele>241.3</ele>
      </trkpt>
      <trkpt lat="43.686557" lon="5.529272">
        <ele>241.1</ele>
      </trkpt>
      <trkpt lat="43.686431" lon="5.529972">
        <ele>241</ele>
      </trkpt>
      <trkpt lat="43.686375" lon="5.530441">
        <ele>239.6</ele>
      </trkpt>
      <trkpt lat="43.686317" lon="5.531321">
        <ele>238.7</ele>
      </trkpt>
      <trkpt lat="43.686262" lon="5.531723">
        <ele>238.6</ele>
      </trkpt>
      <trkpt lat="43.686185" lon="5.532083">
        <ele>238.3</ele>
      </trkpt>
      <trkpt lat="43.686045" lon="5.532528">
        <ele>237.8</ele>
      </trkpt>
      <trkpt lat="43.685545" lon="5.533805">
        <ele>234.3</ele>
      </trkpt>
      <trkpt lat="43.685588" lon="5.534068">
        <ele>234.5</ele>
      </trkpt>
      <trkpt lat="43.685622" lon="5.534223">
        <ele>234.3</ele>
      </trkpt>
      <trkpt lat="43.685680" lon="5.534540">
        <ele>234</ele>
      </trkpt>
      <trkpt lat="43.685685" lon="5.534610">
        <ele>234</ele>
      </trkpt>
      <trkpt lat="43.685697" lon="5.534687">
        <ele>234.1</ele>
      </trkpt>
      <trkpt lat="43.685708" lon="5.534767">
        <ele>234.3</ele>
      </trkpt>
      <trkpt lat="43.685720" lon="5.534848">
        <ele>234.5</ele>
      </trkpt>
      <trkpt lat="43.685732" lon="5.534930">
        <ele>234.9</ele>
      </trkpt>
      <trkpt lat="43.685743" lon="5.535010">
        <ele>235.3</ele>
      </trkpt>
      <trkpt lat="43.685757" lon="5.535088">
        <ele>235.2</ele>
      </trkpt>
      <trkpt lat="43.685772" lon="5.535165">
        <ele>235</ele>
      </trkpt>
      <trkpt lat="43.685785" lon="5.535240">
        <ele>234.9</ele>
      </trkpt>
      <trkpt lat="43.685798" lon="5.535318">
        <ele>234.9</ele>
      </trkpt>
      <trkpt lat="43.685813" lon="5.535395">
        <ele>234.9</ele>
      </trkpt>
      <trkpt lat="43.685828" lon="5.535472">
        <ele>235</ele>
      </trkpt>
      <trkpt lat="43.685847" lon="5.535548">
        <ele>237.5</ele>
      </trkpt>
      <trkpt lat="43.685863" lon="5.535623">
        <ele>237.5</ele>
      </trkpt>
      <trkpt lat="43.685875" lon="5.535698">
        <ele>237.4</ele>
      </trkpt>
      <trkpt lat="43.685878" lon="5.535773">
        <ele>237.3</ele>
      </trkpt>
      <trkpt lat="43.685872" lon="5.535847">
        <ele>237.4</ele>
      </trkpt>
      <trkpt lat="43.685862" lon="5.535920">
        <ele>237.8</ele>
      </trkpt>
      <trkpt lat="43.685852" lon="5.535995">
        <ele>238.2</ele>
      </trkpt>
      <trkpt lat="43.685843" lon="5.536072">
        <ele>238.5</ele>
      </trkpt>
      <trkpt lat="43.685835" lon="5.536148">
        <ele>238.7</ele>
      </trkpt>
      <trkpt lat="43.685827" lon="5.536227">
        <ele>236.9</ele>
      </trkpt>
      <trkpt lat="43.685818" lon="5.536303">
        <ele>237</ele>
      </trkpt>
      <trkpt lat="43.685808" lon="5.536383">
        <ele>237.2</ele>
      </trkpt>
      <trkpt lat="43.685797" lon="5.536465">
        <ele>237.5</ele>
      </trkpt>
      <trkpt lat="43.685787" lon="5.536548">
        <ele>237.9</ele>
      </trkpt>
      <trkpt lat="43.685778" lon="5.536633">
        <ele>238.4</ele>
      </trkpt>
      <trkpt lat="43.685768" lon="5.536720">
        <ele>239</ele>
      </trkpt>
      <trkpt lat="43.685757" lon="5.536803">
        <ele>239</ele>
      </trkpt>
      <trkpt lat="43.685743" lon="5.536888">
        <ele>239.1</ele>
      </trkpt>
      <trkpt lat="43.685727" lon="5.536975">
        <ele>239.2</ele>
      </trkpt>
      <trkpt lat="43.685702" lon="5.537057">
        <ele>239.4</ele>
      </trkpt>
      <trkpt lat="43.685672" lon="5.537132">
        <ele>239.5</ele>
      </trkpt>
      <trkpt lat="43.685637" lon="5.537200">
        <ele>239.7</ele>
      </trkpt>
      <trkpt lat="43.685600" lon="5.537263">
        <ele>239.7</ele>
      </trkpt>
      <trkpt lat="43.685563" lon="5.537323">
        <ele>239.8</ele>
      </trkpt>
      <trkpt lat="43.685527" lon="5.537383">
        <ele>239.8</ele>
      </trkpt>
      <trkpt lat="43.685488" lon="5.537443">
        <ele>239.7</ele>
      </trkpt>
      <trkpt lat="43.685452" lon="5.537505">
        <ele>240.3</ele>
      </trkpt>
      <trkpt lat="43.685412" lon="5.537567">
        <ele>240.2</ele>
      </trkpt>
      <trkpt lat="43.685370" lon="5.537630">
        <ele>240</ele>
      </trkpt>
      <trkpt lat="43.685330" lon="5.537695">
        <ele>239.9</ele>
      </trkpt>
      <trkpt lat="43.685290" lon="5.537760">
        <ele>239.8</ele>
      </trkpt>
      <trkpt lat="43.685250" lon="5.537825">
        <ele>239.8</ele>
      </trkpt>
      <trkpt lat="43.685212" lon="5.537890">
        <ele>239.7</ele>
      </trkpt>
      <trkpt lat="43.685173" lon="5.537957">
        <ele>239.6</ele>
      </trkpt>
      <trkpt lat="43.685137" lon="5.538022">
        <ele>239.4</ele>
      </trkpt>
      <trkpt lat="43.685102" lon="5.538090">
        <ele>239.3</ele>
      </trkpt>
      <trkpt lat="43.685067" lon="5.538160">
        <ele>239</ele>
      </trkpt>
      <trkpt lat="43.685032" lon="5.538230">
        <ele>238.7</ele>
      </trkpt>
      <trkpt lat="43.684995" lon="5.538300">
        <ele>238</ele>
      </trkpt>
      <trkpt lat="43.684958" lon="5.538372">
        <ele>237.9</ele>
      </trkpt>
      <trkpt lat="43.684922" lon="5.538445">
        <ele>237.8</ele>
      </trkpt>
      <trkpt lat="43.684887" lon="5.538518">
        <ele>237.8</ele>
      </trkpt>
      <trkpt lat="43.684848" lon="5.538590">
        <ele>237.7</ele>
      </trkpt>
      <trkpt lat="43.684812" lon="5.538662">
        <ele>237.7</ele>
      </trkpt>
      <trkpt lat="43.684773" lon="5.538733">
        <ele>237.6</ele>
      </trkpt>
      <trkpt lat="43.684737" lon="5.538803">
        <ele>237.6</ele>
      </trkpt>
      <trkpt lat="43.684700" lon="5.538873">
        <ele>237.5</ele>
      </trkpt>
      <trkpt lat="43.684663" lon="5.538943">
        <ele>237.5</ele>
      </trkpt>
      <trkpt lat="43.684627" lon="5.539012">
        <ele>237.4</ele>
      </trkpt>
      <trkpt lat="43.684590" lon="5.539083">
        <ele>237.3</ele>
      </trkpt>
      <trkpt lat="43.684553" lon="5.539153">
        <ele>237.3</ele>
      </trkpt>
      <trkpt lat="43.684515" lon="5.539223">
        <ele>236.6</ele>
      </trkpt>
      <trkpt lat="43.684477" lon="5.539295">
        <ele>236.5</ele>
      </trkpt>
      <trkpt lat="43.684442" lon="5.539368">
        <ele>236.4</ele>
      </trkpt>
      <trkpt lat="43.684407" lon="5.539443">
        <ele>236.4</ele>
      </trkpt>
      <trkpt lat="43.684375" lon="5.539520">
        <ele>236.3</ele>
      </trkpt>
      <trkpt lat="43.684342" lon="5.539598">
        <ele>236.2</ele>
      </trkpt>
      <trkpt lat="43.684310" lon="5.539680">
        <ele>236.1</ele>
      </trkpt>
      <trkpt lat="43.684278" lon="5.539762">
        <ele>236</ele>
      </trkpt>
      <trkpt lat="43.684247" lon="5.539843">
        <ele>235.7</ele>
      </trkpt>
      <trkpt lat="43.684215" lon="5.539927">
        <ele>235.4</ele>
      </trkpt>
      <trkpt lat="43.684183" lon="5.540010">
        <ele>235.1</ele>
      </trkpt>
      <trkpt lat="43.684152" lon="5.540092">
        <ele>235.1</ele>
      </trkpt>
      <trkpt lat="43.684118" lon="5.540173">
        <ele>235.1</ele>
      </trkpt>
      <trkpt lat="43.684085" lon="5.540257">
        <ele>235.2</ele>
      </trkpt>
      <trkpt lat="43.684057" lon="5.540342">
        <ele>235.2</ele>
      </trkpt>
      <trkpt lat="43.684032" lon="5.540430">
        <ele>235.3</ele>
      </trkpt>
      <trkpt lat="43.684012" lon="5.540520">
        <ele>235.4</ele>
      </trkpt>
      <trkpt lat="43.683993" lon="5.540610">
        <ele>235.5</ele>
      </trkpt>
      <trkpt lat="43.683977" lon="5.540698">
        <ele>235.6</ele>
      </trkpt>
      <trkpt lat="43.683957" lon="5.540785">
        <ele>235.7</ele>
      </trkpt>
      <trkpt lat="43.683933" lon="5.540870">
        <ele>237</ele>
      </trkpt>
      <trkpt lat="43.683908" lon="5.540953">
        <ele>237.2</ele>
      </trkpt>
      <trkpt lat="43.683880" lon="5.541033">
        <ele>237.3</ele>
      </trkpt>
      <trkpt lat="43.683848" lon="5.541112">
        <ele>237.5</ele>
      </trkpt>
      <trkpt lat="43.683818" lon="5.541190">
        <ele>237.6</ele>
      </trkpt>
      <trkpt lat="43.683787" lon="5.541267">
        <ele>237.8</ele>
      </trkpt>
      <trkpt lat="43.683755" lon="5.541343">
        <ele>237.9</ele>
      </trkpt>
      <trkpt lat="43.683722" lon="5.541420">
        <ele>238</ele>
      </trkpt>
      <trkpt lat="43.683690" lon="5.541497">
        <ele>238.1</ele>
      </trkpt>
      <trkpt lat="43.683657" lon="5.541570">
        <ele>238.2</ele>
      </trkpt>
      <trkpt lat="43.683622" lon="5.541643">
        <ele>238.3</ele>
      </trkpt>
      <trkpt lat="43.683587" lon="5.541718">
        <ele>239.8</ele>
      </trkpt>
      <trkpt lat="43.683557" lon="5.541797">
        <ele>239.9</ele>
      </trkpt>
      <trkpt lat="43.683528" lon="5.541873">
        <ele>239.9</ele>
      </trkpt>
      <trkpt lat="43.683503" lon="5.541955">
        <ele>240</ele>
      </trkpt>
      <trkpt lat="43.683482" lon="5.542037">
        <ele>240.1</ele>
      </trkpt>
      <trkpt lat="43.683462" lon="5.542122">
        <ele>240.2</ele>
      </trkpt>
      <trkpt lat="43.683445" lon="5.542207">
        <ele>240.3</ele>
      </trkpt>
      <trkpt lat="43.683430" lon="5.542292">
        <ele>240.3</ele>
      </trkpt>
      <trkpt lat="43.683408" lon="5.542373">
        <ele>240.3</ele>
      </trkpt>
      <trkpt lat="43.683320" lon="5.542593">
        <ele>240.5</ele>
      </trkpt>
      <trkpt lat="43.683283" lon="5.542653">
        <ele>240.7</ele>
      </trkpt>
      <trkpt lat="43.683238" lon="5.542700">
        <ele>240.9</ele>
      </trkpt>
      <trkpt lat="43.683190" lon="5.542742">
        <ele>241.1</ele>
      </trkpt>
      <trkpt lat="43.683138" lon="5.542783">
        <ele>241.2</ele>
      </trkpt>
      <trkpt lat="43.683088" lon="5.542823">
        <ele>241.3</ele>
      </trkpt>
      <trkpt lat="43.683037" lon="5.542858">
        <ele>241.4</ele>
      </trkpt>
      <trkpt lat="43.682983" lon="5.542890">
        <ele>241.5</ele>
      </trkpt>
      <trkpt lat="43.682928" lon="5.542918">
        <ele>241.5</ele>
      </trkpt>
      <trkpt lat="43.682875" lon="5.542948">
        <ele>241.6</ele>
      </trkpt>
      <trkpt lat="43.682822" lon="5.542982">
        <ele>241.7</ele>
      </trkpt>
      <trkpt lat="43.682768" lon="5.543017">
        <ele>241.8</ele>
      </trkpt>
      <trkpt lat="43.682718" lon="5.543055">
        <ele>241.9</ele>
      </trkpt>
      <trkpt lat="43.682668" lon="5.543097">
        <ele>242.1</ele>
      </trkpt>
      <trkpt lat="43.682622" lon="5.543145">
        <ele>242.4</ele>
      </trkpt>
      <trkpt lat="43.682577" lon="5.543197">
        <ele>242.8</ele>
      </trkpt>
      <trkpt lat="43.682530" lon="5.543245">
        <ele>243.2</ele>
      </trkpt>
      <trkpt lat="43.682480" lon="5.543283">
        <ele>242.9</ele>
      </trkpt>
      <trkpt lat="43.682427" lon="5.543305">
        <ele>242.4</ele>
      </trkpt>
      <trkpt lat="43.682373" lon="5.543322">
        <ele>241.7</ele>
      </trkpt>
      <trkpt lat="43.682325" lon="5.543348">
        <ele>242</ele>
      </trkpt>
      <trkpt lat="43.682282" lon="5.543382">
        <ele>241.6</ele>
      </trkpt>
      <trkpt lat="43.682243" lon="5.543420">
        <ele>241.3</ele>
      </trkpt>
      <trkpt lat="43.682208" lon="5.543450">
        <ele>241.1</ele>
      </trkpt>
      <trkpt lat="43.682178" lon="5.543480">
        <ele>240.9</ele>
      </trkpt>
      <trkpt lat="43.682150" lon="5.543508">
        <ele>240.7</ele>
      </trkpt>
      <trkpt lat="43.682122" lon="5.543537">
        <ele>240.5</ele>
      </trkpt>
      <trkpt lat="43.682095" lon="5.543562">
        <ele>240.4</ele>
      </trkpt>
      <trkpt lat="43.682068" lon="5.543590">
        <ele>240.2</ele>
      </trkpt>
      <trkpt lat="43.682042" lon="5.543613">
        <ele>240.1</ele>
      </trkpt>
      <trkpt lat="43.682013" lon="5.543637">
        <ele>240</ele>
      </trkpt>
      <trkpt lat="43.681985" lon="5.543663">
        <ele>239.9</ele>
      </trkpt>
      <trkpt lat="43.681957" lon="5.543687">
        <ele>239.8</ele>
      </trkpt>
      <trkpt lat="43.681928" lon="5.543708">
        <ele>239.7</ele>
      </trkpt>
      <trkpt lat="43.681900" lon="5.543730">
        <ele>239.6</ele>
      </trkpt>
      <trkpt lat="43.681870" lon="5.543750">
        <ele>239.5</ele>
      </trkpt>
      <trkpt lat="43.681840" lon="5.543768">
        <ele>239.4</ele>
      </trkpt>
      <trkpt lat="43.681813" lon="5.543787">
        <ele>239.3</ele>
      </trkpt>
      <trkpt lat="43.681785" lon="5.543805">
        <ele>239.2</ele>
      </trkpt>
      <trkpt lat="43.681762" lon="5.543823">
        <ele>239.1</ele>
      </trkpt>
      <trkpt lat="43.681738" lon="5.543843">
        <ele>239.1</ele>
      </trkpt>
      <trkpt lat="43.681717" lon="5.543863">
        <ele>239</ele>
      </trkpt>
      <trkpt lat="43.681697" lon="5.543883">
        <ele>238.9</ele>
      </trkpt>
      <trkpt lat="43.681677" lon="5.543907">
        <ele>238.8</ele>
      </trkpt>
      <trkpt lat="43.681658" lon="5.543930">
        <ele>236.5</ele>
      </trkpt>
      <trkpt lat="43.681638" lon="5.543953">
        <ele>236.5</ele>
      </trkpt>
      <trkpt lat="43.681622" lon="5.543980">
        <ele>236.5</ele>
      </trkpt>
      <trkpt lat="43.681603" lon="5.544008">
        <ele>236.6</ele>
      </trkpt>
      <trkpt lat="43.681587" lon="5.544037">
        <ele>236.6</ele>
      </trkpt>
      <trkpt lat="43.681568" lon="5.544063">
        <ele>236.6</ele>
      </trkpt>
      <trkpt lat="43.681550" lon="5.544092">
        <ele>236.6</ele>
      </trkpt>
      <trkpt lat="43.681530" lon="5.544122">
        <ele>236.6</ele>
      </trkpt>
      <trkpt lat="43.681512" lon="5.544152">
        <ele>236.6</ele>
      </trkpt>
      <trkpt lat="43.681493" lon="5.544182">
        <ele>236.4</ele>
      </trkpt>
      <trkpt lat="43.681477" lon="5.544212">
        <ele>236.4</ele>
      </trkpt>
      <trkpt lat="43.681458" lon="5.544240">
        <ele>236.3</ele>
      </trkpt>
      <trkpt lat="43.681440" lon="5.544270">
        <ele>236.2</ele>
      </trkpt>
      <trkpt lat="43.681422" lon="5.544298">
        <ele>236.2</ele>
      </trkpt>
      <trkpt lat="43.681403" lon="5.544325">
        <ele>236.1</ele>
      </trkpt>
      <trkpt lat="43.681383" lon="5.544352">
        <ele>236.1</ele>
      </trkpt>
      <trkpt lat="43.681363" lon="5.544377">
        <ele>236</ele>
      </trkpt>
      <trkpt lat="43.681343" lon="5.544403">
        <ele>236</ele>
      </trkpt>
      <trkpt lat="43.681323" lon="5.544430">
        <ele>235.9</ele>
      </trkpt>
      <trkpt lat="43.681303" lon="5.544458">
        <ele>235.9</ele>
      </trkpt>
      <trkpt lat="43.681285" lon="5.544487">
        <ele>235.9</ele>
      </trkpt>
      <trkpt lat="43.681268" lon="5.544515">
        <ele>235.8</ele>
      </trkpt>
      <trkpt lat="43.681252" lon="5.544545">
        <ele>235.8</ele>
      </trkpt>
      <trkpt lat="43.681238" lon="5.544573">
        <ele>235.7</ele>
      </trkpt>
      <trkpt lat="43.681227" lon="5.544605">
        <ele>235.7</ele>
      </trkpt>
      <trkpt lat="43.681218" lon="5.544642">
        <ele>235.7</ele>
      </trkpt>
      <trkpt lat="43.681212" lon="5.544675">
        <ele>235.6</ele>
      </trkpt>
      <trkpt lat="43.681207" lon="5.544705">
        <ele>235.6</ele>
      </trkpt>
      <trkpt lat="43.681200" lon="5.544735">
        <ele>235.6</ele>
      </trkpt>
      <trkpt lat="43.681190" lon="5.544765">
        <ele>235.5</ele>
      </trkpt>
      <trkpt lat="43.681178" lon="5.544793">
        <ele>235.5</ele>
      </trkpt>
      <trkpt lat="43.681168" lon="5.544825">
        <ele>235.4</ele>
      </trkpt>
      <trkpt lat="43.681160" lon="5.544857">
        <ele>235.4</ele>
      </trkpt>
      <trkpt lat="43.681150" lon="5.544887">
        <ele>235.3</ele>
      </trkpt>
      <trkpt lat="43.681140" lon="5.544917">
        <ele>235.3</ele>
      </trkpt>
      <trkpt lat="43.681128" lon="5.544947">
        <ele>235.2</ele>
      </trkpt>
      <trkpt lat="43.681120" lon="5.544978">
        <ele>235.2</ele>
      </trkpt>
      <trkpt lat="43.681112" lon="5.545010">
        <ele>234.3</ele>
      </trkpt>
      <trkpt lat="43.681102" lon="5.545042">
        <ele>234.3</ele>
      </trkpt>
      <trkpt lat="43.681095" lon="5.545077">
        <ele>234.3</ele>
      </trkpt>
      <trkpt lat="43.681087" lon="5.545113">
        <ele>234.3</ele>
      </trkpt>
      <trkpt lat="43.681080" lon="5.545150">
        <ele>234.3</ele>
      </trkpt>
      <trkpt lat="43.681072" lon="5.545185">
        <ele>234.2</ele>
      </trkpt>
      <trkpt lat="43.681060" lon="5.545220">
        <ele>234.2</ele>
      </trkpt>
      <trkpt lat="43.681048" lon="5.545255">
        <ele>234.2</ele>
      </trkpt>
      <trkpt lat="43.681038" lon="5.545293">
        <ele>234.2</ele>
      </trkpt>
      <trkpt lat="43.681027" lon="5.545330">
        <ele>234.1</ele>
      </trkpt>
      <trkpt lat="43.681015" lon="5.545372">
        <ele>234.1</ele>
      </trkpt>
      <trkpt lat="43.681005" lon="5.545415">
        <ele>234</ele>
      </trkpt>
      <trkpt lat="43.681000" lon="5.545458">
        <ele>234</ele>
      </trkpt>
      <trkpt lat="43.680993" lon="5.545503">
        <ele>234</ele>
      </trkpt>
      <trkpt lat="43.680983" lon="5.545548">
        <ele>233.9</ele>
      </trkpt>
      <trkpt lat="43.680973" lon="5.545593">
        <ele>233.8</ele>
      </trkpt>
      <trkpt lat="43.680963" lon="5.545637">
        <ele>233.7</ele>
      </trkpt>
      <trkpt lat="43.680952" lon="5.545678">
        <ele>233.7</ele>
      </trkpt>
      <trkpt lat="43.680937" lon="5.545715">
        <ele>233.6</ele>
      </trkpt>
      <trkpt lat="43.680923" lon="5.545753">
        <ele>233.5</ele>
      </trkpt>
      <trkpt lat="43.680910" lon="5.545790">
        <ele>233.4</ele>
      </trkpt>
      <trkpt lat="43.680898" lon="5.545825">
        <ele>233.3</ele>
      </trkpt>
      <trkpt lat="43.680887" lon="5.545857">
        <ele>233</ele>
      </trkpt>
      <trkpt lat="43.680875" lon="5.545892">
        <ele>233</ele>
      </trkpt>
      <trkpt lat="43.680865" lon="5.545927">
        <ele>233</ele>
      </trkpt>
      <trkpt lat="43.680857" lon="5.545960">
        <ele>233</ele>
      </trkpt>
      <trkpt lat="43.680852" lon="5.545995">
        <ele>233</ele>
      </trkpt>
      <trkpt lat="43.680847" lon="5.546027">
        <ele>233</ele>
      </trkpt>
      <trkpt lat="43.680840" lon="5.546055">
        <ele>233</ele>
      </trkpt>
      <trkpt lat="43.680830" lon="5.546085">
        <ele>231.9</ele>
      </trkpt>
      <trkpt lat="43.680823" lon="5.546112">
        <ele>231.9</ele>
      </trkpt>
      <trkpt lat="43.680818" lon="5.546148">
        <ele>231.8</ele>
      </trkpt>
      <trkpt lat="43.680813" lon="5.546200">
        <ele>231.8</ele>
      </trkpt>
      <trkpt lat="43.680803" lon="5.546257">
        <ele>231.7</ele>
      </trkpt>
      <trkpt lat="43.680780" lon="5.546317">
        <ele>231.7</ele>
      </trkpt>
      <trkpt lat="43.680745" lon="5.546373">
        <ele>231.7</ele>
      </trkpt>
      <trkpt lat="43.680715" lon="5.546445">
        <ele>231.8</ele>
      </trkpt>
      <trkpt lat="43.680697" lon="5.546523">
        <ele>231.9</ele>
      </trkpt>
      <trkpt lat="43.680675" lon="5.546597">
        <ele>232</ele>
      </trkpt>
      <trkpt lat="43.680647" lon="5.546670">
        <ele>233.8</ele>
      </trkpt>
      <trkpt lat="43.680613" lon="5.546740">
        <ele>233.9</ele>
      </trkpt>
      <trkpt lat="43.680587" lon="5.546807">
        <ele>234.1</ele>
      </trkpt>
      <trkpt lat="43.680557" lon="5.546870">
        <ele>234.3</ele>
      </trkpt>
      <trkpt lat="43.680528" lon="5.546937">
        <ele>234.5</ele>
      </trkpt>
      <trkpt lat="43.680502" lon="5.547017">
        <ele>234.8</ele>
      </trkpt>
      <trkpt lat="43.680465" lon="5.547097">
        <ele>235.2</ele>
      </trkpt>
      <trkpt lat="43.680428" lon="5.547180">
        <ele>235.5</ele>
      </trkpt>
      <trkpt lat="43.680378" lon="5.547272">
        <ele>235.8</ele>
      </trkpt>
      <trkpt lat="43.680323" lon="5.547363">
        <ele>236.1</ele>
      </trkpt>
      <trkpt lat="43.680263" lon="5.547448">
        <ele>236.4</ele>
      </trkpt>
      <trkpt lat="43.680203" lon="5.547532">
        <ele>240.8</ele>
      </trkpt>
      <trkpt lat="43.680145" lon="5.547617">
        <ele>240.8</ele>
      </trkpt>
      <trkpt lat="43.680088" lon="5.547697">
        <ele>241.2</ele>
      </trkpt>
      <trkpt lat="43.680040" lon="5.547782">
        <ele>241.9</ele>
      </trkpt>
      <trkpt lat="43.679997" lon="5.547858">
        <ele>241.4</ele>
      </trkpt>
      <trkpt lat="43.679957" lon="5.547930">
        <ele>241.9</ele>
      </trkpt>
      <trkpt lat="43.679917" lon="5.547993">
        <ele>242.3</ele>
      </trkpt>
      <trkpt lat="43.679883" lon="5.548055">
        <ele>242.7</ele>
      </trkpt>
      <trkpt lat="43.679858" lon="5.548120">
        <ele>243.1</ele>
      </trkpt>
      <trkpt lat="43.679835" lon="5.548185">
        <ele>243.4</ele>
      </trkpt>
      <trkpt lat="43.679813" lon="5.548255">
        <ele>243.6</ele>
      </trkpt>
      <trkpt lat="43.679792" lon="5.548330">
        <ele>243.7</ele>
      </trkpt>
      <trkpt lat="43.679767" lon="5.548410">
        <ele>246.1</ele>
      </trkpt>
      <trkpt lat="43.679740" lon="5.548487">
        <ele>246.2</ele>
      </trkpt>
      <trkpt lat="43.679715" lon="5.548562">
        <ele>246.2</ele>
      </trkpt>
      <trkpt lat="43.679692" lon="5.548633">
        <ele>246.3</ele>
      </trkpt>
      <trkpt lat="43.679668" lon="5.548700">
        <ele>246.4</ele>
      </trkpt>
      <trkpt lat="43.679643" lon="5.548763">
        <ele>246.5</ele>
      </trkpt>
      <trkpt lat="43.679615" lon="5.548828">
        <ele>246.6</ele>
      </trkpt>
      <trkpt lat="43.679583" lon="5.548895">
        <ele>246.5</ele>
      </trkpt>
      <trkpt lat="43.679550" lon="5.548957">
        <ele>246.4</ele>
      </trkpt>
      <trkpt lat="43.679515" lon="5.549017">
        <ele>246.3</ele>
      </trkpt>
      <trkpt lat="43.679482" lon="5.549077">
        <ele>246.1</ele>
      </trkpt>
      <trkpt lat="43.679447" lon="5.549138">
        <ele>245.8</ele>
      </trkpt>
      <trkpt lat="43.679412" lon="5.549200">
        <ele>247</ele>
      </trkpt>
      <trkpt lat="43.679375" lon="5.549262">
        <ele>246.8</ele>
      </trkpt>
      <trkpt lat="43.679340" lon="5.549327">
        <ele>246.7</ele>
      </trkpt>
      <trkpt lat="43.679305" lon="5.549388">
        <ele>246.9</ele>
      </trkpt>
      <trkpt lat="43.679270" lon="5.549455">
        <ele>247.1</ele>
      </trkpt>
      <trkpt lat="43.679238" lon="5.549520">
        <ele>247.2</ele>
      </trkpt>
      <trkpt lat="43.679203" lon="5.549587">
        <ele>247.4</ele>
      </trkpt>
      <trkpt lat="43.679165" lon="5.549650">
        <ele>243.8</ele>
      </trkpt>
      <trkpt lat="43.679123" lon="5.549713">
        <ele>244</ele>
      </trkpt>
      <trkpt lat="43.679080" lon="5.549775">
        <ele>244.2</ele>
      </trkpt>
      <trkpt lat="43.679037" lon="5.549832">
        <ele>244.3</ele>
      </trkpt>
      <trkpt lat="43.678988" lon="5.549885">
        <ele>244.3</ele>
      </trkpt>
      <trkpt lat="43.678940" lon="5.549935">
        <ele>244.3</ele>
      </trkpt>
      <trkpt lat="43.678890" lon="5.549983">
        <ele>244.1</ele>
      </trkpt>
      <trkpt lat="43.678837" lon="5.550033">
        <ele>246.5</ele>
      </trkpt>
      <trkpt lat="43.678782" lon="5.550085">
        <ele>246.5</ele>
      </trkpt>
      <trkpt lat="43.678725" lon="5.550135">
        <ele>246.5</ele>
      </trkpt>
      <trkpt lat="43.678667" lon="5.550185">
        <ele>246.6</ele>
      </trkpt>
      <trkpt lat="43.678607" lon="5.550233">
        <ele>246.6</ele>
      </trkpt>
      <trkpt lat="43.678547" lon="5.550282">
        <ele>246.7</ele>
      </trkpt>
      <trkpt lat="43.678485" lon="5.550328">
        <ele>246.8</ele>
      </trkpt>
      <trkpt lat="43.678425" lon="5.550375">
        <ele>247</ele>
      </trkpt>
      <trkpt lat="43.678362" lon="5.550418">
        <ele>247.2</ele>
      </trkpt>
      <trkpt lat="43.678302" lon="5.550465">
        <ele>246.5</ele>
      </trkpt>
      <trkpt lat="43.678243" lon="5.550513">
        <ele>246.7</ele>
      </trkpt>
      <trkpt lat="43.678188" lon="5.550562">
        <ele>246.9</ele>
      </trkpt>
      <trkpt lat="43.677750" lon="5.551177">
        <ele>249.9</ele>
      </trkpt>
      <trkpt lat="43.677712" lon="5.551257">
        <ele>250.1</ele>
      </trkpt>
      <trkpt lat="43.677682" lon="5.551338">
        <ele>250.3</ele>
      </trkpt>
      <trkpt lat="43.677657" lon="5.551415">
        <ele>250.6</ele>
      </trkpt>
      <trkpt lat="43.677632" lon="5.551490">
        <ele>250.9</ele>
      </trkpt>
      <trkpt lat="43.677605" lon="5.551567">
        <ele>251.2</ele>
      </trkpt>
      <trkpt lat="43.677582" lon="5.551643">
        <ele>251.5</ele>
      </trkpt>
      <trkpt lat="43.677562" lon="5.551718">
        <ele>252.7</ele>
      </trkpt>
      <trkpt lat="43.677542" lon="5.551792">
        <ele>253.1</ele>
      </trkpt>
      <trkpt lat="43.677520" lon="5.551867">
        <ele>253.5</ele>
      </trkpt>
      <trkpt lat="43.677500" lon="5.551940">
        <ele>253.9</ele>
      </trkpt>
      <trkpt lat="43.677482" lon="5.552017">
        <ele>253</ele>
      </trkpt>
      <trkpt lat="43.677458" lon="5.552092">
        <ele>253.3</ele>
      </trkpt>
      <trkpt lat="43.677435" lon="5.552165">
        <ele>253.7</ele>
      </trkpt>
      <trkpt lat="43.677412" lon="5.552237">
        <ele>254.1</ele>
      </trkpt>
      <trkpt lat="43.677392" lon="5.552308">
        <ele>254.6</ele>
      </trkpt>
      <trkpt lat="43.677368" lon="5.552382">
        <ele>255</ele>
      </trkpt>
      <trkpt lat="43.677347" lon="5.552453">
        <ele>255.2</ele>
      </trkpt>
      <trkpt lat="43.677323" lon="5.552525">
        <ele>257.4</ele>
      </trkpt>
      <trkpt lat="43.677298" lon="5.552593">
        <ele>257.3</ele>
      </trkpt>
      <trkpt lat="43.677278" lon="5.552663">
        <ele>257.3</ele>
      </trkpt>
      <trkpt lat="43.677258" lon="5.552732">
        <ele>257.4</ele>
      </trkpt>
      <trkpt lat="43.677232" lon="5.552800">
        <ele>257.5</ele>
      </trkpt>
      <trkpt lat="43.677210" lon="5.552870">
        <ele>257.6</ele>
      </trkpt>
      <trkpt lat="43.677187" lon="5.552938">
        <ele>257.7</ele>
      </trkpt>
      <trkpt lat="43.677163" lon="5.553007">
        <ele>257.9</ele>
      </trkpt>
      <trkpt lat="43.677142" lon="5.553075">
        <ele>258</ele>
      </trkpt>
      <trkpt lat="43.677118" lon="5.553143">
        <ele>258.1</ele>
      </trkpt>
      <trkpt lat="43.677095" lon="5.553208">
        <ele>258.2</ele>
      </trkpt>
      <trkpt lat="43.677073" lon="5.553273">
        <ele>258.2</ele>
      </trkpt>
      <trkpt lat="43.677052" lon="5.553335">
        <ele>259.2</ele>
      </trkpt>
      <trkpt lat="43.677030" lon="5.553395">
        <ele>259.1</ele>
      </trkpt>
      <trkpt lat="43.677012" lon="5.553453">
        <ele>259</ele>
      </trkpt>
      <trkpt lat="43.676997" lon="5.553510">
        <ele>258.9</ele>
      </trkpt>
      <trkpt lat="43.676985" lon="5.553563">
        <ele>258.8</ele>
      </trkpt>
      <trkpt lat="43.676977" lon="5.553618">
        <ele>258.8</ele>
      </trkpt>
      <trkpt lat="43.676968" lon="5.553667">
        <ele>258.7</ele>
      </trkpt>
      <trkpt lat="43.676958" lon="5.553710">
        <ele>258.6</ele>
      </trkpt>
      <trkpt lat="43.676947" lon="5.553752">
        <ele>258.5</ele>
      </trkpt>
      <trkpt lat="43.676933" lon="5.553792">
        <ele>258.4</ele>
      </trkpt>
      <trkpt lat="43.676922" lon="5.553832">
        <ele>258.3</ele>
      </trkpt>
      <trkpt lat="43.676910" lon="5.553873">
        <ele>258.2</ele>
      </trkpt>
      <trkpt lat="43.676902" lon="5.553913">
        <ele>258</ele>
      </trkpt>
      <trkpt lat="43.676892" lon="5.553952">
        <ele>257.9</ele>
      </trkpt>
      <trkpt lat="43.676883" lon="5.553992">
        <ele>257.7</ele>
      </trkpt>
      <trkpt lat="43.676877" lon="5.554030">
        <ele>257.6</ele>
      </trkpt>
      <trkpt lat="43.676870" lon="5.554070">
        <ele>257.4</ele>
      </trkpt>
      <trkpt lat="43.676863" lon="5.554110">
        <ele>257.3</ele>
      </trkpt>
      <trkpt lat="43.676858" lon="5.554148">
        <ele>257.2</ele>
      </trkpt>
      <trkpt lat="43.676855" lon="5.554187">
        <ele>254.9</ele>
      </trkpt>
      <trkpt lat="43.676848" lon="5.554227">
        <ele>254.9</ele>
      </trkpt>
      <trkpt lat="43.676838" lon="5.554267">
        <ele>254.8</ele>
      </trkpt>
      <trkpt lat="43.676823" lon="5.554307">
        <ele>254.7</ele>
      </trkpt>
      <trkpt lat="43.676808" lon="5.554343">
        <ele>254.6</ele>
      </trkpt>
      <trkpt lat="43.676792" lon="5.554378">
        <ele>254.5</ele>
      </trkpt>
      <trkpt lat="43.676775" lon="5.554415">
        <ele>254.4</ele>
      </trkpt>
      <trkpt lat="43.676758" lon="5.554452">
        <ele>254.2</ele>
      </trkpt>
      <trkpt lat="43.676745" lon="5.554488">
        <ele>254.1</ele>
      </trkpt>
      <trkpt lat="43.676730" lon="5.554527">
        <ele>253.9</ele>
      </trkpt>
      <trkpt lat="43.676715" lon="5.554563">
        <ele>253.7</ele>
      </trkpt>
      <trkpt lat="43.676703" lon="5.554603">
        <ele>253.5</ele>
      </trkpt>
      <trkpt lat="43.676690" lon="5.554642">
        <ele>253.3</ele>
      </trkpt>
      <trkpt lat="43.676678" lon="5.554682">
        <ele>253.1</ele>
      </trkpt>
      <trkpt lat="43.676667" lon="5.554722">
        <ele>252.8</ele>
      </trkpt>
      <trkpt lat="43.676655" lon="5.554760">
        <ele>249.7</ele>
      </trkpt>
      <trkpt lat="43.676645" lon="5.554800">
        <ele>249.7</ele>
      </trkpt>
      <trkpt lat="43.676635" lon="5.554840">
        <ele>249.6</ele>
      </trkpt>
      <trkpt lat="43.676627" lon="5.554882">
        <ele>249.7</ele>
      </trkpt>
      <trkpt lat="43.676617" lon="5.554922">
        <ele>249.7</ele>
      </trkpt>
      <trkpt lat="43.676600" lon="5.554957">
        <ele>249.7</ele>
      </trkpt>
      <trkpt lat="43.676577" lon="5.554983">
        <ele>249.6</ele>
      </trkpt>
      <trkpt lat="43.676548" lon="5.555005">
        <ele>248.7</ele>
      </trkpt>
      <trkpt lat="43.676520" lon="5.555023">
        <ele>248.4</ele>
      </trkpt>
      <trkpt lat="43.676490" lon="5.555047">
        <ele>248.1</ele>
      </trkpt>
      <trkpt lat="43.676470" lon="5.555078">
        <ele>247.9</ele>
      </trkpt>
      <trkpt lat="43.676455" lon="5.555117">
        <ele>247.7</ele>
      </trkpt>
      <trkpt lat="43.676447" lon="5.555157">
        <ele>247.6</ele>
      </trkpt>
      <trkpt lat="43.676442" lon="5.555197">
        <ele>247.5</ele>
      </trkpt>
      <trkpt lat="43.676433" lon="5.555235">
        <ele>247.3</ele>
      </trkpt>
      <trkpt lat="43.676425" lon="5.555275">
        <ele>247.2</ele>
      </trkpt>
      <trkpt lat="43.676417" lon="5.555317">
        <ele>247.1</ele>
      </trkpt>
      <trkpt lat="43.676408" lon="5.555360">
        <ele>247</ele>
      </trkpt>
      <trkpt lat="43.676400" lon="5.555405">
        <ele>246.9</ele>
      </trkpt>
      <trkpt lat="43.676392" lon="5.555452">
        <ele>246.8</ele>
      </trkpt>
      <trkpt lat="43.676385" lon="5.555498">
        <ele>246.7</ele>
      </trkpt>
      <trkpt lat="43.676375" lon="5.555543">
        <ele>246.6</ele>
      </trkpt>
      <trkpt lat="43.676365" lon="5.555587">
        <ele>246.6</ele>
      </trkpt>
      <trkpt lat="43.676358" lon="5.555633">
        <ele>246.5</ele>
      </trkpt>
      <trkpt lat="43.676357" lon="5.555678">
        <ele>246.5</ele>
      </trkpt>
      <trkpt lat="43.676358" lon="5.555723">
        <ele>246.5</ele>
      </trkpt>
      <trkpt lat="43.676357" lon="5.555767">
        <ele>246.4</ele>
      </trkpt>
      <trkpt lat="43.676357" lon="5.555810">
        <ele>246.4</ele>
      </trkpt>
      <trkpt lat="43.676358" lon="5.555847">
        <ele>245.7</ele>
      </trkpt>
      <trkpt lat="43.676357" lon="5.555877">
        <ele>245.6</ele>
      </trkpt>
      <trkpt lat="43.676352" lon="5.555902">
        <ele>245.6</ele>
      </trkpt>
      <trkpt lat="43.676340" lon="5.555935">
        <ele>245.6</ele>
      </trkpt>
      <trkpt lat="43.676330" lon="5.555973">
        <ele>245.5</ele>
      </trkpt>
      <trkpt lat="43.676320" lon="5.556013">
        <ele>245.5</ele>
      </trkpt>
      <trkpt lat="43.676312" lon="5.556052">
        <ele>245.5</ele>
      </trkpt>
      <trkpt lat="43.676303" lon="5.556082">
        <ele>245.4</ele>
      </trkpt>
      <trkpt lat="43.676297" lon="5.556108">
        <ele>245.4</ele>
      </trkpt>
      <trkpt lat="43.676287" lon="5.556133">
        <ele>245.4</ele>
      </trkpt>
      <trkpt lat="43.676278" lon="5.556158">
        <ele>245.3</ele>
      </trkpt>
      <trkpt lat="43.676275" lon="5.556187">
        <ele>245.3</ele>
      </trkpt>
      <trkpt lat="43.676268" lon="5.556213">
        <ele>245.3</ele>
      </trkpt>
      <trkpt lat="43.676260" lon="5.556240">
        <ele>245.3</ele>
      </trkpt>
      <trkpt lat="43.676248" lon="5.556268">
        <ele>245.2</ele>
      </trkpt>
      <trkpt lat="43.676242" lon="5.556303">
        <ele>245.2</ele>
      </trkpt>
      <trkpt lat="43.676230" lon="5.556340">
        <ele>245.2</ele>
      </trkpt>
      <trkpt lat="43.676217" lon="5.556378">
        <ele>245.1</ele>
      </trkpt>
      <trkpt lat="43.676197" lon="5.556417">
        <ele>245.1</ele>
      </trkpt>
      <trkpt lat="43.676183" lon="5.556463">
        <ele>245</ele>
      </trkpt>
      <trkpt lat="43.676173" lon="5.556520">
        <ele>244.9</ele>
      </trkpt>
      <trkpt lat="43.676162" lon="5.556580">
        <ele>244.9</ele>
      </trkpt>
      <trkpt lat="43.676150" lon="5.556640">
        <ele>244.8</ele>
      </trkpt>
      <trkpt lat="43.676133" lon="5.556700">
        <ele>245.7</ele>
      </trkpt>
      <trkpt lat="43.676118" lon="5.556762">
        <ele>245.7</ele>
      </trkpt>
      <trkpt lat="43.676100" lon="5.556823">
        <ele>245.8</ele>
      </trkpt>
      <trkpt lat="43.676085" lon="5.556882">
        <ele>245.9</ele>
      </trkpt>
      <trkpt lat="43.676073" lon="5.556950">
        <ele>246</ele>
      </trkpt>
      <trkpt lat="43.676072" lon="5.557022">
        <ele>246.2</ele>
      </trkpt>
      <trkpt lat="43.676077" lon="5.557087">
        <ele>246.3</ele>
      </trkpt>
      <trkpt lat="43.676078" lon="5.557135">
        <ele>246.4</ele>
      </trkpt>
      <trkpt lat="43.676083" lon="5.557163">
        <ele>246.4</ele>
      </trkpt>
      <trkpt lat="43.676100" lon="5.557190">
        <ele>246.5</ele>
      </trkpt>
      <trkpt lat="43.676128" lon="5.557222">
        <ele>246.7</ele>
      </trkpt>
      <trkpt lat="43.676163" lon="5.557250">
        <ele>246.9</ele>
      </trkpt>
      <trkpt lat="43.676210" lon="5.557280">
        <ele>247.2</ele>
      </trkpt>
      <trkpt lat="43.676265" lon="5.557310">
        <ele>247.6</ele>
      </trkpt>
      <trkpt lat="43.676330" lon="5.557337">
        <ele>248.1</ele>
      </trkpt>
      <trkpt lat="43.676400" lon="5.557362">
        <ele>248.8</ele>
      </trkpt>
      <trkpt lat="43.676475" lon="5.557380">
        <ele>249.7</ele>
      </trkpt>
      <trkpt lat="43.676550" lon="5.557393">
        <ele>250.6</ele>
      </trkpt>
      <trkpt lat="43.676623" lon="5.557393">
        <ele>251.3</ele>
      </trkpt>
      <trkpt lat="43.676695" lon="5.557388">
        <ele>253.4</ele>
      </trkpt>
      <trkpt lat="43.676762" lon="5.557377">
        <ele>253.3</ele>
      </trkpt>
      <trkpt lat="43.676823" lon="5.557365">
        <ele>253.2</ele>
      </trkpt>
      <trkpt lat="43.676875" lon="5.557347">
        <ele>253.2</ele>
      </trkpt>
      <trkpt lat="43.676925" lon="5.557320">
        <ele>253.2</ele>
      </trkpt>
      <trkpt lat="43.676965" lon="5.557293">
        <ele>253.1</ele>
      </trkpt>
      <trkpt lat="43.677000" lon="5.557270">
        <ele>253.1</ele>
      </trkpt>
      <trkpt lat="43.677033" lon="5.557252">
        <ele>253.1</ele>
      </trkpt>
      <trkpt lat="43.677068" lon="5.557238">
        <ele>253.2</ele>
      </trkpt>
      <trkpt lat="43.677102" lon="5.557222">
        <ele>253.2</ele>
      </trkpt>
      <trkpt lat="43.677135" lon="5.557207">
        <ele>253.2</ele>
      </trkpt>
      <trkpt lat="43.677170" lon="5.557200">
        <ele>253.3</ele>
      </trkpt>
      <trkpt lat="43.677210" lon="5.557195">
        <ele>253.4</ele>
      </trkpt>
      <trkpt lat="43.677250" lon="5.557188">
        <ele>253.5</ele>
      </trkpt>
      <trkpt lat="43.677293" lon="5.557182">
        <ele>253.6</ele>
      </trkpt>
      <trkpt lat="43.677337" lon="5.557177">
        <ele>253.7</ele>
      </trkpt>
      <trkpt lat="43.677380" lon="5.557173">
        <ele>253.8</ele>
      </trkpt>
      <trkpt lat="43.677425" lon="5.557168">
        <ele>253.9</ele>
      </trkpt>
      <trkpt lat="43.677460" lon="5.557163">
        <ele>253.9</ele>
      </trkpt>
      <trkpt lat="43.677498" lon="5.557157">
        <ele>253.9</ele>
      </trkpt>
      <trkpt lat="43.677540" lon="5.557152">
        <ele>255.7</ele>
      </trkpt>
      <trkpt lat="43.677580" lon="5.557145">
        <ele>255.6</ele>
      </trkpt>
      <trkpt lat="43.677623" lon="5.557133">
        <ele>255.5</ele>
      </trkpt>
      <trkpt lat="43.677668" lon="5.557118">
        <ele>255.5</ele>
      </trkpt>
      <trkpt lat="43.677707" lon="5.557107">
        <ele>255.4</ele>
      </trkpt>
      <trkpt lat="43.677753" lon="5.557093">
        <ele>255.4</ele>
      </trkpt>
      <trkpt lat="43.677798" lon="5.557077">
        <ele>255.3</ele>
      </trkpt>
      <trkpt lat="43.677840" lon="5.557057">
        <ele>255.3</ele>
      </trkpt>
      <trkpt lat="43.677880" lon="5.557045">
        <ele>255.3</ele>
      </trkpt>
      <trkpt lat="43.677918" lon="5.557033">
        <ele>255.3</ele>
      </trkpt>
      <trkpt lat="43.678470" lon="5.556875">
        <ele>256.2</ele>
      </trkpt>
      <trkpt lat="43.678850" lon="5.556781">
        <ele>256.8</ele>
      </trkpt>
      <trkpt lat="43.678977" lon="5.556837">
        <ele>256.9</ele>
      </trkpt>
      <trkpt lat="43.679230" lon="5.556899">
        <ele>258.6</ele>
      </trkpt>
      <trkpt lat="43.679967" lon="5.556872">
        <ele>259.5</ele>
      </trkpt>
      <trkpt lat="43.680346" lon="5.556842">
        <ele>263.5</ele>
      </trkpt>
      <trkpt lat="43.680695" lon="5.556861">
        <ele>264.3</ele>
      </trkpt>
      <trkpt lat="43.681114" lon="5.556891">
        <ele>268.5</ele>
      </trkpt>
      <trkpt lat="43.681908" lon="5.557014">
        <ele>270.6</ele>
      </trkpt>
      <trkpt lat="43.682237" lon="5.557036">
        <ele>270.2</ele>
      </trkpt>
      <trkpt lat="43.682402" lon="5.557030">
        <ele>269.9</ele>
      </trkpt>
      <trkpt lat="43.682488" lon="5.556993">
        <ele>269.7</ele>
      </trkpt>
      <trkpt lat="43.682637" lon="5.557041">
        <ele>269.6</ele>
      </trkpt>
      <trkpt lat="43.682796" lon="5.557060">
        <ele>269.8</ele>
      </trkpt>
      <trkpt lat="43.683232" lon="5.557215">
        <ele>270.6</ele>
      </trkpt>
      <trkpt lat="43.684121" lon="5.557466">
        <ele>275.3</ele>
      </trkpt>
      <trkpt lat="43.684288" lon="5.557513">
        <ele>276.6</ele>
      </trkpt>
      <trkpt lat="43.684734" lon="5.557634">
        <ele>277.5</ele>
      </trkpt>
      <trkpt lat="43.685110" lon="5.557719">
        <ele>277.8</ele>
      </trkpt>
      <trkpt lat="43.685638" lon="5.557768">
        <ele>277.9</ele>
      </trkpt>
      <trkpt lat="43.685766" lon="5.557778">
        <ele>277.9</ele>
      </trkpt>
      <trkpt lat="43.686084" lon="5.557875">
        <ele>275.9</ele>
      </trkpt>
      <trkpt lat="43.686247" lon="5.557972">
        <ele>275.5</ele>
      </trkpt>
      <trkpt lat="43.686740" lon="5.558288">
        <ele>273</ele>
      </trkpt>
      <trkpt lat="43.686890" lon="5.558342">
        <ele>274.5</ele>
      </trkpt>
      <trkpt lat="43.687294" lon="5.558213">
        <ele>273.3</ele>
      </trkpt>
      <trkpt lat="43.687837" lon="5.558460">
        <ele>275.1</ele>
      </trkpt>
      <trkpt lat="43.688179" lon="5.558524">
        <ele>274.1</ele>
      </trkpt>
      <trkpt lat="43.688505" lon="5.558449">
        <ele>273.1</ele>
      </trkpt>
      <trkpt lat="43.688879" lon="5.558428">
        <ele>273.3</ele>
      </trkpt>
      <trkpt lat="43.689303" lon="5.558352">
        <ele>273.1</ele>
      </trkpt>
      <trkpt lat="43.689503" lon="5.558374">
        <ele>273.7</ele>
      </trkpt>
      <trkpt lat="43.689639" lon="5.558441">
        <ele>273.8</ele>
      </trkpt>
      <trkpt lat="43.689846" lon="5.558631">
        <ele>274.4</ele>
      </trkpt>
      <trkpt lat="43.690046" lon="5.558715">
        <ele>275.1</ele>
      </trkpt>
      <trkpt lat="43.690483" lon="5.558749">
        <ele>275.2</ele>
      </trkpt>
      <trkpt lat="43.690723" lon="5.558849">
        <ele>275.8</ele>
      </trkpt>
      <trkpt lat="43.690909" lon="5.558969">
        <ele>276.1</ele>
      </trkpt>
      <trkpt lat="43.690991" lon="5.559106">
        <ele>276.6</ele>
      </trkpt>
      <trkpt lat="43.691016" lon="5.559294">
        <ele>279.2</ele>
      </trkpt>
      <trkpt lat="43.691053" lon="5.559503">
        <ele>279.8</ele>
      </trkpt>
      <trkpt lat="43.691103" lon="5.559581">
        <ele>280</ele>
      </trkpt>
      <trkpt lat="43.691127" lon="5.559640">
        <ele>280.2</ele>
      </trkpt>
      <trkpt lat="43.691224" lon="5.559779">
        <ele>280.3</ele>
      </trkpt>
      <trkpt lat="43.691321" lon="5.559849">
        <ele>280</ele>
      </trkpt>
      <trkpt lat="43.691434" lon="5.559892">
        <ele>279.6</ele>
      </trkpt>
      <trkpt lat="43.692243" lon="5.560202">
        <ele>281</ele>
      </trkpt>
      <trkpt lat="43.692368" lon="5.560250">
        <ele>280.9</ele>
      </trkpt>
      <trkpt lat="43.693031" lon="5.560504">
        <ele>283.2</ele>
      </trkpt>
      <trkpt lat="43.693404" lon="5.560868">
        <ele>286.8</ele>
      </trkpt>
      <trkpt lat="43.693737" lon="5.561174">
        <ele>288.8</ele>
      </trkpt>
      <trkpt lat="43.693958" lon="5.561458">
        <ele>289.4</ele>
      </trkpt>
      <trkpt lat="43.694222" lon="5.562011">
        <ele>290.5</ele>
      </trkpt>
      <trkpt lat="43.694261" lon="5.562075">
        <ele>290.5</ele>
      </trkpt>
      <trkpt lat="43.694362" lon="5.562140">
        <ele>290.6</ele>
      </trkpt>
      <trkpt lat="43.694499" lon="5.562140">
        <ele>290.8</ele>
      </trkpt>
      <trkpt lat="43.694586" lon="5.562150">
        <ele>291</ele>
      </trkpt>
      <trkpt lat="43.694623" lon="5.562252">
        <ele>291.1</ele>
      </trkpt>
      <trkpt lat="43.694660" lon="5.562797">
        <ele>290.4</ele>
      </trkpt>
      <trkpt lat="43.694739" lon="5.562963">
        <ele>290.5</ele>
      </trkpt>
      <trkpt lat="43.694871" lon="5.562977">
        <ele>290.9</ele>
      </trkpt>
      <trkpt lat="43.695085" lon="5.563022">
        <ele>296</ele>
      </trkpt>
      <trkpt lat="43.695236" lon="5.563073">
        <ele>296.6</ele>
      </trkpt>
      <trkpt lat="43.695343" lon="5.563172">
        <ele>297.3</ele>
      </trkpt>
      <trkpt lat="43.695471" lon="5.563784">
        <ele>298</ele>
      </trkpt>
      <trkpt lat="43.695589" lon="5.564060">
        <ele>299</ele>
      </trkpt>
      <trkpt lat="43.695732" lon="5.564170">
        <ele>300.6</ele>
      </trkpt>
      <trkpt lat="43.696008" lon="5.564194">
        <ele>304.2</ele>
      </trkpt>
      <trkpt lat="43.696120" lon="5.564283">
        <ele>305.3</ele>
      </trkpt>
      <trkpt lat="43.696266" lon="5.565128">
        <ele>304.4</ele>
      </trkpt>
      <trkpt lat="43.696343" lon="5.565208">
        <ele>304.6</ele>
      </trkpt>
      <trkpt lat="43.696782" lon="5.565012">
        <ele>309</ele>
      </trkpt>
      <trkpt lat="43.697197" lon="5.564835">
        <ele>315.3</ele>
      </trkpt>
      <trkpt lat="43.697709" lon="5.564739">
        <ele>321.8</ele>
      </trkpt>
      <trkpt lat="43.698374" lon="5.564701">
        <ele>327.2</ele>
      </trkpt>
      <trkpt lat="43.698750" lon="5.564696">
        <ele>329</ele>
      </trkpt>
      <trkpt lat="43.698934" lon="5.564763">
        <ele>329.7</ele>
      </trkpt>
      <trkpt lat="43.699576" lon="5.565087">
        <ele>330.8</ele>
      </trkpt>
      <trkpt lat="43.699667" lon="5.565230">
        <ele>330.9</ele>
      </trkpt>
      <trkpt lat="43.699737" lon="5.565506">
        <ele>331.3</ele>
      </trkpt>
      <trkpt lat="43.699877" lon="5.566080">
        <ele>333.4</ele>
      </trkpt>
      <trkpt lat="43.700057" lon="5.566324">
        <ele>333.8</ele>
      </trkpt>
      <trkpt lat="43.700489" lon="5.566753">
        <ele>338.7</ele>
      </trkpt>
      <trkpt lat="43.700726" lon="5.566286">
        <ele>335.5</ele>
      </trkpt>
      <trkpt lat="43.700778" lon="5.566207">
        <ele>335.1</ele>
      </trkpt>
      <trkpt lat="43.700895" lon="5.566142">
        <ele>336.2</ele>
      </trkpt>
      <trkpt lat="43.701472" lon="5.565533">
        <ele>331.1</ele>
      </trkpt>
      <trkpt lat="43.701744" lon="5.565310">
        <ele>329.4</ele>
      </trkpt>
      <trkpt lat="43.702093" lon="5.565203">
        <ele>328.2</ele>
      </trkpt>
      <trkpt lat="43.702758" lon="5.565141">
        <ele>321.3</ele>
      </trkpt>
      <trkpt lat="43.702841" lon="5.565114">
        <ele>320.7</ele>
      </trkpt>
      <trkpt lat="43.702919" lon="5.564626">
        <ele>317</ele>
      </trkpt>
      <trkpt lat="43.702967" lon="5.564264">
        <ele>316.1</ele>
      </trkpt>
      <trkpt lat="43.703018" lon="5.563800">
        <ele>313.2</ele>
      </trkpt>
      <trkpt lat="43.703006" lon="5.563344">
        <ele>312.2</ele>
      </trkpt>
      <trkpt lat="43.702929" lon="5.562625">
        <ele>309.5</ele>
      </trkpt>
      <trkpt lat="43.702927" lon="5.562462">
        <ele>309.1</ele>
      </trkpt>
      <trkpt lat="43.702977" lon="5.562293">
        <ele>308.9</ele>
      </trkpt>
      <trkpt lat="43.703105" lon="5.562011">
        <ele>308.7</ele>
      </trkpt>
      <trkpt lat="43.703260" lon="5.561668">
        <ele>306.9</ele>
      </trkpt>
      <trkpt lat="43.703667" lon="5.560981">
        <ele>304</ele>
      </trkpt>
      <trkpt lat="43.703762" lon="5.560801">
        <ele>303.9</ele>
      </trkpt>
      <trkpt lat="43.703889" lon="5.560477">
        <ele>303.3</ele>
      </trkpt>
      <trkpt lat="43.703958" lon="5.560241">
        <ele>302.7</ele>
      </trkpt>
      <trkpt lat="43.704048" lon="5.559938">
        <ele>300.7</ele>
      </trkpt>
      <trkpt lat="43.704426" lon="5.559162">
        <ele>293</ele>
      </trkpt>
      <trkpt lat="43.704718" lon="5.558728">
        <ele>291.2</ele>
      </trkpt>
      <trkpt lat="43.704924" lon="5.558484">
        <ele>289.8</ele>
      </trkpt>
      <trkpt lat="43.705349" lon="5.557867">
        <ele>284.7</ele>
      </trkpt>
      <trkpt lat="43.705527" lon="5.557518">
        <ele>283.9</ele>
      </trkpt>
      <trkpt lat="43.705626" lon="5.557339">
        <ele>283.3</ele>
      </trkpt>
      <trkpt lat="43.706188" lon="5.556679">
        <ele>280.2</ele>
      </trkpt>
      <trkpt lat="43.706361" lon="5.556453">
        <ele>279</ele>
      </trkpt>
      <trkpt lat="43.706504" lon="5.556228">
        <ele>278.6</ele>
      </trkpt>
      <trkpt lat="43.706681" lon="5.555863">
        <ele>276.9</ele>
      </trkpt>
      <trkpt lat="43.706739" lon="5.555764">
        <ele>276</ele>
      </trkpt>
      <trkpt lat="43.706849" lon="5.555660">
        <ele>275.2</ele>
      </trkpt>
      <trkpt lat="43.707635" lon="5.555300">
        <ele>272.5</ele>
      </trkpt>
      <trkpt lat="43.708328" lon="5.554981">
        <ele>270.1</ele>
      </trkpt>
      <trkpt lat="43.709075" lon="5.554662">
        <ele>270.2</ele>
      </trkpt>
      <trkpt lat="43.709281" lon="5.554544">
        <ele>272.1</ele>
      </trkpt>
      <trkpt lat="43.710370" lon="5.553650">
        <ele>274.9</ele>
      </trkpt>
      <trkpt lat="43.710516" lon="5.553530">
        <ele>275.1</ele>
      </trkpt>
      <trkpt lat="43.710888" lon="5.553146">
        <ele>274</ele>
      </trkpt>
      <trkpt lat="43.711634" lon="5.552436">
        <ele>267.8</ele>
      </trkpt>
      <trkpt lat="43.712170" lon="5.551915">
        <ele>261.6</ele>
      </trkpt>
      <trkpt lat="43.712288" lon="5.551760">
        <ele>260.3</ele>
      </trkpt>
      <trkpt lat="43.712042" lon="5.551516">
        <ele>262.1</ele>
      </trkpt>
      <trkpt lat="43.711739" lon="5.551210">
        <ele>263</ele>
      </trkpt>
      <trkpt lat="43.711617" lon="5.550990">
        <ele>266</ele>
      </trkpt>
      <trkpt lat="43.711555" lon="5.550829">
        <ele>264.9</ele>
      </trkpt>
      <trkpt lat="43.711466" lon="5.550432">
        <ele>265.7</ele>
      </trkpt>
      <trkpt lat="43.711429" lon="5.550343">
        <ele>265.7</ele>
      </trkpt>
      <trkpt lat="43.710704" lon="5.549898">
        <ele>266.1</ele>
      </trkpt>
      <trkpt lat="43.710565" lon="5.549893">
        <ele>265.8</ele>
      </trkpt>
      <trkpt lat="43.709998" lon="5.549973">
        <ele>267.4</ele>
      </trkpt>
      <trkpt lat="43.709413" lon="5.549979">
        <ele>261.8</ele>
      </trkpt>
      <trkpt lat="43.709308" lon="5.549968">
        <ele>261.1</ele>
      </trkpt>
      <trkpt lat="43.708816" lon="5.549807">
        <ele>259.9</ele>
      </trkpt>
      <trkpt lat="43.708641" lon="5.549785">
        <ele>260</ele>
      </trkpt>
      <trkpt lat="43.708284" lon="5.549812">
        <ele>261.2</ele>
      </trkpt>
      <trkpt lat="43.708331" lon="5.549700">
        <ele>261.2</ele>
      </trkpt>
      <trkpt lat="43.708653" lon="5.548739">
        <ele>258.4</ele>
      </trkpt>
      <trkpt lat="43.708707" lon="5.548407">
        <ele>258.1</ele>
      </trkpt>
      <trkpt lat="43.708769" lon="5.548139">
        <ele>257.1</ele>
      </trkpt>
      <trkpt lat="43.708975" lon="5.547591">
        <ele>256.5</ele>
      </trkpt>
      <trkpt lat="43.709428" lon="5.546798">
        <ele>254.1</ele>
      </trkpt>
      <trkpt lat="43.709839" lon="5.546256">
        <ele>252.9</ele>
      </trkpt>
      <trkpt lat="43.710072" lon="5.545843">
        <ele>251.7</ele>
      </trkpt>
      <trkpt lat="43.710278" lon="5.545365">
        <ele>249.9</ele>
      </trkpt>
      <trkpt lat="43.710541" lon="5.544856">
        <ele>249.1</ele>
      </trkpt>
      <trkpt lat="43.710630" lon="5.544673">
        <ele>249.2</ele>
      </trkpt>
      <trkpt lat="43.710215" lon="5.544051">
        <ele>250.2</ele>
      </trkpt>
      <trkpt lat="43.710107" lon="5.543831">
        <ele>250.1</ele>
      </trkpt>
      <trkpt lat="43.710025" lon="5.543670">
        <ele>250</ele>
      </trkpt>
      <trkpt lat="43.709968" lon="5.543540">
        <ele>251.6</ele>
      </trkpt>
      <trkpt lat="43.709932" lon="5.543467">
        <ele>251.3</ele>
      </trkpt>
      <trkpt lat="43.709897" lon="5.543393">
        <ele>251.1</ele>
      </trkpt>
      <trkpt lat="43.709862" lon="5.543317">
        <ele>250.8</ele>
      </trkpt>
      <trkpt lat="43.709827" lon="5.543242">
        <ele>251</ele>
      </trkpt>
      <trkpt lat="43.709792" lon="5.543167">
        <ele>251.2</ele>
      </trkpt>
      <trkpt lat="43.709755" lon="5.543090">
        <ele>251.3</ele>
      </trkpt>
      <trkpt lat="43.709722" lon="5.543013">
        <ele>251.4</ele>
      </trkpt>
      <trkpt lat="43.709690" lon="5.542938">
        <ele>251.5</ele>
      </trkpt>
      <trkpt lat="43.709657" lon="5.542863">
        <ele>251.5</ele>
      </trkpt>
      <trkpt lat="43.709623" lon="5.542788">
        <ele>251.6</ele>
      </trkpt>
      <trkpt lat="43.709590" lon="5.542713">
        <ele>251.7</ele>
      </trkpt>
      <trkpt lat="43.709557" lon="5.542638">
        <ele>251.8</ele>
      </trkpt>
      <trkpt lat="43.709522" lon="5.542563">
        <ele>251.9</ele>
      </trkpt>
      <trkpt lat="43.709487" lon="5.542487">
        <ele>252.6</ele>
      </trkpt>
      <trkpt lat="43.709452" lon="5.542410">
        <ele>252.7</ele>
      </trkpt>
      <trkpt lat="43.709417" lon="5.542332">
        <ele>252.9</ele>
      </trkpt>
      <trkpt lat="43.709382" lon="5.542253">
        <ele>253</ele>
      </trkpt>
      <trkpt lat="43.709345" lon="5.542177">
        <ele>253.1</ele>
      </trkpt>
      <trkpt lat="43.709307" lon="5.542102">
        <ele>253.3</ele>
      </trkpt>
      <trkpt lat="43.709272" lon="5.542025">
        <ele>253.6</ele>
      </trkpt>
      <trkpt lat="43.709237" lon="5.541948">
        <ele>254</ele>
      </trkpt>
      <trkpt lat="43.709200" lon="5.541873">
        <ele>254.5</ele>
      </trkpt>
      <trkpt lat="43.709168" lon="5.541802">
        <ele>255.2</ele>
      </trkpt>
      <trkpt lat="43.709135" lon="5.541728">
        <ele>256.6</ele>
      </trkpt>
      <trkpt lat="43.709097" lon="5.541662">
        <ele>256.8</ele>
      </trkpt>
      <trkpt lat="43.709060" lon="5.541595">
        <ele>256.7</ele>
      </trkpt>
      <trkpt lat="43.709023" lon="5.541537">
        <ele>256.6</ele>
      </trkpt>
      <trkpt lat="43.708983" lon="5.541488">
        <ele>256.5</ele>
      </trkpt>
      <trkpt lat="43.708945" lon="5.541442">
        <ele>256.4</ele>
      </trkpt>
      <trkpt lat="43.708912" lon="5.541392">
        <ele>256.4</ele>
      </trkpt>
      <trkpt lat="43.708890" lon="5.541335">
        <ele>256.3</ele>
      </trkpt>
      <trkpt lat="43.708883" lon="5.541270">
        <ele>256.3</ele>
      </trkpt>
      <trkpt lat="43.708888" lon="5.541203">
        <ele>256.3</ele>
      </trkpt>
      <trkpt lat="43.708902" lon="5.541135">
        <ele>256.2</ele>
      </trkpt>
      <trkpt lat="43.708913" lon="5.541065">
        <ele>256.2</ele>
      </trkpt>
      <trkpt lat="43.708923" lon="5.540993">
        <ele>256.2</ele>
      </trkpt>
      <trkpt lat="43.708932" lon="5.540918">
        <ele>256.2</ele>
      </trkpt>
      <trkpt lat="43.708943" lon="5.540843">
        <ele>256.1</ele>
      </trkpt>
      <trkpt lat="43.708957" lon="5.540765">
        <ele>256.3</ele>
      </trkpt>
      <trkpt lat="43.708968" lon="5.540688">
        <ele>256.4</ele>
      </trkpt>
      <trkpt lat="43.708980" lon="5.540610">
        <ele>256.5</ele>
      </trkpt>
      <trkpt lat="43.708992" lon="5.540532">
        <ele>256.6</ele>
      </trkpt>
      <trkpt lat="43.709003" lon="5.540455">
        <ele>256.7</ele>
      </trkpt>
      <trkpt lat="43.709017" lon="5.540378">
        <ele>256.9</ele>
      </trkpt>
      <trkpt lat="43.709030" lon="5.540303">
        <ele>257.1</ele>
      </trkpt>
      <trkpt lat="43.709043" lon="5.540230">
        <ele>257.3</ele>
      </trkpt>
      <trkpt lat="43.709058" lon="5.540157">
        <ele>257.6</ele>
      </trkpt>
      <trkpt lat="43.709073" lon="5.540087">
        <ele>257.9</ele>
      </trkpt>
      <trkpt lat="43.709088" lon="5.540017">
        <ele>258.3</ele>
      </trkpt>
      <trkpt lat="43.709105" lon="5.539948">
        <ele>258.4</ele>
      </trkpt>
      <trkpt lat="43.709120" lon="5.539880">
        <ele>258.2</ele>
      </trkpt>
      <trkpt lat="43.709138" lon="5.539820">
        <ele>258</ele>
      </trkpt>
      <trkpt lat="43.709162" lon="5.539765">
        <ele>257.9</ele>
      </trkpt>
      <trkpt lat="43.709187" lon="5.539713">
        <ele>258.4</ele>
      </trkpt>
      <trkpt lat="43.709210" lon="5.539660">
        <ele>258.3</ele>
      </trkpt>
      <trkpt lat="43.709233" lon="5.539607">
        <ele>258.3</ele>
      </trkpt>
      <trkpt lat="43.709258" lon="5.539552">
        <ele>258.4</ele>
      </trkpt>
      <trkpt lat="43.709285" lon="5.539497">
        <ele>258.4</ele>
      </trkpt>
      <trkpt lat="43.709310" lon="5.539442">
        <ele>258.5</ele>
      </trkpt>
      <trkpt lat="43.709337" lon="5.539388">
        <ele>258.5</ele>
      </trkpt>
      <trkpt lat="43.709362" lon="5.539338">
        <ele>258.6</ele>
      </trkpt>
      <trkpt lat="43.709383" lon="5.539288">
        <ele>258.6</ele>
      </trkpt>
      <trkpt lat="43.709402" lon="5.539237">
        <ele>258.6</ele>
      </trkpt>
      <trkpt lat="43.709417" lon="5.539187">
        <ele>258.6</ele>
      </trkpt>
      <trkpt lat="43.709433" lon="5.539135">
        <ele>257.9</ele>
      </trkpt>
      <trkpt lat="43.709447" lon="5.539083">
        <ele>257.7</ele>
      </trkpt>
      <trkpt lat="43.709462" lon="5.539033">
        <ele>257.6</ele>
      </trkpt>
      <trkpt lat="43.709477" lon="5.538985">
        <ele>257.4</ele>
      </trkpt>
      <trkpt lat="43.709490" lon="5.538940">
        <ele>257.3</ele>
      </trkpt>
      <trkpt lat="43.709505" lon="5.538895">
        <ele>257.1</ele>
      </trkpt>
      <trkpt lat="43.709525" lon="5.538852">
        <ele>257</ele>
      </trkpt>
      <trkpt lat="43.709550" lon="5.538808">
        <ele>256.9</ele>
      </trkpt>
      <trkpt lat="43.709578" lon="5.538767">
        <ele>256.8</ele>
      </trkpt>
      <trkpt lat="43.709608" lon="5.538725">
        <ele>256.7</ele>
      </trkpt>
      <trkpt lat="43.709640" lon="5.538683">
        <ele>256.6</ele>
      </trkpt>
      <trkpt lat="43.709673" lon="5.538643">
        <ele>256.5</ele>
      </trkpt>
      <trkpt lat="43.709710" lon="5.538612">
        <ele>256.5</ele>
      </trkpt>
      <trkpt lat="43.709750" lon="5.538590">
        <ele>256.5</ele>
      </trkpt>
      <trkpt lat="43.709792" lon="5.538570">
        <ele>256.4</ele>
      </trkpt>
      <trkpt lat="43.709828" lon="5.538552">
        <ele>256.4</ele>
      </trkpt>
      <trkpt lat="43.709868" lon="5.538532">
        <ele>256.4</ele>
      </trkpt>
      <trkpt lat="43.709908" lon="5.538512">
        <ele>256.3</ele>
      </trkpt>
      <trkpt lat="43.709947" lon="5.538490">
        <ele>256.3</ele>
      </trkpt>
      <trkpt lat="43.709980" lon="5.538465">
        <ele>256.2</ele>
      </trkpt>
      <trkpt lat="43.710018" lon="5.538437">
        <ele>255.2</ele>
      </trkpt>
      <trkpt lat="43.710052" lon="5.538407">
        <ele>255.3</ele>
      </trkpt>
      <trkpt lat="43.710088" lon="5.538385">
        <ele>255.2</ele>
      </trkpt>
      <trkpt lat="43.710125" lon="5.538363">
        <ele>255</ele>
      </trkpt>
      <trkpt lat="43.710160" lon="5.538340">
        <ele>254.8</ele>
      </trkpt>
      <trkpt lat="43.710195" lon="5.538318">
        <ele>253.9</ele>
      </trkpt>
      <trkpt lat="43.710232" lon="5.538293">
        <ele>253.6</ele>
      </trkpt>
      <trkpt lat="43.710267" lon="5.538268">
        <ele>253.3</ele>
      </trkpt>
      <trkpt lat="43.710302" lon="5.538245">
        <ele>253.1</ele>
      </trkpt>
      <trkpt lat="43.710335" lon="5.538225">
        <ele>253</ele>
      </trkpt>
      <trkpt lat="43.710372" lon="5.538205">
        <ele>252.8</ele>
      </trkpt>
      <trkpt lat="43.710407" lon="5.538192">
        <ele>252.7</ele>
      </trkpt>
      <trkpt lat="43.710442" lon="5.538182">
        <ele>252.5</ele>
      </trkpt>
      <trkpt lat="43.710475" lon="5.538173">
        <ele>252.4</ele>
      </trkpt>
      <trkpt lat="43.710510" lon="5.538165">
        <ele>252.3</ele>
      </trkpt>
      <trkpt lat="43.710545" lon="5.538160">
        <ele>252.2</ele>
      </trkpt>
      <trkpt lat="43.710582" lon="5.538152">
        <ele>252.1</ele>
      </trkpt>
      <trkpt lat="43.710613" lon="5.538127">
        <ele>252.1</ele>
      </trkpt>
      <trkpt lat="43.710642" lon="5.538093">
        <ele>252</ele>
      </trkpt>
      <trkpt lat="43.710663" lon="5.538057">
        <ele>252</ele>
      </trkpt>
      <trkpt lat="43.710685" lon="5.538018">
        <ele>252</ele>
      </trkpt>
      <trkpt lat="43.710705" lon="5.537980">
        <ele>252</ele>
      </trkpt>
      <trkpt lat="43.710722" lon="5.537937">
        <ele>252</ele>
      </trkpt>
      <trkpt lat="43.710737" lon="5.537893">
        <ele>252</ele>
      </trkpt>
      <trkpt lat="43.710748" lon="5.537847">
        <ele>252</ele>
      </trkpt>
      <trkpt lat="43.710763" lon="5.537802">
        <ele>252</ele>
      </trkpt>
      <trkpt lat="43.710782" lon="5.537758">
        <ele>252</ele>
      </trkpt>
      <trkpt lat="43.710800" lon="5.537717">
        <ele>252</ele>
      </trkpt>
      <trkpt lat="43.710822" lon="5.537677">
        <ele>252</ele>
      </trkpt>
      <trkpt lat="43.710842" lon="5.537637">
        <ele>250.2</ele>
      </trkpt>
      <trkpt lat="43.710863" lon="5.537597">
        <ele>250.5</ele>
      </trkpt>
      <trkpt lat="43.710885" lon="5.537558">
        <ele>250.8</ele>
      </trkpt>
      <trkpt lat="43.710910" lon="5.537522">
        <ele>250.8</ele>
      </trkpt>
      <trkpt lat="43.710935" lon="5.537487">
        <ele>249.8</ele>
      </trkpt>
      <trkpt lat="43.710962" lon="5.537452">
        <ele>249.3</ele>
      </trkpt>
      <trkpt lat="43.710987" lon="5.537417">
        <ele>248.8</ele>
      </trkpt>
      <trkpt lat="43.711015" lon="5.537383">
        <ele>248.3</ele>
      </trkpt>
      <trkpt lat="43.711043" lon="5.537350">
        <ele>247.8</ele>
      </trkpt>
      <trkpt lat="43.711072" lon="5.537318">
        <ele>247.4</ele>
      </trkpt>
      <trkpt lat="43.711102" lon="5.537287">
        <ele>247.1</ele>
      </trkpt>
      <trkpt lat="43.711132" lon="5.537255">
        <ele>246.8</ele>
      </trkpt>
      <trkpt lat="43.711163" lon="5.537223">
        <ele>246.5</ele>
      </trkpt>
      <trkpt lat="43.711195" lon="5.537193">
        <ele>246.3</ele>
      </trkpt>
      <trkpt lat="43.711225" lon="5.537158">
        <ele>246</ele>
      </trkpt>
      <trkpt lat="43.711255" lon="5.537120">
        <ele>245.8</ele>
      </trkpt>
      <trkpt lat="43.711285" lon="5.537085">
        <ele>245.6</ele>
      </trkpt>
      <trkpt lat="43.711317" lon="5.537048">
        <ele>245.4</ele>
      </trkpt>
      <trkpt lat="43.711350" lon="5.537008">
        <ele>245.2</ele>
      </trkpt>
      <trkpt lat="43.711385" lon="5.536962">
        <ele>245</ele>
      </trkpt>
      <trkpt lat="43.711417" lon="5.536912">
        <ele>244.8</ele>
      </trkpt>
      <trkpt lat="43.711442" lon="5.536850">
        <ele>244.5</ele>
      </trkpt>
      <trkpt lat="43.711453" lon="5.536782">
        <ele>244.2</ele>
      </trkpt>
      <trkpt lat="43.711458" lon="5.536710">
        <ele>244</ele>
      </trkpt>
      <trkpt lat="43.711462" lon="5.536640">
        <ele>242</ele>
      </trkpt>
      <trkpt lat="43.711463" lon="5.536568">
        <ele>242</ele>
      </trkpt>
      <trkpt lat="43.711465" lon="5.536498">
        <ele>241.9</ele>
      </trkpt>
      <trkpt lat="43.711463" lon="5.536428">
        <ele>241.9</ele>
      </trkpt>
      <trkpt lat="43.711463" lon="5.536358">
        <ele>241.8</ele>
      </trkpt>
      <trkpt lat="43.711465" lon="5.536288">
        <ele>241.6</ele>
      </trkpt>
      <trkpt lat="43.711467" lon="5.536217">
        <ele>241.5</ele>
      </trkpt>
      <trkpt lat="43.711472" lon="5.536147">
        <ele>241.4</ele>
      </trkpt>
      <trkpt lat="43.711478" lon="5.536075">
        <ele>241.2</ele>
      </trkpt>
      <trkpt lat="43.711490" lon="5.536005">
        <ele>241</ele>
      </trkpt>
      <trkpt lat="43.711503" lon="5.535933">
        <ele>240.9</ele>
      </trkpt>
      <trkpt lat="43.711522" lon="5.535865">
        <ele>240.7</ele>
      </trkpt>
      <trkpt lat="43.711543" lon="5.535798">
        <ele>239.9</ele>
      </trkpt>
      <trkpt lat="43.711567" lon="5.535735">
        <ele>239.8</ele>
      </trkpt>
      <trkpt lat="43.711592" lon="5.535673">
        <ele>239.8</ele>
      </trkpt>
      <trkpt lat="43.711618" lon="5.535612">
        <ele>239.7</ele>
      </trkpt>
      <trkpt lat="43.711643" lon="5.535552">
        <ele>239.7</ele>
      </trkpt>
      <trkpt lat="43.711670" lon="5.535490">
        <ele>239.6</ele>
      </trkpt>
      <trkpt lat="43.711695" lon="5.535428">
        <ele>239.5</ele>
      </trkpt>
      <trkpt lat="43.711722" lon="5.535367">
        <ele>239.4</ele>
      </trkpt>
      <trkpt lat="43.711748" lon="5.535307">
        <ele>239.3</ele>
      </trkpt>
      <trkpt lat="43.711775" lon="5.535247">
        <ele>239.2</ele>
      </trkpt>
      <trkpt lat="43.711802" lon="5.535187">
        <ele>239.2</ele>
      </trkpt>
      <trkpt lat="43.711827" lon="5.535127">
        <ele>239.1</ele>
      </trkpt>
      <trkpt lat="43.711850" lon="5.535063">
        <ele>239.1</ele>
      </trkpt>
      <trkpt lat="43.711870" lon="5.535000">
        <ele>239.1</ele>
      </trkpt>
      <trkpt lat="43.711885" lon="5.534933">
        <ele>238.8</ele>
      </trkpt>
      <trkpt lat="43.711902" lon="5.534868">
        <ele>238.8</ele>
      </trkpt>
      <trkpt lat="43.711918" lon="5.534803">
        <ele>238.8</ele>
      </trkpt>
      <trkpt lat="43.711935" lon="5.534738">
        <ele>238.9</ele>
      </trkpt>
      <trkpt lat="43.711952" lon="5.534675">
        <ele>238.9</ele>
      </trkpt>
      <trkpt lat="43.711967" lon="5.534610">
        <ele>238.8</ele>
      </trkpt>
      <trkpt lat="43.711983" lon="5.534545">
        <ele>238.8</ele>
      </trkpt>
      <trkpt lat="43.711998" lon="5.534478">
        <ele>238.7</ele>
      </trkpt>
      <trkpt lat="43.712013" lon="5.534413">
        <ele>238.7</ele>
      </trkpt>
      <trkpt lat="43.712028" lon="5.534347">
        <ele>238.6</ele>
      </trkpt>
      <trkpt lat="43.712043" lon="5.534280">
        <ele>238.6</ele>
      </trkpt>
      <trkpt lat="43.712058" lon="5.534212">
        <ele>238.6</ele>
      </trkpt>
      <trkpt lat="43.712075" lon="5.534143">
        <ele>236.7</ele>
      </trkpt>
      <trkpt lat="43.712093" lon="5.534077">
        <ele>236.7</ele>
      </trkpt>
      <trkpt lat="43.712113" lon="5.534013">
        <ele>236.6</ele>
      </trkpt>
      <trkpt lat="43.712133" lon="5.533950">
        <ele>236.4</ele>
      </trkpt>
      <trkpt lat="43.712158" lon="5.533890">
        <ele>236.3</ele>
      </trkpt>
      <trkpt lat="43.712187" lon="5.533832">
        <ele>236</ele>
      </trkpt>
      <trkpt lat="43.712217" lon="5.533777">
        <ele>235.7</ele>
      </trkpt>
      <trkpt lat="43.712253" lon="5.533727">
        <ele>235.4</ele>
      </trkpt>
      <trkpt lat="43.712292" lon="5.533683">
        <ele>235</ele>
      </trkpt>
      <trkpt lat="43.712330" lon="5.533642">
        <ele>234.5</ele>
      </trkpt>
      <trkpt lat="43.712367" lon="5.533602">
        <ele>234</ele>
      </trkpt>
      <trkpt lat="43.712400" lon="5.533557">
        <ele>233.3</ele>
      </trkpt>
      <trkpt lat="43.712427" lon="5.533500">
        <ele>232.4</ele>
      </trkpt>
      <trkpt lat="43.712443" lon="5.533440">
        <ele>231.3</ele>
      </trkpt>
      <trkpt lat="43.712453" lon="5.533380">
        <ele>230</ele>
      </trkpt>
      <trkpt lat="43.712460" lon="5.533322">
        <ele>228.8</ele>
      </trkpt>
      <trkpt lat="43.712462" lon="5.533262">
        <ele>229.4</ele>
      </trkpt>
      <trkpt lat="43.712447" lon="5.533200">
        <ele>230.1</ele>
      </trkpt>
      <trkpt lat="43.712441" lon="5.533126">
        <ele>230.7</ele>
      </trkpt>
      <trkpt lat="43.712475" lon="5.533059">
        <ele>230.8</ele>
      </trkpt>
      <trkpt lat="43.712601" lon="5.532992">
        <ele>225.3</ele>
      </trkpt>
      <trkpt lat="43.713548" lon="5.532306">
        <ele>224.7</ele>
      </trkpt>
      <trkpt lat="43.713967" lon="5.532035">
        <ele>224.9</ele>
      </trkpt>
      <trkpt lat="43.714317" lon="5.531769">
        <ele>225.5</ele>
      </trkpt>
      <trkpt lat="43.714806" lon="5.531217">
        <ele>228.4</ele>
      </trkpt>
      <trkpt lat="43.714945" lon="5.531158">
        <ele>228.8</ele>
      </trkpt>
      <trkpt lat="43.715176" lon="5.531310">
        <ele>231.2</ele>
      </trkpt>
      <trkpt lat="43.715339" lon="5.531348">
        <ele>231.6</ele>
      </trkpt>
      <trkpt lat="43.715471" lon="5.531337">
        <ele>232</ele>
      </trkpt>
      <trkpt lat="43.715541" lon="5.531294">
        <ele>232.3</ele>
      </trkpt>
      <trkpt lat="43.715608" lon="5.531144">
        <ele>232.8</ele>
      </trkpt>
      <trkpt lat="43.715676" lon="5.531090">
        <ele>233.2</ele>
      </trkpt>
      <trkpt lat="43.716091" lon="5.531123">
        <ele>236.8</ele>
      </trkpt>
      <trkpt lat="43.716229" lon="5.531099">
        <ele>237.2</ele>
      </trkpt>
      <trkpt lat="43.716403" lon="5.530994">
        <ele>238.1</ele>
      </trkpt>
      <trkpt lat="43.716551" lon="5.530833">
        <ele>240.6</ele>
      </trkpt>
      <trkpt lat="43.716636" lon="5.530683">
        <ele>240.6</ele>
      </trkpt>
      <trkpt lat="43.716679" lon="5.530622">
        <ele>242.3</ele>
      </trkpt>
      <trkpt lat="43.717265" lon="5.529793">
        <ele>244.8</ele>
      </trkpt>
      <trkpt lat="43.717610" lon="5.529304">
        <ele>245.8</ele>
      </trkpt>
      <trkpt lat="43.717832" lon="5.529057">
        <ele>246.8</ele>
      </trkpt>
      <trkpt lat="43.718485" lon="5.528330">
        <ele>249</ele>
      </trkpt>
      <trkpt lat="43.718641" lon="5.528156">
        <ele>249.8</ele>
      </trkpt>
      <trkpt lat="43.718940" lon="5.527754">
        <ele>250.7</ele>
      </trkpt>
      <trkpt lat="43.719091" lon="5.527427">
        <ele>251.7</ele>
      </trkpt>
      <trkpt lat="43.719141" lon="5.527335">
        <ele>251.6</ele>
      </trkpt>
      <trkpt lat="43.719009" lon="5.527083">
        <ele>251.5</ele>
      </trkpt>
      <trkpt lat="43.718761" lon="5.526445">
        <ele>251.3</ele>
      </trkpt>
      <trkpt lat="43.718610" lon="5.526096">
        <ele>251</ele>
      </trkpt>
      <trkpt lat="43.718224" lon="5.524985">
        <ele>249.5</ele>
      </trkpt>
      <trkpt lat="43.717874" lon="5.523978">
        <ele>249.2</ele>
      </trkpt>
      <trkpt lat="43.717738" lon="5.523586">
        <ele>249.1</ele>
      </trkpt>
      <trkpt lat="43.717532" lon="5.523039">
        <ele>249</ele>
      </trkpt>
      <trkpt lat="43.717151" lon="5.521979">
        <ele>246.6</ele>
      </trkpt>
      <trkpt lat="43.717086" lon="5.521799">
        <ele>246.5</ele>
      </trkpt>
      <trkpt lat="43.716765" lon="5.520973">
        <ele>244.4</ele>
      </trkpt>
      <trkpt lat="43.716656" lon="5.520625">
        <ele>242.4</ele>
      </trkpt>
      <trkpt lat="43.716602" lon="5.520426">
        <ele>242.2</ele>
      </trkpt>
      <trkpt lat="43.716520" lon="5.520287">
        <ele>242.1</ele>
      </trkpt>
      <trkpt lat="43.715986" lon="5.519525">
        <ele>242.7</ele>
      </trkpt>
      <trkpt lat="43.715981" lon="5.519418">
        <ele>242.8</ele>
      </trkpt>
      <trkpt lat="43.716479" lon="5.518196">
        <ele>245.9</ele>
      </trkpt>
      <trkpt lat="43.716637" lon="5.517808">
        <ele>246.1</ele>
      </trkpt>
      <trkpt lat="43.716668" lon="5.517674">
        <ele>246</ele>
      </trkpt>
      <trkpt lat="43.716640" lon="5.517578">
        <ele>246.6</ele>
      </trkpt>
      <trkpt lat="43.716582" lon="5.517519">
        <ele>246.6</ele>
      </trkpt>
      <trkpt lat="43.716521" lon="5.517441">
        <ele>246.8</ele>
      </trkpt>
      <trkpt lat="43.716501" lon="5.517374">
        <ele>246.8</ele>
      </trkpt>
      <trkpt lat="43.716509" lon="5.517266">
        <ele>246.8</ele>
      </trkpt>
      <trkpt lat="43.716856" lon="5.516217">
        <ele>249.1</ele>
      </trkpt>
      <trkpt lat="43.716989" lon="5.515813">
        <ele>252.2</ele>
      </trkpt>
      <trkpt lat="43.715556" lon="5.515636">
        <ele>251.9</ele>
      </trkpt>
      <trkpt lat="43.715066" lon="5.515397">
        <ele>251.3</ele>
      </trkpt>
      <trkpt lat="43.714005" lon="5.514694">
        <ele>247.4</ele>
      </trkpt>
      <trkpt lat="43.714182" lon="5.514439">
        <ele>250.1</ele>
      </trkpt>
      <trkpt lat="43.714434" lon="5.514010">
        <ele>251.4</ele>
      </trkpt>
      <trkpt lat="43.714892" lon="5.513329">
        <ele>254.2</ele>
      </trkpt>
      <trkpt lat="43.715198" lon="5.512964">
        <ele>256.2</ele>
      </trkpt>
      <trkpt lat="43.715439" lon="5.512626">
        <ele>256.9</ele>
      </trkpt>
      <trkpt lat="43.715881" lon="5.511940">
        <ele>264.2</ele>
      </trkpt>
      <trkpt lat="43.716140" lon="5.511642">
        <ele>267.9</ele>
      </trkpt>
      <trkpt lat="43.715979" lon="5.511422">
        <ele>268.1</ele>
      </trkpt>
      <trkpt lat="43.715838" lon="5.511146">
        <ele>268.7</ele>
      </trkpt>
      <trkpt lat="43.715636" lon="5.510636">
        <ele>267.1</ele>
      </trkpt>
      <trkpt lat="43.715636" lon="5.510403">
        <ele>267.5</ele>
      </trkpt>
      <trkpt lat="43.715651" lon="5.510242">
        <ele>268.5</ele>
      </trkpt>
      <trkpt lat="43.715671" lon="5.510161">
        <ele>269.4</ele>
      </trkpt>
      <trkpt lat="43.715746" lon="5.509906">
        <ele>271.7</ele>
      </trkpt>
      <trkpt lat="43.715793" lon="5.509662">
        <ele>269.6</ele>
      </trkpt>
      <trkpt lat="43.715855" lon="5.509381">
        <ele>275.3</ele>
      </trkpt>
      <trkpt lat="43.715942" lon="5.509196">
        <ele>274.6</ele>
      </trkpt>
      <trkpt lat="43.716627" lon="5.508608">
        <ele>272.2</ele>
      </trkpt>
      <trkpt lat="43.716880" lon="5.508050">
        <ele>272.4</ele>
      </trkpt>
      <trkpt lat="43.716968" lon="5.507927">
        <ele>272.5</ele>
      </trkpt>
      <trkpt lat="43.717105" lon="5.507723">
        <ele>272.5</ele>
      </trkpt>
      <trkpt lat="43.717590" lon="5.507133">
        <ele>274.5</ele>
      </trkpt>
      <trkpt lat="43.717638" lon="5.506889">
        <ele>272.6</ele>
      </trkpt>
      <trkpt lat="43.717670" lon="5.506597">
        <ele>268.9</ele>
      </trkpt>
      <trkpt lat="43.717438" lon="5.506262">
        <ele>268.3</ele>
      </trkpt>
      <trkpt lat="43.717400" lon="5.506228">
        <ele>268.4</ele>
      </trkpt>
      <trkpt lat="43.717362" lon="5.506215">
        <ele>268.4</ele>
      </trkpt>
      <trkpt lat="43.717325" lon="5.506220">
        <ele>268.4</ele>
      </trkpt>
      <trkpt lat="43.717293" lon="5.506218">
        <ele>268.5</ele>
      </trkpt>
      <trkpt lat="43.717150" lon="5.506299">
        <ele>268.3</ele>
      </trkpt>
      <trkpt lat="43.716766" lon="5.506497">
        <ele>267.1</ele>
      </trkpt>
      <trkpt lat="43.716281" lon="5.506763">
        <ele>263.5</ele>
      </trkpt>
      <trkpt lat="43.716043" lon="5.506894">
        <ele>263.2</ele>
      </trkpt>
      <trkpt lat="43.716006" lon="5.506876">
        <ele>263.2</ele>
      </trkpt>
      <trkpt lat="43.716078" lon="5.506639">
        <ele>265.9</ele>
      </trkpt>
      <trkpt lat="43.716390" lon="5.506181">
        <ele>268.1</ele>
      </trkpt>
      <trkpt lat="43.716423" lon="5.506116">
        <ele>268.5</ele>
      </trkpt>
      <trkpt lat="43.716411" lon="5.506076">
        <ele>268.7</ele>
      </trkpt>
      <trkpt lat="43.716102" lon="5.505835">
        <ele>268.2</ele>
      </trkpt>
      <trkpt lat="43.716070" lon="5.505775">
        <ele>270.9</ele>
      </trkpt>
      <trkpt lat="43.716047" lon="5.505708">
        <ele>271</ele>
      </trkpt>
      <trkpt lat="43.716035" lon="5.505640">
        <ele>271.2</ele>
      </trkpt>
      <trkpt lat="43.716032" lon="5.505575">
        <ele>271.5</ele>
      </trkpt>
      <trkpt lat="43.716030" lon="5.505518">
        <ele>271.7</ele>
      </trkpt>
      <trkpt lat="43.716030" lon="5.505465">
        <ele>271.9</ele>
      </trkpt>
      <trkpt lat="43.716027" lon="5.505418">
        <ele>272.1</ele>
      </trkpt>
      <trkpt lat="43.716018" lon="5.505378">
        <ele>272.2</ele>
      </trkpt>
      <trkpt lat="43.716003" lon="5.505345">
        <ele>272.2</ele>
      </trkpt>
      <trkpt lat="43.715977" lon="5.505322">
        <ele>272.2</ele>
      </trkpt>
      <trkpt lat="43.715942" lon="5.505308">
        <ele>272.2</ele>
      </trkpt>
      <trkpt lat="43.715905" lon="5.505290">
        <ele>272.2</ele>
      </trkpt>
      <trkpt lat="43.715870" lon="5.505273">
        <ele>272.1</ele>
      </trkpt>
      <trkpt lat="43.715832" lon="5.505257">
        <ele>268.9</ele>
      </trkpt>
      <trkpt lat="43.715792" lon="5.505240">
        <ele>269</ele>
      </trkpt>
      <trkpt lat="43.715753" lon="5.505222">
        <ele>269</ele>
      </trkpt>
      <trkpt lat="43.715713" lon="5.505205">
        <ele>268.9</ele>
      </trkpt>
      <trkpt lat="43.715673" lon="5.505190">
        <ele>268.8</ele>
      </trkpt>
      <trkpt lat="43.715632" lon="5.505177">
        <ele>268.6</ele>
      </trkpt>
      <trkpt lat="43.715595" lon="5.505162">
        <ele>268.5</ele>
      </trkpt>
      <trkpt lat="43.715558" lon="5.505148">
        <ele>268.3</ele>
      </trkpt>
      <trkpt lat="43.715533" lon="5.505130">
        <ele>268.1</ele>
      </trkpt>
      <trkpt lat="43.715497" lon="5.505113">
        <ele>268</ele>
      </trkpt>
      <trkpt lat="43.715457" lon="5.505098">
        <ele>267.7</ele>
      </trkpt>
      <trkpt lat="43.715420" lon="5.505083">
        <ele>267.5</ele>
      </trkpt>
      <trkpt lat="43.715385" lon="5.505070">
        <ele>267.3</ele>
      </trkpt>
      <trkpt lat="43.715343" lon="5.505053">
        <ele>267.1</ele>
      </trkpt>
      <trkpt lat="43.715307" lon="5.505033">
        <ele>266.9</ele>
      </trkpt>
      <trkpt lat="43.715270" lon="5.505015">
        <ele>266.7</ele>
      </trkpt>
      <trkpt lat="43.715225" lon="5.505007">
        <ele>266.5</ele>
      </trkpt>
      <trkpt lat="43.715178" lon="5.504997">
        <ele>268.3</ele>
      </trkpt>
      <trkpt lat="43.715132" lon="5.504982">
        <ele>267.7</ele>
      </trkpt>
      <trkpt lat="43.715082" lon="5.504970">
        <ele>266.9</ele>
      </trkpt>
      <trkpt lat="43.715028" lon="5.504963">
        <ele>266.1</ele>
      </trkpt>
      <trkpt lat="43.714980" lon="5.504953">
        <ele>264.7</ele>
      </trkpt>
      <trkpt lat="43.714938" lon="5.504948">
        <ele>264.6</ele>
      </trkpt>
      <trkpt lat="43.714893" lon="5.504942">
        <ele>264.4</ele>
      </trkpt>
      <trkpt lat="43.714842" lon="5.504933">
        <ele>264.2</ele>
      </trkpt>
      <trkpt lat="43.714792" lon="5.504933">
        <ele>264</ele>
      </trkpt>
      <trkpt lat="43.714737" lon="5.504932">
        <ele>263.7</ele>
      </trkpt>
      <trkpt lat="43.714693" lon="5.504925">
        <ele>263.5</ele>
      </trkpt>
      <trkpt lat="43.714643" lon="5.504918">
        <ele>263.3</ele>
      </trkpt>
      <trkpt lat="43.714595" lon="5.504913">
        <ele>263.1</ele>
      </trkpt>
      <trkpt lat="43.714550" lon="5.504907">
        <ele>262.8</ele>
      </trkpt>
      <trkpt lat="43.714500" lon="5.504900">
        <ele>262.5</ele>
      </trkpt>
      <trkpt lat="43.714453" lon="5.504895">
        <ele>262.3</ele>
      </trkpt>
      <trkpt lat="43.714405" lon="5.504893">
        <ele>262</ele>
      </trkpt>
      <trkpt lat="43.714358" lon="5.504895">
        <ele>261.6</ele>
      </trkpt>
      <trkpt lat="43.714307" lon="5.504888">
        <ele>261.3</ele>
      </trkpt>
      <trkpt lat="43.714257" lon="5.504885">
        <ele>260.9</ele>
      </trkpt>
      <trkpt lat="43.714213" lon="5.504882">
        <ele>260.7</ele>
      </trkpt>
      <trkpt lat="43.714172" lon="5.504883">
        <ele>260.6</ele>
      </trkpt>
      <trkpt lat="43.714120" lon="5.504887">
        <ele>258.5</ele>
      </trkpt>
      <trkpt lat="43.714075" lon="5.504898">
        <ele>258.4</ele>
      </trkpt>
      <trkpt lat="43.714025" lon="5.504912">
        <ele>258.2</ele>
      </trkpt>
      <trkpt lat="43.713972" lon="5.504930">
        <ele>258</ele>
      </trkpt>
      <trkpt lat="43.713915" lon="5.504955">
        <ele>257.8</ele>
      </trkpt>
      <trkpt lat="43.713858" lon="5.504978">
        <ele>257.6</ele>
      </trkpt>
      <trkpt lat="43.713800" lon="5.505005">
        <ele>255.6</ele>
      </trkpt>
      <trkpt lat="43.713740" lon="5.505027">
        <ele>255.4</ele>
      </trkpt>
      <trkpt lat="43.713375" lon="5.505086">
        <ele>254.2</ele>
      </trkpt>
      <trkpt lat="43.712547" lon="5.505207">
        <ele>250.5</ele>
      </trkpt>
      <trkpt lat="43.712458" lon="5.505221">
        <ele>249.1</ele>
      </trkpt>
      <trkpt lat="43.712429" lon="5.505170">
        <ele>249.2</ele>
      </trkpt>
      <trkpt lat="43.711916" lon="5.503440">
        <ele>251.6</ele>
      </trkpt>
      <trkpt lat="43.711852" lon="5.503223">
        <ele>252.9</ele>
      </trkpt>
      <trkpt lat="43.711832" lon="5.503143">
        <ele>253</ele>
      </trkpt>
      <trkpt lat="43.711815" lon="5.503060">
        <ele>253.1</ele>
      </trkpt>
      <trkpt lat="43.711803" lon="5.502973">
        <ele>253.1</ele>
      </trkpt>
      <trkpt lat="43.711793" lon="5.502888">
        <ele>253.2</ele>
      </trkpt>
      <trkpt lat="43.711783" lon="5.502805">
        <ele>253.3</ele>
      </trkpt>
      <trkpt lat="43.711772" lon="5.502725">
        <ele>253.3</ele>
      </trkpt>
      <trkpt lat="43.711755" lon="5.502647">
        <ele>253.2</ele>
      </trkpt>
      <trkpt lat="43.711737" lon="5.502570">
        <ele>253.2</ele>
      </trkpt>
      <trkpt lat="43.711717" lon="5.502493">
        <ele>253.4</ele>
      </trkpt>
      <trkpt lat="43.711697" lon="5.502418">
        <ele>253.7</ele>
      </trkpt>
      <trkpt lat="43.711677" lon="5.502345">
        <ele>254</ele>
      </trkpt>
      <trkpt lat="43.711658" lon="5.502273">
        <ele>252.1</ele>
      </trkpt>
      <trkpt lat="43.711640" lon="5.502202">
        <ele>252</ele>
      </trkpt>
      <trkpt lat="43.711623" lon="5.502133">
        <ele>252</ele>
      </trkpt>
      <trkpt lat="43.711610" lon="5.502065">
        <ele>252.1</ele>
      </trkpt>
      <trkpt lat="43.711608" lon="5.501998">
        <ele>252.2</ele>
      </trkpt>
      <trkpt lat="43.711627" lon="5.501940">
        <ele>252.3</ele>
      </trkpt>
      <trkpt lat="43.711668" lon="5.501897">
        <ele>254.8</ele>
      </trkpt>
      <trkpt lat="43.711723" lon="5.501872">
        <ele>254.8</ele>
      </trkpt>
      <trkpt lat="43.711780" lon="5.501852">
        <ele>254.9</ele>
      </trkpt>
      <trkpt lat="43.711837" lon="5.501822">
        <ele>255</ele>
      </trkpt>
      <trkpt lat="43.711885" lon="5.501775">
        <ele>255.2</ele>
      </trkpt>
      <trkpt lat="43.711922" lon="5.501713">
        <ele>255.3</ele>
      </trkpt>
      <trkpt lat="43.711947" lon="5.501638">
        <ele>256.7</ele>
      </trkpt>
      <trkpt lat="43.711953" lon="5.501560">
        <ele>256.8</ele>
      </trkpt>
      <trkpt lat="43.711950" lon="5.501482">
        <ele>256.9</ele>
      </trkpt>
      <trkpt lat="43.711942" lon="5.501408">
        <ele>257</ele>
      </trkpt>
      <trkpt lat="43.711927" lon="5.501337">
        <ele>257.1</ele>
      </trkpt>
      <trkpt lat="43.711908" lon="5.501272">
        <ele>257.1</ele>
      </trkpt>
      <trkpt lat="43.711888" lon="5.501208">
        <ele>257.1</ele>
      </trkpt>
      <trkpt lat="43.711865" lon="5.501148">
        <ele>257</ele>
      </trkpt>
      <trkpt lat="43.711840" lon="5.501088">
        <ele>256.9</ele>
      </trkpt>
      <trkpt lat="43.711818" lon="5.501028">
        <ele>256.7</ele>
      </trkpt>
      <trkpt lat="43.711798" lon="5.500965">
        <ele>256.5</ele>
      </trkpt>
      <trkpt lat="43.711778" lon="5.500903">
        <ele>256.2</ele>
      </trkpt>
      <trkpt lat="43.711758" lon="5.500838">
        <ele>255.9</ele>
      </trkpt>
      <trkpt lat="43.711737" lon="5.500775">
        <ele>256.6</ele>
      </trkpt>
      <trkpt lat="43.711712" lon="5.500713">
        <ele>257</ele>
      </trkpt>
      <trkpt lat="43.711687" lon="5.500652">
        <ele>257.5</ele>
      </trkpt>
      <trkpt lat="43.711665" lon="5.500583">
        <ele>255.3</ele>
      </trkpt>
      <trkpt lat="43.711642" lon="5.500512">
        <ele>255.5</ele>
      </trkpt>
      <trkpt lat="43.711617" lon="5.500438">
        <ele>255.6</ele>
      </trkpt>
      <trkpt lat="43.711588" lon="5.500367">
        <ele>255.9</ele>
      </trkpt>
      <trkpt lat="43.711563" lon="5.500298">
        <ele>256.1</ele>
      </trkpt>
      <trkpt lat="43.711538" lon="5.500232">
        <ele>256.3</ele>
      </trkpt>
      <trkpt lat="43.711515" lon="5.500170">
        <ele>256.6</ele>
      </trkpt>
      <trkpt lat="43.711492" lon="5.500113">
        <ele>256.7</ele>
      </trkpt>
      <trkpt lat="43.711468" lon="5.500060">
        <ele>256.7</ele>
      </trkpt>
      <trkpt lat="43.711442" lon="5.500005">
        <ele>256.6</ele>
      </trkpt>
      <trkpt lat="43.711413" lon="5.499952">
        <ele>257.6</ele>
      </trkpt>
      <trkpt lat="43.711395" lon="5.499888">
        <ele>257.5</ele>
      </trkpt>
      <trkpt lat="43.711367" lon="5.499835">
        <ele>257.3</ele>
      </trkpt>
      <trkpt lat="43.711345" lon="5.499780">
        <ele>257.3</ele>
      </trkpt>
      <trkpt lat="43.711323" lon="5.499723">
        <ele>257.2</ele>
      </trkpt>
      <trkpt lat="43.711300" lon="5.499673">
        <ele>257.1</ele>
      </trkpt>
      <trkpt lat="43.711280" lon="5.499618">
        <ele>257.1</ele>
      </trkpt>
      <trkpt lat="43.711263" lon="5.499563">
        <ele>257.1</ele>
      </trkpt>
      <trkpt lat="43.711243" lon="5.499510">
        <ele>257</ele>
      </trkpt>
      <trkpt lat="43.711222" lon="5.499460">
        <ele>257</ele>
      </trkpt>
      <trkpt lat="43.710767" lon="5.498510">
        <ele>252.4</ele>
      </trkpt>
      <trkpt lat="43.710029" lon="5.498708">
        <ele>249.6</ele>
      </trkpt>
      <trkpt lat="43.709209" lon="5.498974">
        <ele>246.4</ele>
      </trkpt>
      <trkpt lat="43.708287" lon="5.499263">
        <ele>241.2</ele>
      </trkpt>
      <trkpt lat="43.707679" lon="5.499454">
        <ele>239.7</ele>
      </trkpt>
      <trkpt lat="43.707231" lon="5.499550">
        <ele>237.9</ele>
      </trkpt>
      <trkpt lat="43.706783" lon="5.499580">
        <ele>237.5</ele>
      </trkpt>
      <trkpt lat="43.705881" lon="5.499674">
        <ele>233.4</ele>
      </trkpt>
      <trkpt lat="43.705309" lon="5.499733">
        <ele>230.9</ele>
      </trkpt>
      <trkpt lat="43.705067" lon="5.499832">
        <ele>230.2</ele>
      </trkpt>
      <trkpt lat="43.704666" lon="5.500047">
        <ele>228</ele>
      </trkpt>
      <trkpt lat="43.704449" lon="5.500138">
        <ele>227.7</ele>
      </trkpt>
      <trkpt lat="43.704251" lon="5.500202">
        <ele>227.7</ele>
      </trkpt>
      <trkpt lat="43.703900" lon="5.500293">
        <ele>225.3</ele>
      </trkpt>
      <trkpt lat="43.703326" lon="5.500422">
        <ele>221.3</ele>
      </trkpt>
      <trkpt lat="43.703250" lon="5.500430">
        <ele>221.2</ele>
      </trkpt>
      <trkpt lat="43.703186" lon="5.500409">
        <ele>221.1</ele>
      </trkpt>
      <trkpt lat="43.703016" lon="5.500111">
        <ele>220.8</ele>
      </trkpt>
      <trkpt lat="43.702841" lon="5.499714">
        <ele>219.5</ele>
      </trkpt>
      <trkpt lat="43.702731" lon="5.499612">
        <ele>219.1</ele>
      </trkpt>
      <trkpt lat="43.701589" lon="5.499352">
        <ele>212.3</ele>
      </trkpt>
      <trkpt lat="43.701422" lon="5.499314">
        <ele>212.1</ele>
      </trkpt>
      <trkpt lat="43.701329" lon="5.499298">
        <ele>211.9</ele>
      </trkpt>
      <trkpt lat="43.701075" lon="5.499483">
        <ele>211.7</ele>
      </trkpt>
      <trkpt lat="43.700964" lon="5.499355">
        <ele>210.9</ele>
      </trkpt>
      <trkpt lat="43.700869" lon="5.499440">
        <ele>211.1</ele>
      </trkpt>
      <trkpt lat="43.700382" lon="5.500301">
        <ele>209</ele>
      </trkpt>
      <trkpt lat="43.700134" lon="5.500642">
        <ele>208.1</ele>
      </trkpt>
      <trkpt lat="43.699863" lon="5.500977">
        <ele>206.5</ele>
      </trkpt>
      <trkpt lat="43.699554" lon="5.501323">
        <ele>206</ele>
      </trkpt>
      <trkpt lat="43.699273" lon="5.501557">
        <ele>205.5</ele>
      </trkpt>
      <trkpt lat="43.699052" lon="5.501710">
        <ele>204.6</ele>
      </trkpt>
      <trkpt lat="43.698823" lon="5.501830">
        <ele>204.1</ele>
      </trkpt>
      <trkpt lat="43.698686" lon="5.501881">
        <ele>203.9</ele>
      </trkpt>
      <trkpt lat="43.698577" lon="5.501887">
        <ele>203.8</ele>
      </trkpt>
      <trkpt lat="43.698472" lon="5.501871">
        <ele>203.6</ele>
      </trkpt>
      <trkpt lat="43.698397" lon="5.501860">
        <ele>203.5</ele>
      </trkpt>
      <trkpt lat="43.698335" lon="5.501828">
        <ele>203.4</ele>
      </trkpt>
      <trkpt lat="43.698216" lon="5.501712">
        <ele>203.1</ele>
      </trkpt>
      <trkpt lat="43.697837" lon="5.501195">
        <ele>202.2</ele>
      </trkpt>
      <trkpt lat="43.697739" lon="5.501074">
        <ele>202</ele>
      </trkpt>
      <trkpt lat="43.697272" lon="5.500436">
        <ele>200.4</ele>
      </trkpt>
      <trkpt lat="43.697093" lon="5.500213">
        <ele>200.2</ele>
      </trkpt>
      <trkpt lat="43.697039" lon="5.500226">
        <ele>200.1</ele>
      </trkpt>
      <trkpt lat="43.696993" lon="5.500336">
        <ele>200.1</ele>
      </trkpt>
      <trkpt lat="43.696665" lon="5.500508">
        <ele>199.9</ele>
      </trkpt>
      <trkpt lat="43.696318" lon="5.500731">
        <ele>200.5</ele>
      </trkpt>
      <trkpt lat="43.696267" lon="5.500693">
        <ele>200.5</ele>
      </trkpt>
      <trkpt lat="43.696066" lon="5.500280">
        <ele>199.6</ele>
      </trkpt>
      <trkpt lat="43.695901" lon="5.500095">
        <ele>198.2</ele>
      </trkpt>
      <trkpt lat="43.695775" lon="5.500063">
        <ele>199</ele>
      </trkpt>
      <trkpt lat="43.695705" lon="5.500130">
        <ele>200.6</ele>
      </trkpt>
      <trkpt lat="43.695542" lon="5.500621">
        <ele>204.3</ele>
      </trkpt>
      <trkpt lat="43.695517" lon="5.500669">
        <ele>204.6</ele>
      </trkpt>
    </trkseg>
  </trk>
</gpx>