<?xml version="1.0" ?>
<gpx xmlns="http://www.topografix.com/GPX/1/1" xmlns:xsi="http://www.w3.org/2001/XMLSchema-instance" xsi:schemaLocation="http://www.topografix.com/GPX/1/1 http://www.topografix.com/GPX/1/1/gpx.xsd" version="1.1" creator="EditGPX">
  <trk>
    <name>NewTrack</name>
    <trkseg>
      <trkpt lat="43.903339" lon="5.357460">
        <ele>273.2</ele>
      </trkpt>
      <trkpt lat="43.903331" lon="5.357613">
        <ele>273.1</ele>
      </trkpt>
      <trkpt lat="43.903619" lon="5.357605">
        <ele>272.8</ele>
      </trkpt>
      <trkpt lat="43.903872" lon="5.357605">
        <ele>273.3</ele>
      </trkpt>
      <trkpt lat="43.904032" lon="5.357611">
        <ele>273.8</ele>
      </trkpt>
      <trkpt lat="43.904077" lon="5.357656">
        <ele>273.8</ele>
      </trkpt>
      <trkpt lat="43.904117" lon="5.357688">
        <ele>273.7</ele>
      </trkpt>
      <trkpt lat="43.904181" lon="5.357678">
        <ele>276.1</ele>
      </trkpt>
      <trkpt lat="43.904216" lon="5.357637">
        <ele>276.1</ele>
      </trkpt>
      <trkpt lat="43.904409" lon="5.357670">
        <ele>276.9</ele>
      </trkpt>
      <trkpt lat="43.905618" lon="5.357781">
        <ele>283.7</ele>
      </trkpt>
      <trkpt lat="43.905618" lon="5.357781">
        <ele>283.7</ele>
      </trkpt>
      <trkpt lat="43.905618" lon="5.357781">
        <ele>283.7</ele>
      </trkpt>
      <trkpt lat="43.905618" lon="5.357781">
        <ele>283.7</ele>
      </trkpt>
      <trkpt lat="43.905618" lon="5.357781">
        <ele>283.7</ele>
      </trkpt>
      <trkpt lat="43.905768" lon="5.357795">
        <ele>283.9</ele>
      </trkpt>
      <trkpt lat="43.905768" lon="5.357795">
        <ele>283.9</ele>
      </trkpt>
      <trkpt lat="43.905768" lon="5.357795">
        <ele>283.9</ele>
      </trkpt>
      <trkpt lat="43.905820" lon="5.357800">
        <ele>284</ele>
      </trkpt>
      <trkpt lat="43.906148" lon="5.357755">
        <ele>287.5</ele>
      </trkpt>
      <trkpt lat="43.906539" lon="5.357637">
        <ele>288.6</ele>
      </trkpt>
      <trkpt lat="43.906956" lon="5.357568">
        <ele>291.1</ele>
      </trkpt>
      <trkpt lat="43.907412" lon="5.358657">
        <ele>296.1</ele>
      </trkpt>
      <trkpt lat="43.907551" lon="5.359048">
        <ele>300</ele>
      </trkpt>
      <trkpt lat="43.907667" lon="5.359225">
        <ele>301.1</ele>
      </trkpt>
      <trkpt lat="43.907799" lon="5.359381">
        <ele>302.3</ele>
      </trkpt>
      <trkpt lat="43.907903" lon="5.359477">
        <ele>302.9</ele>
      </trkpt>
      <trkpt lat="43.908058" lon="5.359612">
        <ele>303.8</ele>
      </trkpt>
      <trkpt lat="43.908790" lon="5.360116">
        <ele>312.6</ele>
      </trkpt>
      <trkpt lat="43.908925" lon="5.360209">
        <ele>313.7</ele>
      </trkpt>
      <trkpt lat="43.908925" lon="5.360209">
        <ele>313.7</ele>
      </trkpt>
      <trkpt lat="43.908925" lon="5.360209">
        <ele>313.7</ele>
      </trkpt>
      <trkpt lat="43.908925" lon="5.360209">
        <ele>313.7</ele>
      </trkpt>
      <trkpt lat="43.908962" lon="5.360234">
        <ele>313.9</ele>
      </trkpt>
      <trkpt lat="43.909693" lon="5.360899">
        <ele>316.9</ele>
      </trkpt>
      <trkpt lat="43.910778" lon="5.361232">
        <ele>325.9</ele>
      </trkpt>
      <trkpt lat="43.911321" lon="5.361572">
        <ele>332.3</ele>
      </trkpt>
      <trkpt lat="43.911428" lon="5.361704">
        <ele>332.4</ele>
      </trkpt>
      <trkpt lat="43.911482" lon="5.361873">
        <ele>332.3</ele>
      </trkpt>
      <trkpt lat="43.911580" lon="5.362020">
        <ele>332.4</ele>
      </trkpt>
      <trkpt lat="43.911853" lon="5.362227">
        <ele>344.8</ele>
      </trkpt>
      <trkpt lat="43.912147" lon="5.362624">
        <ele>351.2</ele>
      </trkpt>
      <trkpt lat="43.912421" lon="5.363055">
        <ele>355.4</ele>
      </trkpt>
      <trkpt lat="43.912639" lon="5.363241">
        <ele>369.4</ele>
      </trkpt>
      <trkpt lat="43.913043" lon="5.364179">
        <ele>375.7</ele>
      </trkpt>
      <trkpt lat="43.913260" lon="5.364520">
        <ele>375.6</ele>
      </trkpt>
      <trkpt lat="43.913395" lon="5.364630">
        <ele>389.1</ele>
      </trkpt>
      <trkpt lat="43.913634" lon="5.364761">
        <ele>389.8</ele>
      </trkpt>
      <trkpt lat="43.914056" lon="5.364895">
        <ele>392.7</ele>
      </trkpt>
      <trkpt lat="43.914307" lon="5.364847">
        <ele>401.1</ele>
      </trkpt>
      <trkpt lat="43.914473" lon="5.365003">
        <ele>391.2</ele>
      </trkpt>
      <trkpt lat="43.914767" lon="5.365040">
        <ele>394.6</ele>
      </trkpt>
      <trkpt lat="43.914859" lon="5.365142">
        <ele>395.2</ele>
      </trkpt>
      <trkpt lat="43.914956" lon="5.365480">
        <ele>389.9</ele>
      </trkpt>
      <trkpt lat="43.915134" lon="5.365813">
        <ele>391</ele>
      </trkpt>
      <trkpt lat="43.915964" lon="5.366387">
        <ele>392.1</ele>
      </trkpt>
      <trkpt lat="43.915964" lon="5.366387">
        <ele>392.1</ele>
      </trkpt>
      <trkpt lat="43.915964" lon="5.366387">
        <ele>392.1</ele>
      </trkpt>
      <trkpt lat="43.915964" lon="5.366387">
        <ele>392.1</ele>
      </trkpt>
      <trkpt lat="43.916424" lon="5.366706">
        <ele>386.3</ele>
      </trkpt>
      <trkpt lat="43.916604" lon="5.366776">
        <ele>388.5</ele>
      </trkpt>
      <trkpt lat="43.917217" lon="5.366824">
        <ele>395.2</ele>
      </trkpt>
      <trkpt lat="43.917657" lon="5.367073">
        <ele>396.4</ele>
      </trkpt>
      <trkpt lat="43.917903" lon="5.367122">
        <ele>395.7</ele>
      </trkpt>
      <trkpt lat="43.918105" lon="5.367140">
        <ele>395.3</ele>
      </trkpt>
      <trkpt lat="43.918720" lon="5.367031">
        <ele>398.9</ele>
      </trkpt>
      <trkpt lat="43.918959" lon="5.367111">
        <ele>398.2</ele>
      </trkpt>
      <trkpt lat="43.919098" lon="5.367114">
        <ele>398.3</ele>
      </trkpt>
      <trkpt lat="43.919166" lon="5.367138">
        <ele>397.8</ele>
      </trkpt>
      <trkpt lat="43.919263" lon="5.367226">
        <ele>399.3</ele>
      </trkpt>
      <trkpt lat="43.919384" lon="5.367221">
        <ele>400.2</ele>
      </trkpt>
      <trkpt lat="43.919207" lon="5.366963">
        <ele>404.4</ele>
      </trkpt>
      <trkpt lat="43.918890" lon="5.366770">
        <ele>402.9</ele>
      </trkpt>
      <trkpt lat="43.917800" lon="5.366521">
        <ele>416.9</ele>
      </trkpt>
      <trkpt lat="43.917487" lon="5.366223">
        <ele>414</ele>
      </trkpt>
      <trkpt lat="43.917445" lon="5.366116">
        <ele>416.1</ele>
      </trkpt>
      <trkpt lat="43.917248" lon="5.365236">
        <ele>431.2</ele>
      </trkpt>
      <trkpt lat="43.917155" lon="5.364920">
        <ele>441.4</ele>
      </trkpt>
      <trkpt lat="43.916993" lon="5.364458">
        <ele>443.6</ele>
      </trkpt>
      <trkpt lat="43.916846" lon="5.364169">
        <ele>444.2</ele>
      </trkpt>
      <trkpt lat="43.916618" lon="5.363865">
        <ele>446.7</ele>
      </trkpt>
      <trkpt lat="43.916150" lon="5.363380">
        <ele>448.5</ele>
      </trkpt>
      <trkpt lat="43.915540" lon="5.362841">
        <ele>448.9</ele>
      </trkpt>
      <trkpt lat="43.915435" lon="5.362621">
        <ele>448.8</ele>
      </trkpt>
      <trkpt lat="43.915422" lon="5.362487">
        <ele>445.9</ele>
      </trkpt>
      <trkpt lat="43.915482" lon="5.362382">
        <ele>446</ele>
      </trkpt>
      <trkpt lat="43.915613" lon="5.362358">
        <ele>447.7</ele>
      </trkpt>
      <trkpt lat="43.915766" lon="5.362382">
        <ele>450.9</ele>
      </trkpt>
      <trkpt lat="43.915874" lon="5.362377">
        <ele>452.3</ele>
      </trkpt>
      <trkpt lat="43.915968" lon="5.362369">
        <ele>451</ele>
      </trkpt>
      <trkpt lat="43.916082" lon="5.362404">
        <ele>450.1</ele>
      </trkpt>
      <trkpt lat="43.916166" lon="5.362484">
        <ele>450</ele>
      </trkpt>
      <trkpt lat="43.916330" lon="5.362624">
        <ele>456.8</ele>
      </trkpt>
      <trkpt lat="43.916741" lon="5.362841">
        <ele>458.5</ele>
      </trkpt>
      <trkpt lat="43.916975" lon="5.362935">
        <ele>458.6</ele>
      </trkpt>
      <trkpt lat="43.917653" lon="5.363326">
        <ele>459.3</ele>
      </trkpt>
      <trkpt lat="43.917765" lon="5.363383">
        <ele>462.3</ele>
      </trkpt>
      <trkpt lat="43.918003" lon="5.363611">
        <ele>460.8</ele>
      </trkpt>
      <trkpt lat="43.918177" lon="5.363852">
        <ele>461.5</ele>
      </trkpt>
      <trkpt lat="43.918272" lon="5.363927">
        <ele>462.1</ele>
      </trkpt>
      <trkpt lat="43.918488" lon="5.364091">
        <ele>456.7</ele>
      </trkpt>
      <trkpt lat="43.918977" lon="5.364692">
        <ele>450.3</ele>
      </trkpt>
      <trkpt lat="43.919114" lon="5.365005">
        <ele>447.2</ele>
      </trkpt>
      <trkpt lat="43.919270" lon="5.365172">
        <ele>440.8</ele>
      </trkpt>
      <trkpt lat="43.920025" lon="5.365729">
        <ele>429.7</ele>
      </trkpt>
      <trkpt lat="43.920025" lon="5.365729">
        <ele>429.7</ele>
      </trkpt>
      <trkpt lat="43.920025" lon="5.365729">
        <ele>429.7</ele>
      </trkpt>
      <trkpt lat="43.920025" lon="5.365729">
        <ele>429.7</ele>
      </trkpt>
      <trkpt lat="43.920399" lon="5.366006">
        <ele>425.1</ele>
      </trkpt>
      <trkpt lat="43.920571" lon="5.366035">
        <ele>424.5</ele>
      </trkpt>
      <trkpt lat="43.920706" lon="5.366014">
        <ele>424.7</ele>
      </trkpt>
      <trkpt lat="43.920893" lon="5.365810">
        <ele>424.6</ele>
      </trkpt>
      <trkpt lat="43.921260" lon="5.365590">
        <ele>418.2</ele>
      </trkpt>
      <trkpt lat="43.921875" lon="5.365373">
        <ele>415.4</ele>
      </trkpt>
      <trkpt lat="43.922561" lon="5.365083">
        <ele>407.9</ele>
      </trkpt>
      <trkpt lat="43.923312" lon="5.365030">
        <ele>397</ele>
      </trkpt>
      <trkpt lat="43.923503" lon="5.364804">
        <ele>388.3</ele>
      </trkpt>
      <trkpt lat="43.923772" lon="5.365000">
        <ele>394</ele>
      </trkpt>
      <trkpt lat="43.924096" lon="5.365260">
        <ele>392.6</ele>
      </trkpt>
      <trkpt lat="43.924330" lon="5.365547">
        <ele>387.6</ele>
      </trkpt>
      <trkpt lat="43.924357" lon="5.365695">
        <ele>387.7</ele>
      </trkpt>
      <trkpt lat="43.924487" lon="5.365166">
        <ele>387.4</ele>
      </trkpt>
      <trkpt lat="43.924537" lon="5.365070">
        <ele>387.2</ele>
      </trkpt>
      <trkpt lat="43.924597" lon="5.364954">
        <ele>382.1</ele>
      </trkpt>
      <trkpt lat="43.924763" lon="5.364654">
        <ele>379.9</ele>
      </trkpt>
      <trkpt lat="43.924809" lon="5.364254">
        <ele>375.8</ele>
      </trkpt>
      <trkpt lat="43.925333" lon="5.363745">
        <ele>358.6</ele>
      </trkpt>
      <trkpt lat="43.925625" lon="5.363463">
        <ele>355.6</ele>
      </trkpt>
      <trkpt lat="43.925781" lon="5.363305">
        <ele>350.5</ele>
      </trkpt>
      <trkpt lat="43.925872" lon="5.363144">
        <ele>346.8</ele>
      </trkpt>
      <trkpt lat="43.925982" lon="5.363085">
        <ele>345.2</ele>
      </trkpt>
      <trkpt lat="43.926071" lon="5.362986">
        <ele>343.8</ele>
      </trkpt>
      <trkpt lat="43.926320" lon="5.362473">
        <ele>335.8</ele>
      </trkpt>
      <trkpt lat="43.926440" lon="5.362326">
        <ele>335</ele>
      </trkpt>
      <trkpt lat="43.926687" lon="5.362119">
        <ele>330.4</ele>
      </trkpt>
      <trkpt lat="43.927062" lon="5.361406">
        <ele>323</ele>
      </trkpt>
      <trkpt lat="43.927332" lon="5.361492">
        <ele>322.5</ele>
      </trkpt>
      <trkpt lat="43.927475" lon="5.361446">
        <ele>322.3</ele>
      </trkpt>
      <trkpt lat="43.927529" lon="5.361395">
        <ele>318.4</ele>
      </trkpt>
      <trkpt lat="43.927713" lon="5.361076">
        <ele>316.1</ele>
      </trkpt>
      <trkpt lat="43.927835" lon="5.361012">
        <ele>315.6</ele>
      </trkpt>
      <trkpt lat="43.928648" lon="5.360287">
        <ele>303.6</ele>
      </trkpt>
      <trkpt lat="43.928576" lon="5.360250">
        <ele>303.9</ele>
      </trkpt>
      <trkpt lat="43.928509" lon="5.360191">
        <ele>304.3</ele>
      </trkpt>
      <trkpt lat="43.928474" lon="5.360073">
        <ele>304.6</ele>
      </trkpt>
      <trkpt lat="43.928451" lon="5.359928">
        <ele>303.1</ele>
      </trkpt>
      <trkpt lat="43.928445" lon="5.359367">
        <ele>299.8</ele>
      </trkpt>
      <trkpt lat="43.928487" lon="5.359169">
        <ele>299.6</ele>
      </trkpt>
      <trkpt lat="43.928478" lon="5.358767">
        <ele>296.3</ele>
      </trkpt>
      <trkpt lat="43.928354" lon="5.358045">
        <ele>292.5</ele>
      </trkpt>
      <trkpt lat="43.928192" lon="5.357396">
        <ele>289.4</ele>
      </trkpt>
      <trkpt lat="43.927906" lon="5.355892">
        <ele>284.7</ele>
      </trkpt>
      <trkpt lat="43.927868" lon="5.355691">
        <ele>284</ele>
      </trkpt>
      <trkpt lat="43.927868" lon="5.355691">
        <ele>284</ele>
      </trkpt>
      <trkpt lat="43.927858" lon="5.355636">
        <ele>284</ele>
      </trkpt>
      <trkpt lat="43.927567" lon="5.354502">
        <ele>283.4</ele>
      </trkpt>
      <trkpt lat="43.927553" lon="5.354446">
        <ele>283.4</ele>
      </trkpt>
      <trkpt lat="43.926988" lon="5.352786">
        <ele>281.9</ele>
      </trkpt>
      <trkpt lat="43.926961" lon="5.352708">
        <ele>281.9</ele>
      </trkpt>
      <trkpt lat="43.926467" lon="5.351671">
        <ele>279.5</ele>
      </trkpt>
      <trkpt lat="43.926467" lon="5.351671">
        <ele>279.5</ele>
      </trkpt>
      <trkpt lat="43.926455" lon="5.351645">
        <ele>277.6</ele>
      </trkpt>
      <trkpt lat="43.926355" lon="5.351179">
        <ele>276.4</ele>
      </trkpt>
      <trkpt lat="43.926274" lon="5.350631">
        <ele>274.4</ele>
      </trkpt>
      <trkpt lat="43.926158" lon="5.350106">
        <ele>274.2</ele>
      </trkpt>
      <trkpt lat="43.926084" lon="5.349591">
        <ele>272.7</ele>
      </trkpt>
      <trkpt lat="43.925918" lon="5.349226">
        <ele>272.2</ele>
      </trkpt>
      <trkpt lat="43.925652" lon="5.348201">
        <ele>267.1</ele>
      </trkpt>
      <trkpt lat="43.925393" lon="5.346791">
        <ele>266.3</ele>
      </trkpt>
      <trkpt lat="43.925285" lon="5.346506">
        <ele>266.6</ele>
      </trkpt>
      <trkpt lat="43.924821" lon="5.345594">
        <ele>266.1</ele>
      </trkpt>
      <trkpt lat="43.924562" lon="5.344988">
        <ele>266.3</ele>
      </trkpt>
      <trkpt lat="43.924438" lon="5.344419">
        <ele>266.6</ele>
      </trkpt>
      <trkpt lat="43.924396" lon="5.344039">
        <ele>267.1</ele>
      </trkpt>
      <trkpt lat="43.924759" lon="5.343786">
        <ele>267.3</ele>
      </trkpt>
      <trkpt lat="43.925242" lon="5.343620">
        <ele>268.2</ele>
      </trkpt>
      <trkpt lat="43.925509" lon="5.343588">
        <ele>268.5</ele>
      </trkpt>
      <trkpt lat="43.926322" lon="5.343710">
        <ele>269.3</ele>
      </trkpt>
      <trkpt lat="43.926472" lon="5.343733">
        <ele>269.3</ele>
      </trkpt>
      <trkpt lat="43.926472" lon="5.343733">
        <ele>269.3</ele>
      </trkpt>
      <trkpt lat="43.926575" lon="5.343749">
        <ele>269.3</ele>
      </trkpt>
      <trkpt lat="43.927940" lon="5.343827">
        <ele>270.7</ele>
      </trkpt>
      <trkpt lat="43.928090" lon="5.343836">
        <ele>270.6</ele>
      </trkpt>
      <trkpt lat="43.928090" lon="5.343836">
        <ele>270.6</ele>
      </trkpt>
      <trkpt lat="43.928244" lon="5.343845">
        <ele>270.5</ele>
      </trkpt>
      <trkpt lat="43.928878" lon="5.343733">
        <ele>270.6</ele>
      </trkpt>
      <trkpt lat="43.928951" lon="5.343685">
        <ele>270.6</ele>
      </trkpt>
      <trkpt lat="43.928943" lon="5.343583">
        <ele>270.6</ele>
      </trkpt>
      <trkpt lat="43.928965" lon="5.343505">
        <ele>270.7</ele>
      </trkpt>
      <trkpt lat="43.929334" lon="5.342311">
        <ele>277</ele>
      </trkpt>
      <trkpt lat="43.929444" lon="5.341574">
        <ele>281.6</ele>
      </trkpt>
      <trkpt lat="43.929583" lon="5.341496">
        <ele>282.3</ele>
      </trkpt>
      <trkpt lat="43.929695" lon="5.341523">
        <ele>282.6</ele>
      </trkpt>
      <trkpt lat="43.929932" lon="5.340587">
        <ele>285.6</ele>
      </trkpt>
      <trkpt lat="43.929988" lon="5.340554">
        <ele>285.7</ele>
      </trkpt>
      <trkpt lat="43.930039" lon="5.340458">
        <ele>290.9</ele>
      </trkpt>
      <trkpt lat="43.930139" lon="5.340402">
        <ele>291.4</ele>
      </trkpt>
      <trkpt lat="43.930236" lon="5.340396">
        <ele>291.9</ele>
      </trkpt>
      <trkpt lat="43.930504" lon="5.340249">
        <ele>294</ele>
      </trkpt>
      <trkpt lat="43.930562" lon="5.340179">
        <ele>294.8</ele>
      </trkpt>
      <trkpt lat="43.930666" lon="5.340141">
        <ele>296.2</ele>
      </trkpt>
      <trkpt lat="43.930719" lon="5.340082">
        <ele>297.5</ele>
      </trkpt>
      <trkpt lat="43.930757" lon="5.339978">
        <ele>298.3</ele>
      </trkpt>
      <trkpt lat="43.930840" lon="5.339942">
        <ele>300.4</ele>
      </trkpt>
      <trkpt lat="43.931146" lon="5.339938">
        <ele>299.9</ele>
      </trkpt>
      <trkpt lat="43.931265" lon="5.339951">
        <ele>300.4</ele>
      </trkpt>
      <trkpt lat="43.931511" lon="5.340093">
        <ele>304.5</ele>
      </trkpt>
      <trkpt lat="43.931690" lon="5.340131">
        <ele>306.3</ele>
      </trkpt>
      <trkpt lat="43.931918" lon="5.340235">
        <ele>305.7</ele>
      </trkpt>
      <trkpt lat="43.932162" lon="5.340286">
        <ele>305.4</ele>
      </trkpt>
      <trkpt lat="43.932710" lon="5.340584">
        <ele>306.6</ele>
      </trkpt>
      <trkpt lat="43.933239" lon="5.340632">
        <ele>308.4</ele>
      </trkpt>
      <trkpt lat="43.933535" lon="5.340576">
        <ele>308.4</ele>
      </trkpt>
      <trkpt lat="43.933892" lon="5.340691">
        <ele>309.1</ele>
      </trkpt>
      <trkpt lat="43.934972" lon="5.340686">
        <ele>311.6</ele>
      </trkpt>
      <trkpt lat="43.935043" lon="5.340686">
        <ele>311.5</ele>
      </trkpt>
      <trkpt lat="43.935378" lon="5.340793">
        <ele>310.3</ele>
      </trkpt>
      <trkpt lat="43.935783" lon="5.340892">
        <ele>315.2</ele>
      </trkpt>
      <trkpt lat="43.935818" lon="5.341061">
        <ele>315.5</ele>
      </trkpt>
      <trkpt lat="43.935843" lon="5.341225">
        <ele>317</ele>
      </trkpt>
      <trkpt lat="43.936073" lon="5.341501">
        <ele>317.9</ele>
      </trkpt>
      <trkpt lat="43.936390" lon="5.341670">
        <ele>316.4</ele>
      </trkpt>
      <trkpt lat="43.936517" lon="5.341721">
        <ele>317.8</ele>
      </trkpt>
      <trkpt lat="43.937174" lon="5.341866">
        <ele>318.9</ele>
      </trkpt>
      <trkpt lat="43.937326" lon="5.341955">
        <ele>318.8</ele>
      </trkpt>
      <trkpt lat="43.937440" lon="5.341971">
        <ele>319</ele>
      </trkpt>
      <trkpt lat="43.937607" lon="5.341922">
        <ele>321.3</ele>
      </trkpt>
      <trkpt lat="43.937912" lon="5.341327">
        <ele>322.8</ele>
      </trkpt>
      <trkpt lat="43.938076" lon="5.341319">
        <ele>323</ele>
      </trkpt>
      <trkpt lat="43.938360" lon="5.341346">
        <ele>324.3</ele>
      </trkpt>
      <trkpt lat="43.938814" lon="5.341209">
        <ele>323.5</ele>
      </trkpt>
      <trkpt lat="43.938995" lon="5.341190">
        <ele>323.4</ele>
      </trkpt>
      <trkpt lat="43.939523" lon="5.341273">
        <ele>323.9</ele>
      </trkpt>
      <trkpt lat="43.939832" lon="5.341263">
        <ele>323.8</ele>
      </trkpt>
      <trkpt lat="43.939955" lon="5.341260">
        <ele>323.7</ele>
      </trkpt>
      <trkpt lat="43.940054" lon="5.341313">
        <ele>322.8</ele>
      </trkpt>
      <trkpt lat="43.940368" lon="5.341590">
        <ele>323.3</ele>
      </trkpt>
      <trkpt lat="43.940410" lon="5.341552">
        <ele>323.1</ele>
      </trkpt>
      <trkpt lat="43.940438" lon="5.341386">
        <ele>322.4</ele>
      </trkpt>
      <trkpt lat="43.940490" lon="5.341054">
        <ele>320.5</ele>
      </trkpt>
      <trkpt lat="43.940570" lon="5.340952">
        <ele>319.6</ele>
      </trkpt>
      <trkpt lat="43.940722" lon="5.340852">
        <ele>317.4</ele>
      </trkpt>
      <trkpt lat="43.940880" lon="5.340723">
        <ele>314.5</ele>
      </trkpt>
      <trkpt lat="43.940978" lon="5.340643">
        <ele>314.2</ele>
      </trkpt>
      <trkpt lat="43.941063" lon="5.340359">
        <ele>313.7</ele>
      </trkpt>
      <trkpt lat="43.941043" lon="5.340187">
        <ele>313.2</ele>
      </trkpt>
      <trkpt lat="43.941047" lon="5.339817">
        <ele>317.5</ele>
      </trkpt>
      <trkpt lat="43.941039" lon="5.339742">
        <ele>318.2</ele>
      </trkpt>
      <trkpt lat="43.940792" lon="5.339264">
        <ele>319.5</ele>
      </trkpt>
      <trkpt lat="43.940696" lon="5.339157">
        <ele>322.4</ele>
      </trkpt>
      <trkpt lat="43.940530" lon="5.338669">
        <ele>323.6</ele>
      </trkpt>
      <trkpt lat="43.940514" lon="5.338444">
        <ele>325</ele>
      </trkpt>
      <trkpt lat="43.940499" lon="5.337998">
        <ele>330.8</ele>
      </trkpt>
      <trkpt lat="43.940630" lon="5.337387">
        <ele>336.5</ele>
      </trkpt>
      <trkpt lat="43.940769" lon="5.336732">
        <ele>339.7</ele>
      </trkpt>
      <trkpt lat="43.940850" lon="5.336362">
        <ele>342.5</ele>
      </trkpt>
      <trkpt lat="43.941182" lon="5.335976">
        <ele>342.5</ele>
      </trkpt>
      <trkpt lat="43.941793" lon="5.335890">
        <ele>347.1</ele>
      </trkpt>
      <trkpt lat="43.942044" lon="5.335810">
        <ele>345.6</ele>
      </trkpt>
      <trkpt lat="43.942279" lon="5.335702">
        <ele>346.5</ele>
      </trkpt>
      <trkpt lat="43.942322" lon="5.335590">
        <ele>346.4</ele>
      </trkpt>
      <trkpt lat="43.942511" lon="5.334983">
        <ele>348.4</ele>
      </trkpt>
      <trkpt lat="43.942569" lon="5.334941">
        <ele>349.6</ele>
      </trkpt>
      <trkpt lat="43.942824" lon="5.334426">
        <ele>353.1</ele>
      </trkpt>
      <trkpt lat="43.942905" lon="5.334136">
        <ele>354.6</ele>
      </trkpt>
      <trkpt lat="43.942955" lon="5.333878">
        <ele>354.8</ele>
      </trkpt>
      <trkpt lat="43.943029" lon="5.333487">
        <ele>355</ele>
      </trkpt>
      <trkpt lat="43.943094" lon="5.333176">
        <ele>355.6</ele>
      </trkpt>
      <trkpt lat="43.943106" lon="5.332655">
        <ele>355.7</ele>
      </trkpt>
      <trkpt lat="43.943592" lon="5.331320">
        <ele>358.2</ele>
      </trkpt>
      <trkpt lat="43.943643" lon="5.331180">
        <ele>358.3</ele>
      </trkpt>
      <trkpt lat="43.943701" lon="5.331041">
        <ele>358.5</ele>
      </trkpt>
      <trkpt lat="43.943747" lon="5.330944">
        <ele>358.7</ele>
      </trkpt>
      <trkpt lat="43.943724" lon="5.330493">
        <ele>357.4</ele>
      </trkpt>
      <trkpt lat="43.943681" lon="5.330134">
        <ele>356.9</ele>
      </trkpt>
      <trkpt lat="43.943488" lon="5.329549">
        <ele>356.9</ele>
      </trkpt>
      <trkpt lat="43.942979" lon="5.328257">
        <ele>352.9</ele>
      </trkpt>
      <trkpt lat="43.942907" lon="5.328075">
        <ele>352.6</ele>
      </trkpt>
      <trkpt lat="43.942907" lon="5.328075">
        <ele>352.6</ele>
      </trkpt>
      <trkpt lat="43.942830" lon="5.327878">
        <ele>352.3</ele>
      </trkpt>
      <trkpt lat="43.942830" lon="5.327878">
        <ele>352.3</ele>
      </trkpt>
      <trkpt lat="43.942443" lon="5.326894">
        <ele>345.8</ele>
      </trkpt>
      <trkpt lat="43.942426" lon="5.326851">
        <ele>345.9</ele>
      </trkpt>
      <trkpt lat="43.942167" lon="5.326164">
        <ele>343.9</ele>
      </trkpt>
      <trkpt lat="43.941916" lon="5.325794">
        <ele>342.7</ele>
      </trkpt>
      <trkpt lat="43.941847" lon="5.325655">
        <ele>342.5</ele>
      </trkpt>
      <trkpt lat="43.941762" lon="5.325596">
        <ele>342.3</ele>
      </trkpt>
      <trkpt lat="43.941534" lon="5.324914">
        <ele>337.9</ele>
      </trkpt>
      <trkpt lat="43.941487" lon="5.324775">
        <ele>337</ele>
      </trkpt>
      <trkpt lat="43.941202" lon="5.324351">
        <ele>335.2</ele>
      </trkpt>
      <trkpt lat="43.940858" lon="5.323831">
        <ele>334.8</ele>
      </trkpt>
      <trkpt lat="43.940707" lon="5.323638">
        <ele>329</ele>
      </trkpt>
      <trkpt lat="43.940406" lon="5.322978">
        <ele>327.9</ele>
      </trkpt>
      <trkpt lat="43.940054" lon="5.322281">
        <ele>326</ele>
      </trkpt>
      <trkpt lat="43.939877" lon="5.321900">
        <ele>320.9</ele>
      </trkpt>
      <trkpt lat="43.939823" lon="5.321615">
        <ele>321.4</ele>
      </trkpt>
      <trkpt lat="43.939792" lon="5.321277">
        <ele>320.3</ele>
      </trkpt>
      <trkpt lat="43.939490" lon="5.320221">
        <ele>320</ele>
      </trkpt>
      <trkpt lat="43.939436" lon="5.319974">
        <ele>320.7</ele>
      </trkpt>
      <trkpt lat="43.939197" lon="5.319534">
        <ele>320.5</ele>
      </trkpt>
      <trkpt lat="43.938826" lon="5.318778">
        <ele>314.7</ele>
      </trkpt>
      <trkpt lat="43.938672" lon="5.318504">
        <ele>313.9</ele>
      </trkpt>
      <trkpt lat="43.938486" lon="5.318139">
        <ele>313.1</ele>
      </trkpt>
      <trkpt lat="43.938363" lon="5.317801">
        <ele>313</ele>
      </trkpt>
      <trkpt lat="43.938123" lon="5.317179">
        <ele>308.8</ele>
      </trkpt>
      <trkpt lat="43.938050" lon="5.316900">
        <ele>309</ele>
      </trkpt>
      <trkpt lat="43.937949" lon="5.316283">
        <ele>309.6</ele>
      </trkpt>
      <trkpt lat="43.937833" lon="5.316063">
        <ele>309.1</ele>
      </trkpt>
      <trkpt lat="43.937559" lon="5.315768">
        <ele>306.4</ele>
      </trkpt>
      <trkpt lat="43.937180" lon="5.315001">
        <ele>300.2</ele>
      </trkpt>
      <trkpt lat="43.936860" lon="5.314395">
        <ele>297.7</ele>
      </trkpt>
      <trkpt lat="43.936520" lon="5.313912">
        <ele>291.3</ele>
      </trkpt>
      <trkpt lat="43.936002" lon="5.313290">
        <ele>288.8</ele>
      </trkpt>
      <trkpt lat="43.935917" lon="5.313247">
        <ele>288.1</ele>
      </trkpt>
      <trkpt lat="43.935840" lon="5.313236">
        <ele>287.7</ele>
      </trkpt>
      <trkpt lat="43.935804" lon="5.313225">
        <ele>284.5</ele>
      </trkpt>
      <trkpt lat="43.935655" lon="5.313252">
        <ele>283.5</ele>
      </trkpt>
      <trkpt lat="43.935485" lon="5.313300">
        <ele>282.1</ele>
      </trkpt>
      <trkpt lat="43.935261" lon="5.313402">
        <ele>278.9</ele>
      </trkpt>
      <trkpt lat="43.935125" lon="5.313349">
        <ele>277.6</ele>
      </trkpt>
      <trkpt lat="43.934588" lon="5.312700">
        <ele>273.8</ele>
      </trkpt>
      <trkpt lat="43.934214" lon="5.312029">
        <ele>273.9</ele>
      </trkpt>
      <trkpt lat="43.933746" lon="5.311385">
        <ele>269.5</ele>
      </trkpt>
      <trkpt lat="43.933499" lon="5.310838">
        <ele>268.5</ele>
      </trkpt>
      <trkpt lat="43.933168" lon="5.309789">
        <ele>262.6</ele>
      </trkpt>
      <trkpt lat="43.933167" lon="5.309787">
        <ele>262.6</ele>
      </trkpt>
      <trkpt lat="43.933151" lon="5.309427">
        <ele>262.3</ele>
      </trkpt>
      <trkpt lat="43.933074" lon="5.308977">
        <ele>261.6</ele>
      </trkpt>
      <trkpt lat="43.932873" lon="5.308306">
        <ele>260.6</ele>
      </trkpt>
      <trkpt lat="43.932653" lon="5.307941">
        <ele>260</ele>
      </trkpt>
      <trkpt lat="43.932406" lon="5.307341">
        <ele>256.1</ele>
      </trkpt>
      <trkpt lat="43.932035" lon="5.306160">
        <ele>253.8</ele>
      </trkpt>
      <trkpt lat="43.931911" lon="5.305409">
        <ele>253.5</ele>
      </trkpt>
      <trkpt lat="43.931857" lon="5.304728">
        <ele>252.9</ele>
      </trkpt>
      <trkpt lat="43.931483" lon="5.303574">
        <ele>247.4</ele>
      </trkpt>
      <trkpt lat="43.931483" lon="5.303574">
        <ele>247.4</ele>
      </trkpt>
      <trkpt lat="43.931308" lon="5.303033">
        <ele>246.1</ele>
      </trkpt>
      <trkpt lat="43.931169" lon="5.303097">
        <ele>245.4</ele>
      </trkpt>
      <trkpt lat="43.931023" lon="5.303194">
        <ele>244.4</ele>
      </trkpt>
      <trkpt lat="43.930961" lon="5.303199">
        <ele>244</ele>
      </trkpt>
      <trkpt lat="43.930671" lon="5.302175">
        <ele>240.3</ele>
      </trkpt>
      <trkpt lat="43.930737" lon="5.301987">
        <ele>240.6</ele>
      </trkpt>
      <trkpt lat="43.930663" lon="5.301633">
        <ele>241</ele>
      </trkpt>
      <trkpt lat="43.930636" lon="5.301102">
        <ele>240.1</ele>
      </trkpt>
      <trkpt lat="43.930473" lon="5.299956">
        <ele>240.8</ele>
      </trkpt>
      <trkpt lat="43.930473" lon="5.299956">
        <ele>240.8</ele>
      </trkpt>
      <trkpt lat="43.930393" lon="5.299391">
        <ele>240.4</ele>
      </trkpt>
      <trkpt lat="43.930354" lon="5.298699">
        <ele>239.2</ele>
      </trkpt>
      <trkpt lat="43.930262" lon="5.297840">
        <ele>237.1</ele>
      </trkpt>
      <trkpt lat="43.930250" lon="5.297191">
        <ele>236.8</ele>
      </trkpt>
      <trkpt lat="43.930219" lon="5.295496">
        <ele>235.7</ele>
      </trkpt>
      <trkpt lat="43.930215" lon="5.295303">
        <ele>235.7</ele>
      </trkpt>
      <trkpt lat="43.930354" lon="5.294182">
        <ele>234.1</ele>
      </trkpt>
      <trkpt lat="43.930427" lon="5.292152">
        <ele>233</ele>
      </trkpt>
      <trkpt lat="43.930427" lon="5.292152">
        <ele>233</ele>
      </trkpt>
      <trkpt lat="43.930462" lon="5.291199">
        <ele>233.9</ele>
      </trkpt>
      <trkpt lat="43.930420" lon="5.290856">
        <ele>233.9</ele>
      </trkpt>
      <trkpt lat="43.930394" lon="5.290676">
        <ele>233.7</ele>
      </trkpt>
      <trkpt lat="43.930338" lon="5.290695">
        <ele>233.5</ele>
      </trkpt>
      <trkpt lat="43.929680" lon="5.290955">
        <ele>232.2</ele>
      </trkpt>
      <trkpt lat="43.929260" lon="5.291065">
        <ele>232.8</ele>
      </trkpt>
      <trkpt lat="43.929100" lon="5.290896">
        <ele>232.3</ele>
      </trkpt>
      <trkpt lat="43.928554" lon="5.290829">
        <ele>230.6</ele>
      </trkpt>
      <trkpt lat="43.927522" lon="5.290512">
        <ele>224.4</ele>
      </trkpt>
      <trkpt lat="43.927280" lon="5.290438">
        <ele>218.6</ele>
      </trkpt>
      <trkpt lat="43.926890" lon="5.290226">
        <ele>216.7</ele>
      </trkpt>
      <trkpt lat="43.926870" lon="5.290178">
        <ele>216.5</ele>
      </trkpt>
      <trkpt lat="43.926065" lon="5.290410">
        <ele>211.3</ele>
      </trkpt>
      <trkpt lat="43.925980" lon="5.290435">
        <ele>211.1</ele>
      </trkpt>
      <trkpt lat="43.925184" lon="5.290672">
        <ele>208</ele>
      </trkpt>
      <trkpt lat="43.925184" lon="5.290672">
        <ele>208</ele>
      </trkpt>
      <trkpt lat="43.925174" lon="5.290675">
        <ele>208</ele>
      </trkpt>
      <trkpt lat="43.925115" lon="5.290692">
        <ele>207.8</ele>
      </trkpt>
      <trkpt lat="43.924950" lon="5.290741">
        <ele>207.1</ele>
      </trkpt>
      <trkpt lat="43.924102" lon="5.291109">
        <ele>207.5</ele>
      </trkpt>
      <trkpt lat="43.923960" lon="5.291170">
        <ele>207.5</ele>
      </trkpt>
      <trkpt lat="43.923071" lon="5.291455">
        <ele>207</ele>
      </trkpt>
      <trkpt lat="43.923040" lon="5.291465">
        <ele>207</ele>
      </trkpt>
      <trkpt lat="43.922680" lon="5.291339">
        <ele>207</ele>
      </trkpt>
      <trkpt lat="43.922460" lon="5.291311">
        <ele>206.7</ele>
      </trkpt>
      <trkpt lat="43.922420" lon="5.291143">
        <ele>206.7</ele>
      </trkpt>
      <trkpt lat="43.922120" lon="5.290942">
        <ele>206.5</ele>
      </trkpt>
      <trkpt lat="43.921780" lon="5.290880">
        <ele>206.2</ele>
      </trkpt>
      <trkpt lat="43.920880" lon="5.291267">
        <ele>207</ele>
      </trkpt>
      <trkpt lat="43.920035" lon="5.290985">
        <ele>207.3</ele>
      </trkpt>
      <trkpt lat="43.919889" lon="5.290936">
        <ele>207.6</ele>
      </trkpt>
      <trkpt lat="43.919889" lon="5.290936">
        <ele>207.6</ele>
      </trkpt>
      <trkpt lat="43.919732" lon="5.290883">
        <ele>208</ele>
      </trkpt>
      <trkpt lat="43.919732" lon="5.290883">
        <ele>208</ele>
      </trkpt>
      <trkpt lat="43.918945" lon="5.290620">
        <ele>209.4</ele>
      </trkpt>
      <trkpt lat="43.918920" lon="5.290612">
        <ele>209.4</ele>
      </trkpt>
      <trkpt lat="43.917990" lon="5.290355">
        <ele>210.4</ele>
      </trkpt>
      <trkpt lat="43.917137" lon="5.290724">
        <ele>212.1</ele>
      </trkpt>
      <trkpt lat="43.916898" lon="5.290827">
        <ele>212.5</ele>
      </trkpt>
      <trkpt lat="43.916754" lon="5.290889">
        <ele>212.7</ele>
      </trkpt>
      <trkpt lat="43.916754" lon="5.290889">
        <ele>212.7</ele>
      </trkpt>
      <trkpt lat="43.916600" lon="5.290956">
        <ele>213.6</ele>
      </trkpt>
      <trkpt lat="43.916600" lon="5.290956">
        <ele>213.6</ele>
      </trkpt>
      <trkpt lat="43.916280" lon="5.291095">
        <ele>214.4</ele>
      </trkpt>
      <trkpt lat="43.915840" lon="5.291502">
        <ele>215.3</ele>
      </trkpt>
      <trkpt lat="43.915120" lon="5.292200">
        <ele>219</ele>
      </trkpt>
      <trkpt lat="43.914960" lon="5.292302">
        <ele>221.1</ele>
      </trkpt>
      <trkpt lat="43.914800" lon="5.292331">
        <ele>221.4</ele>
      </trkpt>
      <trkpt lat="43.914720" lon="5.292500">
        <ele>224</ele>
      </trkpt>
      <trkpt lat="43.914172" lon="5.293400">
        <ele>231.4</ele>
      </trkpt>
      <trkpt lat="43.914068" lon="5.293571">
        <ele>233.8</ele>
      </trkpt>
      <trkpt lat="43.913910" lon="5.293831">
        <ele>234.8</ele>
      </trkpt>
      <trkpt lat="43.913700" lon="5.294260">
        <ele>237.8</ele>
      </trkpt>
      <trkpt lat="43.913310" lon="5.294774">
        <ele>241.8</ele>
      </trkpt>
      <trkpt lat="43.912493" lon="5.295471">
        <ele>243.8</ele>
      </trkpt>
      <trkpt lat="43.912365" lon="5.295580">
        <ele>243.8</ele>
      </trkpt>
      <trkpt lat="43.912365" lon="5.295580">
        <ele>243.8</ele>
      </trkpt>
      <trkpt lat="43.912228" lon="5.295697">
        <ele>244</ele>
      </trkpt>
      <trkpt lat="43.912104" lon="5.295802">
        <ele>244.5</ele>
      </trkpt>
      <trkpt lat="43.911606" lon="5.295796">
        <ele>246.7</ele>
      </trkpt>
      <trkpt lat="43.911559" lon="5.295925">
        <ele>248.5</ele>
      </trkpt>
      <trkpt lat="43.911749" lon="5.296478">
        <ele>250.5</ele>
      </trkpt>
      <trkpt lat="43.911834" lon="5.296853">
        <ele>252.9</ele>
      </trkpt>
      <trkpt lat="43.911961" lon="5.297202">
        <ele>253.2</ele>
      </trkpt>
      <trkpt lat="43.911873" lon="5.298470">
        <ele>254.2</ele>
      </trkpt>
      <trkpt lat="43.911849" lon="5.298815">
        <ele>254.1</ele>
      </trkpt>
      <trkpt lat="43.911835" lon="5.299022">
        <ele>254.3</ele>
      </trkpt>
      <trkpt lat="43.911835" lon="5.299022">
        <ele>254.3</ele>
      </trkpt>
      <trkpt lat="43.911834" lon="5.299031">
        <ele>254.3</ele>
      </trkpt>
      <trkpt lat="43.911820" lon="5.299354">
        <ele>254.1</ele>
      </trkpt>
      <trkpt lat="43.911741" lon="5.299433">
        <ele>254</ele>
      </trkpt>
      <trkpt lat="43.911530" lon="5.299490">
        <ele>255.7</ele>
      </trkpt>
      <trkpt lat="43.911470" lon="5.299788">
        <ele>255.6</ele>
      </trkpt>
      <trkpt lat="43.911408" lon="5.300174">
        <ele>255.2</ele>
      </trkpt>
      <trkpt lat="43.911242" lon="5.299873">
        <ele>256.4</ele>
      </trkpt>
      <trkpt lat="43.910933" lon="5.299627">
        <ele>256.9</ele>
      </trkpt>
      <trkpt lat="43.910108" lon="5.299528">
        <ele>258.9</ele>
      </trkpt>
      <trkpt lat="43.910108" lon="5.299528">
        <ele>258.9</ele>
      </trkpt>
      <trkpt lat="43.910098" lon="5.299527">
        <ele>258.9</ele>
      </trkpt>
      <trkpt lat="43.910038" lon="5.299520">
        <ele>258.8</ele>
      </trkpt>
      <trkpt lat="43.909920" lon="5.299506">
        <ele>258.3</ele>
      </trkpt>
      <trkpt lat="43.909109" lon="5.298876">
        <ele>247.1</ele>
      </trkpt>
      <trkpt lat="43.908531" lon="5.298073">
        <ele>242</ele>
      </trkpt>
      <trkpt lat="43.908354" lon="5.297827">
        <ele>241.7</ele>
      </trkpt>
      <trkpt lat="43.908248" lon="5.297680">
        <ele>242</ele>
      </trkpt>
      <trkpt lat="43.908248" lon="5.297680">
        <ele>242</ele>
      </trkpt>
      <trkpt lat="43.908134" lon="5.297522">
        <ele>242</ele>
      </trkpt>
      <trkpt lat="43.907617" lon="5.296805">
        <ele>246</ele>
      </trkpt>
      <trkpt lat="43.907176" lon="5.295854">
        <ele>255</ele>
      </trkpt>
      <trkpt lat="43.907170" lon="5.295842">
        <ele>255</ele>
      </trkpt>
      <trkpt lat="43.907137" lon="5.295771">
        <ele>259.4</ele>
      </trkpt>
      <trkpt lat="43.907137" lon="5.295771">
        <ele>259.4</ele>
      </trkpt>
      <trkpt lat="43.906700" lon="5.294829">
        <ele>269</ele>
      </trkpt>
      <trkpt lat="43.906540" lon="5.294485">
        <ele>283.4</ele>
      </trkpt>
      <trkpt lat="43.906450" lon="5.294359">
        <ele>284.3</ele>
      </trkpt>
      <trkpt lat="43.906309" lon="5.293151">
        <ele>292.6</ele>
      </trkpt>
      <trkpt lat="43.906303" lon="5.293103">
        <ele>292.8</ele>
      </trkpt>
      <trkpt lat="43.905769" lon="5.292058">
        <ele>296.3</ele>
      </trkpt>
      <trkpt lat="43.905739" lon="5.291998">
        <ele>295.8</ele>
      </trkpt>
      <trkpt lat="43.905646" lon="5.291891">
        <ele>295.2</ele>
      </trkpt>
      <trkpt lat="43.904652" lon="5.292338">
        <ele>298.3</ele>
      </trkpt>
      <trkpt lat="43.904525" lon="5.292395">
        <ele>298.3</ele>
      </trkpt>
      <trkpt lat="43.904409" lon="5.292492">
        <ele>298.4</ele>
      </trkpt>
      <trkpt lat="43.904000" lon="5.292513">
        <ele>300.4</ele>
      </trkpt>
      <trkpt lat="43.903910" lon="5.292370">
        <ele>306</ele>
      </trkpt>
      <trkpt lat="43.903830" lon="5.292365">
        <ele>307.2</ele>
      </trkpt>
      <trkpt lat="43.903780" lon="5.292438">
        <ele>307.8</ele>
      </trkpt>
      <trkpt lat="43.903730" lon="5.292491">
        <ele>308.5</ele>
      </trkpt>
      <trkpt lat="43.903530" lon="5.292586">
        <ele>306.7</ele>
      </trkpt>
      <trkpt lat="43.903000" lon="5.293144">
        <ele>312.1</ele>
      </trkpt>
      <trkpt lat="43.902300" lon="5.293600">
        <ele>314.8</ele>
      </trkpt>
      <trkpt lat="43.902130" lon="5.293209">
        <ele>317.4</ele>
      </trkpt>
      <trkpt lat="43.902060" lon="5.293315">
        <ele>317</ele>
      </trkpt>
      <trkpt lat="43.901940" lon="5.293619">
        <ele>314.5</ele>
      </trkpt>
      <trkpt lat="43.901960" lon="5.293783">
        <ele>314.1</ele>
      </trkpt>
      <trkpt lat="43.901152" lon="5.293925">
        <ele>315.9</ele>
      </trkpt>
      <trkpt lat="43.901003" lon="5.293951">
        <ele>316.5</ele>
      </trkpt>
      <trkpt lat="43.901003" lon="5.293951">
        <ele>316.5</ele>
      </trkpt>
      <trkpt lat="43.900843" lon="5.293979">
        <ele>317.3</ele>
      </trkpt>
      <trkpt lat="43.900843" lon="5.293979">
        <ele>317.3</ele>
      </trkpt>
      <trkpt lat="43.900710" lon="5.294002">
        <ele>316.4</ele>
      </trkpt>
      <trkpt lat="43.899794" lon="5.294166">
        <ele>315.8</ele>
      </trkpt>
      <trkpt lat="43.899750" lon="5.294174">
        <ele>322.2</ele>
      </trkpt>
      <trkpt lat="43.899493" lon="5.294230">
        <ele>323.3</ele>
      </trkpt>
      <trkpt lat="43.899207" lon="5.294015">
        <ele>317</ele>
      </trkpt>
      <trkpt lat="43.898882" lon="5.293715">
        <ele>314.2</ele>
      </trkpt>
      <trkpt lat="43.898519" lon="5.293618">
        <ele>312.2</ele>
      </trkpt>
      <trkpt lat="43.897738" lon="5.293940">
        <ele>310.6</ele>
      </trkpt>
      <trkpt lat="43.897170" lon="5.295135">
        <ele>311.6</ele>
      </trkpt>
      <trkpt lat="43.897050" lon="5.295387">
        <ele>311.5</ele>
      </trkpt>
      <trkpt lat="43.896820" lon="5.295762">
        <ele>309.6</ele>
      </trkpt>
      <trkpt lat="43.896690" lon="5.295794">
        <ele>307.8</ele>
      </trkpt>
      <trkpt lat="43.896690" lon="5.295955">
        <ele>310</ele>
      </trkpt>
      <trkpt lat="43.896750" lon="5.296019">
        <ele>311.3</ele>
      </trkpt>
      <trkpt lat="43.896600" lon="5.296432">
        <ele>306.3</ele>
      </trkpt>
      <trkpt lat="43.896116" lon="5.297448">
        <ele>304.3</ele>
      </trkpt>
      <trkpt lat="43.896116" lon="5.297448">
        <ele>304.3</ele>
      </trkpt>
      <trkpt lat="43.896110" lon="5.297460">
        <ele>304.2</ele>
      </trkpt>
      <trkpt lat="43.896077" lon="5.297529">
        <ele>305</ele>
      </trkpt>
      <trkpt lat="43.896040" lon="5.297607">
        <ele>304.8</ele>
      </trkpt>
      <trkpt lat="43.895500" lon="5.298755">
        <ele>303.3</ele>
      </trkpt>
      <trkpt lat="43.895470" lon="5.298820">
        <ele>303.3</ele>
      </trkpt>
      <trkpt lat="43.895320" lon="5.298873">
        <ele>302.8</ele>
      </trkpt>
      <trkpt lat="43.894890" lon="5.299361">
        <ele>299.1</ele>
      </trkpt>
      <trkpt lat="43.894225" lon="5.300100">
        <ele>297</ele>
      </trkpt>
      <trkpt lat="43.894030" lon="5.300317">
        <ele>298.4</ele>
      </trkpt>
      <trkpt lat="43.893988" lon="5.300453">
        <ele>298.8</ele>
      </trkpt>
      <trkpt lat="43.893860" lon="5.300743">
        <ele>299.5</ele>
      </trkpt>
      <trkpt lat="43.893812" lon="5.300879">
        <ele>300.3</ele>
      </trkpt>
      <trkpt lat="43.893503" lon="5.301847">
        <ele>297.7</ele>
      </trkpt>
      <trkpt lat="43.893426" lon="5.302075">
        <ele>296.7</ele>
      </trkpt>
      <trkpt lat="43.893408" lon="5.302384">
        <ele>295.1</ele>
      </trkpt>
      <trkpt lat="43.893499" lon="5.302735">
        <ele>290.7</ele>
      </trkpt>
      <trkpt lat="43.893806" lon="5.303124">
        <ele>288.5</ele>
      </trkpt>
      <trkpt lat="43.893965" lon="5.303376">
        <ele>283.3</ele>
      </trkpt>
      <trkpt lat="43.894040" lon="5.303623">
        <ele>282.2</ele>
      </trkpt>
      <trkpt lat="43.894071" lon="5.303891">
        <ele>280.8</ele>
      </trkpt>
      <trkpt lat="43.894058" lon="5.304076">
        <ele>280.2</ele>
      </trkpt>
      <trkpt lat="43.894118" lon="5.304283">
        <ele>278</ele>
      </trkpt>
      <trkpt lat="43.894597" lon="5.304621">
        <ele>285.3</ele>
      </trkpt>
      <trkpt lat="43.894649" lon="5.304860">
        <ele>285.6</ele>
      </trkpt>
      <trkpt lat="43.894825" lon="5.305219">
        <ele>285.7</ele>
      </trkpt>
      <trkpt lat="43.895043" lon="5.305544">
        <ele>289.7</ele>
      </trkpt>
      <trkpt lat="43.895152" lon="5.305597">
        <ele>289.7</ele>
      </trkpt>
      <trkpt lat="43.895355" lon="5.305603">
        <ele>290.4</ele>
      </trkpt>
      <trkpt lat="43.895430" lon="5.305654">
        <ele>290.5</ele>
      </trkpt>
      <trkpt lat="43.895560" lon="5.305691">
        <ele>290.8</ele>
      </trkpt>
      <trkpt lat="43.895689" lon="5.305621">
        <ele>291.1</ele>
      </trkpt>
      <trkpt lat="43.895797" lon="5.305503">
        <ele>291.5</ele>
      </trkpt>
      <trkpt lat="43.896387" lon="5.305882">
        <ele>289.1</ele>
      </trkpt>
      <trkpt lat="43.896682" lon="5.306064">
        <ele>289.6</ele>
      </trkpt>
      <trkpt lat="43.896524" lon="5.306450">
        <ele>287.8</ele>
      </trkpt>
      <trkpt lat="43.896511" lon="5.306539">
        <ele>287.6</ele>
      </trkpt>
      <trkpt lat="43.896541" lon="5.306780">
        <ele>285.3</ele>
      </trkpt>
      <trkpt lat="43.896584" lon="5.307236">
        <ele>283.1</ele>
      </trkpt>
      <trkpt lat="43.896704" lon="5.308338">
        <ele>282.7</ele>
      </trkpt>
      <trkpt lat="43.896783" lon="5.308695">
        <ele>285.7</ele>
      </trkpt>
      <trkpt lat="43.896836" lon="5.308979">
        <ele>286.3</ele>
      </trkpt>
      <trkpt lat="43.896866" lon="5.309178">
        <ele>289.2</ele>
      </trkpt>
      <trkpt lat="43.896855" lon="5.309288">
        <ele>289.6</ele>
      </trkpt>
      <trkpt lat="43.896816" lon="5.309379">
        <ele>290.1</ele>
      </trkpt>
      <trkpt lat="43.896718" lon="5.309443">
        <ele>290.3</ele>
      </trkpt>
      <trkpt lat="43.896555" lon="5.309481">
        <ele>285</ele>
      </trkpt>
      <trkpt lat="43.896459" lon="5.309484">
        <ele>284.6</ele>
      </trkpt>
      <trkpt lat="43.896350" lon="5.309502">
        <ele>284</ele>
      </trkpt>
      <trkpt lat="43.896231" lon="5.309725">
        <ele>284.2</ele>
      </trkpt>
      <trkpt lat="43.896032" lon="5.309913">
        <ele>283</ele>
      </trkpt>
      <trkpt lat="43.896024" lon="5.310076">
        <ele>287.3</ele>
      </trkpt>
      <trkpt lat="43.895883" lon="5.310401">
        <ele>289.9</ele>
      </trkpt>
      <trkpt lat="43.895860" lon="5.310712">
        <ele>291.3</ele>
      </trkpt>
      <trkpt lat="43.895538" lon="5.311919">
        <ele>291.6</ele>
      </trkpt>
      <trkpt lat="43.895531" lon="5.311946">
        <ele>291.6</ele>
      </trkpt>
      <trkpt lat="43.895423" lon="5.312254">
        <ele>291.1</ele>
      </trkpt>
      <trkpt lat="43.895376" lon="5.312646">
        <ele>288.6</ele>
      </trkpt>
      <trkpt lat="43.895222" lon="5.313156">
        <ele>287.6</ele>
      </trkpt>
      <trkpt lat="43.895262" lon="5.313478">
        <ele>284.8</ele>
      </trkpt>
      <trkpt lat="43.895270" lon="5.313832">
        <ele>284</ele>
      </trkpt>
      <trkpt lat="43.895200" lon="5.314111">
        <ele>284.4</ele>
      </trkpt>
      <trkpt lat="43.895195" lon="5.314363">
        <ele>283</ele>
      </trkpt>
      <trkpt lat="43.894914" lon="5.315210">
        <ele>285</ele>
      </trkpt>
      <trkpt lat="43.894868" lon="5.315865">
        <ele>283.2</ele>
      </trkpt>
      <trkpt lat="43.894793" lon="5.316117">
        <ele>283.3</ele>
      </trkpt>
      <trkpt lat="43.894497" lon="5.316192">
        <ele>283.2</ele>
      </trkpt>
      <trkpt lat="43.894404" lon="5.316428">
        <ele>282.8</ele>
      </trkpt>
      <trkpt lat="43.894340" lon="5.316718">
        <ele>281.9</ele>
      </trkpt>
      <trkpt lat="43.894335" lon="5.317198">
        <ele>281.6</ele>
      </trkpt>
      <trkpt lat="43.894236" lon="5.317418">
        <ele>279.7</ele>
      </trkpt>
      <trkpt lat="43.894178" lon="5.317667">
        <ele>278.7</ele>
      </trkpt>
      <trkpt lat="43.894209" lon="5.317807">
        <ele>278.8</ele>
      </trkpt>
      <trkpt lat="43.894193" lon="5.317984">
        <ele>278.3</ele>
      </trkpt>
      <trkpt lat="43.894174" lon="5.318139">
        <ele>277.4</ele>
      </trkpt>
      <trkpt lat="43.894190" lon="5.318340">
        <ele>274.9</ele>
      </trkpt>
      <trkpt lat="43.894182" lon="5.318544">
        <ele>274.5</ele>
      </trkpt>
      <trkpt lat="43.894139" lon="5.318724">
        <ele>274.1</ele>
      </trkpt>
      <trkpt lat="43.894135" lon="5.318909">
        <ele>273.7</ele>
      </trkpt>
      <trkpt lat="43.894012" lon="5.319486">
        <ele>269.9</ele>
      </trkpt>
      <trkpt lat="43.893776" lon="5.320030">
        <ele>265.7</ele>
      </trkpt>
      <trkpt lat="43.893361" lon="5.321062">
        <ele>262.5</ele>
      </trkpt>
      <trkpt lat="43.893360" lon="5.321065">
        <ele>262.5</ele>
      </trkpt>
      <trkpt lat="43.893237" lon="5.321181">
        <ele>260.8</ele>
      </trkpt>
      <trkpt lat="43.893107" lon="5.321725">
        <ele>257.4</ele>
      </trkpt>
      <trkpt lat="43.892947" lon="5.322254">
        <ele>255.9</ele>
      </trkpt>
      <trkpt lat="43.892744" lon="5.322551">
        <ele>253.2</ele>
      </trkpt>
      <trkpt lat="43.892601" lon="5.323023">
        <ele>252</ele>
      </trkpt>
      <trkpt lat="43.892170" lon="5.324064">
        <ele>247.2</ele>
      </trkpt>
      <trkpt lat="43.891828" lon="5.325181">
        <ele>242.4</ele>
      </trkpt>
      <trkpt lat="43.891828" lon="5.325181">
        <ele>242.4</ele>
      </trkpt>
      <trkpt lat="43.891765" lon="5.325387">
        <ele>242.1</ele>
      </trkpt>
      <trkpt lat="43.891470" lon="5.326352">
        <ele>239.3</ele>
      </trkpt>
      <trkpt lat="43.891543" lon="5.326400">
        <ele>239.3</ele>
      </trkpt>
      <trkpt lat="43.892009" lon="5.326795">
        <ele>237.3</ele>
      </trkpt>
      <trkpt lat="43.892576" lon="5.327514">
        <ele>235.7</ele>
      </trkpt>
      <trkpt lat="43.893146" lon="5.327937">
        <ele>234.5</ele>
      </trkpt>
      <trkpt lat="43.893451" lon="5.328120">
        <ele>232.3</ele>
      </trkpt>
      <trkpt lat="43.893571" lon="5.328157">
        <ele>232.1</ele>
      </trkpt>
      <trkpt lat="43.893675" lon="5.328171">
        <ele>231.9</ele>
      </trkpt>
      <trkpt lat="43.894329" lon="5.328101">
        <ele>229.1</ele>
      </trkpt>
      <trkpt lat="43.894818" lon="5.327964">
        <ele>229.2</ele>
      </trkpt>
      <trkpt lat="43.895255" lon="5.327889">
        <ele>227.8</ele>
      </trkpt>
      <trkpt lat="43.895593" lon="5.327921">
        <ele>227.3</ele>
      </trkpt>
      <trkpt lat="43.895819" lon="5.327280">
        <ele>230</ele>
      </trkpt>
      <trkpt lat="43.895885" lon="5.327275">
        <ele>229.2</ele>
      </trkpt>
      <trkpt lat="43.896718" lon="5.327042">
        <ele>229.1</ele>
      </trkpt>
      <trkpt lat="43.896964" lon="5.326973">
        <ele>228.9</ele>
      </trkpt>
      <trkpt lat="43.897111" lon="5.326932">
        <ele>228.8</ele>
      </trkpt>
      <trkpt lat="43.897270" lon="5.326887">
        <ele>228.6</ele>
      </trkpt>
      <trkpt lat="43.897564" lon="5.326805">
        <ele>227.9</ele>
      </trkpt>
      <trkpt lat="43.897960" lon="5.326722">
        <ele>227.8</ele>
      </trkpt>
      <trkpt lat="43.898071" lon="5.326717">
        <ele>227.8</ele>
      </trkpt>
      <trkpt lat="43.898289" lon="5.326779">
        <ele>227.9</ele>
      </trkpt>
      <trkpt lat="43.898791" lon="5.327020">
        <ele>228.3</ele>
      </trkpt>
      <trkpt lat="43.898987" lon="5.327098">
        <ele>228.4</ele>
      </trkpt>
      <trkpt lat="43.899887" lon="5.327263">
        <ele>230.4</ele>
      </trkpt>
      <trkpt lat="43.900135" lon="5.327309">
        <ele>231.4</ele>
      </trkpt>
      <trkpt lat="43.900210" lon="5.327323">
        <ele>231.5</ele>
      </trkpt>
      <trkpt lat="43.900423" lon="5.327390">
        <ele>231.7</ele>
      </trkpt>
      <trkpt lat="43.900728" lon="5.327468">
        <ele>231.9</ele>
      </trkpt>
      <trkpt lat="43.900919" lon="5.327564">
        <ele>232.3</ele>
      </trkpt>
      <trkpt lat="43.900962" lon="5.327613">
        <ele>232.5</ele>
      </trkpt>
      <trkpt lat="43.900219" lon="5.328333">
        <ele>231</ele>
      </trkpt>
      <trkpt lat="43.900219" lon="5.328333">
        <ele>231</ele>
      </trkpt>
      <trkpt lat="43.900168" lon="5.328383">
        <ele>230.3</ele>
      </trkpt>
      <trkpt lat="43.899889" lon="5.328729">
        <ele>229</ele>
      </trkpt>
      <trkpt lat="43.899632" lon="5.329080">
        <ele>228.8</ele>
      </trkpt>
      <trkpt lat="43.899510" lon="5.329311">
        <ele>228.7</ele>
      </trkpt>
      <trkpt lat="43.899431" lon="5.329477">
        <ele>228.8</ele>
      </trkpt>
      <trkpt lat="43.899450" lon="5.329689">
        <ele>228.8</ele>
      </trkpt>
      <trkpt lat="43.899384" lon="5.330421">
        <ele>228.7</ele>
      </trkpt>
      <trkpt lat="43.899500" lon="5.330724">
        <ele>228.6</ele>
      </trkpt>
      <trkpt lat="43.899537" lon="5.330957">
        <ele>229.1</ele>
      </trkpt>
      <trkpt lat="43.899566" lon="5.331660">
        <ele>229.8</ele>
      </trkpt>
      <trkpt lat="43.899609" lon="5.331851">
        <ele>231.5</ele>
      </trkpt>
      <trkpt lat="43.899744" lon="5.332205">
        <ele>232.2</ele>
      </trkpt>
      <trkpt lat="43.900057" lon="5.333297">
        <ele>237.9</ele>
      </trkpt>
      <trkpt lat="43.900117" lon="5.333505">
        <ele>240.9</ele>
      </trkpt>
      <trkpt lat="43.900134" lon="5.333565">
        <ele>241.4</ele>
      </trkpt>
      <trkpt lat="43.900185" lon="5.333825">
        <ele>242.8</ele>
      </trkpt>
      <trkpt lat="43.900233" lon="5.333959">
        <ele>243.3</ele>
      </trkpt>
      <trkpt lat="43.900281" lon="5.334055">
        <ele>243.6</ele>
      </trkpt>
      <trkpt lat="43.900369" lon="5.334192">
        <ele>247.5</ele>
      </trkpt>
      <trkpt lat="43.900440" lon="5.334286">
        <ele>248</ele>
      </trkpt>
      <trkpt lat="43.900552" lon="5.334407">
        <ele>248.6</ele>
      </trkpt>
      <trkpt lat="43.900646" lon="5.334474">
        <ele>249</ele>
      </trkpt>
      <trkpt lat="43.900726" lon="5.334501">
        <ele>249.2</ele>
      </trkpt>
      <trkpt lat="43.900830" lon="5.334503">
        <ele>249.3</ele>
      </trkpt>
      <trkpt lat="43.900838" lon="5.334865">
        <ele>252.6</ele>
      </trkpt>
      <trkpt lat="43.900743" lon="5.335147">
        <ele>253.2</ele>
      </trkpt>
      <trkpt lat="43.900678" lon="5.335777">
        <ele>254.9</ele>
      </trkpt>
      <trkpt lat="43.900629" lon="5.335879">
        <ele>257.6</ele>
      </trkpt>
      <trkpt lat="43.900610" lon="5.336188">
        <ele>259</ele>
      </trkpt>
      <trkpt lat="43.900566" lon="5.336314">
        <ele>259.6</ele>
      </trkpt>
      <trkpt lat="43.900392" lon="5.336362">
        <ele>259.7</ele>
      </trkpt>
      <trkpt lat="43.900293" lon="5.336477">
        <ele>260.3</ele>
      </trkpt>
      <trkpt lat="43.900251" lon="5.336805">
        <ele>264.3</ele>
      </trkpt>
      <trkpt lat="43.900146" lon="5.336818">
        <ele>264.1</ele>
      </trkpt>
      <trkpt lat="43.900067" lon="5.336842">
        <ele>264</ele>
      </trkpt>
      <trkpt lat="43.899972" lon="5.336917">
        <ele>263.6</ele>
      </trkpt>
      <trkpt lat="43.899865" lon="5.336952">
        <ele>263.7</ele>
      </trkpt>
      <trkpt lat="43.899791" lon="5.336925">
        <ele>263.6</ele>
      </trkpt>
      <trkpt lat="43.899683" lon="5.336920">
        <ele>263.5</ele>
      </trkpt>
      <trkpt lat="43.898863" lon="5.336984">
        <ele>264.4</ele>
      </trkpt>
      <trkpt lat="43.898713" lon="5.336995">
        <ele>264.8</ele>
      </trkpt>
      <trkpt lat="43.898666" lon="5.337135">
        <ele>265.4</ele>
      </trkpt>
      <trkpt lat="43.898558" lon="5.337355">
        <ele>266.7</ele>
      </trkpt>
      <trkpt lat="43.898411" lon="5.337537">
        <ele>270.8</ele>
      </trkpt>
      <trkpt lat="43.898206" lon="5.337709">
        <ele>276.2</ele>
      </trkpt>
      <trkpt lat="43.898144" lon="5.337800">
        <ele>277.7</ele>
      </trkpt>
      <trkpt lat="43.898094" lon="5.337902">
        <ele>278.9</ele>
      </trkpt>
      <trkpt lat="43.898056" lon="5.338014">
        <ele>279.8</ele>
      </trkpt>
      <trkpt lat="43.897905" lon="5.338052">
        <ele>281</ele>
      </trkpt>
      <trkpt lat="43.897750" lon="5.338009">
        <ele>281.8</ele>
      </trkpt>
      <trkpt lat="43.897518" lon="5.338036">
        <ele>283.6</ele>
      </trkpt>
      <trkpt lat="43.897603" lon="5.338240">
        <ele>286.8</ele>
      </trkpt>
      <trkpt lat="43.897708" lon="5.338535">
        <ele>290.4</ele>
      </trkpt>
      <trkpt lat="43.897715" lon="5.338722">
        <ele>291</ele>
      </trkpt>
      <trkpt lat="43.897642" lon="5.338969">
        <ele>293.6</ele>
      </trkpt>
      <trkpt lat="43.897464" lon="5.339216">
        <ele>299.7</ele>
      </trkpt>
      <trkpt lat="43.897371" lon="5.339350">
        <ele>299.2</ele>
      </trkpt>
      <trkpt lat="43.897302" lon="5.339624">
        <ele>299.3</ele>
      </trkpt>
      <trkpt lat="43.897360" lon="5.340053">
        <ele>302.9</ele>
      </trkpt>
      <trkpt lat="43.897422" lon="5.340466">
        <ele>304.8</ele>
      </trkpt>
      <trkpt lat="43.897441" lon="5.340831">
        <ele>310</ele>
      </trkpt>
      <trkpt lat="43.897483" lon="5.340981">
        <ele>309.9</ele>
      </trkpt>
      <trkpt lat="43.897392" lon="5.341075">
        <ele>309</ele>
      </trkpt>
      <trkpt lat="43.897325" lon="5.341126">
        <ele>308.5</ele>
      </trkpt>
      <trkpt lat="43.897259" lon="5.341166">
        <ele>308.1</ele>
      </trkpt>
      <trkpt lat="43.897240" lon="5.341271">
        <ele>308.1</ele>
      </trkpt>
      <trkpt lat="43.897338" lon="5.341485">
        <ele>309.7</ele>
      </trkpt>
      <trkpt lat="43.897336" lon="5.341684">
        <ele>311.5</ele>
      </trkpt>
      <trkpt lat="43.897355" lon="5.341917">
        <ele>310.7</ele>
      </trkpt>
      <trkpt lat="43.897355" lon="5.341976">
        <ele>310.5</ele>
      </trkpt>
      <trkpt lat="43.897468" lon="5.342322">
        <ele>310.9</ele>
      </trkpt>
      <trkpt lat="43.897650" lon="5.342638">
        <ele>311.6</ele>
      </trkpt>
      <trkpt lat="43.897866" lon="5.342907">
        <ele>311.3</ele>
      </trkpt>
      <trkpt lat="43.898257" lon="5.343910">
        <ele>308.1</ele>
      </trkpt>
      <trkpt lat="43.898345" lon="5.344285">
        <ele>311.3</ele>
      </trkpt>
      <trkpt lat="43.898567" lon="5.344570">
        <ele>311.6</ele>
      </trkpt>
      <trkpt lat="43.898664" lon="5.344642">
        <ele>311.7</ele>
      </trkpt>
      <trkpt lat="43.898751" lon="5.344634">
        <ele>311.9</ele>
      </trkpt>
      <trkpt lat="43.899018" lon="5.344312">
        <ele>313.3</ele>
      </trkpt>
      <trkpt lat="43.899254" lon="5.343529">
        <ele>315.3</ele>
      </trkpt>
      <trkpt lat="43.899482" lon="5.342950">
        <ele>316</ele>
      </trkpt>
      <trkpt lat="43.899884" lon="5.342461">
        <ele>317.4</ele>
      </trkpt>
      <trkpt lat="43.899895" lon="5.342343">
        <ele>317.6</ele>
      </trkpt>
      <trkpt lat="43.900054" lon="5.342327">
        <ele>319.1</ele>
      </trkpt>
      <trkpt lat="43.900085" lon="5.342124">
        <ele>320.2</ele>
      </trkpt>
      <trkpt lat="43.900120" lon="5.341791">
        <ele>320.6</ele>
      </trkpt>
      <trkpt lat="43.900220" lon="5.341673">
        <ele>320.9</ele>
      </trkpt>
      <trkpt lat="43.900390" lon="5.341356">
        <ele>320.7</ele>
      </trkpt>
      <trkpt lat="43.900607" lon="5.340933">
        <ele>320.2</ele>
      </trkpt>
      <trkpt lat="43.900649" lon="5.340788">
        <ele>315.8</ele>
      </trkpt>
      <trkpt lat="43.900738" lon="5.340589">
        <ele>314.3</ele>
      </trkpt>
      <trkpt lat="43.900889" lon="5.340589">
        <ele>313.7</ele>
      </trkpt>
      <trkpt lat="43.901260" lon="5.340450">
        <ele>310.4</ele>
      </trkpt>
      <trkpt lat="43.901368" lon="5.340471">
        <ele>310.2</ele>
      </trkpt>
      <trkpt lat="43.901442" lon="5.340423">
        <ele>309.6</ele>
      </trkpt>
      <trkpt lat="43.901588" lon="5.340418">
        <ele>309.2</ele>
      </trkpt>
      <trkpt lat="43.901751" lon="5.340611">
        <ele>304.8</ele>
      </trkpt>
      <trkpt lat="43.901797" lon="5.340874">
        <ele>308.7</ele>
      </trkpt>
      <trkpt lat="43.901805" lon="5.341045">
        <ele>307.4</ele>
      </trkpt>
      <trkpt lat="43.901913" lon="5.341163">
        <ele>306</ele>
      </trkpt>
      <trkpt lat="43.902346" lon="5.341362">
        <ele>301.4</ele>
      </trkpt>
      <trkpt lat="43.902524" lon="5.341367">
        <ele>293.7</ele>
      </trkpt>
      <trkpt lat="43.902651" lon="5.341405">
        <ele>293.7</ele>
      </trkpt>
      <trkpt lat="43.902721" lon="5.341485">
        <ele>293.7</ele>
      </trkpt>
      <trkpt lat="43.902829" lon="5.341941">
        <ele>296.6</ele>
      </trkpt>
      <trkpt lat="43.902453" lon="5.343135">
        <ele>299</ele>
      </trkpt>
      <trkpt lat="43.902458" lon="5.343170">
        <ele>298.7</ele>
      </trkpt>
      <trkpt lat="43.902670" lon="5.343035">
        <ele>298</ele>
      </trkpt>
      <trkpt lat="43.902825" lon="5.342987">
        <ele>298.5</ele>
      </trkpt>
      <trkpt lat="43.903005" lon="5.342966">
        <ele>299</ele>
      </trkpt>
      <trkpt lat="43.903296" lon="5.343202">
        <ele>300.1</ele>
      </trkpt>
      <trkpt lat="43.903343" lon="5.343314">
        <ele>301.1</ele>
      </trkpt>
      <trkpt lat="43.903322" lon="5.343497">
        <ele>298.3</ele>
      </trkpt>
      <trkpt lat="43.903381" lon="5.343765">
        <ele>299.2</ele>
      </trkpt>
      <trkpt lat="43.903499" lon="5.343886">
        <ele>298.7</ele>
      </trkpt>
      <trkpt lat="43.903783" lon="5.343945">
        <ele>299.9</ele>
      </trkpt>
      <trkpt lat="43.904002" lon="5.344098">
        <ele>300.9</ele>
      </trkpt>
      <trkpt lat="43.904135" lon="5.344277">
        <ele>299.5</ele>
      </trkpt>
      <trkpt lat="43.904400" lon="5.344999">
        <ele>297.5</ele>
      </trkpt>
      <trkpt lat="43.904605" lon="5.345299">
        <ele>296.7</ele>
      </trkpt>
      <trkpt lat="43.904640" lon="5.345331">
        <ele>296.7</ele>
      </trkpt>
      <trkpt lat="43.904995" lon="5.345517">
        <ele>297.2</ele>
      </trkpt>
      <trkpt lat="43.905223" lon="5.345755">
        <ele>297.1</ele>
      </trkpt>
      <trkpt lat="43.905447" lon="5.346015">
        <ele>297.4</ele>
      </trkpt>
      <trkpt lat="43.905706" lon="5.346230">
        <ele>296.9</ele>
      </trkpt>
      <trkpt lat="43.905838" lon="5.346313">
        <ele>295.8</ele>
      </trkpt>
      <trkpt lat="43.905828" lon="5.347217">
        <ele>297.2</ele>
      </trkpt>
      <trkpt lat="43.905804" lon="5.347665">
        <ele>298.4</ele>
      </trkpt>
      <trkpt lat="43.905658" lon="5.348156">
        <ele>300.5</ele>
      </trkpt>
      <trkpt lat="43.905627" lon="5.348309">
        <ele>300.8</ele>
      </trkpt>
      <trkpt lat="43.905652" lon="5.348537">
        <ele>302.5</ele>
      </trkpt>
      <trkpt lat="43.906045" lon="5.348808">
        <ele>304.6</ele>
      </trkpt>
      <trkpt lat="43.906504" lon="5.349084">
        <ele>306.8</ele>
      </trkpt>
      <trkpt lat="43.906603" lon="5.349234">
        <ele>308.7</ele>
      </trkpt>
      <trkpt lat="43.906673" lon="5.349274">
        <ele>309.1</ele>
      </trkpt>
      <trkpt lat="43.906709" lon="5.349365">
        <ele>309.2</ele>
      </trkpt>
      <trkpt lat="43.906702" lon="5.349526">
        <ele>309.4</ele>
      </trkpt>
      <trkpt lat="43.906690" lon="5.349674">
        <ele>309.8</ele>
      </trkpt>
      <trkpt lat="43.906696" lon="5.349824">
        <ele>310.4</ele>
      </trkpt>
      <trkpt lat="43.906717" lon="5.349945">
        <ele>311.2</ele>
      </trkpt>
      <trkpt lat="43.906779" lon="5.350111">
        <ele>310.5</ele>
      </trkpt>
      <trkpt lat="43.906837" lon="5.350175">
        <ele>310</ele>
      </trkpt>
      <trkpt lat="43.906933" lon="5.350210">
        <ele>309.5</ele>
      </trkpt>
      <trkpt lat="43.906991" lon="5.350318">
        <ele>309.1</ele>
      </trkpt>
      <trkpt lat="43.907042" lon="5.350479">
        <ele>308.9</ele>
      </trkpt>
      <trkpt lat="43.907126" lon="5.350889">
        <ele>307.4</ele>
      </trkpt>
      <trkpt lat="43.907181" lon="5.351262">
        <ele>306.8</ele>
      </trkpt>
      <trkpt lat="43.907173" lon="5.351420">
        <ele>306.5</ele>
      </trkpt>
      <trkpt lat="43.907111" lon="5.351613">
        <ele>306.6</ele>
      </trkpt>
      <trkpt lat="43.907059" lon="5.351771">
        <ele>303.6</ele>
      </trkpt>
      <trkpt lat="43.907017" lon="5.351932">
        <ele>303.3</ele>
      </trkpt>
      <trkpt lat="43.906995" lon="5.352072">
        <ele>302.7</ele>
      </trkpt>
      <trkpt lat="43.906906" lon="5.352294">
        <ele>302.1</ele>
      </trkpt>
      <trkpt lat="43.906814" lon="5.352372">
        <ele>302.1</ele>
      </trkpt>
      <trkpt lat="43.906703" lon="5.352364">
        <ele>302.3</ele>
      </trkpt>
      <trkpt lat="43.906530" lon="5.352324">
        <ele>302.5</ele>
      </trkpt>
      <trkpt lat="43.906450" lon="5.352351">
        <ele>302.3</ele>
      </trkpt>
      <trkpt lat="43.906369" lon="5.352471">
        <ele>301.9</ele>
      </trkpt>
      <trkpt lat="43.906375" lon="5.352632">
        <ele>297.6</ele>
      </trkpt>
      <trkpt lat="43.906373" lon="5.352732">
        <ele>297.1</ele>
      </trkpt>
      <trkpt lat="43.906300" lon="5.353091">
        <ele>295.3</ele>
      </trkpt>
      <trkpt lat="43.906245" lon="5.353263">
        <ele>294.8</ele>
      </trkpt>
      <trkpt lat="43.906189" lon="5.353308">
        <ele>294.7</ele>
      </trkpt>
      <trkpt lat="43.906147" lon="5.353314">
        <ele>294.6</ele>
      </trkpt>
      <trkpt lat="43.906124" lon="5.353319">
        <ele>294.6</ele>
      </trkpt>
      <trkpt lat="43.906097" lon="5.353351">
        <ele>291.5</ele>
      </trkpt>
      <trkpt lat="43.906046" lon="5.353381">
        <ele>291.6</ele>
      </trkpt>
      <trkpt lat="43.905992" lon="5.353507">
        <ele>291.4</ele>
      </trkpt>
      <trkpt lat="43.905965" lon="5.353678">
        <ele>290.8</ele>
      </trkpt>
      <trkpt lat="43.905973" lon="5.353759">
        <ele>290.5</ele>
      </trkpt>
      <trkpt lat="43.906027" lon="5.353850">
        <ele>290.2</ele>
      </trkpt>
      <trkpt lat="43.906046" lon="5.354097">
        <ele>289.4</ele>
      </trkpt>
      <trkpt lat="43.905915" lon="5.354215">
        <ele>287.8</ele>
      </trkpt>
      <trkpt lat="43.905739" lon="5.354416">
        <ele>286.5</ele>
      </trkpt>
      <trkpt lat="43.905681" lon="5.354494">
        <ele>286.2</ele>
      </trkpt>
      <trkpt lat="43.905403" lon="5.354722">
        <ele>285.5</ele>
      </trkpt>
      <trkpt lat="43.905337" lon="5.354641">
        <ele>285.6</ele>
      </trkpt>
      <trkpt lat="43.905285" lon="5.354749">
        <ele>285.4</ele>
      </trkpt>
      <trkpt lat="43.905244" lon="5.354794">
        <ele>285.2</ele>
      </trkpt>
      <trkpt lat="43.905176" lon="5.354851">
        <ele>285</ele>
      </trkpt>
      <trkpt lat="43.904788" lon="5.355041">
        <ele>282.3</ele>
      </trkpt>
      <trkpt lat="43.904578" lon="5.354936">
        <ele>283.5</ele>
      </trkpt>
      <trkpt lat="43.904497" lon="5.354928">
        <ele>283.2</ele>
      </trkpt>
      <trkpt lat="43.903946" lon="5.354483">
        <ele>281.2</ele>
      </trkpt>
      <trkpt lat="43.903760" lon="5.354427">
        <ele>280.6</ele>
      </trkpt>
      <trkpt lat="43.903503" lon="5.354419">
        <ele>279.8</ele>
      </trkpt>
      <trkpt lat="43.903269" lon="5.354357">
        <ele>277</ele>
      </trkpt>
      <trkpt lat="43.903213" lon="5.354360">
        <ele>276.8</ele>
      </trkpt>
      <trkpt lat="43.903161" lon="5.354454">
        <ele>276.2</ele>
      </trkpt>
      <trkpt lat="43.903002" lon="5.355213">
        <ele>274</ele>
      </trkpt>
      <trkpt lat="43.902904" lon="5.355712">
        <ele>273.7</ele>
      </trkpt>
      <trkpt lat="43.902826" lon="5.355773">
        <ele>273.6</ele>
      </trkpt>
      <trkpt lat="43.902525" lon="5.357269">
        <ele>275.2</ele>
      </trkpt>
      <trkpt lat="43.902444" lon="5.357670">
        <ele>277.4</ele>
      </trkpt>
      <trkpt lat="43.902455" lon="5.357723">
        <ele>277.6</ele>
      </trkpt>
      <trkpt lat="43.903281" lon="5.357651">
        <ele>273.2</ele>
      </trkpt>
    </trkseg>
  </trk>
</gpx>