<?xml version="1.0" ?>
<gpx xmlns="http://www.topografix.com/GPX/1/1" xmlns:xsi="http://www.w3.org/2001/XMLSchema-instance" xsi:schemaLocation="http://www.topografix.com/GPX/1/1 http://www.topografix.com/GPX/1/1/gpx.xsd" version="1.1" creator="EditGPX">
  <trk>
    <name>NewTrack</name>
    <trkseg>
      <trkpt lat="43.876884" lon="5.842326">
        <ele>377.4</ele>
      </trkpt>
      <trkpt lat="43.876833" lon="5.842114">
        <ele>378</ele>
      </trkpt>
      <trkpt lat="43.876683" lon="5.842141">
        <ele>378</ele>
      </trkpt>
      <trkpt lat="43.876478" lon="5.842109">
        <ele>377.8</ele>
      </trkpt>
      <trkpt lat="43.876348" lon="5.842085">
        <ele>377.7</ele>
      </trkpt>
      <trkpt lat="43.876128" lon="5.841900">
        <ele>377.9</ele>
      </trkpt>
      <trkpt lat="43.875851" lon="5.841508">
        <ele>380.6</ele>
      </trkpt>
      <trkpt lat="43.875563" lon="5.841012">
        <ele>380</ele>
      </trkpt>
      <trkpt lat="43.875175" lon="5.840132">
        <ele>383.2</ele>
      </trkpt>
      <trkpt lat="43.874921" lon="5.839810">
        <ele>384.3</ele>
      </trkpt>
      <trkpt lat="43.874471" lon="5.839400">
        <ele>384.9</ele>
      </trkpt>
      <trkpt lat="43.874069" lon="5.838944">
        <ele>385.9</ele>
      </trkpt>
      <trkpt lat="43.873624" lon="5.838600">
        <ele>386.8</ele>
      </trkpt>
      <trkpt lat="43.873024" lon="5.838171">
        <ele>386.1</ele>
      </trkpt>
      <trkpt lat="43.873003" lon="5.838029">
        <ele>386.3</ele>
      </trkpt>
      <trkpt lat="43.872622" lon="5.837471">
        <ele>387.6</ele>
      </trkpt>
      <trkpt lat="43.872379" lon="5.837013">
        <ele>385.8</ele>
      </trkpt>
      <trkpt lat="43.872127" lon="5.836608">
        <ele>388.4</ele>
      </trkpt>
      <trkpt lat="43.871157" lon="5.835856">
        <ele>389</ele>
      </trkpt>
      <trkpt lat="43.870271" lon="5.835221">
        <ele>393.7</ele>
      </trkpt>
      <trkpt lat="43.869964" lon="5.835084">
        <ele>394.6</ele>
      </trkpt>
      <trkpt lat="43.869772" lon="5.835025">
        <ele>394.4</ele>
      </trkpt>
      <trkpt lat="43.869740" lon="5.834988">
        <ele>397.2</ele>
      </trkpt>
      <trkpt lat="43.869736" lon="5.834968">
        <ele>397.3</ele>
      </trkpt>
      <trkpt lat="43.869732" lon="5.834948">
        <ele>397.3</ele>
      </trkpt>
      <trkpt lat="43.869732" lon="5.834929">
        <ele>397.4</ele>
      </trkpt>
      <trkpt lat="43.869738" lon="5.834910">
        <ele>397.4</ele>
      </trkpt>
      <trkpt lat="43.869742" lon="5.834891">
        <ele>397.5</ele>
      </trkpt>
      <trkpt lat="43.869762" lon="5.834781">
        <ele>397.9</ele>
      </trkpt>
      <trkpt lat="43.869791" lon="5.834496">
        <ele>399.4</ele>
      </trkpt>
      <trkpt lat="43.869658" lon="5.833528">
        <ele>407</ele>
      </trkpt>
      <trkpt lat="43.869706" lon="5.833166">
        <ele>411</ele>
      </trkpt>
      <trkpt lat="43.869832" lon="5.832646">
        <ele>412.3</ele>
      </trkpt>
      <trkpt lat="43.869672" lon="5.831970">
        <ele>413.5</ele>
      </trkpt>
      <trkpt lat="43.869643" lon="5.831849">
        <ele>413.6</ele>
      </trkpt>
      <trkpt lat="43.869641" lon="5.831699">
        <ele>413.8</ele>
      </trkpt>
      <trkpt lat="43.869633" lon="5.831487">
        <ele>416.5</ele>
      </trkpt>
      <trkpt lat="43.869647" lon="5.831321">
        <ele>416.9</ele>
      </trkpt>
      <trkpt lat="43.869709" lon="5.830683">
        <ele>421.6</ele>
      </trkpt>
      <trkpt lat="43.869803" lon="5.830404">
        <ele>422.3</ele>
      </trkpt>
      <trkpt lat="43.869803" lon="5.830304">
        <ele>422.6</ele>
      </trkpt>
      <trkpt lat="43.869811" lon="5.830229">
        <ele>422.7</ele>
      </trkpt>
      <trkpt lat="43.869666" lon="5.829382">
        <ele>428.9</ele>
      </trkpt>
      <trkpt lat="43.869637" lon="5.828952">
        <ele>432.3</ele>
      </trkpt>
      <trkpt lat="43.869598" lon="5.828727">
        <ele>432.9</ele>
      </trkpt>
      <trkpt lat="43.869451" lon="5.828282">
        <ele>435</ele>
      </trkpt>
      <trkpt lat="43.869341" lon="5.827933">
        <ele>434.7</ele>
      </trkpt>
      <trkpt lat="43.869336" lon="5.827730">
        <ele>434.4</ele>
      </trkpt>
      <trkpt lat="43.869315" lon="5.827651">
        <ele>434.4</ele>
      </trkpt>
      <trkpt lat="43.869292" lon="5.827520">
        <ele>434.6</ele>
      </trkpt>
      <trkpt lat="43.869278" lon="5.827475">
        <ele>435</ele>
      </trkpt>
      <trkpt lat="43.869252" lon="5.827378">
        <ele>435</ele>
      </trkpt>
      <trkpt lat="43.869055" lon="5.826865">
        <ele>438</ele>
      </trkpt>
      <trkpt lat="43.869024" lon="5.826694">
        <ele>437.5</ele>
      </trkpt>
      <trkpt lat="43.869040" lon="5.826541">
        <ele>435.5</ele>
      </trkpt>
      <trkpt lat="43.869059" lon="5.826297">
        <ele>435.2</ele>
      </trkpt>
      <trkpt lat="43.868997" lon="5.826042">
        <ele>435</ele>
      </trkpt>
      <trkpt lat="43.868754" lon="5.825550">
        <ele>433.7</ele>
      </trkpt>
      <trkpt lat="43.868910" lon="5.825224">
        <ele>434.9</ele>
      </trkpt>
      <trkpt lat="43.869285" lon="5.824792">
        <ele>442.1</ele>
      </trkpt>
      <trkpt lat="43.869481" lon="5.824564">
        <ele>443.7</ele>
      </trkpt>
      <trkpt lat="43.869566" lon="5.824478">
        <ele>444.3</ele>
      </trkpt>
      <trkpt lat="43.869622" lon="5.824432">
        <ele>444.7</ele>
      </trkpt>
      <trkpt lat="43.869668" lon="5.824404">
        <ele>445.1</ele>
      </trkpt>
      <trkpt lat="43.869720" lon="5.824328">
        <ele>445.8</ele>
      </trkpt>
      <trkpt lat="43.869760" lon="5.824279">
        <ele>446.4</ele>
      </trkpt>
      <trkpt lat="43.869815" lon="5.824250">
        <ele>447.1</ele>
      </trkpt>
      <trkpt lat="43.869877" lon="5.824246">
        <ele>447.9</ele>
      </trkpt>
      <trkpt lat="43.869933" lon="5.824228">
        <ele>448.9</ele>
      </trkpt>
      <trkpt lat="43.869995" lon="5.824185">
        <ele>450.5</ele>
      </trkpt>
      <trkpt lat="43.870053" lon="5.824162">
        <ele>451.9</ele>
      </trkpt>
      <trkpt lat="43.870106" lon="5.824139">
        <ele>452.7</ele>
      </trkpt>
      <trkpt lat="43.870166" lon="5.824107">
        <ele>453.5</ele>
      </trkpt>
      <trkpt lat="43.870223" lon="5.824068">
        <ele>454.2</ele>
      </trkpt>
      <trkpt lat="43.870270" lon="5.824041">
        <ele>454.6</ele>
      </trkpt>
      <trkpt lat="43.870327" lon="5.824013">
        <ele>455.1</ele>
      </trkpt>
      <trkpt lat="43.870368" lon="5.823990">
        <ele>455.4</ele>
      </trkpt>
      <trkpt lat="43.870406" lon="5.823969">
        <ele>455.7</ele>
      </trkpt>
      <trkpt lat="43.870452" lon="5.823922">
        <ele>456</ele>
      </trkpt>
      <trkpt lat="43.870493" lon="5.823908">
        <ele>456.3</ele>
      </trkpt>
      <trkpt lat="43.870538" lon="5.823882">
        <ele>456.5</ele>
      </trkpt>
      <trkpt lat="43.870583" lon="5.823894">
        <ele>456.8</ele>
      </trkpt>
      <trkpt lat="43.870635" lon="5.823888">
        <ele>457</ele>
      </trkpt>
      <trkpt lat="43.870672" lon="5.823891">
        <ele>457.2</ele>
      </trkpt>
      <trkpt lat="43.870867" lon="5.823746">
        <ele>466.1</ele>
      </trkpt>
      <trkpt lat="43.870935" lon="5.823703">
        <ele>466.5</ele>
      </trkpt>
      <trkpt lat="43.871190" lon="5.823580">
        <ele>468.8</ele>
      </trkpt>
      <trkpt lat="43.871300" lon="5.823489">
        <ele>470.4</ele>
      </trkpt>
      <trkpt lat="43.871410" lon="5.823411">
        <ele>472.4</ele>
      </trkpt>
      <trkpt lat="43.871433" lon="5.823371">
        <ele>473</ele>
      </trkpt>
      <trkpt lat="43.871427" lon="5.823156">
        <ele>476.6</ele>
      </trkpt>
      <trkpt lat="43.871443" lon="5.823081">
        <ele>476.8</ele>
      </trkpt>
      <trkpt lat="43.871476" lon="5.823051">
        <ele>477.2</ele>
      </trkpt>
      <trkpt lat="43.871510" lon="5.822979">
        <ele>477.7</ele>
      </trkpt>
      <trkpt lat="43.871478" lon="5.822842">
        <ele>478.4</ele>
      </trkpt>
      <trkpt lat="43.871456" lon="5.822748">
        <ele>479</ele>
      </trkpt>
      <trkpt lat="43.871420" lon="5.822606">
        <ele>479.8</ele>
      </trkpt>
      <trkpt lat="43.871328" lon="5.822228">
        <ele>485.5</ele>
      </trkpt>
      <trkpt lat="43.871343" lon="5.822081">
        <ele>486.8</ele>
      </trkpt>
      <trkpt lat="43.871312" lon="5.821904">
        <ele>487.9</ele>
      </trkpt>
      <trkpt lat="43.871385" lon="5.820737">
        <ele>497.3</ele>
      </trkpt>
      <trkpt lat="43.871482" lon="5.820292">
        <ele>496.9</ele>
      </trkpt>
      <trkpt lat="43.871515" lon="5.820158">
        <ele>498.3</ele>
      </trkpt>
      <trkpt lat="43.871567" lon="5.820002">
        <ele>501.1</ele>
      </trkpt>
      <trkpt lat="43.871573" lon="5.819989">
        <ele>501.6</ele>
      </trkpt>
      <trkpt lat="43.871581" lon="5.819972">
        <ele>501.7</ele>
      </trkpt>
      <trkpt lat="43.871678" lon="5.819775">
        <ele>511.8</ele>
      </trkpt>
      <trkpt lat="43.871751" lon="5.819648">
        <ele>513.3</ele>
      </trkpt>
      <trkpt lat="43.871833" lon="5.819492">
        <ele>513.4</ele>
      </trkpt>
      <trkpt lat="43.872034" lon="5.819232">
        <ele>515.3</ele>
      </trkpt>
      <trkpt lat="43.872051" lon="5.819163">
        <ele>513</ele>
      </trkpt>
      <trkpt lat="43.872113" lon="5.819013">
        <ele>514.2</ele>
      </trkpt>
      <trkpt lat="43.872180" lon="5.818833">
        <ele>515</ele>
      </trkpt>
      <trkpt lat="43.872241" lon="5.818638">
        <ele>515.4</ele>
      </trkpt>
      <trkpt lat="43.872252" lon="5.818538">
        <ele>515.6</ele>
      </trkpt>
      <trkpt lat="43.872257" lon="5.818418">
        <ele>515.9</ele>
      </trkpt>
      <trkpt lat="43.872257" lon="5.818343">
        <ele>515.9</ele>
      </trkpt>
      <trkpt lat="43.872251" lon="5.818225">
        <ele>519.6</ele>
      </trkpt>
      <trkpt lat="43.872266" lon="5.818119">
        <ele>520</ele>
      </trkpt>
      <trkpt lat="43.872296" lon="5.818035">
        <ele>520.5</ele>
      </trkpt>
      <trkpt lat="43.872282" lon="5.817978">
        <ele>520.9</ele>
      </trkpt>
      <trkpt lat="43.872291" lon="5.817923">
        <ele>521.2</ele>
      </trkpt>
      <trkpt lat="43.872286" lon="5.817857">
        <ele>521.7</ele>
      </trkpt>
      <trkpt lat="43.872275" lon="5.817749">
        <ele>522.4</ele>
      </trkpt>
      <trkpt lat="43.872273" lon="5.817722">
        <ele>522.6</ele>
      </trkpt>
      <trkpt lat="43.872270" lon="5.817706">
        <ele>522.7</ele>
      </trkpt>
      <trkpt lat="43.872268" lon="5.817689">
        <ele>522.8</ele>
      </trkpt>
      <trkpt lat="43.872258" lon="5.817588">
        <ele>523.4</ele>
      </trkpt>
      <trkpt lat="43.872227" lon="5.817477">
        <ele>530.4</ele>
      </trkpt>
      <trkpt lat="43.872219" lon="5.817425">
        <ele>530.7</ele>
      </trkpt>
      <trkpt lat="43.872205" lon="5.817202">
        <ele>532.3</ele>
      </trkpt>
      <trkpt lat="43.872159" lon="5.816880">
        <ele>535</ele>
      </trkpt>
      <trkpt lat="43.872131" lon="5.816566">
        <ele>544.4</ele>
      </trkpt>
      <trkpt lat="43.872103" lon="5.816492">
        <ele>544.6</ele>
      </trkpt>
      <trkpt lat="43.872081" lon="5.816463">
        <ele>544.6</ele>
      </trkpt>
      <trkpt lat="43.872060" lon="5.816432">
        <ele>544.7</ele>
      </trkpt>
      <trkpt lat="43.872048" lon="5.816394">
        <ele>544.9</ele>
      </trkpt>
      <trkpt lat="43.872019" lon="5.816361">
        <ele>544.9</ele>
      </trkpt>
      <trkpt lat="43.871983" lon="5.816331">
        <ele>544.9</ele>
      </trkpt>
      <trkpt lat="43.871963" lon="5.816277">
        <ele>545.3</ele>
      </trkpt>
      <trkpt lat="43.871941" lon="5.816243">
        <ele>545.4</ele>
      </trkpt>
      <trkpt lat="43.871906" lon="5.816026">
        <ele>546.8</ele>
      </trkpt>
      <trkpt lat="43.871899" lon="5.816008">
        <ele>546.8</ele>
      </trkpt>
      <trkpt lat="43.871880" lon="5.815982">
        <ele>546.9</ele>
      </trkpt>
      <trkpt lat="43.871859" lon="5.815953">
        <ele>546.9</ele>
      </trkpt>
      <trkpt lat="43.871851" lon="5.815930">
        <ele>546.9</ele>
      </trkpt>
      <trkpt lat="43.871836" lon="5.815894">
        <ele>547</ele>
      </trkpt>
      <trkpt lat="43.871814" lon="5.815871">
        <ele>547</ele>
      </trkpt>
      <trkpt lat="43.871805" lon="5.815849">
        <ele>547</ele>
      </trkpt>
      <trkpt lat="43.871791" lon="5.815828">
        <ele>554.3</ele>
      </trkpt>
      <trkpt lat="43.871785" lon="5.815802">
        <ele>554.3</ele>
      </trkpt>
      <trkpt lat="43.871758" lon="5.815782">
        <ele>553.5</ele>
      </trkpt>
      <trkpt lat="43.871739" lon="5.815762">
        <ele>553.4</ele>
      </trkpt>
      <trkpt lat="43.871731" lon="5.815737">
        <ele>554.1</ele>
      </trkpt>
      <trkpt lat="43.871714" lon="5.815725">
        <ele>554.2</ele>
      </trkpt>
      <trkpt lat="43.871692" lon="5.815687">
        <ele>555.6</ele>
      </trkpt>
      <trkpt lat="43.871677" lon="5.815666">
        <ele>556.3</ele>
      </trkpt>
      <trkpt lat="43.871644" lon="5.815645">
        <ele>557.1</ele>
      </trkpt>
      <trkpt lat="43.871599" lon="5.815611">
        <ele>558.7</ele>
      </trkpt>
      <trkpt lat="43.871561" lon="5.815590">
        <ele>559.7</ele>
      </trkpt>
      <trkpt lat="43.871535" lon="5.815609">
        <ele>559.6</ele>
      </trkpt>
      <trkpt lat="43.871510" lon="5.815595">
        <ele>560.3</ele>
      </trkpt>
      <trkpt lat="43.871493" lon="5.815585">
        <ele>560.8</ele>
      </trkpt>
      <trkpt lat="43.871471" lon="5.815596">
        <ele>560.9</ele>
      </trkpt>
      <trkpt lat="43.871460" lon="5.815585">
        <ele>561.3</ele>
      </trkpt>
      <trkpt lat="43.871351" lon="5.815335">
        <ele>565.8</ele>
      </trkpt>
      <trkpt lat="43.871204" lon="5.814525">
        <ele>576.9</ele>
      </trkpt>
      <trkpt lat="43.870906" lon="5.813677">
        <ele>577.8</ele>
      </trkpt>
      <trkpt lat="43.870948" lon="5.813581">
        <ele>577.3</ele>
      </trkpt>
      <trkpt lat="43.870960" lon="5.813312">
        <ele>574.9</ele>
      </trkpt>
      <trkpt lat="43.870947" lon="5.813242">
        <ele>575.3</ele>
      </trkpt>
      <trkpt lat="43.870930" lon="5.813164">
        <ele>576.4</ele>
      </trkpt>
      <trkpt lat="43.870926" lon="5.813067">
        <ele>577.7</ele>
      </trkpt>
      <trkpt lat="43.870921" lon="5.812985">
        <ele>578.2</ele>
      </trkpt>
      <trkpt lat="43.870925" lon="5.812910">
        <ele>578.3</ele>
      </trkpt>
      <trkpt lat="43.870934" lon="5.812844">
        <ele>578.2</ele>
      </trkpt>
      <trkpt lat="43.870942" lon="5.812762">
        <ele>577.5</ele>
      </trkpt>
      <trkpt lat="43.870952" lon="5.812678">
        <ele>576.4</ele>
      </trkpt>
      <trkpt lat="43.870972" lon="5.812600">
        <ele>575.4</ele>
      </trkpt>
      <trkpt lat="43.870986" lon="5.812534">
        <ele>575.1</ele>
      </trkpt>
      <trkpt lat="43.870998" lon="5.812454">
        <ele>575.7</ele>
      </trkpt>
      <trkpt lat="43.871003" lon="5.812390">
        <ele>576.7</ele>
      </trkpt>
      <trkpt lat="43.871010" lon="5.812322">
        <ele>577.8</ele>
      </trkpt>
      <trkpt lat="43.871049" lon="5.812248">
        <ele>579.5</ele>
      </trkpt>
      <trkpt lat="43.871084" lon="5.812182">
        <ele>580.6</ele>
      </trkpt>
      <trkpt lat="43.871141" lon="5.812136">
        <ele>581.7</ele>
      </trkpt>
      <trkpt lat="43.871207" lon="5.812093">
        <ele>583</ele>
      </trkpt>
      <trkpt lat="43.871233" lon="5.812039">
        <ele>583.4</ele>
      </trkpt>
      <trkpt lat="43.871260" lon="5.811941">
        <ele>583.9</ele>
      </trkpt>
      <trkpt lat="43.871254" lon="5.811916">
        <ele>583.8</ele>
      </trkpt>
      <trkpt lat="43.871263" lon="5.811824">
        <ele>584</ele>
      </trkpt>
      <trkpt lat="43.871252" lon="5.811804">
        <ele>583.7</ele>
      </trkpt>
      <trkpt lat="43.871245" lon="5.811792">
        <ele>583.6</ele>
      </trkpt>
      <trkpt lat="43.871277" lon="5.811709">
        <ele>584.3</ele>
      </trkpt>
      <trkpt lat="43.871327" lon="5.811654">
        <ele>583.4</ele>
      </trkpt>
      <trkpt lat="43.871352" lon="5.811601">
        <ele>583.8</ele>
      </trkpt>
      <trkpt lat="43.871403" lon="5.811576">
        <ele>585</ele>
      </trkpt>
      <trkpt lat="43.871422" lon="5.811523">
        <ele>585</ele>
      </trkpt>
      <trkpt lat="43.871492" lon="5.811536">
        <ele>586.9</ele>
      </trkpt>
      <trkpt lat="43.871561" lon="5.811567">
        <ele>589.5</ele>
      </trkpt>
      <trkpt lat="43.871607" lon="5.811618">
        <ele>592.4</ele>
      </trkpt>
      <trkpt lat="43.871632" lon="5.811701">
        <ele>594.7</ele>
      </trkpt>
      <trkpt lat="43.871673" lon="5.811733">
        <ele>599.5</ele>
      </trkpt>
      <trkpt lat="43.871735" lon="5.811773">
        <ele>601.2</ele>
      </trkpt>
      <trkpt lat="43.871822" lon="5.811811">
        <ele>603.2</ele>
      </trkpt>
      <trkpt lat="43.871896" lon="5.811783">
        <ele>604.1</ele>
      </trkpt>
      <trkpt lat="43.871933" lon="5.811724">
        <ele>604.5</ele>
      </trkpt>
      <trkpt lat="43.871956" lon="5.811630">
        <ele>600.7</ele>
      </trkpt>
      <trkpt lat="43.871978" lon="5.811548">
        <ele>600.8</ele>
      </trkpt>
      <trkpt lat="43.871989" lon="5.811457">
        <ele>600.7</ele>
      </trkpt>
      <trkpt lat="43.872006" lon="5.811386">
        <ele>600.6</ele>
      </trkpt>
      <trkpt lat="43.872033" lon="5.811317">
        <ele>600.6</ele>
      </trkpt>
      <trkpt lat="43.872050" lon="5.811254">
        <ele>600.4</ele>
      </trkpt>
      <trkpt lat="43.872079" lon="5.811153">
        <ele>600.2</ele>
      </trkpt>
      <trkpt lat="43.872079" lon="5.811118">
        <ele>600</ele>
      </trkpt>
      <trkpt lat="43.872120" lon="5.811028">
        <ele>600.1</ele>
      </trkpt>
      <trkpt lat="43.872172" lon="5.810944">
        <ele>600.6</ele>
      </trkpt>
      <trkpt lat="43.872226" lon="5.810833">
        <ele>596.2</ele>
      </trkpt>
      <trkpt lat="43.872264" lon="5.810725">
        <ele>596.5</ele>
      </trkpt>
      <trkpt lat="43.872276" lon="5.810663">
        <ele>596.2</ele>
      </trkpt>
      <trkpt lat="43.872338" lon="5.810616">
        <ele>596.6</ele>
      </trkpt>
      <trkpt lat="43.872433" lon="5.810630">
        <ele>598.1</ele>
      </trkpt>
      <trkpt lat="43.872493" lon="5.810690">
        <ele>600</ele>
      </trkpt>
      <trkpt lat="43.872547" lon="5.810728">
        <ele>606.7</ele>
      </trkpt>
      <trkpt lat="43.872568" lon="5.810725">
        <ele>606.8</ele>
      </trkpt>
      <trkpt lat="43.872613" lon="5.810718">
        <ele>607.1</ele>
      </trkpt>
      <trkpt lat="43.872655" lon="5.810692">
        <ele>607.3</ele>
      </trkpt>
      <trkpt lat="43.872700" lon="5.810620">
        <ele>607.5</ele>
      </trkpt>
      <trkpt lat="43.872734" lon="5.810536">
        <ele>607.5</ele>
      </trkpt>
      <trkpt lat="43.872749" lon="5.810451">
        <ele>607.2</ele>
      </trkpt>
      <trkpt lat="43.872748" lon="5.810423">
        <ele>607</ele>
      </trkpt>
      <trkpt lat="43.872757" lon="5.810318">
        <ele>606.3</ele>
      </trkpt>
      <trkpt lat="43.872756" lon="5.810242">
        <ele>605.7</ele>
      </trkpt>
      <trkpt lat="43.872756" lon="5.810162">
        <ele>605</ele>
      </trkpt>
      <trkpt lat="43.872780" lon="5.810041">
        <ele>604.7</ele>
      </trkpt>
      <trkpt lat="43.872819" lon="5.809984">
        <ele>601.1</ele>
      </trkpt>
      <trkpt lat="43.872830" lon="5.809980">
        <ele>601.2</ele>
      </trkpt>
      <trkpt lat="43.872841" lon="5.809977">
        <ele>601.4</ele>
      </trkpt>
      <trkpt lat="43.872918" lon="5.809946">
        <ele>602.2</ele>
      </trkpt>
      <trkpt lat="43.873061" lon="5.809883">
        <ele>603.9</ele>
      </trkpt>
      <trkpt lat="43.873224" lon="5.809793">
        <ele>605.1</ele>
      </trkpt>
      <trkpt lat="43.873257" lon="5.809789">
        <ele>605.3</ele>
      </trkpt>
      <trkpt lat="43.873270" lon="5.809789">
        <ele>605.4</ele>
      </trkpt>
      <trkpt lat="43.873403" lon="5.809688">
        <ele>617.9</ele>
      </trkpt>
      <trkpt lat="43.873418" lon="5.809601">
        <ele>618.3</ele>
      </trkpt>
      <trkpt lat="43.873420" lon="5.809504">
        <ele>618</ele>
      </trkpt>
      <trkpt lat="43.873406" lon="5.809453">
        <ele>617.4</ele>
      </trkpt>
      <trkpt lat="43.873375" lon="5.809311">
        <ele>614.5</ele>
      </trkpt>
      <trkpt lat="43.873351" lon="5.809189">
        <ele>609.6</ele>
      </trkpt>
      <trkpt lat="43.873344" lon="5.809076">
        <ele>612.9</ele>
      </trkpt>
      <trkpt lat="43.873357" lon="5.808931">
        <ele>617.3</ele>
      </trkpt>
      <trkpt lat="43.873367" lon="5.808799">
        <ele>619.2</ele>
      </trkpt>
      <trkpt lat="43.873367" lon="5.808720">
        <ele>619.7</ele>
      </trkpt>
      <trkpt lat="43.873379" lon="5.808630">
        <ele>619.7</ele>
      </trkpt>
      <trkpt lat="43.873388" lon="5.808547">
        <ele>619.3</ele>
      </trkpt>
      <trkpt lat="43.873399" lon="5.808429">
        <ele>617.8</ele>
      </trkpt>
      <trkpt lat="43.873403" lon="5.808317">
        <ele>618.1</ele>
      </trkpt>
      <trkpt lat="43.873402" lon="5.808206">
        <ele>621.1</ele>
      </trkpt>
      <trkpt lat="43.873402" lon="5.808097">
        <ele>623.8</ele>
      </trkpt>
      <trkpt lat="43.873412" lon="5.808021">
        <ele>625.1</ele>
      </trkpt>
      <trkpt lat="43.873407" lon="5.807942">
        <ele>626</ele>
      </trkpt>
      <trkpt lat="43.873410" lon="5.807859">
        <ele>626.6</ele>
      </trkpt>
      <trkpt lat="43.873401" lon="5.807778">
        <ele>626.7</ele>
      </trkpt>
      <trkpt lat="43.873394" lon="5.807710">
        <ele>626.5</ele>
      </trkpt>
      <trkpt lat="43.873369" lon="5.807576">
        <ele>625</ele>
      </trkpt>
      <trkpt lat="43.873305" lon="5.807444">
        <ele>622.5</ele>
      </trkpt>
      <trkpt lat="43.873279" lon="5.807401">
        <ele>622.1</ele>
      </trkpt>
      <trkpt lat="43.873176" lon="5.807181">
        <ele>621.8</ele>
      </trkpt>
      <trkpt lat="43.873104" lon="5.806902">
        <ele>623.2</ele>
      </trkpt>
      <trkpt lat="43.873079" lon="5.806860">
        <ele>623.3</ele>
      </trkpt>
      <trkpt lat="43.873072" lon="5.806826">
        <ele>623.5</ele>
      </trkpt>
      <trkpt lat="43.873051" lon="5.806785">
        <ele>623.5</ele>
      </trkpt>
      <trkpt lat="43.873001" lon="5.806583">
        <ele>629.8</ele>
      </trkpt>
      <trkpt lat="43.872951" lon="5.806484">
        <ele>629.8</ele>
      </trkpt>
      <trkpt lat="43.872950" lon="5.806451">
        <ele>629.9</ele>
      </trkpt>
      <trkpt lat="43.872908" lon="5.806226">
        <ele>631.1</ele>
      </trkpt>
      <trkpt lat="43.872837" lon="5.805762">
        <ele>639.6</ele>
      </trkpt>
      <trkpt lat="43.872745" lon="5.805234">
        <ele>642.4</ele>
      </trkpt>
      <trkpt lat="43.872696" lon="5.805022">
        <ele>642.5</ele>
      </trkpt>
      <trkpt lat="43.872410" lon="5.804713">
        <ele>643.6</ele>
      </trkpt>
      <trkpt lat="43.872373" lon="5.804489">
        <ele>645.8</ele>
      </trkpt>
      <trkpt lat="43.872386" lon="5.804425">
        <ele>646.6</ele>
      </trkpt>
      <trkpt lat="43.872388" lon="5.804389">
        <ele>647.1</ele>
      </trkpt>
      <trkpt lat="43.872387" lon="5.804358">
        <ele>647.5</ele>
      </trkpt>
      <trkpt lat="43.872381" lon="5.804324">
        <ele>647.9</ele>
      </trkpt>
      <trkpt lat="43.872375" lon="5.804260">
        <ele>648.8</ele>
      </trkpt>
      <trkpt lat="43.872365" lon="5.804223">
        <ele>649</ele>
      </trkpt>
      <trkpt lat="43.872370" lon="5.804182">
        <ele>649.4</ele>
      </trkpt>
      <trkpt lat="43.872359" lon="5.804150">
        <ele>653</ele>
      </trkpt>
      <trkpt lat="43.872358" lon="5.804113">
        <ele>653</ele>
      </trkpt>
      <trkpt lat="43.872363" lon="5.804077">
        <ele>653.1</ele>
      </trkpt>
      <trkpt lat="43.872366" lon="5.804040">
        <ele>653.2</ele>
      </trkpt>
      <trkpt lat="43.872359" lon="5.803989">
        <ele>653.3</ele>
      </trkpt>
      <trkpt lat="43.872343" lon="5.803943">
        <ele>653.4</ele>
      </trkpt>
      <trkpt lat="43.872312" lon="5.803880">
        <ele>653.6</ele>
      </trkpt>
      <trkpt lat="43.872256" lon="5.803426">
        <ele>655.9</ele>
      </trkpt>
      <trkpt lat="43.872281" lon="5.803137">
        <ele>657.6</ele>
      </trkpt>
      <trkpt lat="43.872275" lon="5.803036">
        <ele>657.3</ele>
      </trkpt>
      <trkpt lat="43.872271" lon="5.802968">
        <ele>657.2</ele>
      </trkpt>
      <trkpt lat="43.872267" lon="5.802854">
        <ele>657.1</ele>
      </trkpt>
      <trkpt lat="43.872284" lon="5.802761">
        <ele>657.3</ele>
      </trkpt>
      <trkpt lat="43.872187" lon="5.802501">
        <ele>656.9</ele>
      </trkpt>
      <trkpt lat="43.872346" lon="5.802240">
        <ele>655.8</ele>
      </trkpt>
      <trkpt lat="43.872487" lon="5.802120">
        <ele>655.7</ele>
      </trkpt>
      <trkpt lat="43.872543" lon="5.802146">
        <ele>662.2</ele>
      </trkpt>
      <trkpt lat="43.872663" lon="5.802246">
        <ele>662.7</ele>
      </trkpt>
      <trkpt lat="43.872877" lon="5.802431">
        <ele>664.6</ele>
      </trkpt>
      <trkpt lat="43.872898" lon="5.802469">
        <ele>664.9</ele>
      </trkpt>
      <trkpt lat="43.872919" lon="5.802502">
        <ele>666.5</ele>
      </trkpt>
      <trkpt lat="43.872945" lon="5.802535">
        <ele>666.8</ele>
      </trkpt>
      <trkpt lat="43.873059" lon="5.802777">
        <ele>667.7</ele>
      </trkpt>
      <trkpt lat="43.873151" lon="5.802967">
        <ele>668.1</ele>
      </trkpt>
      <trkpt lat="43.873771" lon="5.803649">
        <ele>674.5</ele>
      </trkpt>
      <trkpt lat="43.873920" lon="5.803938">
        <ele>675.6</ele>
      </trkpt>
      <trkpt lat="43.874545" lon="5.804850">
        <ele>680.3</ele>
      </trkpt>
      <trkpt lat="43.875194" lon="5.805456">
        <ele>685.8</ele>
      </trkpt>
      <trkpt lat="43.875422" lon="5.805507">
        <ele>687.3</ele>
      </trkpt>
      <trkpt lat="43.875683" lon="5.805770">
        <ele>691</ele>
      </trkpt>
      <trkpt lat="43.875759" lon="5.805896">
        <ele>692</ele>
      </trkpt>
      <trkpt lat="43.875857" lon="5.806044">
        <ele>700.9</ele>
      </trkpt>
      <trkpt lat="43.875968" lon="5.806151">
        <ele>702.8</ele>
      </trkpt>
      <trkpt lat="43.876055" lon="5.806170">
        <ele>703.8</ele>
      </trkpt>
      <trkpt lat="43.876140" lon="5.806087">
        <ele>704.7</ele>
      </trkpt>
      <trkpt lat="43.876480" lon="5.805625">
        <ele>707.7</ele>
      </trkpt>
      <trkpt lat="43.876768" lon="5.805306">
        <ele>720.2</ele>
      </trkpt>
      <trkpt lat="43.876909" lon="5.805148">
        <ele>720.4</ele>
      </trkpt>
      <trkpt lat="43.877191" lon="5.804949">
        <ele>719.6</ele>
      </trkpt>
      <trkpt lat="43.877242" lon="5.804955">
        <ele>720.8</ele>
      </trkpt>
      <trkpt lat="43.877244" lon="5.805025">
        <ele>726</ele>
      </trkpt>
      <trkpt lat="43.877211" lon="5.805159">
        <ele>725.5</ele>
      </trkpt>
      <trkpt lat="43.877325" lon="5.805180">
        <ele>726.9</ele>
      </trkpt>
      <trkpt lat="43.877476" lon="5.805137">
        <ele>728.6</ele>
      </trkpt>
      <trkpt lat="43.877542" lon="5.805116">
        <ele>736.4</ele>
      </trkpt>
      <trkpt lat="43.877785" lon="5.805110">
        <ele>741.4</ele>
      </trkpt>
      <trkpt lat="43.878153" lon="5.804794">
        <ele>742.1</ele>
      </trkpt>
      <trkpt lat="43.878377" lon="5.804719">
        <ele>752.6</ele>
      </trkpt>
      <trkpt lat="43.878551" lon="5.804670">
        <ele>753.1</ele>
      </trkpt>
      <trkpt lat="43.878848" lon="5.804510">
        <ele>754.3</ele>
      </trkpt>
      <trkpt lat="43.879030" lon="5.804472">
        <ele>755.1</ele>
      </trkpt>
      <trkpt lat="43.879344" lon="5.804713">
        <ele>760.3</ele>
      </trkpt>
      <trkpt lat="43.879556" lon="5.804987">
        <ele>760.8</ele>
      </trkpt>
      <trkpt lat="43.880167" lon="5.805620">
        <ele>762.3</ele>
      </trkpt>
      <trkpt lat="43.880526" lon="5.806049">
        <ele>766.7</ele>
      </trkpt>
      <trkpt lat="43.880634" lon="5.806323">
        <ele>768</ele>
      </trkpt>
      <trkpt lat="43.880910" lon="5.806655">
        <ele>767.6</ele>
      </trkpt>
      <trkpt lat="43.880956" lon="5.806714">
        <ele>768.5</ele>
      </trkpt>
      <trkpt lat="43.881100" lon="5.807186">
        <ele>766.5</ele>
      </trkpt>
      <trkpt lat="43.881278" lon="5.808066">
        <ele>763.6</ele>
      </trkpt>
      <trkpt lat="43.881355" lon="5.808742">
        <ele>765.1</ele>
      </trkpt>
      <trkpt lat="43.881425" lon="5.808849">
        <ele>764.9</ele>
      </trkpt>
      <trkpt lat="43.881920" lon="5.808989">
        <ele>748.5</ele>
      </trkpt>
      <trkpt lat="43.882213" lon="5.809278">
        <ele>749.4</ele>
      </trkpt>
      <trkpt lat="43.882476" lon="5.809697">
        <ele>750.4</ele>
      </trkpt>
      <trkpt lat="43.882569" lon="5.809954">
        <ele>741.6</ele>
      </trkpt>
      <trkpt lat="43.882461" lon="5.810459">
        <ele>757.5</ele>
      </trkpt>
      <trkpt lat="43.882724" lon="5.810641">
        <ele>743</ele>
      </trkpt>
      <trkpt lat="43.883087" lon="5.811167">
        <ele>749.1</ele>
      </trkpt>
      <trkpt lat="43.883690" lon="5.811596">
        <ele>737.9</ele>
      </trkpt>
      <trkpt lat="43.884502" lon="5.812325">
        <ele>734.1</ele>
      </trkpt>
      <trkpt lat="43.884696" lon="5.812808">
        <ele>740.3</ele>
      </trkpt>
      <trkpt lat="43.885206" lon="5.813624">
        <ele>727.6</ele>
      </trkpt>
      <trkpt lat="43.885593" lon="5.814064">
        <ele>722.5</ele>
      </trkpt>
      <trkpt lat="43.885678" lon="5.814289">
        <ele>724.4</ele>
      </trkpt>
      <trkpt lat="43.885692" lon="5.814324">
        <ele>724.6</ele>
      </trkpt>
      <trkpt lat="43.885681" lon="5.814486">
        <ele>726.6</ele>
      </trkpt>
      <trkpt lat="43.885787" lon="5.814566">
        <ele>726.1</ele>
      </trkpt>
      <trkpt lat="43.885907" lon="5.814641">
        <ele>709.4</ele>
      </trkpt>
      <trkpt lat="43.886030" lon="5.814721">
        <ele>708.6</ele>
      </trkpt>
      <trkpt lat="43.886151" lon="5.814696">
        <ele>706.2</ele>
      </trkpt>
      <trkpt lat="43.886156" lon="5.814619">
        <ele>705.6</ele>
      </trkpt>
      <trkpt lat="43.886138" lon="5.814595">
        <ele>705.8</ele>
      </trkpt>
      <trkpt lat="43.886146" lon="5.814559">
        <ele>705.5</ele>
      </trkpt>
      <trkpt lat="43.886167" lon="5.814480">
        <ele>704.8</ele>
      </trkpt>
      <trkpt lat="43.886181" lon="5.814495">
        <ele>704.6</ele>
      </trkpt>
      <trkpt lat="43.886198" lon="5.814496">
        <ele>704.3</ele>
      </trkpt>
      <trkpt lat="43.886204" lon="5.814437">
        <ele>703.9</ele>
      </trkpt>
      <trkpt lat="43.886120" lon="5.814280">
        <ele>705.8</ele>
      </trkpt>
      <trkpt lat="43.886109" lon="5.814169">
        <ele>706.2</ele>
      </trkpt>
      <trkpt lat="43.886153" lon="5.813970">
        <ele>696.7</ele>
      </trkpt>
      <trkpt lat="43.886216" lon="5.813803">
        <ele>693.6</ele>
      </trkpt>
      <trkpt lat="43.886282" lon="5.813601">
        <ele>690.7</ele>
      </trkpt>
      <trkpt lat="43.886316" lon="5.813479">
        <ele>688.9</ele>
      </trkpt>
      <trkpt lat="43.886334" lon="5.813307">
        <ele>679.4</ele>
      </trkpt>
      <trkpt lat="43.886350" lon="5.813185">
        <ele>678.7</ele>
      </trkpt>
      <trkpt lat="43.886363" lon="5.813092">
        <ele>678.1</ele>
      </trkpt>
      <trkpt lat="43.886401" lon="5.813135">
        <ele>677.5</ele>
      </trkpt>
      <trkpt lat="43.886406" lon="5.813101">
        <ele>677.3</ele>
      </trkpt>
      <trkpt lat="43.886411" lon="5.812996">
        <ele>676.7</ele>
      </trkpt>
      <trkpt lat="43.886421" lon="5.812964">
        <ele>676.3</ele>
      </trkpt>
      <trkpt lat="43.886442" lon="5.812942">
        <ele>675.8</ele>
      </trkpt>
      <trkpt lat="43.886526" lon="5.812960">
        <ele>674.7</ele>
      </trkpt>
      <trkpt lat="43.886542" lon="5.812939">
        <ele>674.3</ele>
      </trkpt>
      <trkpt lat="43.886539" lon="5.812857">
        <ele>673.3</ele>
      </trkpt>
      <trkpt lat="43.886534" lon="5.812810">
        <ele>672.5</ele>
      </trkpt>
      <trkpt lat="43.886612" lon="5.812774">
        <ele>670.6</ele>
      </trkpt>
      <trkpt lat="43.886652" lon="5.812779">
        <ele>670.4</ele>
      </trkpt>
      <trkpt lat="43.886785" lon="5.812969">
        <ele>648.4</ele>
      </trkpt>
      <trkpt lat="43.886822" lon="5.812992">
        <ele>648</ele>
      </trkpt>
      <trkpt lat="43.886862" lon="5.812855">
        <ele>645.8</ele>
      </trkpt>
      <trkpt lat="43.886871" lon="5.812805">
        <ele>645.5</ele>
      </trkpt>
      <trkpt lat="43.886933" lon="5.812664">
        <ele>644.2</ele>
      </trkpt>
      <trkpt lat="43.886930" lon="5.812529">
        <ele>644.6</ele>
      </trkpt>
      <trkpt lat="43.886914" lon="5.812461">
        <ele>637.9</ele>
      </trkpt>
      <trkpt lat="43.886907" lon="5.812390">
        <ele>637.3</ele>
      </trkpt>
      <trkpt lat="43.886971" lon="5.812308">
        <ele>633.7</ele>
      </trkpt>
      <trkpt lat="43.887120" lon="5.812350">
        <ele>629.5</ele>
      </trkpt>
      <trkpt lat="43.887170" lon="5.812383">
        <ele>628.2</ele>
      </trkpt>
      <trkpt lat="43.887227" lon="5.812475">
        <ele>626.7</ele>
      </trkpt>
      <trkpt lat="43.887278" lon="5.812401">
        <ele>625.2</ele>
      </trkpt>
      <trkpt lat="43.887285" lon="5.812191">
        <ele>625</ele>
      </trkpt>
      <trkpt lat="43.887279" lon="5.812063">
        <ele>624.1</ele>
      </trkpt>
      <trkpt lat="43.887365" lon="5.812139">
        <ele>623.4</ele>
      </trkpt>
      <trkpt lat="43.887405" lon="5.812210">
        <ele>623.2</ele>
      </trkpt>
      <trkpt lat="43.887429" lon="5.812179">
        <ele>622.9</ele>
      </trkpt>
      <trkpt lat="43.887428" lon="5.812158">
        <ele>622.8</ele>
      </trkpt>
      <trkpt lat="43.887432" lon="5.811965">
        <ele>620</ele>
      </trkpt>
      <trkpt lat="43.887511" lon="5.812011">
        <ele>597.8</ele>
      </trkpt>
      <trkpt lat="43.887535" lon="5.812068">
        <ele>598</ele>
      </trkpt>
      <trkpt lat="43.887557" lon="5.812048">
        <ele>597.6</ele>
      </trkpt>
      <trkpt lat="43.887575" lon="5.812025">
        <ele>597.2</ele>
      </trkpt>
      <trkpt lat="43.887563" lon="5.811789">
        <ele>598.9</ele>
      </trkpt>
      <trkpt lat="43.887590" lon="5.811784">
        <ele>598.5</ele>
      </trkpt>
      <trkpt lat="43.887672" lon="5.811829">
        <ele>596.1</ele>
      </trkpt>
      <trkpt lat="43.887722" lon="5.811979">
        <ele>594.8</ele>
      </trkpt>
      <trkpt lat="43.887813" lon="5.812642">
        <ele>599.5</ele>
      </trkpt>
      <trkpt lat="43.887867" lon="5.812905">
        <ele>597.3</ele>
      </trkpt>
      <trkpt lat="43.887963" lon="5.813205">
        <ele>594.4</ele>
      </trkpt>
      <trkpt lat="43.887907" lon="5.813549">
        <ele>599.9</ele>
      </trkpt>
      <trkpt lat="43.887960" lon="5.813760">
        <ele>599.3</ele>
      </trkpt>
      <trkpt lat="43.888197" lon="5.814144">
        <ele>588.6</ele>
      </trkpt>
      <trkpt lat="43.888240" lon="5.814377">
        <ele>596.3</ele>
      </trkpt>
      <trkpt lat="43.888242" lon="5.814565">
        <ele>600.1</ele>
      </trkpt>
      <trkpt lat="43.888498" lon="5.816013">
        <ele>566.8</ele>
      </trkpt>
      <trkpt lat="43.888578" lon="5.816469">
        <ele>563.2</ele>
      </trkpt>
      <trkpt lat="43.888472" lon="5.816955">
        <ele>568.3</ele>
      </trkpt>
      <trkpt lat="43.888489" lon="5.817014">
        <ele>567.8</ele>
      </trkpt>
      <trkpt lat="43.888874" lon="5.817599">
        <ele>565.5</ele>
      </trkpt>
      <trkpt lat="43.888998" lon="5.818237">
        <ele>566.7</ele>
      </trkpt>
      <trkpt lat="43.889054" lon="5.818406">
        <ele>569.8</ele>
      </trkpt>
      <trkpt lat="43.889247" lon="5.818623">
        <ele>570.6</ele>
      </trkpt>
      <trkpt lat="43.889442" lon="5.818312">
        <ele>560.2</ele>
      </trkpt>
      <trkpt lat="43.889817" lon="5.817679">
        <ele>557.4</ele>
      </trkpt>
      <trkpt lat="43.890105" lon="5.817220">
        <ele>550.9</ele>
      </trkpt>
      <trkpt lat="43.890236" lon="5.817202">
        <ele>551.4</ele>
      </trkpt>
      <trkpt lat="43.890469" lon="5.817079">
        <ele>551.8</ele>
      </trkpt>
      <trkpt lat="43.890525" lon="5.817109">
        <ele>553</ele>
      </trkpt>
      <trkpt lat="43.890517" lon="5.817175">
        <ele>554.3</ele>
      </trkpt>
      <trkpt lat="43.890414" lon="5.817250">
        <ele>554.1</ele>
      </trkpt>
      <trkpt lat="43.890245" lon="5.817340">
        <ele>553.4</ele>
      </trkpt>
      <trkpt lat="43.890124" lon="5.817499">
        <ele>554.2</ele>
      </trkpt>
      <trkpt lat="43.890041" lon="5.817671">
        <ele>565.7</ele>
      </trkpt>
      <trkpt lat="43.889931" lon="5.818014">
        <ele>562.9</ele>
      </trkpt>
      <trkpt lat="43.889837" lon="5.818404">
        <ele>575.4</ele>
      </trkpt>
      <trkpt lat="43.889767" lon="5.818551">
        <ele>575.5</ele>
      </trkpt>
      <trkpt lat="43.889774" lon="5.818617">
        <ele>576</ele>
      </trkpt>
      <trkpt lat="43.889811" lon="5.818639">
        <ele>576.4</ele>
      </trkpt>
      <trkpt lat="43.889865" lon="5.818586">
        <ele>576.3</ele>
      </trkpt>
      <trkpt lat="43.890159" lon="5.817988">
        <ele>574.5</ele>
      </trkpt>
      <trkpt lat="43.890234" lon="5.817907">
        <ele>574.1</ele>
      </trkpt>
      <trkpt lat="43.890265" lon="5.818009">
        <ele>575.7</ele>
      </trkpt>
      <trkpt lat="43.890196" lon="5.818143">
        <ele>576.3</ele>
      </trkpt>
      <trkpt lat="43.890134" lon="5.818500">
        <ele>584</ele>
      </trkpt>
      <trkpt lat="43.890039" lon="5.819071">
        <ele>590.1</ele>
      </trkpt>
      <trkpt lat="43.889970" lon="5.819267">
        <ele>591.2</ele>
      </trkpt>
      <trkpt lat="43.889846" lon="5.819439">
        <ele>591.8</ele>
      </trkpt>
      <trkpt lat="43.889707" lon="5.819608">
        <ele>592.5</ele>
      </trkpt>
      <trkpt lat="43.889660" lon="5.819777">
        <ele>593.8</ele>
      </trkpt>
      <trkpt lat="43.889654" lon="5.819924">
        <ele>594.8</ele>
      </trkpt>
      <trkpt lat="43.889647" lon="5.820120">
        <ele>602.9</ele>
      </trkpt>
      <trkpt lat="43.889470" lon="5.820814">
        <ele>606.1</ele>
      </trkpt>
      <trkpt lat="43.889445" lon="5.820858">
        <ele>612</ele>
      </trkpt>
      <trkpt lat="43.889420" lon="5.820911">
        <ele>612.2</ele>
      </trkpt>
      <trkpt lat="43.889399" lon="5.820947">
        <ele>612.3</ele>
      </trkpt>
      <trkpt lat="43.889250" lon="5.821137">
        <ele>613.7</ele>
      </trkpt>
      <trkpt lat="43.889109" lon="5.821306">
        <ele>623.5</ele>
      </trkpt>
      <trkpt lat="43.889046" lon="5.821456">
        <ele>624.9</ele>
      </trkpt>
      <trkpt lat="43.888951" lon="5.821802">
        <ele>633.9</ele>
      </trkpt>
      <trkpt lat="43.888918" lon="5.821838">
        <ele>634.9</ele>
      </trkpt>
      <trkpt lat="43.888891" lon="5.821873">
        <ele>635.6</ele>
      </trkpt>
      <trkpt lat="43.888723" lon="5.821896">
        <ele>637.6</ele>
      </trkpt>
      <trkpt lat="43.888557" lon="5.821874">
        <ele>638.6</ele>
      </trkpt>
      <trkpt lat="43.888397" lon="5.821690">
        <ele>638.8</ele>
      </trkpt>
      <trkpt lat="43.888371" lon="5.821597">
        <ele>635.5</ele>
      </trkpt>
      <trkpt lat="43.888351" lon="5.821522">
        <ele>633.4</ele>
      </trkpt>
      <trkpt lat="43.888274" lon="5.821147">
        <ele>639.6</ele>
      </trkpt>
      <trkpt lat="43.888184" lon="5.821039">
        <ele>638.9</ele>
      </trkpt>
      <trkpt lat="43.887847" lon="5.820839">
        <ele>644.4</ele>
      </trkpt>
      <trkpt lat="43.887797" lon="5.820783">
        <ele>639</ele>
      </trkpt>
      <trkpt lat="43.887741" lon="5.820704">
        <ele>639.8</ele>
      </trkpt>
      <trkpt lat="43.887690" lon="5.820622">
        <ele>639.7</ele>
      </trkpt>
      <trkpt lat="43.887635" lon="5.820521">
        <ele>638.8</ele>
      </trkpt>
      <trkpt lat="43.887433" lon="5.820227">
        <ele>648.9</ele>
      </trkpt>
      <trkpt lat="43.887386" lon="5.820195">
        <ele>648.8</ele>
      </trkpt>
      <trkpt lat="43.887272" lon="5.820082">
        <ele>649.7</ele>
      </trkpt>
      <trkpt lat="43.887232" lon="5.820025">
        <ele>650.4</ele>
      </trkpt>
      <trkpt lat="43.887185" lon="5.819960">
        <ele>649.9</ele>
      </trkpt>
      <trkpt lat="43.887142" lon="5.819913">
        <ele>651</ele>
      </trkpt>
      <trkpt lat="43.886976" lon="5.819704">
        <ele>654.2</ele>
      </trkpt>
      <trkpt lat="43.886946" lon="5.819629">
        <ele>654.6</ele>
      </trkpt>
      <trkpt lat="43.886919" lon="5.819565">
        <ele>655</ele>
      </trkpt>
      <trkpt lat="43.886892" lon="5.819493">
        <ele>655.5</ele>
      </trkpt>
      <trkpt lat="43.886861" lon="5.819442">
        <ele>656.3</ele>
      </trkpt>
      <trkpt lat="43.886823" lon="5.819413">
        <ele>657</ele>
      </trkpt>
      <trkpt lat="43.886783" lon="5.819477">
        <ele>657</ele>
      </trkpt>
      <trkpt lat="43.886836" lon="5.819568">
        <ele>656</ele>
      </trkpt>
      <trkpt lat="43.886865" lon="5.819661">
        <ele>655.7</ele>
      </trkpt>
      <trkpt lat="43.886872" lon="5.819735">
        <ele>655.9</ele>
      </trkpt>
      <trkpt lat="43.886885" lon="5.819809">
        <ele>656.2</ele>
      </trkpt>
      <trkpt lat="43.886881" lon="5.820093">
        <ele>658.3</ele>
      </trkpt>
      <trkpt lat="43.886850" lon="5.820158">
        <ele>658.5</ele>
      </trkpt>
      <trkpt lat="43.886804" lon="5.820187">
        <ele>659</ele>
      </trkpt>
      <trkpt lat="43.886711" lon="5.820104">
        <ele>661.4</ele>
      </trkpt>
      <trkpt lat="43.886711" lon="5.819991">
        <ele>662.9</ele>
      </trkpt>
      <trkpt lat="43.886691" lon="5.819950">
        <ele>662.5</ele>
      </trkpt>
      <trkpt lat="43.886670" lon="5.819900">
        <ele>661.1</ele>
      </trkpt>
      <trkpt lat="43.886285" lon="5.819460">
        <ele>674.6</ele>
      </trkpt>
      <trkpt lat="43.886175" lon="5.819197">
        <ele>676.8</ele>
      </trkpt>
      <trkpt lat="43.886096" lon="5.818996">
        <ele>682.4</ele>
      </trkpt>
      <trkpt lat="43.886058" lon="5.819047">
        <ele>682.9</ele>
      </trkpt>
      <trkpt lat="43.886042" lon="5.819291">
        <ele>679.1</ele>
      </trkpt>
      <trkpt lat="43.886045" lon="5.819487">
        <ele>677.4</ele>
      </trkpt>
      <trkpt lat="43.886094" lon="5.819630">
        <ele>676.3</ele>
      </trkpt>
      <trkpt lat="43.886065" lon="5.819705">
        <ele>676.5</ele>
      </trkpt>
      <trkpt lat="43.886008" lon="5.819704">
        <ele>677</ele>
      </trkpt>
      <trkpt lat="43.885968" lon="5.819615">
        <ele>677.4</ele>
      </trkpt>
      <trkpt lat="43.885948" lon="5.819535">
        <ele>677.9</ele>
      </trkpt>
      <trkpt lat="43.885914" lon="5.819472">
        <ele>678.7</ele>
      </trkpt>
      <trkpt lat="43.885884" lon="5.819403">
        <ele>679.8</ele>
      </trkpt>
      <trkpt lat="43.885634" lon="5.819004">
        <ele>693.8</ele>
      </trkpt>
      <trkpt lat="43.885528" lon="5.818770">
        <ele>696.3</ele>
      </trkpt>
      <trkpt lat="43.885490" lon="5.818767">
        <ele>696.7</ele>
      </trkpt>
      <trkpt lat="43.885481" lon="5.818767">
        <ele>696.8</ele>
      </trkpt>
      <trkpt lat="43.885427" lon="5.818804">
        <ele>697.2</ele>
      </trkpt>
      <trkpt lat="43.885410" lon="5.818890">
        <ele>697.2</ele>
      </trkpt>
      <trkpt lat="43.885413" lon="5.819084">
        <ele>696.7</ele>
      </trkpt>
      <trkpt lat="43.885456" lon="5.819457">
        <ele>688.8</ele>
      </trkpt>
      <trkpt lat="43.885439" lon="5.819538">
        <ele>688.3</ele>
      </trkpt>
      <trkpt lat="43.885355" lon="5.819571">
        <ele>688.4</ele>
      </trkpt>
      <trkpt lat="43.885310" lon="5.819501">
        <ele>689.4</ele>
      </trkpt>
      <trkpt lat="43.885278" lon="5.819436">
        <ele>690.4</ele>
      </trkpt>
      <trkpt lat="43.885249" lon="5.819400">
        <ele>691.2</ele>
      </trkpt>
      <trkpt lat="43.884870" lon="5.818535">
        <ele>709.9</ele>
      </trkpt>
      <trkpt lat="43.884675" lon="5.818277">
        <ele>718.2</ele>
      </trkpt>
      <trkpt lat="43.884461" lon="5.818025">
        <ele>721.8</ele>
      </trkpt>
      <trkpt lat="43.884420" lon="5.817891">
        <ele>722.9</ele>
      </trkpt>
      <trkpt lat="43.884487" lon="5.817596">
        <ele>724</ele>
      </trkpt>
      <trkpt lat="43.884528" lon="5.817247">
        <ele>729.6</ele>
      </trkpt>
      <trkpt lat="43.884509" lon="5.816915">
        <ele>731.7</ele>
      </trkpt>
      <trkpt lat="43.884468" lon="5.816681">
        <ele>733.7</ele>
      </trkpt>
      <trkpt lat="43.884395" lon="5.816311">
        <ele>740.4</ele>
      </trkpt>
      <trkpt lat="43.884347" lon="5.816201">
        <ele>741.5</ele>
      </trkpt>
      <trkpt lat="43.884311" lon="5.816182">
        <ele>742</ele>
      </trkpt>
      <trkpt lat="43.884275" lon="5.816199">
        <ele>742.1</ele>
      </trkpt>
      <trkpt lat="43.884291" lon="5.816274">
        <ele>741.5</ele>
      </trkpt>
      <trkpt lat="43.884298" lon="5.816386">
        <ele>741</ele>
      </trkpt>
      <trkpt lat="43.884277" lon="5.816703">
        <ele>738.7</ele>
      </trkpt>
      <trkpt lat="43.884229" lon="5.816880">
        <ele>735.9</ele>
      </trkpt>
      <trkpt lat="43.884202" lon="5.816998">
        <ele>734.2</ele>
      </trkpt>
      <trkpt lat="43.884140" lon="5.817127">
        <ele>744.4</ele>
      </trkpt>
      <trkpt lat="43.883950" lon="5.817277">
        <ele>744.3</ele>
      </trkpt>
      <trkpt lat="43.883825" lon="5.817336">
        <ele>745.5</ele>
      </trkpt>
      <trkpt lat="43.883714" lon="5.817438">
        <ele>746.5</ele>
      </trkpt>
      <trkpt lat="43.883708" lon="5.817561">
        <ele>739</ele>
      </trkpt>
      <trkpt lat="43.883645" lon="5.817746">
        <ele>738.6</ele>
      </trkpt>
      <trkpt lat="43.883645" lon="5.817958">
        <ele>736.7</ele>
      </trkpt>
      <trkpt lat="43.883606" lon="5.818071">
        <ele>736.1</ele>
      </trkpt>
      <trkpt lat="43.883585" lon="5.818146">
        <ele>735.7</ele>
      </trkpt>
      <trkpt lat="43.883488" lon="5.818208">
        <ele>735.7</ele>
      </trkpt>
      <trkpt lat="43.883388" lon="5.818240">
        <ele>735.6</ele>
      </trkpt>
      <trkpt lat="43.883299" lon="5.818261">
        <ele>739.4</ele>
      </trkpt>
      <trkpt lat="43.883208" lon="5.818318">
        <ele>741.3</ele>
      </trkpt>
      <trkpt lat="43.883125" lon="5.818307">
        <ele>744.1</ele>
      </trkpt>
      <trkpt lat="43.883061" lon="5.818301">
        <ele>745.8</ele>
      </trkpt>
      <trkpt lat="43.883034" lon="5.818339">
        <ele>738.5</ele>
      </trkpt>
      <trkpt lat="43.883007" lon="5.818551">
        <ele>737.9</ele>
      </trkpt>
      <trkpt lat="43.882902" lon="5.818846">
        <ele>736.8</ele>
      </trkpt>
      <trkpt lat="43.882841" lon="5.819058">
        <ele>736.7</ele>
      </trkpt>
      <trkpt lat="43.882793" lon="5.819192">
        <ele>731.5</ele>
      </trkpt>
      <trkpt lat="43.882777" lon="5.819364">
        <ele>730.9</ele>
      </trkpt>
      <trkpt lat="43.882835" lon="5.820115">
        <ele>726.4</ele>
      </trkpt>
      <trkpt lat="43.882955" lon="5.820646">
        <ele>722.4</ele>
      </trkpt>
      <trkpt lat="43.882955" lon="5.821161">
        <ele>720.2</ele>
      </trkpt>
      <trkpt lat="43.882812" lon="5.821440">
        <ele>722.3</ele>
      </trkpt>
      <trkpt lat="43.882568" lon="5.821665">
        <ele>729.3</ele>
      </trkpt>
      <trkpt lat="43.882398" lon="5.821772">
        <ele>726.1</ele>
      </trkpt>
      <trkpt lat="43.882197" lon="5.821788">
        <ele>721.1</ele>
      </trkpt>
      <trkpt lat="43.882027" lon="5.821542">
        <ele>722.7</ele>
      </trkpt>
      <trkpt lat="43.881834" lon="5.821381">
        <ele>721</ele>
      </trkpt>
      <trkpt lat="43.881640" lon="5.820919">
        <ele>713.1</ele>
      </trkpt>
      <trkpt lat="43.881617" lon="5.820512">
        <ele>714.2</ele>
      </trkpt>
      <trkpt lat="43.881548" lon="5.820233">
        <ele>717.5</ele>
      </trkpt>
      <trkpt lat="43.881521" lon="5.819653">
        <ele>724.3</ele>
      </trkpt>
      <trkpt lat="43.881598" lon="5.819203">
        <ele>733.8</ele>
      </trkpt>
      <trkpt lat="43.881617" lon="5.818688">
        <ele>729.3</ele>
      </trkpt>
      <trkpt lat="43.881602" lon="5.818473">
        <ele>732.9</ele>
      </trkpt>
      <trkpt lat="43.881737" lon="5.818012">
        <ele>750.1</ele>
      </trkpt>
      <trkpt lat="43.881741" lon="5.817829">
        <ele>752.1</ele>
      </trkpt>
      <trkpt lat="43.881559" lon="5.817567">
        <ele>744.6</ele>
      </trkpt>
      <trkpt lat="43.881385" lon="5.817508">
        <ele>737.6</ele>
      </trkpt>
      <trkpt lat="43.881269" lon="5.817491">
        <ele>743</ele>
      </trkpt>
      <trkpt lat="43.881214" lon="5.817266">
        <ele>743</ele>
      </trkpt>
      <trkpt lat="43.881160" lon="5.817204">
        <ele>742.5</ele>
      </trkpt>
      <trkpt lat="43.881157" lon="5.817084">
        <ele>743.8</ele>
      </trkpt>
      <trkpt lat="43.881201" lon="5.816998">
        <ele>745.3</ele>
      </trkpt>
      <trkpt lat="43.881192" lon="5.816885">
        <ele>746</ele>
      </trkpt>
      <trkpt lat="43.881170" lon="5.816765">
        <ele>746.3</ele>
      </trkpt>
      <trkpt lat="43.881108" lon="5.816730">
        <ele>745.6</ele>
      </trkpt>
      <trkpt lat="43.881056" lon="5.816716">
        <ele>745</ele>
      </trkpt>
      <trkpt lat="43.881029" lon="5.816612">
        <ele>751.4</ele>
      </trkpt>
      <trkpt lat="43.880988" lon="5.816596">
        <ele>750.4</ele>
      </trkpt>
      <trkpt lat="43.880953" lon="5.816512">
        <ele>751.1</ele>
      </trkpt>
      <trkpt lat="43.880937" lon="5.816301">
        <ele>754.6</ele>
      </trkpt>
      <trkpt lat="43.880853" lon="5.816199">
        <ele>755.4</ele>
      </trkpt>
      <trkpt lat="43.880809" lon="5.816091">
        <ele>747.9</ele>
      </trkpt>
      <trkpt lat="43.880613" lon="5.815659">
        <ele>758</ele>
      </trkpt>
      <trkpt lat="43.880553" lon="5.815549">
        <ele>758.4</ele>
      </trkpt>
      <trkpt lat="43.880457" lon="5.815517">
        <ele>758.3</ele>
      </trkpt>
      <trkpt lat="43.880412" lon="5.815651">
        <ele>757.5</ele>
      </trkpt>
      <trkpt lat="43.880366" lon="5.815751">
        <ele>756.9</ele>
      </trkpt>
      <trkpt lat="43.880263" lon="5.815810">
        <ele>755.8</ele>
      </trkpt>
      <trkpt lat="43.880203" lon="5.815777">
        <ele>755.3</ele>
      </trkpt>
      <trkpt lat="43.880103" lon="5.815792">
        <ele>753.8</ele>
      </trkpt>
      <trkpt lat="43.880003" lon="5.815859">
        <ele>750</ele>
      </trkpt>
      <trkpt lat="43.879865" lon="5.815872">
        <ele>738.7</ele>
      </trkpt>
      <trkpt lat="43.879764" lon="5.815850">
        <ele>733.8</ele>
      </trkpt>
      <trkpt lat="43.879746" lon="5.815844">
        <ele>733</ele>
      </trkpt>
      <trkpt lat="43.879653" lon="5.815767">
        <ele>744.4</ele>
      </trkpt>
      <trkpt lat="43.879555" lon="5.815726">
        <ele>742.5</ele>
      </trkpt>
      <trkpt lat="43.879500" lon="5.815607">
        <ele>742.5</ele>
      </trkpt>
      <trkpt lat="43.879434" lon="5.815452">
        <ele>743.7</ele>
      </trkpt>
      <trkpt lat="43.879349" lon="5.815349">
        <ele>744.5</ele>
      </trkpt>
      <trkpt lat="43.879284" lon="5.815229">
        <ele>745.9</ele>
      </trkpt>
      <trkpt lat="43.879256" lon="5.815187">
        <ele>746.4</ele>
      </trkpt>
      <trkpt lat="43.879212" lon="5.815122">
        <ele>747.3</ele>
      </trkpt>
      <trkpt lat="43.879126" lon="5.815028">
        <ele>745.2</ele>
      </trkpt>
      <trkpt lat="43.879030" lon="5.814941">
        <ele>749.7</ele>
      </trkpt>
      <trkpt lat="43.879007" lon="5.814937">
        <ele>749.7</ele>
      </trkpt>
      <trkpt lat="43.878865" lon="5.814899">
        <ele>749.5</ele>
      </trkpt>
      <trkpt lat="43.878779" lon="5.814868">
        <ele>749.1</ele>
      </trkpt>
      <trkpt lat="43.878683" lon="5.814860">
        <ele>748.1</ele>
      </trkpt>
      <trkpt lat="43.878638" lon="5.814838">
        <ele>747.8</ele>
      </trkpt>
      <trkpt lat="43.878576" lon="5.814816">
        <ele>747.2</ele>
      </trkpt>
      <trkpt lat="43.878551" lon="5.814810">
        <ele>747</ele>
      </trkpt>
      <trkpt lat="43.878469" lon="5.814821">
        <ele>745.4</ele>
      </trkpt>
      <trkpt lat="43.878390" lon="5.814814">
        <ele>744.6</ele>
      </trkpt>
      <trkpt lat="43.878278" lon="5.814811">
        <ele>740.6</ele>
      </trkpt>
      <trkpt lat="43.878161" lon="5.814852">
        <ele>740.5</ele>
      </trkpt>
      <trkpt lat="43.878016" lon="5.814870">
        <ele>740.8</ele>
      </trkpt>
      <trkpt lat="43.877933" lon="5.814902">
        <ele>740.3</ele>
      </trkpt>
      <trkpt lat="43.877469" lon="5.815109">
        <ele>723.4</ele>
      </trkpt>
      <trkpt lat="43.877428" lon="5.815148">
        <ele>721.2</ele>
      </trkpt>
      <trkpt lat="43.877326" lon="5.815154">
        <ele>719</ele>
      </trkpt>
      <trkpt lat="43.877257" lon="5.815068">
        <ele>718.5</ele>
      </trkpt>
      <trkpt lat="43.877257" lon="5.815069">
        <ele>718.5</ele>
      </trkpt>
      <trkpt lat="43.877260" lon="5.815089">
        <ele>718.4</ele>
      </trkpt>
      <trkpt lat="43.877259" lon="5.815138">
        <ele>717.8</ele>
      </trkpt>
      <trkpt lat="43.877251" lon="5.815142">
        <ele>717.5</ele>
      </trkpt>
      <trkpt lat="43.877212" lon="5.815184">
        <ele>716.3</ele>
      </trkpt>
      <trkpt lat="43.877195" lon="5.815290">
        <ele>714.8</ele>
      </trkpt>
      <trkpt lat="43.877128" lon="5.815415">
        <ele>712.8</ele>
      </trkpt>
      <trkpt lat="43.877061" lon="5.815388">
        <ele>712.6</ele>
      </trkpt>
      <trkpt lat="43.876994" lon="5.815409">
        <ele>711.9</ele>
      </trkpt>
      <trkpt lat="43.876896" lon="5.815543">
        <ele>710.3</ele>
      </trkpt>
      <trkpt lat="43.876760" lon="5.815584">
        <ele>709.1</ele>
      </trkpt>
      <trkpt lat="43.876674" lon="5.815589">
        <ele>708.7</ele>
      </trkpt>
      <trkpt lat="43.876529" lon="5.815593">
        <ele>701.2</ele>
      </trkpt>
      <trkpt lat="43.876405" lon="5.815626">
        <ele>700.3</ele>
      </trkpt>
      <trkpt lat="43.876362" lon="5.815633">
        <ele>700</ele>
      </trkpt>
      <trkpt lat="43.876221" lon="5.815587">
        <ele>698.8</ele>
      </trkpt>
      <trkpt lat="43.876153" lon="5.815522">
        <ele>698.2</ele>
      </trkpt>
      <trkpt lat="43.876124" lon="5.815519">
        <ele>698</ele>
      </trkpt>
      <trkpt lat="43.876044" lon="5.815537">
        <ele>697.4</ele>
      </trkpt>
      <trkpt lat="43.875996" lon="5.815634">
        <ele>696.9</ele>
      </trkpt>
      <trkpt lat="43.875893" lon="5.815743">
        <ele>695.6</ele>
      </trkpt>
      <trkpt lat="43.875709" lon="5.815846">
        <ele>686.3</ele>
      </trkpt>
      <trkpt lat="43.875602" lon="5.815913">
        <ele>681.7</ele>
      </trkpt>
      <trkpt lat="43.875572" lon="5.815906">
        <ele>681</ele>
      </trkpt>
      <trkpt lat="43.875543" lon="5.815891">
        <ele>680.5</ele>
      </trkpt>
      <trkpt lat="43.875497" lon="5.815917">
        <ele>679.3</ele>
      </trkpt>
      <trkpt lat="43.875454" lon="5.815918">
        <ele>678.5</ele>
      </trkpt>
      <trkpt lat="43.875438" lon="5.815910">
        <ele>678.3</ele>
      </trkpt>
      <trkpt lat="43.875380" lon="5.815979">
        <ele>676.9</ele>
      </trkpt>
      <trkpt lat="43.875377" lon="5.816002">
        <ele>676.7</ele>
      </trkpt>
      <trkpt lat="43.875373" lon="5.816078">
        <ele>676</ele>
      </trkpt>
      <trkpt lat="43.875366" lon="5.816106">
        <ele>675.7</ele>
      </trkpt>
      <trkpt lat="43.875363" lon="5.816132">
        <ele>675.4</ele>
      </trkpt>
      <trkpt lat="43.875336" lon="5.816170">
        <ele>674.8</ele>
      </trkpt>
      <trkpt lat="43.875320" lon="5.816222">
        <ele>674.1</ele>
      </trkpt>
      <trkpt lat="43.875305" lon="5.816236">
        <ele>673.9</ele>
      </trkpt>
      <trkpt lat="43.875268" lon="5.816228">
        <ele>673.7</ele>
      </trkpt>
      <trkpt lat="43.875240" lon="5.816234">
        <ele>673.5</ele>
      </trkpt>
      <trkpt lat="43.875227" lon="5.816259">
        <ele>673.1</ele>
      </trkpt>
      <trkpt lat="43.875226" lon="5.816299">
        <ele>672.6</ele>
      </trkpt>
      <trkpt lat="43.875257" lon="5.816360">
        <ele>672.1</ele>
      </trkpt>
      <trkpt lat="43.875254" lon="5.816389">
        <ele>671.7</ele>
      </trkpt>
      <trkpt lat="43.875242" lon="5.816413">
        <ele>671.3</ele>
      </trkpt>
      <trkpt lat="43.875235" lon="5.816449">
        <ele>670.8</ele>
      </trkpt>
      <trkpt lat="43.875239" lon="5.816473">
        <ele>670.5</ele>
      </trkpt>
      <trkpt lat="43.875251" lon="5.816536">
        <ele>670</ele>
      </trkpt>
      <trkpt lat="43.875255" lon="5.816591">
        <ele>669.5</ele>
      </trkpt>
      <trkpt lat="43.875274" lon="5.816611">
        <ele>669.6</ele>
      </trkpt>
      <trkpt lat="43.875281" lon="5.816633">
        <ele>669.6</ele>
      </trkpt>
      <trkpt lat="43.875271" lon="5.816665">
        <ele>669.3</ele>
      </trkpt>
      <trkpt lat="43.875267" lon="5.816702">
        <ele>657.2</ele>
      </trkpt>
      <trkpt lat="43.875265" lon="5.816729">
        <ele>657</ele>
      </trkpt>
      <trkpt lat="43.875268" lon="5.816735">
        <ele>656.9</ele>
      </trkpt>
      <trkpt lat="43.875285" lon="5.816775">
        <ele>656.5</ele>
      </trkpt>
      <trkpt lat="43.875280" lon="5.816782">
        <ele>656.5</ele>
      </trkpt>
      <trkpt lat="43.875281" lon="5.816791">
        <ele>656.4</ele>
      </trkpt>
      <trkpt lat="43.875321" lon="5.816920">
        <ele>654.9</ele>
      </trkpt>
      <trkpt lat="43.875329" lon="5.816958">
        <ele>654.4</ele>
      </trkpt>
      <trkpt lat="43.875387" lon="5.817018">
        <ele>653.6</ele>
      </trkpt>
      <trkpt lat="43.875400" lon="5.817046">
        <ele>653.3</ele>
      </trkpt>
      <trkpt lat="43.875421" lon="5.817125">
        <ele>652.2</ele>
      </trkpt>
      <trkpt lat="43.875474" lon="5.817349">
        <ele>649.2</ele>
      </trkpt>
      <trkpt lat="43.875525" lon="5.817568">
        <ele>636.6</ele>
      </trkpt>
      <trkpt lat="43.875531" lon="5.817688">
        <ele>636</ele>
      </trkpt>
      <trkpt lat="43.875544" lon="5.817866">
        <ele>634.6</ele>
      </trkpt>
      <trkpt lat="43.875540" lon="5.817902">
        <ele>634.3</ele>
      </trkpt>
      <trkpt lat="43.875549" lon="5.817946">
        <ele>633.9</ele>
      </trkpt>
      <trkpt lat="43.875576" lon="5.817954">
        <ele>633.8</ele>
      </trkpt>
      <trkpt lat="43.875588" lon="5.817953">
        <ele>633.8</ele>
      </trkpt>
      <trkpt lat="43.875611" lon="5.817945">
        <ele>633.8</ele>
      </trkpt>
      <trkpt lat="43.875666" lon="5.818075">
        <ele>632.3</ele>
      </trkpt>
      <trkpt lat="43.875695" lon="5.818174">
        <ele>630.9</ele>
      </trkpt>
      <trkpt lat="43.875747" lon="5.818294">
        <ele>628.6</ele>
      </trkpt>
      <trkpt lat="43.875766" lon="5.818386">
        <ele>624.5</ele>
      </trkpt>
      <trkpt lat="43.875785" lon="5.818483">
        <ele>623.4</ele>
      </trkpt>
      <trkpt lat="43.875800" lon="5.818559">
        <ele>622.5</ele>
      </trkpt>
      <trkpt lat="43.875806" lon="5.818574">
        <ele>622.3</ele>
      </trkpt>
      <trkpt lat="43.875830" lon="5.818577">
        <ele>622.3</ele>
      </trkpt>
      <trkpt lat="43.875838" lon="5.818623">
        <ele>613.8</ele>
      </trkpt>
      <trkpt lat="43.875858" lon="5.818657">
        <ele>613.1</ele>
      </trkpt>
      <trkpt lat="43.875867" lon="5.818660">
        <ele>613</ele>
      </trkpt>
      <trkpt lat="43.875913" lon="5.818828">
        <ele>610.9</ele>
      </trkpt>
      <trkpt lat="43.875936" lon="5.818916">
        <ele>610.6</ele>
      </trkpt>
      <trkpt lat="43.875952" lon="5.818933">
        <ele>610.4</ele>
      </trkpt>
      <trkpt lat="43.876020" lon="5.819035">
        <ele>609.8</ele>
      </trkpt>
      <trkpt lat="43.876029" lon="5.819066">
        <ele>609.8</ele>
      </trkpt>
      <trkpt lat="43.876064" lon="5.819076">
        <ele>609.1</ele>
      </trkpt>
      <trkpt lat="43.876106" lon="5.819211">
        <ele>600.6</ele>
      </trkpt>
      <trkpt lat="43.876129" lon="5.819301">
        <ele>599.1</ele>
      </trkpt>
      <trkpt lat="43.876058" lon="5.819444">
        <ele>598.4</ele>
      </trkpt>
      <trkpt lat="43.876046" lon="5.819466">
        <ele>598.2</ele>
      </trkpt>
      <trkpt lat="43.875942" lon="5.819566">
        <ele>597.5</ele>
      </trkpt>
      <trkpt lat="43.875814" lon="5.819637">
        <ele>603.3</ele>
      </trkpt>
      <trkpt lat="43.875718" lon="5.819679">
        <ele>602.7</ele>
      </trkpt>
      <trkpt lat="43.875655" lon="5.819701">
        <ele>602.5</ele>
      </trkpt>
      <trkpt lat="43.875596" lon="5.819693">
        <ele>602.9</ele>
      </trkpt>
      <trkpt lat="43.875551" lon="5.819688">
        <ele>603.1</ele>
      </trkpt>
      <trkpt lat="43.875512" lon="5.819688">
        <ele>603.3</ele>
      </trkpt>
      <trkpt lat="43.875505" lon="5.819695">
        <ele>603.2</ele>
      </trkpt>
      <trkpt lat="43.875381" lon="5.819741">
        <ele>603.1</ele>
      </trkpt>
      <trkpt lat="43.875359" lon="5.819751">
        <ele>603.1</ele>
      </trkpt>
      <trkpt lat="43.875318" lon="5.819745">
        <ele>603.2</ele>
      </trkpt>
      <trkpt lat="43.875287" lon="5.819712">
        <ele>603.5</ele>
      </trkpt>
      <trkpt lat="43.875261" lon="5.819676">
        <ele>603.8</ele>
      </trkpt>
      <trkpt lat="43.875235" lon="5.819652">
        <ele>604</ele>
      </trkpt>
      <trkpt lat="43.875198" lon="5.819650">
        <ele>604</ele>
      </trkpt>
      <trkpt lat="43.875091" lon="5.819841">
        <ele>602.2</ele>
      </trkpt>
      <trkpt lat="43.875007" lon="5.819882">
        <ele>601.6</ele>
      </trkpt>
      <trkpt lat="43.874952" lon="5.819911">
        <ele>599.5</ele>
      </trkpt>
      <trkpt lat="43.874948" lon="5.819928">
        <ele>599.5</ele>
      </trkpt>
      <trkpt lat="43.875014" lon="5.820050">
        <ele>598</ele>
      </trkpt>
      <trkpt lat="43.875055" lon="5.820222">
        <ele>593.6</ele>
      </trkpt>
      <trkpt lat="43.875049" lon="5.820214">
        <ele>593.8</ele>
      </trkpt>
      <trkpt lat="43.875062" lon="5.820234">
        <ele>593.4</ele>
      </trkpt>
      <trkpt lat="43.875074" lon="5.820295">
        <ele>592.5</ele>
      </trkpt>
      <trkpt lat="43.875125" lon="5.820294">
        <ele>592.2</ele>
      </trkpt>
      <trkpt lat="43.875146" lon="5.820327">
        <ele>591.6</ele>
      </trkpt>
      <trkpt lat="43.875151" lon="5.820370">
        <ele>591.2</ele>
      </trkpt>
      <trkpt lat="43.875161" lon="5.820389">
        <ele>590.9</ele>
      </trkpt>
      <trkpt lat="43.875169" lon="5.820400">
        <ele>590.8</ele>
      </trkpt>
      <trkpt lat="43.875178" lon="5.820408">
        <ele>590.7</ele>
      </trkpt>
      <trkpt lat="43.875203" lon="5.820436">
        <ele>590.3</ele>
      </trkpt>
      <trkpt lat="43.875215" lon="5.820465">
        <ele>590</ele>
      </trkpt>
      <trkpt lat="43.875224" lon="5.820474">
        <ele>589.8</ele>
      </trkpt>
      <trkpt lat="43.875231" lon="5.820481">
        <ele>589.7</ele>
      </trkpt>
      <trkpt lat="43.875255" lon="5.820594">
        <ele>589</ele>
      </trkpt>
      <trkpt lat="43.875263" lon="5.820645">
        <ele>588.7</ele>
      </trkpt>
      <trkpt lat="43.875297" lon="5.820751">
        <ele>588</ele>
      </trkpt>
      <trkpt lat="43.875304" lon="5.820778">
        <ele>587.8</ele>
      </trkpt>
      <trkpt lat="43.875314" lon="5.820806">
        <ele>587.5</ele>
      </trkpt>
      <trkpt lat="43.875320" lon="5.820830">
        <ele>587.3</ele>
      </trkpt>
      <trkpt lat="43.875314" lon="5.820851">
        <ele>581.1</ele>
      </trkpt>
      <trkpt lat="43.875330" lon="5.820879">
        <ele>580.7</ele>
      </trkpt>
      <trkpt lat="43.875355" lon="5.820904">
        <ele>580</ele>
      </trkpt>
      <trkpt lat="43.875380" lon="5.820919">
        <ele>579.3</ele>
      </trkpt>
      <trkpt lat="43.875393" lon="5.820965">
        <ele>578.9</ele>
      </trkpt>
      <trkpt lat="43.875471" lon="5.821042">
        <ele>577.1</ele>
      </trkpt>
      <trkpt lat="43.875486" lon="5.821078">
        <ele>576.8</ele>
      </trkpt>
      <trkpt lat="43.875496" lon="5.821098">
        <ele>576.6</ele>
      </trkpt>
      <trkpt lat="43.875518" lon="5.821110">
        <ele>576.2</ele>
      </trkpt>
      <trkpt lat="43.875543" lon="5.821118">
        <ele>575.7</ele>
      </trkpt>
      <trkpt lat="43.875589" lon="5.821128">
        <ele>575</ele>
      </trkpt>
      <trkpt lat="43.875623" lon="5.821156">
        <ele>574.4</ele>
      </trkpt>
      <trkpt lat="43.875645" lon="5.821199">
        <ele>574</ele>
      </trkpt>
      <trkpt lat="43.875653" lon="5.821238">
        <ele>573.7</ele>
      </trkpt>
      <trkpt lat="43.875651" lon="5.821245">
        <ele>573.6</ele>
      </trkpt>
      <trkpt lat="43.875681" lon="5.821301">
        <ele>572.7</ele>
      </trkpt>
      <trkpt lat="43.875685" lon="5.821315">
        <ele>572.5</ele>
      </trkpt>
      <trkpt lat="43.875690" lon="5.821328">
        <ele>572.3</ele>
      </trkpt>
      <trkpt lat="43.875710" lon="5.821360">
        <ele>571.6</ele>
      </trkpt>
      <trkpt lat="43.875715" lon="5.821358">
        <ele>571.5</ele>
      </trkpt>
      <trkpt lat="43.875758" lon="5.821385">
        <ele>570.5</ele>
      </trkpt>
      <trkpt lat="43.875784" lon="5.821468">
        <ele>568.1</ele>
      </trkpt>
      <trkpt lat="43.875818" lon="5.821506">
        <ele>566.4</ele>
      </trkpt>
      <trkpt lat="43.875838" lon="5.821533">
        <ele>557.8</ele>
      </trkpt>
      <trkpt lat="43.875857" lon="5.821564">
        <ele>557.6</ele>
      </trkpt>
      <trkpt lat="43.875877" lon="5.821592">
        <ele>557.5</ele>
      </trkpt>
      <trkpt lat="43.875912" lon="5.821654">
        <ele>557.4</ele>
      </trkpt>
      <trkpt lat="43.875916" lon="5.821681">
        <ele>554.5</ele>
      </trkpt>
      <trkpt lat="43.875925" lon="5.821728">
        <ele>553.8</ele>
      </trkpt>
      <trkpt lat="43.875942" lon="5.821762">
        <ele>553.1</ele>
      </trkpt>
      <trkpt lat="43.875957" lon="5.821792">
        <ele>552.5</ele>
      </trkpt>
      <trkpt lat="43.875967" lon="5.821821">
        <ele>552</ele>
      </trkpt>
      <trkpt lat="43.875980" lon="5.821844">
        <ele>551.6</ele>
      </trkpt>
      <trkpt lat="43.875993" lon="5.821862">
        <ele>551.2</ele>
      </trkpt>
      <trkpt lat="43.876006" lon="5.821881">
        <ele>550.9</ele>
      </trkpt>
      <trkpt lat="43.876083" lon="5.821959">
        <ele>549.6</ele>
      </trkpt>
      <trkpt lat="43.876097" lon="5.821971">
        <ele>549.4</ele>
      </trkpt>
      <trkpt lat="43.876145" lon="5.822040">
        <ele>548.6</ele>
      </trkpt>
      <trkpt lat="43.876185" lon="5.822091">
        <ele>548</ele>
      </trkpt>
      <trkpt lat="43.876183" lon="5.822106">
        <ele>547.9</ele>
      </trkpt>
      <trkpt lat="43.876262" lon="5.822194">
        <ele>546.6</ele>
      </trkpt>
      <trkpt lat="43.876290" lon="5.822229">
        <ele>546</ele>
      </trkpt>
      <trkpt lat="43.876309" lon="5.822236">
        <ele>545.8</ele>
      </trkpt>
      <trkpt lat="43.876331" lon="5.822287">
        <ele>545.1</ele>
      </trkpt>
      <trkpt lat="43.876335" lon="5.822330">
        <ele>544.7</ele>
      </trkpt>
      <trkpt lat="43.876372" lon="5.822404">
        <ele>543.4</ele>
      </trkpt>
      <trkpt lat="43.876374" lon="5.822425">
        <ele>543.3</ele>
      </trkpt>
      <trkpt lat="43.876387" lon="5.822444">
        <ele>542.9</ele>
      </trkpt>
      <trkpt lat="43.876401" lon="5.822459">
        <ele>542.5</ele>
      </trkpt>
      <trkpt lat="43.876411" lon="5.822492">
        <ele>542.1</ele>
      </trkpt>
      <trkpt lat="43.876421" lon="5.822505">
        <ele>536.3</ele>
      </trkpt>
      <trkpt lat="43.876433" lon="5.822519">
        <ele>536.1</ele>
      </trkpt>
      <trkpt lat="43.876443" lon="5.822534">
        <ele>536</ele>
      </trkpt>
      <trkpt lat="43.876449" lon="5.822554">
        <ele>535.9</ele>
      </trkpt>
      <trkpt lat="43.876459" lon="5.822608">
        <ele>535.8</ele>
      </trkpt>
      <trkpt lat="43.876482" lon="5.822652">
        <ele>535.6</ele>
      </trkpt>
      <trkpt lat="43.876493" lon="5.822674">
        <ele>535.5</ele>
      </trkpt>
      <trkpt lat="43.876505" lon="5.822699">
        <ele>535.4</ele>
      </trkpt>
      <trkpt lat="43.876520" lon="5.822724">
        <ele>535.3</ele>
      </trkpt>
      <trkpt lat="43.876527" lon="5.822749">
        <ele>535.3</ele>
      </trkpt>
      <trkpt lat="43.876532" lon="5.822774">
        <ele>535.3</ele>
      </trkpt>
      <trkpt lat="43.876530" lon="5.822938">
        <ele>534.7</ele>
      </trkpt>
      <trkpt lat="43.876537" lon="5.822962">
        <ele>534.5</ele>
      </trkpt>
      <trkpt lat="43.876562" lon="5.823053">
        <ele>533.4</ele>
      </trkpt>
      <trkpt lat="43.876556" lon="5.823078">
        <ele>533.1</ele>
      </trkpt>
      <trkpt lat="43.876535" lon="5.823129">
        <ele>532.6</ele>
      </trkpt>
      <trkpt lat="43.876533" lon="5.823166">
        <ele>532.1</ele>
      </trkpt>
      <trkpt lat="43.876537" lon="5.823205">
        <ele>531.4</ele>
      </trkpt>
      <trkpt lat="43.876573" lon="5.823459">
        <ele>524.8</ele>
      </trkpt>
      <trkpt lat="43.876584" lon="5.823729">
        <ele>522.6</ele>
      </trkpt>
      <trkpt lat="43.876575" lon="5.823781">
        <ele>521.9</ele>
      </trkpt>
      <trkpt lat="43.876583" lon="5.823790">
        <ele>521.8</ele>
      </trkpt>
      <trkpt lat="43.876592" lon="5.823717">
        <ele>522.7</ele>
      </trkpt>
      <trkpt lat="43.876642" lon="5.823671">
        <ele>523</ele>
      </trkpt>
      <trkpt lat="43.876665" lon="5.823689">
        <ele>522.8</ele>
      </trkpt>
      <trkpt lat="43.876687" lon="5.823711">
        <ele>528.8</ele>
      </trkpt>
      <trkpt lat="43.876683" lon="5.823726">
        <ele>528.6</ele>
      </trkpt>
      <trkpt lat="43.876696" lon="5.823787">
        <ele>527.9</ele>
      </trkpt>
      <trkpt lat="43.876693" lon="5.823853">
        <ele>526.6</ele>
      </trkpt>
      <trkpt lat="43.876724" lon="5.823912">
        <ele>525.5</ele>
      </trkpt>
      <trkpt lat="43.876734" lon="5.823938">
        <ele>524.9</ele>
      </trkpt>
      <trkpt lat="43.876753" lon="5.823958">
        <ele>524.6</ele>
      </trkpt>
      <trkpt lat="43.876818" lon="5.824073">
        <ele>523.1</ele>
      </trkpt>
      <trkpt lat="43.876838" lon="5.824206">
        <ele>516.8</ele>
      </trkpt>
      <trkpt lat="43.876832" lon="5.824405">
        <ele>517.4</ele>
      </trkpt>
      <trkpt lat="43.876821" lon="5.824802">
        <ele>511.8</ele>
      </trkpt>
      <trkpt lat="43.876792" lon="5.825047">
        <ele>501.9</ele>
      </trkpt>
      <trkpt lat="43.876850" lon="5.825414">
        <ele>506.2</ele>
      </trkpt>
      <trkpt lat="43.876884" lon="5.825636">
        <ele>504.7</ele>
      </trkpt>
      <trkpt lat="43.876886" lon="5.825867">
        <ele>503.7</ele>
      </trkpt>
      <trkpt lat="43.876780" lon="5.826013">
        <ele>503</ele>
      </trkpt>
      <trkpt lat="43.876655" lon="5.826176">
        <ele>493.2</ele>
      </trkpt>
      <trkpt lat="43.876592" lon="5.826253">
        <ele>493.8</ele>
      </trkpt>
      <trkpt lat="43.876554" lon="5.826292">
        <ele>494.1</ele>
      </trkpt>
      <trkpt lat="43.876440" lon="5.826393">
        <ele>494.2</ele>
      </trkpt>
      <trkpt lat="43.876284" lon="5.826513">
        <ele>492.6</ele>
      </trkpt>
      <trkpt lat="43.876249" lon="5.826552">
        <ele>492.1</ele>
      </trkpt>
      <trkpt lat="43.876216" lon="5.826594">
        <ele>491.5</ele>
      </trkpt>
      <trkpt lat="43.876027" lon="5.826953">
        <ele>493.9</ele>
      </trkpt>
      <trkpt lat="43.876009" lon="5.827014">
        <ele>494.2</ele>
      </trkpt>
      <trkpt lat="43.875995" lon="5.827074">
        <ele>494.4</ele>
      </trkpt>
      <trkpt lat="43.875989" lon="5.827134">
        <ele>494.5</ele>
      </trkpt>
      <trkpt lat="43.875989" lon="5.827189">
        <ele>494.5</ele>
      </trkpt>
      <trkpt lat="43.875991" lon="5.827241">
        <ele>494.4</ele>
      </trkpt>
      <trkpt lat="43.876006" lon="5.827752">
        <ele>497.5</ele>
      </trkpt>
      <trkpt lat="43.875998" lon="5.827991">
        <ele>498.1</ele>
      </trkpt>
      <trkpt lat="43.876018" lon="5.828050">
        <ele>498.1</ele>
      </trkpt>
      <trkpt lat="43.876023" lon="5.828277">
        <ele>496.2</ele>
      </trkpt>
      <trkpt lat="43.876036" lon="5.828628">
        <ele>496</ele>
      </trkpt>
      <trkpt lat="43.876024" lon="5.828908">
        <ele>494.9</ele>
      </trkpt>
      <trkpt lat="43.876024" lon="5.829325">
        <ele>489.6</ele>
      </trkpt>
      <trkpt lat="43.875983" lon="5.829597">
        <ele>489.3</ele>
      </trkpt>
      <trkpt lat="43.875941" lon="5.829724">
        <ele>488.3</ele>
      </trkpt>
      <trkpt lat="43.876003" lon="5.829856">
        <ele>487.7</ele>
      </trkpt>
      <trkpt lat="43.876195" lon="5.830090">
        <ele>480.5</ele>
      </trkpt>
      <trkpt lat="43.876337" lon="5.830193">
        <ele>480.7</ele>
      </trkpt>
      <trkpt lat="43.876355" lon="5.830209">
        <ele>480.7</ele>
      </trkpt>
      <trkpt lat="43.876369" lon="5.830234">
        <ele>480.5</ele>
      </trkpt>
      <trkpt lat="43.876420" lon="5.830312">
        <ele>479.9</ele>
      </trkpt>
      <trkpt lat="43.876456" lon="5.830353">
        <ele>479.5</ele>
      </trkpt>
      <trkpt lat="43.876708" lon="5.830584">
        <ele>483.4</ele>
      </trkpt>
      <trkpt lat="43.877004" lon="5.830762">
        <ele>485.2</ele>
      </trkpt>
      <trkpt lat="43.877052" lon="5.830810">
        <ele>485.6</ele>
      </trkpt>
      <trkpt lat="43.877094" lon="5.830862">
        <ele>476.2</ele>
      </trkpt>
      <trkpt lat="43.877395" lon="5.831323">
        <ele>475.4</ele>
      </trkpt>
      <trkpt lat="43.877593" lon="5.831756">
        <ele>476.4</ele>
      </trkpt>
      <trkpt lat="43.877611" lon="5.831838">
        <ele>477.2</ele>
      </trkpt>
      <trkpt lat="43.877627" lon="5.831920">
        <ele>477.6</ele>
      </trkpt>
      <trkpt lat="43.877649" lon="5.831992">
        <ele>477.9</ele>
      </trkpt>
      <trkpt lat="43.877672" lon="5.832055">
        <ele>477.9</ele>
      </trkpt>
      <trkpt lat="43.877717" lon="5.832217">
        <ele>477.6</ele>
      </trkpt>
      <trkpt lat="43.877803" lon="5.832653">
        <ele>472.9</ele>
      </trkpt>
      <trkpt lat="43.877889" lon="5.833012">
        <ele>471.9</ele>
      </trkpt>
      <trkpt lat="43.877932" lon="5.833193">
        <ele>471.4</ele>
      </trkpt>
      <trkpt lat="43.877903" lon="5.833404">
        <ele>464.2</ele>
      </trkpt>
      <trkpt lat="43.877876" lon="5.833686">
        <ele>462.8</ele>
      </trkpt>
      <trkpt lat="43.877906" lon="5.833888">
        <ele>461.9</ele>
      </trkpt>
      <trkpt lat="43.877909" lon="5.833894">
        <ele>461.9</ele>
      </trkpt>
      <trkpt lat="43.877916" lon="5.833897">
        <ele>461.9</ele>
      </trkpt>
      <trkpt lat="43.877926" lon="5.833903">
        <ele>462</ele>
      </trkpt>
      <trkpt lat="43.877938" lon="5.833922">
        <ele>462</ele>
      </trkpt>
      <trkpt lat="43.877954" lon="5.833942">
        <ele>462</ele>
      </trkpt>
      <trkpt lat="43.877970" lon="5.833966">
        <ele>462</ele>
      </trkpt>
      <trkpt lat="43.877984" lon="5.833990">
        <ele>462</ele>
      </trkpt>
      <trkpt lat="43.878076" lon="5.834201">
        <ele>457.3</ele>
      </trkpt>
      <trkpt lat="43.878200" lon="5.834559">
        <ele>455.6</ele>
      </trkpt>
      <trkpt lat="43.878228" lon="5.834627">
        <ele>455.1</ele>
      </trkpt>
      <trkpt lat="43.878379" lon="5.834937">
        <ele>456.6</ele>
      </trkpt>
      <trkpt lat="43.878449" lon="5.835130">
        <ele>453.5</ele>
      </trkpt>
      <trkpt lat="43.878476" lon="5.835182">
        <ele>453.5</ele>
      </trkpt>
      <trkpt lat="43.878668" lon="5.835462">
        <ele>452.8</ele>
      </trkpt>
      <trkpt lat="43.878815" lon="5.835607">
        <ele>452.7</ele>
      </trkpt>
      <trkpt lat="43.878844" lon="5.835653">
        <ele>452.5</ele>
      </trkpt>
      <trkpt lat="43.878871" lon="5.835703">
        <ele>452.4</ele>
      </trkpt>
      <trkpt lat="43.879033" lon="5.836094">
        <ele>443.7</ele>
      </trkpt>
      <trkpt lat="43.879244" lon="5.836274">
        <ele>445.8</ele>
      </trkpt>
      <trkpt lat="43.879281" lon="5.836310">
        <ele>445.5</ele>
      </trkpt>
      <trkpt lat="43.879518" lon="5.836546">
        <ele>444.5</ele>
      </trkpt>
      <trkpt lat="43.879576" lon="5.836712">
        <ele>435.2</ele>
      </trkpt>
      <trkpt lat="43.879568" lon="5.836769">
        <ele>434.9</ele>
      </trkpt>
      <trkpt lat="43.879474" lon="5.837082">
        <ele>432.5</ele>
      </trkpt>
      <trkpt lat="43.879390" lon="5.837392">
        <ele>429.3</ele>
      </trkpt>
      <trkpt lat="43.879359" lon="5.837516">
        <ele>421.5</ele>
      </trkpt>
      <trkpt lat="43.879358" lon="5.837527">
        <ele>421.5</ele>
      </trkpt>
      <trkpt lat="43.879364" lon="5.837542">
        <ele>421.4</ele>
      </trkpt>
      <trkpt lat="43.879383" lon="5.837554">
        <ele>421.2</ele>
      </trkpt>
      <trkpt lat="43.879511" lon="5.837573">
        <ele>420.9</ele>
      </trkpt>
      <trkpt lat="43.879700" lon="5.837581">
        <ele>421.7</ele>
      </trkpt>
      <trkpt lat="43.880018" lon="5.837638">
        <ele>426.2</ele>
      </trkpt>
      <trkpt lat="43.880274" lon="5.837744">
        <ele>425.1</ele>
      </trkpt>
      <trkpt lat="43.880326" lon="5.837785">
        <ele>424.9</ele>
      </trkpt>
      <trkpt lat="43.880373" lon="5.837835">
        <ele>424.7</ele>
      </trkpt>
      <trkpt lat="43.880416" lon="5.837888">
        <ele>424.5</ele>
      </trkpt>
      <trkpt lat="43.880459" lon="5.837947">
        <ele>424.2</ele>
      </trkpt>
      <trkpt lat="43.880699" lon="5.838420">
        <ele>418.1</ele>
      </trkpt>
      <trkpt lat="43.880822" lon="5.838646">
        <ele>416.3</ele>
      </trkpt>
      <trkpt lat="43.880882" lon="5.838748">
        <ele>423.7</ele>
      </trkpt>
      <trkpt lat="43.880876" lon="5.838779">
        <ele>423.4</ele>
      </trkpt>
      <trkpt lat="43.880857" lon="5.838800">
        <ele>423.2</ele>
      </trkpt>
      <trkpt lat="43.880830" lon="5.838807">
        <ele>415.3</ele>
      </trkpt>
      <trkpt lat="43.880795" lon="5.838792">
        <ele>415.3</ele>
      </trkpt>
      <trkpt lat="43.880767" lon="5.838766">
        <ele>415.3</ele>
      </trkpt>
      <trkpt lat="43.880745" lon="5.838737">
        <ele>415.4</ele>
      </trkpt>
      <trkpt lat="43.880515" lon="5.838546">
        <ele>415.2</ele>
      </trkpt>
      <trkpt lat="43.880479" lon="5.838528">
        <ele>415</ele>
      </trkpt>
      <trkpt lat="43.880234" lon="5.838406">
        <ele>413.7</ele>
      </trkpt>
      <trkpt lat="43.880130" lon="5.838370">
        <ele>413.3</ele>
      </trkpt>
      <trkpt lat="43.880102" lon="5.838385">
        <ele>413.2</ele>
      </trkpt>
      <trkpt lat="43.880079" lon="5.838414">
        <ele>413.1</ele>
      </trkpt>
      <trkpt lat="43.880060" lon="5.838451">
        <ele>413</ele>
      </trkpt>
      <trkpt lat="43.880045" lon="5.838490">
        <ele>412.9</ele>
      </trkpt>
      <trkpt lat="43.880032" lon="5.838530">
        <ele>412.8</ele>
      </trkpt>
      <trkpt lat="43.880022" lon="5.838572">
        <ele>412.6</ele>
      </trkpt>
      <trkpt lat="43.880017" lon="5.838614">
        <ele>412.4</ele>
      </trkpt>
      <trkpt lat="43.880018" lon="5.838657">
        <ele>412.1</ele>
      </trkpt>
      <trkpt lat="43.880025" lon="5.838700">
        <ele>411.9</ele>
      </trkpt>
      <trkpt lat="43.880034" lon="5.838739">
        <ele>411.6</ele>
      </trkpt>
      <trkpt lat="43.880049" lon="5.838773">
        <ele>411.3</ele>
      </trkpt>
      <trkpt lat="43.880068" lon="5.838808">
        <ele>411.1</ele>
      </trkpt>
      <trkpt lat="43.880089" lon="5.838852">
        <ele>410.7</ele>
      </trkpt>
      <trkpt lat="43.880168" lon="5.839025">
        <ele>409.3</ele>
      </trkpt>
      <trkpt lat="43.880201" lon="5.839085">
        <ele>409.2</ele>
      </trkpt>
      <trkpt lat="43.880270" lon="5.839212">
        <ele>407.9</ele>
      </trkpt>
      <trkpt lat="43.880296" lon="5.839282">
        <ele>408.4</ele>
      </trkpt>
      <trkpt lat="43.880360" lon="5.839550">
        <ele>409.3</ele>
      </trkpt>
      <trkpt lat="43.880364" lon="5.839610">
        <ele>409.4</ele>
      </trkpt>
      <trkpt lat="43.880356" lon="5.839667">
        <ele>409.4</ele>
      </trkpt>
      <trkpt lat="43.880335" lon="5.839712">
        <ele>409.2</ele>
      </trkpt>
      <trkpt lat="43.880306" lon="5.839742">
        <ele>409</ele>
      </trkpt>
      <trkpt lat="43.880273" lon="5.839759">
        <ele>408.8</ele>
      </trkpt>
      <trkpt lat="43.880237" lon="5.839764">
        <ele>408.5</ele>
      </trkpt>
      <trkpt lat="43.880196" lon="5.839754">
        <ele>408.3</ele>
      </trkpt>
      <trkpt lat="43.880151" lon="5.839736">
        <ele>408</ele>
      </trkpt>
      <trkpt lat="43.879943" lon="5.839663">
        <ele>401.2</ele>
      </trkpt>
      <trkpt lat="43.879894" lon="5.839749">
        <ele>401.4</ele>
      </trkpt>
      <trkpt lat="43.879798" lon="5.839993">
        <ele>401.5</ele>
      </trkpt>
      <trkpt lat="43.879715" lon="5.840157">
        <ele>400.7</ele>
      </trkpt>
      <trkpt lat="43.879560" lon="5.840269">
        <ele>399.2</ele>
      </trkpt>
      <trkpt lat="43.879401" lon="5.840432">
        <ele>398.1</ele>
      </trkpt>
      <trkpt lat="43.879301" lon="5.840564">
        <ele>397.1</ele>
      </trkpt>
      <trkpt lat="43.879292" lon="5.840575">
        <ele>397</ele>
      </trkpt>
      <trkpt lat="43.879269" lon="5.840609">
        <ele>396.6</ele>
      </trkpt>
      <trkpt lat="43.879256" lon="5.840630">
        <ele>396.3</ele>
      </trkpt>
      <trkpt lat="43.879244" lon="5.840651">
        <ele>396.1</ele>
      </trkpt>
      <trkpt lat="43.879240" lon="5.840664">
        <ele>395.9</ele>
      </trkpt>
      <trkpt lat="43.879219" lon="5.840655">
        <ele>395.8</ele>
      </trkpt>
      <trkpt lat="43.879196" lon="5.840637">
        <ele>395.9</ele>
      </trkpt>
      <trkpt lat="43.879060" lon="5.840497">
        <ele>390.2</ele>
      </trkpt>
      <trkpt lat="43.878890" lon="5.840355">
        <ele>389.9</ele>
      </trkpt>
      <trkpt lat="43.878660" lon="5.840276">
        <ele>389.7</ele>
      </trkpt>
      <trkpt lat="43.878568" lon="5.840333">
        <ele>389.5</ele>
      </trkpt>
      <trkpt lat="43.878550" lon="5.840361">
        <ele>389.3</ele>
      </trkpt>
      <trkpt lat="43.878407" lon="5.840601">
        <ele>387.3</ele>
      </trkpt>
      <trkpt lat="43.878191" lon="5.840906">
        <ele>382.4</ele>
      </trkpt>
      <trkpt lat="43.878048" lon="5.841064">
        <ele>381.9</ele>
      </trkpt>
      <trkpt lat="43.877847" lon="5.841331">
        <ele>381.3</ele>
      </trkpt>
      <trkpt lat="43.877586" lon="5.841612">
        <ele>379.9</ele>
      </trkpt>
      <trkpt lat="43.877348" lon="5.841835">
        <ele>378.2</ele>
      </trkpt>
      <trkpt lat="43.877087" lon="5.842012">
        <ele>377.9</ele>
      </trkpt>
      <trkpt lat="43.876900" lon="5.842093">
        <ele>378</ele>
      </trkpt>
    </trkseg>
  </trk>
</gpx>