<?xml version="1.0" ?>
<gpx xmlns="http://www.topografix.com/GPX/1/1" xmlns:xsi="http://www.w3.org/2001/XMLSchema-instance" xsi:schemaLocation="http://www.topografix.com/GPX/1/1 http://www.topografix.com/GPX/1/1/gpx.xsd" version="1.1" creator="EditGPX">
  <trk>
    <name>NewTrack</name>
    <trkseg>
      <trkpt lat="43.784748" lon="5.763957">
        <ele>298.2</ele>
      </trkpt>
      <trkpt lat="43.784724" lon="5.763966">
        <ele>298.3</ele>
      </trkpt>
      <trkpt lat="43.784691" lon="5.763983">
        <ele>298.4</ele>
      </trkpt>
      <trkpt lat="43.784635" lon="5.763903">
        <ele>298.7</ele>
      </trkpt>
      <trkpt lat="43.784553" lon="5.763810">
        <ele>299</ele>
      </trkpt>
      <trkpt lat="43.784486" lon="5.763754">
        <ele>299.2</ele>
      </trkpt>
      <trkpt lat="43.784476" lon="5.763691">
        <ele>299.3</ele>
      </trkpt>
      <trkpt lat="43.784472" lon="5.763662">
        <ele>299.4</ele>
      </trkpt>
      <trkpt lat="43.784430" lon="5.763527">
        <ele>299.7</ele>
      </trkpt>
      <trkpt lat="43.784396" lon="5.763366">
        <ele>300.2</ele>
      </trkpt>
      <trkpt lat="43.784316" lon="5.763153">
        <ele>300.9</ele>
      </trkpt>
      <trkpt lat="43.784268" lon="5.762949">
        <ele>300.7</ele>
      </trkpt>
      <trkpt lat="43.784271" lon="5.762708">
        <ele>300.7</ele>
      </trkpt>
      <trkpt lat="43.784332" lon="5.762405">
        <ele>300.4</ele>
      </trkpt>
      <trkpt lat="43.784431" lon="5.762242">
        <ele>300.2</ele>
      </trkpt>
      <trkpt lat="43.784565" lon="5.762182">
        <ele>300.1</ele>
      </trkpt>
      <trkpt lat="43.784735" lon="5.762182">
        <ele>300</ele>
      </trkpt>
      <trkpt lat="43.784811" lon="5.762214">
        <ele>300</ele>
      </trkpt>
      <trkpt lat="43.784863" lon="5.762160">
        <ele>300</ele>
      </trkpt>
      <trkpt lat="43.784797" lon="5.762026">
        <ele>300</ele>
      </trkpt>
      <trkpt lat="43.784650" lon="5.761975">
        <ele>300</ele>
      </trkpt>
      <trkpt lat="43.784638" lon="5.761976">
        <ele>299.9</ele>
      </trkpt>
      <trkpt lat="43.784537" lon="5.761935">
        <ele>299.9</ele>
      </trkpt>
      <trkpt lat="43.784492" lon="5.761910">
        <ele>299.9</ele>
      </trkpt>
      <trkpt lat="43.784339" lon="5.761842">
        <ele>299.7</ele>
      </trkpt>
      <trkpt lat="43.784130" lon="5.761726">
        <ele>300.4</ele>
      </trkpt>
      <trkpt lat="43.783944" lon="5.761651">
        <ele>302.8</ele>
      </trkpt>
      <trkpt lat="43.783912" lon="5.761644">
        <ele>303.2</ele>
      </trkpt>
      <trkpt lat="43.783692" lon="5.761570">
        <ele>305.3</ele>
      </trkpt>
      <trkpt lat="43.783630" lon="5.761562">
        <ele>305.9</ele>
      </trkpt>
      <trkpt lat="43.783573" lon="5.761576">
        <ele>306.3</ele>
      </trkpt>
      <trkpt lat="43.783520" lon="5.761607">
        <ele>306.8</ele>
      </trkpt>
      <trkpt lat="43.783356" lon="5.761736">
        <ele>307.9</ele>
      </trkpt>
      <trkpt lat="43.783232" lon="5.761867">
        <ele>310</ele>
      </trkpt>
      <trkpt lat="43.782937" lon="5.762047">
        <ele>310.7</ele>
      </trkpt>
      <trkpt lat="43.782853" lon="5.762076">
        <ele>310.9</ele>
      </trkpt>
      <trkpt lat="43.782728" lon="5.762141">
        <ele>311.1</ele>
      </trkpt>
      <trkpt lat="43.782460" lon="5.762228">
        <ele>314.1</ele>
      </trkpt>
      <trkpt lat="43.782330" lon="5.762292">
        <ele>314.3</ele>
      </trkpt>
      <trkpt lat="43.782290" lon="5.762320">
        <ele>314.4</ele>
      </trkpt>
      <trkpt lat="43.782021" lon="5.762410">
        <ele>315.7</ele>
      </trkpt>
      <trkpt lat="43.781801" lon="5.762531">
        <ele>316</ele>
      </trkpt>
      <trkpt lat="43.781769" lon="5.762540">
        <ele>316.3</ele>
      </trkpt>
      <trkpt lat="43.781645" lon="5.762576">
        <ele>317.3</ele>
      </trkpt>
      <trkpt lat="43.781500" lon="5.762620">
        <ele>316.6</ele>
      </trkpt>
      <trkpt lat="43.781255" lon="5.762702">
        <ele>316</ele>
      </trkpt>
      <trkpt lat="43.781221" lon="5.762714">
        <ele>315.9</ele>
      </trkpt>
      <trkpt lat="43.780881" lon="5.762809">
        <ele>315.8</ele>
      </trkpt>
      <trkpt lat="43.780370" lon="5.762882">
        <ele>316.1</ele>
      </trkpt>
      <trkpt lat="43.780147" lon="5.762888">
        <ele>316.2</ele>
      </trkpt>
      <trkpt lat="43.779686" lon="5.762883">
        <ele>315.5</ele>
      </trkpt>
      <trkpt lat="43.779592" lon="5.762866">
        <ele>315.4</ele>
      </trkpt>
      <trkpt lat="43.779304" lon="5.762819">
        <ele>315.2</ele>
      </trkpt>
      <trkpt lat="43.779168" lon="5.762782">
        <ele>315.2</ele>
      </trkpt>
      <trkpt lat="43.778942" lon="5.762672">
        <ele>314.4</ele>
      </trkpt>
      <trkpt lat="43.778470" lon="5.762408">
        <ele>316.9</ele>
      </trkpt>
      <trkpt lat="43.778183" lon="5.762264">
        <ele>317.7</ele>
      </trkpt>
      <trkpt lat="43.778143" lon="5.762239">
        <ele>317.9</ele>
      </trkpt>
      <trkpt lat="43.777867" lon="5.762074">
        <ele>318.6</ele>
      </trkpt>
      <trkpt lat="43.777792" lon="5.762023">
        <ele>318.7</ele>
      </trkpt>
      <trkpt lat="43.777659" lon="5.761898">
        <ele>319.3</ele>
      </trkpt>
      <trkpt lat="43.777602" lon="5.761825">
        <ele>319.7</ele>
      </trkpt>
      <trkpt lat="43.777328" lon="5.761534">
        <ele>321.2</ele>
      </trkpt>
      <trkpt lat="43.777264" lon="5.761481">
        <ele>321.3</ele>
      </trkpt>
      <trkpt lat="43.777199" lon="5.761430">
        <ele>321.3</ele>
      </trkpt>
      <trkpt lat="43.777024" lon="5.761306">
        <ele>321.4</ele>
      </trkpt>
      <trkpt lat="43.776954" lon="5.761250">
        <ele>321.5</ele>
      </trkpt>
      <trkpt lat="43.776776" lon="5.761059">
        <ele>322</ele>
      </trkpt>
      <trkpt lat="43.776717" lon="5.760986">
        <ele>322.2</ele>
      </trkpt>
      <trkpt lat="43.776570" lon="5.760815">
        <ele>322.9</ele>
      </trkpt>
      <trkpt lat="43.776347" lon="5.760549">
        <ele>322.7</ele>
      </trkpt>
      <trkpt lat="43.776319" lon="5.760515">
        <ele>322.7</ele>
      </trkpt>
      <trkpt lat="43.776242" lon="5.760408">
        <ele>322.8</ele>
      </trkpt>
      <trkpt lat="43.776108" lon="5.760202">
        <ele>322.9</ele>
      </trkpt>
      <trkpt lat="43.776058" lon="5.760106">
        <ele>322.9</ele>
      </trkpt>
      <trkpt lat="43.775891" lon="5.759809">
        <ele>325.1</ele>
      </trkpt>
      <trkpt lat="43.775630" lon="5.759540">
        <ele>323.8</ele>
      </trkpt>
      <trkpt lat="43.775208" lon="5.759187">
        <ele>323.2</ele>
      </trkpt>
      <trkpt lat="43.774778" lon="5.758816">
        <ele>325</ele>
      </trkpt>
      <trkpt lat="43.774507" lon="5.758576">
        <ele>325</ele>
      </trkpt>
      <trkpt lat="43.774289" lon="5.758363">
        <ele>324.4</ele>
      </trkpt>
      <trkpt lat="43.773970" lon="5.757918">
        <ele>324.4</ele>
      </trkpt>
      <trkpt lat="43.773808" lon="5.757642">
        <ele>324.5</ele>
      </trkpt>
      <trkpt lat="43.773734" lon="5.757527">
        <ele>324.1</ele>
      </trkpt>
      <trkpt lat="43.773655" lon="5.757410">
        <ele>326.5</ele>
      </trkpt>
      <trkpt lat="43.773391" lon="5.757027">
        <ele>326.6</ele>
      </trkpt>
      <trkpt lat="43.773204" lon="5.756764">
        <ele>323</ele>
      </trkpt>
      <trkpt lat="43.773124" lon="5.756665">
        <ele>325.5</ele>
      </trkpt>
      <trkpt lat="43.772994" lon="5.756532">
        <ele>325.6</ele>
      </trkpt>
      <trkpt lat="43.772956" lon="5.756486">
        <ele>325.6</ele>
      </trkpt>
      <trkpt lat="43.772736" lon="5.756240">
        <ele>325.8</ele>
      </trkpt>
      <trkpt lat="43.772432" lon="5.755996">
        <ele>324</ele>
      </trkpt>
      <trkpt lat="43.772357" lon="5.756045">
        <ele>323.4</ele>
      </trkpt>
      <trkpt lat="43.772326" lon="5.756396">
        <ele>322.2</ele>
      </trkpt>
      <trkpt lat="43.772347" lon="5.756680">
        <ele>319.8</ele>
      </trkpt>
      <trkpt lat="43.772426" lon="5.756873">
        <ele>319</ele>
      </trkpt>
      <trkpt lat="43.772494" lon="5.757042">
        <ele>317.8</ele>
      </trkpt>
      <trkpt lat="43.772481" lon="5.757195">
        <ele>316.9</ele>
      </trkpt>
      <trkpt lat="43.772326" lon="5.757380">
        <ele>316.1</ele>
      </trkpt>
      <trkpt lat="43.772140" lon="5.757662">
        <ele>313</ele>
      </trkpt>
      <trkpt lat="43.771752" lon="5.758499">
        <ele>308.8</ele>
      </trkpt>
      <trkpt lat="43.771425" lon="5.758861">
        <ele>305.6</ele>
      </trkpt>
      <trkpt lat="43.771293" lon="5.758923">
        <ele>305.6</ele>
      </trkpt>
      <trkpt lat="43.771191" lon="5.758872">
        <ele>305.7</ele>
      </trkpt>
      <trkpt lat="43.771049" lon="5.758730">
        <ele>306</ele>
      </trkpt>
      <trkpt lat="43.770695" lon="5.758432">
        <ele>305.4</ele>
      </trkpt>
      <trkpt lat="43.769672" lon="5.757659">
        <ele>303.1</ele>
      </trkpt>
      <trkpt lat="43.769540" lon="5.757616">
        <ele>302.7</ele>
      </trkpt>
      <trkpt lat="43.769447" lon="5.757751">
        <ele>302.2</ele>
      </trkpt>
      <trkpt lat="43.769246" lon="5.758279">
        <ele>299.4</ele>
      </trkpt>
      <trkpt lat="43.769134" lon="5.758445">
        <ele>295.2</ele>
      </trkpt>
      <trkpt lat="43.768915" lon="5.758507">
        <ele>292.8</ele>
      </trkpt>
      <trkpt lat="43.768729" lon="5.758536">
        <ele>291.6</ele>
      </trkpt>
      <trkpt lat="43.768010" lon="5.758327">
        <ele>292.7</ele>
      </trkpt>
      <trkpt lat="43.767586" lon="5.758158">
        <ele>291.3</ele>
      </trkpt>
      <trkpt lat="43.767181" lon="5.758048">
        <ele>290.4</ele>
      </trkpt>
      <trkpt lat="43.766951" lon="5.758011">
        <ele>290.2</ele>
      </trkpt>
      <trkpt lat="43.766848" lon="5.757952">
        <ele>290.4</ele>
      </trkpt>
      <trkpt lat="43.766066" lon="5.757253">
        <ele>293.1</ele>
      </trkpt>
      <trkpt lat="43.765386" lon="5.756645">
        <ele>293.3</ele>
      </trkpt>
      <trkpt lat="43.765144" lon="5.756428">
        <ele>293.4</ele>
      </trkpt>
      <trkpt lat="43.764706" lon="5.755994">
        <ele>292.9</ele>
      </trkpt>
      <trkpt lat="43.764477" lon="5.755656">
        <ele>293.8</ele>
      </trkpt>
      <trkpt lat="43.764198" lon="5.755173">
        <ele>294</ele>
      </trkpt>
      <trkpt lat="43.763991" lon="5.754851">
        <ele>294.2</ele>
      </trkpt>
      <trkpt lat="43.763127" lon="5.753945">
        <ele>295.4</ele>
      </trkpt>
      <trkpt lat="43.762978" lon="5.753690">
        <ele>296</ele>
      </trkpt>
      <trkpt lat="43.762532" lon="5.753212">
        <ele>297.6</ele>
      </trkpt>
      <trkpt lat="43.763026" lon="5.752110">
        <ele>297.6</ele>
      </trkpt>
      <trkpt lat="43.763139" lon="5.751815">
        <ele>297.8</ele>
      </trkpt>
      <trkpt lat="43.762575" lon="5.751335">
        <ele>300.3</ele>
      </trkpt>
      <trkpt lat="43.762455" lon="5.751193">
        <ele>301.4</ele>
      </trkpt>
      <trkpt lat="43.761936" lon="5.750774">
        <ele>304.2</ele>
      </trkpt>
      <trkpt lat="43.761267" lon="5.750283">
        <ele>303.1</ele>
      </trkpt>
      <trkpt lat="43.761293" lon="5.750152">
        <ele>303.3</ele>
      </trkpt>
      <trkpt lat="43.761306" lon="5.750031">
        <ele>303.4</ele>
      </trkpt>
      <trkpt lat="43.761252" lon="5.749937">
        <ele>304.3</ele>
      </trkpt>
      <trkpt lat="43.761161" lon="5.749843">
        <ele>303.9</ele>
      </trkpt>
      <trkpt lat="43.760855" lon="5.750238">
        <ele>302.2</ele>
      </trkpt>
      <trkpt lat="43.760646" lon="5.749809">
        <ele>294.7</ele>
      </trkpt>
      <trkpt lat="43.760875" lon="5.748821">
        <ele>300.6</ele>
      </trkpt>
      <trkpt lat="43.760968" lon="5.748537">
        <ele>298.9</ele>
      </trkpt>
      <trkpt lat="43.761159" lon="5.747920">
        <ele>295.1</ele>
      </trkpt>
      <trkpt lat="43.761196" lon="5.747657">
        <ele>293.6</ele>
      </trkpt>
      <trkpt lat="43.761673" lon="5.746665">
        <ele>288.1</ele>
      </trkpt>
      <trkpt lat="43.761801" lon="5.746123">
        <ele>287.3</ele>
      </trkpt>
      <trkpt lat="43.761878" lon="5.746021">
        <ele>286.8</ele>
      </trkpt>
      <trkpt lat="43.762180" lon="5.745898">
        <ele>288.3</ele>
      </trkpt>
      <trkpt lat="43.762242" lon="5.745801">
        <ele>285.1</ele>
      </trkpt>
      <trkpt lat="43.762270" lon="5.745705">
        <ele>285.2</ele>
      </trkpt>
      <trkpt lat="43.762270" lon="5.745082">
        <ele>285.8</ele>
      </trkpt>
      <trkpt lat="43.762294" lon="5.744889">
        <ele>292.3</ele>
      </trkpt>
      <trkpt lat="43.762308" lon="5.744787">
        <ele>293.4</ele>
      </trkpt>
      <trkpt lat="43.762292" lon="5.744691">
        <ele>294.8</ele>
      </trkpt>
      <trkpt lat="43.762312" lon="5.744559">
        <ele>296.5</ele>
      </trkpt>
      <trkpt lat="43.762439" lon="5.744503">
        <ele>297.2</ele>
      </trkpt>
      <trkpt lat="43.762532" lon="5.744568">
        <ele>295</ele>
      </trkpt>
      <trkpt lat="43.762825" lon="5.744420">
        <ele>296.6</ele>
      </trkpt>
      <trkpt lat="43.763090" lon="5.744224">
        <ele>298.5</ele>
      </trkpt>
      <trkpt lat="43.763201" lon="5.744066">
        <ele>306.4</ele>
      </trkpt>
      <trkpt lat="43.763272" lon="5.743822">
        <ele>309.5</ele>
      </trkpt>
      <trkpt lat="43.763332" lon="5.743709">
        <ele>311.3</ele>
      </trkpt>
      <trkpt lat="43.763482" lon="5.743618">
        <ele>309.8</ele>
      </trkpt>
      <trkpt lat="43.763768" lon="5.743457">
        <ele>308.1</ele>
      </trkpt>
      <trkpt lat="43.763870" lon="5.743339">
        <ele>307.5</ele>
      </trkpt>
      <trkpt lat="43.763913" lon="5.743122">
        <ele>316.4</ele>
      </trkpt>
      <trkpt lat="43.763919" lon="5.742537">
        <ele>319.3</ele>
      </trkpt>
      <trkpt lat="43.763932" lon="5.741976">
        <ele>325.5</ele>
      </trkpt>
      <trkpt lat="43.763839" lon="5.741279">
        <ele>328.7</ele>
      </trkpt>
      <trkpt lat="43.763722" lon="5.740968">
        <ele>330.4</ele>
      </trkpt>
      <trkpt lat="43.763699" lon="5.740775">
        <ele>333.4</ele>
      </trkpt>
      <trkpt lat="43.763711" lon="5.740485">
        <ele>334.2</ele>
      </trkpt>
      <trkpt lat="43.763788" lon="5.740094">
        <ele>335.5</ele>
      </trkpt>
      <trkpt lat="43.763866" lon="5.740002">
        <ele>335.6</ele>
      </trkpt>
      <trkpt lat="43.763932" lon="5.740002">
        <ele>335.6</ele>
      </trkpt>
      <trkpt lat="43.764203" lon="5.740077">
        <ele>335</ele>
      </trkpt>
      <trkpt lat="43.764474" lon="5.739895">
        <ele>341.5</ele>
      </trkpt>
      <trkpt lat="43.764547" lon="5.739702">
        <ele>342.9</ele>
      </trkpt>
      <trkpt lat="43.764606" lon="5.739493">
        <ele>344.4</ele>
      </trkpt>
      <trkpt lat="43.764617" lon="5.738908">
        <ele>354.2</ele>
      </trkpt>
      <trkpt lat="43.764648" lon="5.738715">
        <ele>355.2</ele>
      </trkpt>
      <trkpt lat="43.764718" lon="5.738688">
        <ele>355.1</ele>
      </trkpt>
      <trkpt lat="43.764799" lon="5.738699">
        <ele>354.8</ele>
      </trkpt>
      <trkpt lat="43.764854" lon="5.738806">
        <ele>353.8</ele>
      </trkpt>
      <trkpt lat="43.764974" lon="5.739203">
        <ele>346.5</ele>
      </trkpt>
      <trkpt lat="43.765113" lon="5.739611">
        <ele>347.6</ele>
      </trkpt>
      <trkpt lat="43.765167" lon="5.739675">
        <ele>347.4</ele>
      </trkpt>
      <trkpt lat="43.765260" lon="5.739681">
        <ele>348.3</ele>
      </trkpt>
      <trkpt lat="43.765350" lon="5.739579">
        <ele>349.8</ele>
      </trkpt>
      <trkpt lat="43.765621" lon="5.739123">
        <ele>360.1</ele>
      </trkpt>
      <trkpt lat="43.765683" lon="5.739101">
        <ele>360.7</ele>
      </trkpt>
      <trkpt lat="43.765752" lon="5.739096">
        <ele>361.2</ele>
      </trkpt>
      <trkpt lat="43.765822" lon="5.739225">
        <ele>359.6</ele>
      </trkpt>
      <trkpt lat="43.766016" lon="5.739858">
        <ele>363.5</ele>
      </trkpt>
      <trkpt lat="43.766128" lon="5.739943">
        <ele>365</ele>
      </trkpt>
      <trkpt lat="43.766489" lon="5.740029">
        <ele>366.2</ele>
      </trkpt>
      <trkpt lat="43.766690" lon="5.739884">
        <ele>375.4</ele>
      </trkpt>
      <trkpt lat="43.766977" lon="5.739461">
        <ele>378.3</ele>
      </trkpt>
      <trkpt lat="43.767283" lon="5.738919">
        <ele>386.8</ele>
      </trkpt>
      <trkpt lat="43.767496" lon="5.738838">
        <ele>387.7</ele>
      </trkpt>
      <trkpt lat="43.767748" lon="5.738801">
        <ele>382.7</ele>
      </trkpt>
      <trkpt lat="43.768135" lon="5.737964">
        <ele>398.1</ele>
      </trkpt>
      <trkpt lat="43.768615" lon="5.737229">
        <ele>403.3</ele>
      </trkpt>
      <trkpt lat="43.768832" lon="5.737031">
        <ele>402.8</ele>
      </trkpt>
      <trkpt lat="43.769119" lon="5.736719">
        <ele>403.8</ele>
      </trkpt>
      <trkpt lat="43.769274" lon="5.736558">
        <ele>402.8</ele>
      </trkpt>
      <trkpt lat="43.769367" lon="5.736416">
        <ele>402.4</ele>
      </trkpt>
      <trkpt lat="43.769622" lon="5.736245">
        <ele>401.1</ele>
      </trkpt>
      <trkpt lat="43.769714" lon="5.736170">
        <ele>400.9</ele>
      </trkpt>
      <trkpt lat="43.769810" lon="5.736099">
        <ele>400.7</ele>
      </trkpt>
      <trkpt lat="43.769918" lon="5.736024">
        <ele>400.7</ele>
      </trkpt>
      <trkpt lat="43.770007" lon="5.735964">
        <ele>393.1</ele>
      </trkpt>
      <trkpt lat="43.770085" lon="5.735893">
        <ele>394.3</ele>
      </trkpt>
      <trkpt lat="43.770149" lon="5.735800">
        <ele>398.2</ele>
      </trkpt>
      <trkpt lat="43.770225" lon="5.735704">
        <ele>397</ele>
      </trkpt>
      <trkpt lat="43.770286" lon="5.735592">
        <ele>396.4</ele>
      </trkpt>
      <trkpt lat="43.770321" lon="5.735452">
        <ele>396.7</ele>
      </trkpt>
      <trkpt lat="43.770419" lon="5.735421">
        <ele>395.9</ele>
      </trkpt>
      <trkpt lat="43.770516" lon="5.735414">
        <ele>395</ele>
      </trkpt>
      <trkpt lat="43.770624" lon="5.735405">
        <ele>394.1</ele>
      </trkpt>
      <trkpt lat="43.770729" lon="5.735388">
        <ele>393.6</ele>
      </trkpt>
      <trkpt lat="43.770818" lon="5.735343">
        <ele>393.8</ele>
      </trkpt>
      <trkpt lat="43.770912" lon="5.735283">
        <ele>381.8</ele>
      </trkpt>
      <trkpt lat="43.771004" lon="5.735234">
        <ele>381.5</ele>
      </trkpt>
      <trkpt lat="43.771086" lon="5.735182">
        <ele>380.7</ele>
      </trkpt>
      <trkpt lat="43.771175" lon="5.735150">
        <ele>378.9</ele>
      </trkpt>
      <trkpt lat="43.771249" lon="5.735061">
        <ele>377.8</ele>
      </trkpt>
      <trkpt lat="43.771339" lon="5.734961">
        <ele>385.4</ele>
      </trkpt>
      <trkpt lat="43.771452" lon="5.734808">
        <ele>384.2</ele>
      </trkpt>
      <trkpt lat="43.771564" lon="5.734575">
        <ele>386.7</ele>
      </trkpt>
      <trkpt lat="43.771635" lon="5.734401">
        <ele>388.1</ele>
      </trkpt>
      <trkpt lat="43.771722" lon="5.734250">
        <ele>381.9</ele>
      </trkpt>
      <trkpt lat="43.771823" lon="5.734258">
        <ele>378.5</ele>
      </trkpt>
      <trkpt lat="43.771928" lon="5.734281">
        <ele>375.3</ele>
      </trkpt>
      <trkpt lat="43.772012" lon="5.734341">
        <ele>373</ele>
      </trkpt>
      <trkpt lat="43.772104" lon="5.734384">
        <ele>371.3</ele>
      </trkpt>
      <trkpt lat="43.772195" lon="5.734377">
        <ele>370.2</ele>
      </trkpt>
      <trkpt lat="43.772286" lon="5.734361">
        <ele>369.5</ele>
      </trkpt>
      <trkpt lat="43.772380" lon="5.734296">
        <ele>369.2</ele>
      </trkpt>
      <trkpt lat="43.772461" lon="5.734231">
        <ele>369.1</ele>
      </trkpt>
      <trkpt lat="43.772540" lon="5.734153">
        <ele>369.1</ele>
      </trkpt>
      <trkpt lat="43.772610" lon="5.734068">
        <ele>369.4</ele>
      </trkpt>
      <trkpt lat="43.772697" lon="5.734024">
        <ele>369.3</ele>
      </trkpt>
      <trkpt lat="43.772790" lon="5.733981">
        <ele>368.9</ele>
      </trkpt>
      <trkpt lat="43.772890" lon="5.733999">
        <ele>367.7</ele>
      </trkpt>
      <trkpt lat="43.772993" lon="5.734013">
        <ele>366.1</ele>
      </trkpt>
      <trkpt lat="43.773097" lon="5.734008">
        <ele>364.4</ele>
      </trkpt>
      <trkpt lat="43.773191" lon="5.734011">
        <ele>362.4</ele>
      </trkpt>
      <trkpt lat="43.773286" lon="5.734034">
        <ele>360</ele>
      </trkpt>
      <trkpt lat="43.773383" lon="5.734015">
        <ele>354.1</ele>
      </trkpt>
      <trkpt lat="43.773473" lon="5.733999">
        <ele>354.1</ele>
      </trkpt>
      <trkpt lat="43.773576" lon="5.734010">
        <ele>353.7</ele>
      </trkpt>
      <trkpt lat="43.773865" lon="5.733948">
        <ele>351.9</ele>
      </trkpt>
      <trkpt lat="43.773955" lon="5.733871">
        <ele>351.9</ele>
      </trkpt>
      <trkpt lat="43.773980" lon="5.733742">
        <ele>353.4</ele>
      </trkpt>
      <trkpt lat="43.773998" lon="5.733618">
        <ele>354.6</ele>
      </trkpt>
      <trkpt lat="43.774151" lon="5.733636">
        <ele>354.1</ele>
      </trkpt>
      <trkpt lat="43.774354" lon="5.733605">
        <ele>345</ele>
      </trkpt>
      <trkpt lat="43.774469" lon="5.733615">
        <ele>343.5</ele>
      </trkpt>
      <trkpt lat="43.774559" lon="5.733636">
        <ele>342.2</ele>
      </trkpt>
      <trkpt lat="43.774496" lon="5.733734">
        <ele>341.8</ele>
      </trkpt>
      <trkpt lat="43.774433" lon="5.733824">
        <ele>341.4</ele>
      </trkpt>
      <trkpt lat="43.774505" lon="5.733901">
        <ele>340</ele>
      </trkpt>
      <trkpt lat="43.774598" lon="5.733872">
        <ele>339.3</ele>
      </trkpt>
      <trkpt lat="43.774685" lon="5.733820">
        <ele>338.9</ele>
      </trkpt>
      <trkpt lat="43.774779" lon="5.733802">
        <ele>338.1</ele>
      </trkpt>
      <trkpt lat="43.774878" lon="5.733738">
        <ele>338.4</ele>
      </trkpt>
      <trkpt lat="43.774951" lon="5.733650">
        <ele>339.4</ele>
      </trkpt>
      <trkpt lat="43.775041" lon="5.733598">
        <ele>332.3</ele>
      </trkpt>
      <trkpt lat="43.775115" lon="5.733519">
        <ele>333.5</ele>
      </trkpt>
      <trkpt lat="43.775208" lon="5.733420">
        <ele>333.3</ele>
      </trkpt>
      <trkpt lat="43.775392" lon="5.733316">
        <ele>340</ele>
      </trkpt>
      <trkpt lat="43.775471" lon="5.733229">
        <ele>339.1</ele>
      </trkpt>
      <trkpt lat="43.775527" lon="5.733115">
        <ele>339.3</ele>
      </trkpt>
      <trkpt lat="43.775993" lon="5.732810">
        <ele>331</ele>
      </trkpt>
      <trkpt lat="43.776091" lon="5.732744">
        <ele>331</ele>
      </trkpt>
      <trkpt lat="43.776364" lon="5.732589">
        <ele>328.5</ele>
      </trkpt>
      <trkpt lat="43.776459" lon="5.732591">
        <ele>327.4</ele>
      </trkpt>
      <trkpt lat="43.776495" lon="5.732562">
        <ele>326.9</ele>
      </trkpt>
      <trkpt lat="43.776554" lon="5.732562">
        <ele>326.1</ele>
      </trkpt>
      <trkpt lat="43.776786" lon="5.732460">
        <ele>326.5</ele>
      </trkpt>
      <trkpt lat="43.776839" lon="5.732500">
        <ele>326.8</ele>
      </trkpt>
      <trkpt lat="43.776850" lon="5.732573">
        <ele>325.4</ele>
      </trkpt>
      <trkpt lat="43.776552" lon="5.732825">
        <ele>327</ele>
      </trkpt>
      <trkpt lat="43.776555" lon="5.732895">
        <ele>326.9</ele>
      </trkpt>
      <trkpt lat="43.776612" lon="5.733096">
        <ele>326.1</ele>
      </trkpt>
      <trkpt lat="43.776666" lon="5.733109">
        <ele>326</ele>
      </trkpt>
      <trkpt lat="43.776732" lon="5.733123">
        <ele>326.2</ele>
      </trkpt>
      <trkpt lat="43.776994" lon="5.733007">
        <ele>327.5</ele>
      </trkpt>
      <trkpt lat="43.777112" lon="5.732975">
        <ele>328</ele>
      </trkpt>
      <trkpt lat="43.777193" lon="5.732935">
        <ele>328.1</ele>
      </trkpt>
      <trkpt lat="43.777274" lon="5.732857">
        <ele>327.6</ele>
      </trkpt>
      <trkpt lat="43.777369" lon="5.732838">
        <ele>327.5</ele>
      </trkpt>
      <trkpt lat="43.777708" lon="5.732795">
        <ele>333.6</ele>
      </trkpt>
      <trkpt lat="43.777970" lon="5.732793">
        <ele>336.1</ele>
      </trkpt>
      <trkpt lat="43.778291" lon="5.732911">
        <ele>338.8</ele>
      </trkpt>
      <trkpt lat="43.778408" lon="5.732895">
        <ele>344.6</ele>
      </trkpt>
      <trkpt lat="43.778468" lon="5.732803">
        <ele>344</ele>
      </trkpt>
      <trkpt lat="43.778430" lon="5.732680">
        <ele>342.3</ele>
      </trkpt>
      <trkpt lat="43.778136" lon="5.732495">
        <ele>332.8</ele>
      </trkpt>
      <trkpt lat="43.778119" lon="5.732431">
        <ele>332.4</ele>
      </trkpt>
      <trkpt lat="43.778156" lon="5.732401">
        <ele>332.8</ele>
      </trkpt>
      <trkpt lat="43.778247" lon="5.732457">
        <ele>334.6</ele>
      </trkpt>
      <trkpt lat="43.778322" lon="5.732498">
        <ele>336.7</ele>
      </trkpt>
      <trkpt lat="43.778574" lon="5.732481">
        <ele>343.1</ele>
      </trkpt>
      <trkpt lat="43.778944" lon="5.732535">
        <ele>347</ele>
      </trkpt>
      <trkpt lat="43.779294" lon="5.732696">
        <ele>354.5</ele>
      </trkpt>
      <trkpt lat="43.779517" lon="5.732919">
        <ele>356.4</ele>
      </trkpt>
      <trkpt lat="43.779664" lon="5.733163">
        <ele>356</ele>
      </trkpt>
      <trkpt lat="43.779842" lon="5.733292">
        <ele>355.5</ele>
      </trkpt>
      <trkpt lat="43.780019" lon="5.733385">
        <ele>355.1</ele>
      </trkpt>
      <trkpt lat="43.780162" lon="5.733600">
        <ele>357.7</ele>
      </trkpt>
      <trkpt lat="43.780859" lon="5.733809">
        <ele>368.2</ele>
      </trkpt>
      <trkpt lat="43.781037" lon="5.733828">
        <ele>369</ele>
      </trkpt>
      <trkpt lat="43.781304" lon="5.734051">
        <ele>370.5</ele>
      </trkpt>
      <trkpt lat="43.781357" lon="5.734120">
        <ele>370.8</ele>
      </trkpt>
      <trkpt lat="43.781383" lon="5.734232">
        <ele>370.9</ele>
      </trkpt>
      <trkpt lat="43.781303" lon="5.734347">
        <ele>370.6</ele>
      </trkpt>
      <trkpt lat="43.781193" lon="5.734360">
        <ele>370</ele>
      </trkpt>
      <trkpt lat="43.780877" lon="5.734309">
        <ele>366.2</ele>
      </trkpt>
      <trkpt lat="43.780414" lon="5.734429">
        <ele>365.2</ele>
      </trkpt>
      <trkpt lat="43.780222" lon="5.734544">
        <ele>365.3</ele>
      </trkpt>
      <trkpt lat="43.780147" lon="5.734629">
        <ele>366.1</ele>
      </trkpt>
      <trkpt lat="43.780076" lon="5.734709">
        <ele>366.8</ele>
      </trkpt>
      <trkpt lat="43.780013" lon="5.734819">
        <ele>368</ele>
      </trkpt>
      <trkpt lat="43.779965" lon="5.734929">
        <ele>369.8</ele>
      </trkpt>
      <trkpt lat="43.779929" lon="5.735055">
        <ele>374.6</ele>
      </trkpt>
      <trkpt lat="43.779943" lon="5.735194">
        <ele>378.4</ele>
      </trkpt>
      <trkpt lat="43.780037" lon="5.735183">
        <ele>378.1</ele>
      </trkpt>
      <trkpt lat="43.780111" lon="5.735087">
        <ele>376.6</ele>
      </trkpt>
      <trkpt lat="43.780182" lon="5.735010">
        <ele>377.6</ele>
      </trkpt>
      <trkpt lat="43.780265" lon="5.734934">
        <ele>368.9</ele>
      </trkpt>
      <trkpt lat="43.780341" lon="5.734852">
        <ele>368.8</ele>
      </trkpt>
      <trkpt lat="43.780432" lon="5.734809">
        <ele>369.1</ele>
      </trkpt>
      <trkpt lat="43.780525" lon="5.734822">
        <ele>370.1</ele>
      </trkpt>
      <trkpt lat="43.780619" lon="5.734855">
        <ele>371.7</ele>
      </trkpt>
      <trkpt lat="43.780718" lon="5.734848">
        <ele>373.3</ele>
      </trkpt>
      <trkpt lat="43.780809" lon="5.734907">
        <ele>376.4</ele>
      </trkpt>
      <trkpt lat="43.780890" lon="5.734965">
        <ele>378.6</ele>
      </trkpt>
      <trkpt lat="43.780979" lon="5.734986">
        <ele>376.6</ele>
      </trkpt>
      <trkpt lat="43.781073" lon="5.735002">
        <ele>381.6</ele>
      </trkpt>
      <trkpt lat="43.781147" lon="5.735078">
        <ele>381.6</ele>
      </trkpt>
      <trkpt lat="43.781097" lon="5.735194">
        <ele>382.5</ele>
      </trkpt>
      <trkpt lat="43.781002" lon="5.735223">
        <ele>383</ele>
      </trkpt>
      <trkpt lat="43.780903" lon="5.735214">
        <ele>383.1</ele>
      </trkpt>
      <trkpt lat="43.780810" lon="5.735186">
        <ele>383.7</ele>
      </trkpt>
      <trkpt lat="43.780710" lon="5.735193">
        <ele>383.8</ele>
      </trkpt>
      <trkpt lat="43.780616" lon="5.735192">
        <ele>383.8</ele>
      </trkpt>
      <trkpt lat="43.780538" lon="5.735274">
        <ele>384.3</ele>
      </trkpt>
      <trkpt lat="43.780484" lon="5.735379">
        <ele>385.2</ele>
      </trkpt>
      <trkpt lat="43.780416" lon="5.735474">
        <ele>385.9</ele>
      </trkpt>
      <trkpt lat="43.780350" lon="5.735579">
        <ele>386.7</ele>
      </trkpt>
      <trkpt lat="43.780266" lon="5.735664">
        <ele>387.1</ele>
      </trkpt>
      <trkpt lat="43.780194" lon="5.735774">
        <ele>387.9</ele>
      </trkpt>
      <trkpt lat="43.780142" lon="5.735884">
        <ele>395.4</ele>
      </trkpt>
      <trkpt lat="43.780210" lon="5.735971">
        <ele>397.7</ele>
      </trkpt>
      <trkpt lat="43.780311" lon="5.735934">
        <ele>398.8</ele>
      </trkpt>
      <trkpt lat="43.780385" lon="5.735862">
        <ele>399.3</ele>
      </trkpt>
      <trkpt lat="43.780478" lon="5.735816">
        <ele>389.6</ele>
      </trkpt>
      <trkpt lat="43.780571" lon="5.735782">
        <ele>390.8</ele>
      </trkpt>
      <trkpt lat="43.780660" lon="5.735753">
        <ele>392.3</ele>
      </trkpt>
      <trkpt lat="43.780751" lon="5.735736">
        <ele>394.1</ele>
      </trkpt>
      <trkpt lat="43.780848" lon="5.735722">
        <ele>393.9</ele>
      </trkpt>
      <trkpt lat="43.780943" lon="5.735701">
        <ele>391.5</ele>
      </trkpt>
      <trkpt lat="43.780984" lon="5.735814">
        <ele>392.3</ele>
      </trkpt>
      <trkpt lat="43.780896" lon="5.735893">
        <ele>399.2</ele>
      </trkpt>
      <trkpt lat="43.780793" lon="5.735908">
        <ele>400.7</ele>
      </trkpt>
      <trkpt lat="43.780696" lon="5.735958">
        <ele>401.2</ele>
      </trkpt>
      <trkpt lat="43.780607" lon="5.736013">
        <ele>401.4</ele>
      </trkpt>
      <trkpt lat="43.780524" lon="5.736082">
        <ele>401.5</ele>
      </trkpt>
      <trkpt lat="43.780457" lon="5.736168">
        <ele>401.8</ele>
      </trkpt>
      <trkpt lat="43.780406" lon="5.736283">
        <ele>402.5</ele>
      </trkpt>
      <trkpt lat="43.780375" lon="5.736426">
        <ele>403.4</ele>
      </trkpt>
      <trkpt lat="43.780332" lon="5.736555">
        <ele>403.9</ele>
      </trkpt>
      <trkpt lat="43.780281" lon="5.736661">
        <ele>404</ele>
      </trkpt>
      <trkpt lat="43.780254" lon="5.736802">
        <ele>413.2</ele>
      </trkpt>
      <trkpt lat="43.780237" lon="5.736934">
        <ele>414.6</ele>
      </trkpt>
      <trkpt lat="43.780191" lon="5.737055">
        <ele>415.8</ele>
      </trkpt>
      <trkpt lat="43.780153" lon="5.737177">
        <ele>417</ele>
      </trkpt>
      <trkpt lat="43.780091" lon="5.737306">
        <ele>418.2</ele>
      </trkpt>
      <trkpt lat="43.779987" lon="5.737683">
        <ele>423.6</ele>
      </trkpt>
      <trkpt lat="43.779933" lon="5.737807">
        <ele>425.5</ele>
      </trkpt>
      <trkpt lat="43.779865" lon="5.737917">
        <ele>426.9</ele>
      </trkpt>
      <trkpt lat="43.779800" lon="5.738030">
        <ele>428.3</ele>
      </trkpt>
      <trkpt lat="43.779732" lon="5.738115">
        <ele>428.9</ele>
      </trkpt>
      <trkpt lat="43.779681" lon="5.738234">
        <ele>429.5</ele>
      </trkpt>
      <trkpt lat="43.779621" lon="5.738338">
        <ele>440.1</ele>
      </trkpt>
      <trkpt lat="43.779543" lon="5.738431">
        <ele>440.2</ele>
      </trkpt>
      <trkpt lat="43.779452" lon="5.738511">
        <ele>440.2</ele>
      </trkpt>
      <trkpt lat="43.779369" lon="5.738585">
        <ele>440.5</ele>
      </trkpt>
      <trkpt lat="43.779459" lon="5.738641">
        <ele>441.7</ele>
      </trkpt>
      <trkpt lat="43.779561" lon="5.738664">
        <ele>442.3</ele>
      </trkpt>
      <trkpt lat="43.779663" lon="5.738640">
        <ele>442.3</ele>
      </trkpt>
      <trkpt lat="43.779763" lon="5.738558">
        <ele>441.6</ele>
      </trkpt>
      <trkpt lat="43.779848" lon="5.738442">
        <ele>440.1</ele>
      </trkpt>
      <trkpt lat="43.779958" lon="5.738274">
        <ele>434.3</ele>
      </trkpt>
      <trkpt lat="43.780079" lon="5.738031">
        <ele>432.3</ele>
      </trkpt>
      <trkpt lat="43.780245" lon="5.737798">
        <ele>430</ele>
      </trkpt>
      <trkpt lat="43.780394" lon="5.737673">
        <ele>430.1</ele>
      </trkpt>
      <trkpt lat="43.780538" lon="5.737492">
        <ele>422.1</ele>
      </trkpt>
      <trkpt lat="43.780705" lon="5.737514">
        <ele>431.1</ele>
      </trkpt>
      <trkpt lat="43.780831" lon="5.737626">
        <ele>431.4</ele>
      </trkpt>
      <trkpt lat="43.780946" lon="5.737842">
        <ele>426.4</ele>
      </trkpt>
      <trkpt lat="43.780988" lon="5.738150">
        <ele>429.4</ele>
      </trkpt>
      <trkpt lat="43.781019" lon="5.738489">
        <ele>434.4</ele>
      </trkpt>
      <trkpt lat="43.781168" lon="5.738752">
        <ele>432.5</ele>
      </trkpt>
      <trkpt lat="43.781398" lon="5.738886">
        <ele>429.6</ele>
      </trkpt>
      <trkpt lat="43.781567" lon="5.739115">
        <ele>426.1</ele>
      </trkpt>
      <trkpt lat="43.781585" lon="5.739282">
        <ele>428.5</ele>
      </trkpt>
      <trkpt lat="43.781574" lon="5.739418">
        <ele>430.9</ele>
      </trkpt>
      <trkpt lat="43.781555" lon="5.739548">
        <ele>432.1</ele>
      </trkpt>
      <trkpt lat="43.781538" lon="5.739821">
        <ele>431.3</ele>
      </trkpt>
      <trkpt lat="43.781517" lon="5.740240">
        <ele>432.1</ele>
      </trkpt>
      <trkpt lat="43.781510" lon="5.740641">
        <ele>431.9</ele>
      </trkpt>
      <trkpt lat="43.781817" lon="5.740572">
        <ele>424.7</ele>
      </trkpt>
      <trkpt lat="43.782025" lon="5.740538">
        <ele>424.4</ele>
      </trkpt>
      <trkpt lat="43.782195" lon="5.740560">
        <ele>424.5</ele>
      </trkpt>
      <trkpt lat="43.782366" lon="5.740502">
        <ele>424.2</ele>
      </trkpt>
      <trkpt lat="43.782523" lon="5.740490">
        <ele>422.9</ele>
      </trkpt>
      <trkpt lat="43.782671" lon="5.740462">
        <ele>422.4</ele>
      </trkpt>
      <trkpt lat="43.782832" lon="5.740409">
        <ele>421.7</ele>
      </trkpt>
      <trkpt lat="43.782984" lon="5.740476">
        <ele>422.2</ele>
      </trkpt>
      <trkpt lat="43.783141" lon="5.740548">
        <ele>422.8</ele>
      </trkpt>
      <trkpt lat="43.783307" lon="5.740590">
        <ele>423.5</ele>
      </trkpt>
      <trkpt lat="43.783491" lon="5.740709">
        <ele>425.8</ele>
      </trkpt>
      <trkpt lat="43.783661" lon="5.741054">
        <ele>431.3</ele>
      </trkpt>
      <trkpt lat="43.783708" lon="5.741231">
        <ele>432.4</ele>
      </trkpt>
      <trkpt lat="43.783760" lon="5.741268">
        <ele>432.6</ele>
      </trkpt>
      <trkpt lat="43.783844" lon="5.741267">
        <ele>432.6</ele>
      </trkpt>
      <trkpt lat="43.783969" lon="5.741162">
        <ele>432.1</ele>
      </trkpt>
      <trkpt lat="43.784147" lon="5.740969">
        <ele>430.5</ele>
      </trkpt>
      <trkpt lat="43.784222" lon="5.740851">
        <ele>430.5</ele>
      </trkpt>
      <trkpt lat="43.784275" lon="5.740718">
        <ele>432.2</ele>
      </trkpt>
      <trkpt lat="43.784301" lon="5.740573">
        <ele>433.4</ele>
      </trkpt>
      <trkpt lat="43.784333" lon="5.740412">
        <ele>434.1</ele>
      </trkpt>
      <trkpt lat="43.784389" lon="5.740272">
        <ele>434.4</ele>
      </trkpt>
      <trkpt lat="43.784469" lon="5.740156">
        <ele>435</ele>
      </trkpt>
      <trkpt lat="43.784551" lon="5.740039">
        <ele>436.1</ele>
      </trkpt>
      <trkpt lat="43.784643" lon="5.739965">
        <ele>441</ele>
      </trkpt>
      <trkpt lat="43.784736" lon="5.740012">
        <ele>439</ele>
      </trkpt>
      <trkpt lat="43.784818" lon="5.740084">
        <ele>440.2</ele>
      </trkpt>
      <trkpt lat="43.784907" lon="5.740127">
        <ele>441.3</ele>
      </trkpt>
      <trkpt lat="43.785002" lon="5.740192">
        <ele>443.8</ele>
      </trkpt>
      <trkpt lat="43.785106" lon="5.740225">
        <ele>443.4</ele>
      </trkpt>
      <trkpt lat="43.785201" lon="5.740276">
        <ele>442.8</ele>
      </trkpt>
      <trkpt lat="43.784929" lon="5.740906">
        <ele>438.4</ele>
      </trkpt>
      <trkpt lat="43.784677" lon="5.741343">
        <ele>436.1</ele>
      </trkpt>
      <trkpt lat="43.784635" lon="5.741478">
        <ele>436.1</ele>
      </trkpt>
      <trkpt lat="43.784557" lon="5.741993">
        <ele>440.8</ele>
      </trkpt>
      <trkpt lat="43.784513" lon="5.742263">
        <ele>442.5</ele>
      </trkpt>
      <trkpt lat="43.784509" lon="5.742346">
        <ele>443</ele>
      </trkpt>
      <trkpt lat="43.784504" lon="5.742441">
        <ele>443.4</ele>
      </trkpt>
      <trkpt lat="43.784429" lon="5.743060">
        <ele>450.7</ele>
      </trkpt>
      <trkpt lat="43.784368" lon="5.743402">
        <ele>456</ele>
      </trkpt>
      <trkpt lat="43.784257" lon="5.743481">
        <ele>457.2</ele>
      </trkpt>
      <trkpt lat="43.784245" lon="5.743554">
        <ele>456.7</ele>
      </trkpt>
      <trkpt lat="43.784247" lon="5.743571">
        <ele>456.6</ele>
      </trkpt>
      <trkpt lat="43.784261" lon="5.743588">
        <ele>456.5</ele>
      </trkpt>
      <trkpt lat="43.784345" lon="5.743643">
        <ele>455.5</ele>
      </trkpt>
      <trkpt lat="43.784333" lon="5.743743">
        <ele>455.9</ele>
      </trkpt>
      <trkpt lat="43.784260" lon="5.743902">
        <ele>458.2</ele>
      </trkpt>
      <trkpt lat="43.784252" lon="5.743836">
        <ele>457.4</ele>
      </trkpt>
      <trkpt lat="43.784253" lon="5.743808">
        <ele>457.1</ele>
      </trkpt>
      <trkpt lat="43.784226" lon="5.743725">
        <ele>456.8</ele>
      </trkpt>
      <trkpt lat="43.784118" lon="5.743712">
        <ele>468.8</ele>
      </trkpt>
      <trkpt lat="43.784012" lon="5.743707">
        <ele>469.3</ele>
      </trkpt>
      <trkpt lat="43.783990" lon="5.743765">
        <ele>469.9</ele>
      </trkpt>
      <trkpt lat="43.784083" lon="5.743843">
        <ele>469.9</ele>
      </trkpt>
      <trkpt lat="43.784104" lon="5.743899">
        <ele>470</ele>
      </trkpt>
      <trkpt lat="43.784095" lon="5.743922">
        <ele>470.1</ele>
      </trkpt>
      <trkpt lat="43.784082" lon="5.743935">
        <ele>470.2</ele>
      </trkpt>
      <trkpt lat="43.784012" lon="5.743941">
        <ele>470.6</ele>
      </trkpt>
      <trkpt lat="43.783997" lon="5.743961">
        <ele>470.7</ele>
      </trkpt>
      <trkpt lat="43.783880" lon="5.743977">
        <ele>471.7</ele>
      </trkpt>
      <trkpt lat="43.783861" lon="5.743997">
        <ele>471.9</ele>
      </trkpt>
      <trkpt lat="43.783876" lon="5.744045">
        <ele>471.9</ele>
      </trkpt>
      <trkpt lat="43.783912" lon="5.744083">
        <ele>471.6</ele>
      </trkpt>
      <trkpt lat="43.783927" lon="5.744131">
        <ele>471.5</ele>
      </trkpt>
      <trkpt lat="43.783937" lon="5.744151">
        <ele>471.4</ele>
      </trkpt>
      <trkpt lat="43.783939" lon="5.744180">
        <ele>476.9</ele>
      </trkpt>
      <trkpt lat="43.783932" lon="5.744264">
        <ele>477.5</ele>
      </trkpt>
      <trkpt lat="43.783922" lon="5.744252">
        <ele>477.6</ele>
      </trkpt>
      <trkpt lat="43.783891" lon="5.744210">
        <ele>478</ele>
      </trkpt>
      <trkpt lat="43.783809" lon="5.744068">
        <ele>472.7</ele>
      </trkpt>
      <trkpt lat="43.783746" lon="5.744058">
        <ele>473.5</ele>
      </trkpt>
      <trkpt lat="43.783661" lon="5.744085">
        <ele>474.9</ele>
      </trkpt>
      <trkpt lat="43.783619" lon="5.744120">
        <ele>475.9</ele>
      </trkpt>
      <trkpt lat="43.783572" lon="5.744086">
        <ele>476.6</ele>
      </trkpt>
      <trkpt lat="43.783569" lon="5.744018">
        <ele>476</ele>
      </trkpt>
      <trkpt lat="43.783560" lon="5.743997">
        <ele>475.9</ele>
      </trkpt>
      <trkpt lat="43.783543" lon="5.743980">
        <ele>475.9</ele>
      </trkpt>
      <trkpt lat="43.783483" lon="5.743893">
        <ele>475.4</ele>
      </trkpt>
      <trkpt lat="43.783438" lon="5.743791">
        <ele>474.1</ele>
      </trkpt>
      <trkpt lat="43.783414" lon="5.743767">
        <ele>473.9</ele>
      </trkpt>
      <trkpt lat="43.783391" lon="5.743737">
        <ele>473.6</ele>
      </trkpt>
      <trkpt lat="43.783347" lon="5.743677">
        <ele>473</ele>
      </trkpt>
      <trkpt lat="43.783281" lon="5.743688">
        <ele>478.1</ele>
      </trkpt>
      <trkpt lat="43.783265" lon="5.743728">
        <ele>478.7</ele>
      </trkpt>
      <trkpt lat="43.783274" lon="5.743780">
        <ele>479.4</ele>
      </trkpt>
      <trkpt lat="43.783286" lon="5.743799">
        <ele>479.7</ele>
      </trkpt>
      <trkpt lat="43.783314" lon="5.743832">
        <ele>480.1</ele>
      </trkpt>
      <trkpt lat="43.783363" lon="5.743879">
        <ele>476</ele>
      </trkpt>
      <trkpt lat="43.783405" lon="5.744036">
        <ele>479.4</ele>
      </trkpt>
      <trkpt lat="43.783443" lon="5.744246">
        <ele>484.5</ele>
      </trkpt>
      <trkpt lat="43.783431" lon="5.744272">
        <ele>484.5</ele>
      </trkpt>
      <trkpt lat="43.783415" lon="5.744277">
        <ele>484.6</ele>
      </trkpt>
      <trkpt lat="43.783399" lon="5.744265">
        <ele>484.8</ele>
      </trkpt>
      <trkpt lat="43.783390" lon="5.744240">
        <ele>485</ele>
      </trkpt>
      <trkpt lat="43.783370" lon="5.744146">
        <ele>483.7</ele>
      </trkpt>
      <trkpt lat="43.783308" lon="5.744019">
        <ele>482.9</ele>
      </trkpt>
      <trkpt lat="43.783289" lon="5.743969">
        <ele>482.1</ele>
      </trkpt>
      <trkpt lat="43.783270" lon="5.743919">
        <ele>481.3</ele>
      </trkpt>
      <trkpt lat="43.783234" lon="5.743919">
        <ele>481.3</ele>
      </trkpt>
      <trkpt lat="43.783226" lon="5.743948">
        <ele>481.7</ele>
      </trkpt>
      <trkpt lat="43.783236" lon="5.743968">
        <ele>482</ele>
      </trkpt>
      <trkpt lat="43.783252" lon="5.744015">
        <ele>482.7</ele>
      </trkpt>
      <trkpt lat="43.783272" lon="5.744102">
        <ele>484.1</ele>
      </trkpt>
      <trkpt lat="43.783362" lon="5.744479">
        <ele>485.1</ele>
      </trkpt>
      <trkpt lat="43.783331" lon="5.744537">
        <ele>492.6</ele>
      </trkpt>
      <trkpt lat="43.783297" lon="5.744449">
        <ele>491.5</ele>
      </trkpt>
      <trkpt lat="43.783270" lon="5.744415">
        <ele>491.1</ele>
      </trkpt>
      <trkpt lat="43.783154" lon="5.744316">
        <ele>490.6</ele>
      </trkpt>
      <trkpt lat="43.783122" lon="5.744241">
        <ele>490.3</ele>
      </trkpt>
      <trkpt lat="43.783091" lon="5.744196">
        <ele>490.4</ele>
      </trkpt>
      <trkpt lat="43.783035" lon="5.744109">
        <ele>482.4</ele>
      </trkpt>
      <trkpt lat="43.782981" lon="5.744095">
        <ele>482.3</ele>
      </trkpt>
      <trkpt lat="43.782947" lon="5.744141">
        <ele>482.6</ele>
      </trkpt>
      <trkpt lat="43.782896" lon="5.744243">
        <ele>491.7</ele>
      </trkpt>
      <trkpt lat="43.782755" lon="5.744321">
        <ele>492.1</ele>
      </trkpt>
      <trkpt lat="43.782662" lon="5.744407">
        <ele>492.5</ele>
      </trkpt>
      <trkpt lat="43.782515" lon="5.744444">
        <ele>492.7</ele>
      </trkpt>
      <trkpt lat="43.782298" lon="5.744452">
        <ele>493.8</ele>
      </trkpt>
      <trkpt lat="43.782168" lon="5.744342">
        <ele>493.8</ele>
      </trkpt>
      <trkpt lat="43.782006" lon="5.744154">
        <ele>489.5</ele>
      </trkpt>
      <trkpt lat="43.781920" lon="5.743900">
        <ele>488.7</ele>
      </trkpt>
      <trkpt lat="43.781867" lon="5.743666">
        <ele>487.3</ele>
      </trkpt>
      <trkpt lat="43.781861" lon="5.743432">
        <ele>486.6</ele>
      </trkpt>
      <trkpt lat="43.781841" lon="5.743359">
        <ele>486.6</ele>
      </trkpt>
      <trkpt lat="43.781819" lon="5.743307">
        <ele>480.8</ele>
      </trkpt>
      <trkpt lat="43.781813" lon="5.743193">
        <ele>479.2</ele>
      </trkpt>
      <trkpt lat="43.781747" lon="5.742991">
        <ele>475.9</ele>
      </trkpt>
      <trkpt lat="43.781718" lon="5.742939">
        <ele>475.2</ele>
      </trkpt>
      <trkpt lat="43.781678" lon="5.742888">
        <ele>474.6</ele>
      </trkpt>
      <trkpt lat="43.781624" lon="5.742842">
        <ele>478.9</ele>
      </trkpt>
      <trkpt lat="43.781566" lon="5.742801">
        <ele>478.4</ele>
      </trkpt>
      <trkpt lat="43.781502" lon="5.742760">
        <ele>478</ele>
      </trkpt>
      <trkpt lat="43.781355" lon="5.742709">
        <ele>478</ele>
      </trkpt>
      <trkpt lat="43.781282" lon="5.742690">
        <ele>478</ele>
      </trkpt>
      <trkpt lat="43.781110" lon="5.742676">
        <ele>477.5</ele>
      </trkpt>
      <trkpt lat="43.781058" lon="5.742709">
        <ele>477.6</ele>
      </trkpt>
      <trkpt lat="43.780988" lon="5.742810">
        <ele>478.9</ele>
      </trkpt>
      <trkpt lat="43.780907" lon="5.742783">
        <ele>478.2</ele>
      </trkpt>
      <trkpt lat="43.780760" lon="5.742710">
        <ele>478.6</ele>
      </trkpt>
      <trkpt lat="43.780585" lon="5.742718">
        <ele>480.5</ele>
      </trkpt>
      <trkpt lat="43.780535" lon="5.742739">
        <ele>481.2</ele>
      </trkpt>
      <trkpt lat="43.780403" lon="5.742809">
        <ele>482.7</ele>
      </trkpt>
      <trkpt lat="43.780370" lon="5.742843">
        <ele>483.1</ele>
      </trkpt>
      <trkpt lat="43.780275" lon="5.742999">
        <ele>485</ele>
      </trkpt>
      <trkpt lat="43.780220" lon="5.743092">
        <ele>486.1</ele>
      </trkpt>
      <trkpt lat="43.780196" lon="5.743086">
        <ele>486.1</ele>
      </trkpt>
      <trkpt lat="43.780088" lon="5.742947">
        <ele>484.9</ele>
      </trkpt>
      <trkpt lat="43.780078" lon="5.742938">
        <ele>484.8</ele>
      </trkpt>
      <trkpt lat="43.780019" lon="5.742820">
        <ele>483.5</ele>
      </trkpt>
      <trkpt lat="43.780033" lon="5.742716">
        <ele>482.4</ele>
      </trkpt>
      <trkpt lat="43.780035" lon="5.742428">
        <ele>476.8</ele>
      </trkpt>
      <trkpt lat="43.780016" lon="5.742349">
        <ele>474.9</ele>
      </trkpt>
      <trkpt lat="43.779992" lon="5.742279">
        <ele>484</ele>
      </trkpt>
      <trkpt lat="43.779956" lon="5.742079">
        <ele>484.1</ele>
      </trkpt>
      <trkpt lat="43.779954" lon="5.742009">
        <ele>483.6</ele>
      </trkpt>
      <trkpt lat="43.779956" lon="5.741936">
        <ele>482.6</ele>
      </trkpt>
      <trkpt lat="43.779956" lon="5.741860">
        <ele>481.1</ele>
      </trkpt>
      <trkpt lat="43.779967" lon="5.741698">
        <ele>475.6</ele>
      </trkpt>
      <trkpt lat="43.779983" lon="5.741522">
        <ele>477.3</ele>
      </trkpt>
      <trkpt lat="43.779989" lon="5.741436">
        <ele>478.4</ele>
      </trkpt>
      <trkpt lat="43.780016" lon="5.741281">
        <ele>464.5</ele>
      </trkpt>
      <trkpt lat="43.780019" lon="5.741212">
        <ele>464.4</ele>
      </trkpt>
      <trkpt lat="43.780015" lon="5.741054">
        <ele>465.8</ele>
      </trkpt>
      <trkpt lat="43.780021" lon="5.741010">
        <ele>466.5</ele>
      </trkpt>
      <trkpt lat="43.780033" lon="5.740968">
        <ele>467.4</ele>
      </trkpt>
      <trkpt lat="43.780052" lon="5.740917">
        <ele>468.5</ele>
      </trkpt>
      <trkpt lat="43.780070" lon="5.740858">
        <ele>469.3</ele>
      </trkpt>
      <trkpt lat="43.780090" lon="5.740796">
        <ele>468.3</ele>
      </trkpt>
      <trkpt lat="43.780185" lon="5.740548">
        <ele>462.8</ele>
      </trkpt>
      <trkpt lat="43.780204" lon="5.740482">
        <ele>462.2</ele>
      </trkpt>
      <trkpt lat="43.780214" lon="5.740366">
        <ele>462</ele>
      </trkpt>
      <trkpt lat="43.780208" lon="5.740291">
        <ele>462.3</ele>
      </trkpt>
      <trkpt lat="43.780217" lon="5.740219">
        <ele>462.6</ele>
      </trkpt>
      <trkpt lat="43.780230" lon="5.740152">
        <ele>462.8</ele>
      </trkpt>
      <trkpt lat="43.780249" lon="5.740018">
        <ele>463</ele>
      </trkpt>
      <trkpt lat="43.780233" lon="5.739919">
        <ele>460.7</ele>
      </trkpt>
      <trkpt lat="43.780259" lon="5.739863">
        <ele>459.5</ele>
      </trkpt>
      <trkpt lat="43.780222" lon="5.739804">
        <ele>459.5</ele>
      </trkpt>
      <trkpt lat="43.780197" lon="5.739750">
        <ele>459.1</ele>
      </trkpt>
      <trkpt lat="43.780098" lon="5.739758">
        <ele>460.5</ele>
      </trkpt>
      <trkpt lat="43.779972" lon="5.739780">
        <ele>465.2</ele>
      </trkpt>
      <trkpt lat="43.779859" lon="5.739887">
        <ele>466.3</ele>
      </trkpt>
      <trkpt lat="43.779779" lon="5.739885">
        <ele>465.4</ele>
      </trkpt>
      <trkpt lat="43.779681" lon="5.739865">
        <ele>464.6</ele>
      </trkpt>
      <trkpt lat="43.779622" lon="5.739873">
        <ele>464.5</ele>
      </trkpt>
      <trkpt lat="43.779495" lon="5.739881">
        <ele>464.6</ele>
      </trkpt>
      <trkpt lat="43.779430" lon="5.739886">
        <ele>465</ele>
      </trkpt>
      <trkpt lat="43.779375" lon="5.739919">
        <ele>465.7</ele>
      </trkpt>
      <trkpt lat="43.779324" lon="5.739943">
        <ele>466.6</ele>
      </trkpt>
      <trkpt lat="43.779267" lon="5.739948">
        <ele>467.6</ele>
      </trkpt>
      <trkpt lat="43.779133" lon="5.739967">
        <ele>469</ele>
      </trkpt>
      <trkpt lat="43.779067" lon="5.739985">
        <ele>467.2</ele>
      </trkpt>
      <trkpt lat="43.779019" lon="5.739973">
        <ele>466</ele>
      </trkpt>
      <trkpt lat="43.778985" lon="5.739934">
        <ele>465</ele>
      </trkpt>
      <trkpt lat="43.778878" lon="5.739755">
        <ele>461.7</ele>
      </trkpt>
      <trkpt lat="43.778824" lon="5.739698">
        <ele>460.8</ele>
      </trkpt>
      <trkpt lat="43.778771" lon="5.739650">
        <ele>460.1</ele>
      </trkpt>
      <trkpt lat="43.778675" lon="5.739584">
        <ele>459.1</ele>
      </trkpt>
      <trkpt lat="43.778638" lon="5.739541">
        <ele>458.5</ele>
      </trkpt>
      <trkpt lat="43.778601" lon="5.739469">
        <ele>457.5</ele>
      </trkpt>
      <trkpt lat="43.778508" lon="5.739458">
        <ele>456.9</ele>
      </trkpt>
      <trkpt lat="43.778446" lon="5.739495">
        <ele>457.3</ele>
      </trkpt>
      <trkpt lat="43.778312" lon="5.739619">
        <ele>455.7</ele>
      </trkpt>
      <trkpt lat="43.778130" lon="5.739777">
        <ele>457.5</ele>
      </trkpt>
      <trkpt lat="43.777989" lon="5.739906">
        <ele>457.2</ele>
      </trkpt>
      <trkpt lat="43.777857" lon="5.739925">
        <ele>456.2</ele>
      </trkpt>
      <trkpt lat="43.777714" lon="5.739884">
        <ele>455.5</ele>
      </trkpt>
      <trkpt lat="43.777573" lon="5.739917">
        <ele>456.3</ele>
      </trkpt>
      <trkpt lat="43.777383" lon="5.740061">
        <ele>459.8</ele>
      </trkpt>
      <trkpt lat="43.777152" lon="5.740265">
        <ele>461.4</ele>
      </trkpt>
      <trkpt lat="43.777047" lon="5.740394">
        <ele>462.4</ele>
      </trkpt>
      <trkpt lat="43.776966" lon="5.740389">
        <ele>461.7</ele>
      </trkpt>
      <trkpt lat="43.776848" lon="5.740434">
        <ele>461.6</ele>
      </trkpt>
      <trkpt lat="43.776627" lon="5.740370">
        <ele>452</ele>
      </trkpt>
      <trkpt lat="43.776430" lon="5.740410">
        <ele>452</ele>
      </trkpt>
      <trkpt lat="43.776093" lon="5.740469">
        <ele>450.8</ele>
      </trkpt>
      <trkpt lat="43.776014" lon="5.740428">
        <ele>449.8</ele>
      </trkpt>
      <trkpt lat="43.775938" lon="5.740372">
        <ele>448.4</ele>
      </trkpt>
      <trkpt lat="43.775788" lon="5.740283">
        <ele>435.9</ele>
      </trkpt>
      <trkpt lat="43.775727" lon="5.740288">
        <ele>435.6</ele>
      </trkpt>
      <trkpt lat="43.775678" lon="5.740314">
        <ele>435.5</ele>
      </trkpt>
      <trkpt lat="43.775629" lon="5.740355">
        <ele>435.5</ele>
      </trkpt>
      <trkpt lat="43.775539" lon="5.740482">
        <ele>436.1</ele>
      </trkpt>
      <trkpt lat="43.775505" lon="5.740564">
        <ele>436.6</ele>
      </trkpt>
      <trkpt lat="43.775490" lon="5.740648">
        <ele>437.3</ele>
      </trkpt>
      <trkpt lat="43.775497" lon="5.740711">
        <ele>438.2</ele>
      </trkpt>
      <trkpt lat="43.775527" lon="5.740785">
        <ele>439.6</ele>
      </trkpt>
      <trkpt lat="43.775535" lon="5.740805">
        <ele>440</ele>
      </trkpt>
      <trkpt lat="43.775535" lon="5.740827">
        <ele>440.1</ele>
      </trkpt>
      <trkpt lat="43.775526" lon="5.740927">
        <ele>450.1</ele>
      </trkpt>
      <trkpt lat="43.775524" lon="5.740966">
        <ele>450.2</ele>
      </trkpt>
      <trkpt lat="43.775527" lon="5.741071">
        <ele>450.7</ele>
      </trkpt>
      <trkpt lat="43.775528" lon="5.741096">
        <ele>450.9</ele>
      </trkpt>
      <trkpt lat="43.775528" lon="5.741222">
        <ele>451.9</ele>
      </trkpt>
      <trkpt lat="43.775524" lon="5.741244">
        <ele>452</ele>
      </trkpt>
      <trkpt lat="43.775516" lon="5.741265">
        <ele>452.1</ele>
      </trkpt>
      <trkpt lat="43.775460" lon="5.741339">
        <ele>452</ele>
      </trkpt>
      <trkpt lat="43.775431" lon="5.741374">
        <ele>451.9</ele>
      </trkpt>
      <trkpt lat="43.775361" lon="5.741434">
        <ele>451.3</ele>
      </trkpt>
      <trkpt lat="43.775236" lon="5.741467">
        <ele>449.7</ele>
      </trkpt>
      <trkpt lat="43.775163" lon="5.741494">
        <ele>449</ele>
      </trkpt>
      <trkpt lat="43.775087" lon="5.741520">
        <ele>448.4</ele>
      </trkpt>
      <trkpt lat="43.775005" lon="5.741550">
        <ele>447.9</ele>
      </trkpt>
      <trkpt lat="43.774922" lon="5.741594">
        <ele>441.6</ele>
      </trkpt>
      <trkpt lat="43.774760" lon="5.741714">
        <ele>444.3</ele>
      </trkpt>
      <trkpt lat="43.774673" lon="5.741755">
        <ele>443.5</ele>
      </trkpt>
      <trkpt lat="43.774582" lon="5.741770">
        <ele>442.7</ele>
      </trkpt>
      <trkpt lat="43.774400" lon="5.741783">
        <ele>440.9</ele>
      </trkpt>
      <trkpt lat="43.774312" lon="5.741771">
        <ele>439.8</ele>
      </trkpt>
      <trkpt lat="43.774220" lon="5.741762">
        <ele>438.6</ele>
      </trkpt>
      <trkpt lat="43.774127" lon="5.741763">
        <ele>434.7</ele>
      </trkpt>
      <trkpt lat="43.774040" lon="5.741769">
        <ele>434.1</ele>
      </trkpt>
      <trkpt lat="43.773959" lon="5.741759">
        <ele>433.4</ele>
      </trkpt>
      <trkpt lat="43.773719" lon="5.741644">
        <ele>424.8</ele>
      </trkpt>
      <trkpt lat="43.773579" lon="5.741667">
        <ele>430.1</ele>
      </trkpt>
      <trkpt lat="43.773500" lon="5.741721">
        <ele>429.4</ele>
      </trkpt>
      <trkpt lat="43.773496" lon="5.741824">
        <ele>429.7</ele>
      </trkpt>
      <trkpt lat="43.773535" lon="5.741875">
        <ele>430.1</ele>
      </trkpt>
      <trkpt lat="43.773549" lon="5.741852">
        <ele>430.1</ele>
      </trkpt>
      <trkpt lat="43.773561" lon="5.741842">
        <ele>430.2</ele>
      </trkpt>
      <trkpt lat="43.773580" lon="5.741842">
        <ele>430.4</ele>
      </trkpt>
      <trkpt lat="43.773611" lon="5.741865">
        <ele>430.6</ele>
      </trkpt>
      <trkpt lat="43.773642" lon="5.741927">
        <ele>430.9</ele>
      </trkpt>
      <trkpt lat="43.773685" lon="5.742028">
        <ele>431.3</ele>
      </trkpt>
      <trkpt lat="43.773696" lon="5.742091">
        <ele>431.3</ele>
      </trkpt>
      <trkpt lat="43.773732" lon="5.742330">
        <ele>431.6</ele>
      </trkpt>
      <trkpt lat="43.773766" lon="5.742474">
        <ele>432.1</ele>
      </trkpt>
      <trkpt lat="43.773796" lon="5.742556">
        <ele>428.1</ele>
      </trkpt>
      <trkpt lat="43.773840" lon="5.742665">
        <ele>428.1</ele>
      </trkpt>
      <trkpt lat="43.773880" lon="5.742691">
        <ele>428.4</ele>
      </trkpt>
      <trkpt lat="43.773899" lon="5.742661">
        <ele>429</ele>
      </trkpt>
      <trkpt lat="43.773882" lon="5.742620">
        <ele>429.1</ele>
      </trkpt>
      <trkpt lat="43.773870" lon="5.742597">
        <ele>429.1</ele>
      </trkpt>
      <trkpt lat="43.773850" lon="5.742531">
        <ele>429.1</ele>
      </trkpt>
      <trkpt lat="43.773856" lon="5.742308">
        <ele>433</ele>
      </trkpt>
      <trkpt lat="43.773882" lon="5.742132">
        <ele>432.8</ele>
      </trkpt>
      <trkpt lat="43.773918" lon="5.742047">
        <ele>432.9</ele>
      </trkpt>
      <trkpt lat="43.773945" lon="5.742041">
        <ele>433.1</ele>
      </trkpt>
      <trkpt lat="43.773980" lon="5.742086">
        <ele>433.4</ele>
      </trkpt>
      <trkpt lat="43.773955" lon="5.742118">
        <ele>433.3</ele>
      </trkpt>
      <trkpt lat="43.773945" lon="5.742175">
        <ele>433.4</ele>
      </trkpt>
      <trkpt lat="43.773943" lon="5.742299">
        <ele>433.9</ele>
      </trkpt>
      <trkpt lat="43.773938" lon="5.742334">
        <ele>434</ele>
      </trkpt>
      <trkpt lat="43.773942" lon="5.742405">
        <ele>434.5</ele>
      </trkpt>
      <trkpt lat="43.773966" lon="5.742463">
        <ele>435.1</ele>
      </trkpt>
      <trkpt lat="43.773994" lon="5.742516">
        <ele>432.5</ele>
      </trkpt>
      <trkpt lat="43.774013" lon="5.742520">
        <ele>433.1</ele>
      </trkpt>
      <trkpt lat="43.774026" lon="5.742511">
        <ele>433.5</ele>
      </trkpt>
      <trkpt lat="43.774031" lon="5.742483">
        <ele>436.3</ele>
      </trkpt>
      <trkpt lat="43.774027" lon="5.742433">
        <ele>436</ele>
      </trkpt>
      <trkpt lat="43.774034" lon="5.742352">
        <ele>435.3</ele>
      </trkpt>
      <trkpt lat="43.774047" lon="5.742296">
        <ele>434.9</ele>
      </trkpt>
      <trkpt lat="43.774127" lon="5.742230">
        <ele>434.8</ele>
      </trkpt>
      <trkpt lat="43.774224" lon="5.742230">
        <ele>441.6</ele>
      </trkpt>
      <trkpt lat="43.774244" lon="5.742213">
        <ele>441.7</ele>
      </trkpt>
      <trkpt lat="43.774324" lon="5.742213">
        <ele>442</ele>
      </trkpt>
      <trkpt lat="43.774343" lon="5.742221">
        <ele>442.1</ele>
      </trkpt>
      <trkpt lat="43.774381" lon="5.742244">
        <ele>442.3</ele>
      </trkpt>
      <trkpt lat="43.774376" lon="5.742260">
        <ele>442.3</ele>
      </trkpt>
      <trkpt lat="43.774345" lon="5.742272">
        <ele>442.1</ele>
      </trkpt>
      <trkpt lat="43.774316" lon="5.742269">
        <ele>442</ele>
      </trkpt>
      <trkpt lat="43.774279" lon="5.742270">
        <ele>441.8</ele>
      </trkpt>
      <trkpt lat="43.774244" lon="5.742294">
        <ele>441.6</ele>
      </trkpt>
      <trkpt lat="43.774214" lon="5.742316">
        <ele>441.5</ele>
      </trkpt>
      <trkpt lat="43.774198" lon="5.742340">
        <ele>441.3</ele>
      </trkpt>
      <trkpt lat="43.774236" lon="5.742368">
        <ele>441.3</ele>
      </trkpt>
      <trkpt lat="43.774333" lon="5.742375">
        <ele>441.9</ele>
      </trkpt>
      <trkpt lat="43.774392" lon="5.742342">
        <ele>442.3</ele>
      </trkpt>
      <trkpt lat="43.774409" lon="5.742331">
        <ele>442.4</ele>
      </trkpt>
      <trkpt lat="43.774449" lon="5.742316">
        <ele>442.7</ele>
      </trkpt>
      <trkpt lat="43.774467" lon="5.742324">
        <ele>442.8</ele>
      </trkpt>
      <trkpt lat="43.774530" lon="5.742348">
        <ele>443.3</ele>
      </trkpt>
      <trkpt lat="43.774555" lon="5.742337">
        <ele>443.5</ele>
      </trkpt>
      <trkpt lat="43.774625" lon="5.742283">
        <ele>444</ele>
      </trkpt>
      <trkpt lat="43.774672" lon="5.742274">
        <ele>444.3</ele>
      </trkpt>
      <trkpt lat="43.774718" lon="5.742298">
        <ele>444.7</ele>
      </trkpt>
      <trkpt lat="43.774744" lon="5.742300">
        <ele>445</ele>
      </trkpt>
      <trkpt lat="43.774913" lon="5.742242">
        <ele>445.8</ele>
      </trkpt>
      <trkpt lat="43.774933" lon="5.742239">
        <ele>445.8</ele>
      </trkpt>
      <trkpt lat="43.774948" lon="5.742244">
        <ele>445.9</ele>
      </trkpt>
      <trkpt lat="43.774964" lon="5.742251">
        <ele>446</ele>
      </trkpt>
      <trkpt lat="43.774980" lon="5.742249">
        <ele>446.1</ele>
      </trkpt>
      <trkpt lat="43.774997" lon="5.742245">
        <ele>446.1</ele>
      </trkpt>
      <trkpt lat="43.775041" lon="5.742218">
        <ele>452.8</ele>
      </trkpt>
      <trkpt lat="43.775092" lon="5.742206">
        <ele>453</ele>
      </trkpt>
      <trkpt lat="43.775094" lon="5.742194">
        <ele>453.1</ele>
      </trkpt>
      <trkpt lat="43.775089" lon="5.742175">
        <ele>453.1</ele>
      </trkpt>
      <trkpt lat="43.775092" lon="5.742153">
        <ele>453.2</ele>
      </trkpt>
      <trkpt lat="43.775129" lon="5.742142">
        <ele>453.3</ele>
      </trkpt>
      <trkpt lat="43.775248" lon="5.742161">
        <ele>454</ele>
      </trkpt>
      <trkpt lat="43.775380" lon="5.742173">
        <ele>454.9</ele>
      </trkpt>
      <trkpt lat="43.775404" lon="5.742172">
        <ele>455.1</ele>
      </trkpt>
      <trkpt lat="43.775508" lon="5.742163">
        <ele>455.8</ele>
      </trkpt>
      <trkpt lat="43.775607" lon="5.742135">
        <ele>456.6</ele>
      </trkpt>
      <trkpt lat="43.775595" lon="5.742113">
        <ele>456.7</ele>
      </trkpt>
      <trkpt lat="43.775581" lon="5.742110">
        <ele>456.6</ele>
      </trkpt>
      <trkpt lat="43.775565" lon="5.742104">
        <ele>456.6</ele>
      </trkpt>
      <trkpt lat="43.775545" lon="5.742096">
        <ele>456.5</ele>
      </trkpt>
      <trkpt lat="43.775488" lon="5.742081">
        <ele>456.1</ele>
      </trkpt>
      <trkpt lat="43.775422" lon="5.742020">
        <ele>455.8</ele>
      </trkpt>
      <trkpt lat="43.775434" lon="5.741996">
        <ele>456</ele>
      </trkpt>
      <trkpt lat="43.775506" lon="5.741998">
        <ele>456.7</ele>
      </trkpt>
      <trkpt lat="43.775531" lon="5.741985">
        <ele>457.1</ele>
      </trkpt>
      <trkpt lat="43.775558" lon="5.741931">
        <ele>457.8</ele>
      </trkpt>
      <trkpt lat="43.775622" lon="5.741921">
        <ele>458.8</ele>
      </trkpt>
      <trkpt lat="43.775640" lon="5.741925">
        <ele>459</ele>
      </trkpt>
      <trkpt lat="43.775671" lon="5.741936">
        <ele>459.2</ele>
      </trkpt>
      <trkpt lat="43.775682" lon="5.741933">
        <ele>459.3</ele>
      </trkpt>
      <trkpt lat="43.775714" lon="5.741927">
        <ele>459.8</ele>
      </trkpt>
      <trkpt lat="43.775772" lon="5.741917">
        <ele>460.5</ele>
      </trkpt>
      <trkpt lat="43.775783" lon="5.741897">
        <ele>461</ele>
      </trkpt>
      <trkpt lat="43.775788" lon="5.741874">
        <ele>461.6</ele>
      </trkpt>
      <trkpt lat="43.775792" lon="5.741852">
        <ele>462.1</ele>
      </trkpt>
      <trkpt lat="43.775820" lon="5.741785">
        <ele>464.4</ele>
      </trkpt>
      <trkpt lat="43.775842" lon="5.741734">
        <ele>469.3</ele>
      </trkpt>
      <trkpt lat="43.775895" lon="5.741629">
        <ele>469.7</ele>
      </trkpt>
      <trkpt lat="43.775918" lon="5.741587">
        <ele>469.5</ele>
      </trkpt>
      <trkpt lat="43.775954" lon="5.741513">
        <ele>469.2</ele>
      </trkpt>
      <trkpt lat="43.775985" lon="5.741477">
        <ele>469</ele>
      </trkpt>
      <trkpt lat="43.776079" lon="5.741468">
        <ele>469.2</ele>
      </trkpt>
      <trkpt lat="43.776099" lon="5.741478">
        <ele>469.4</ele>
      </trkpt>
      <trkpt lat="43.776111" lon="5.741483">
        <ele>469.5</ele>
      </trkpt>
      <trkpt lat="43.776126" lon="5.741490">
        <ele>469.6</ele>
      </trkpt>
      <trkpt lat="43.776153" lon="5.741493">
        <ele>469.7</ele>
      </trkpt>
      <trkpt lat="43.776189" lon="5.741486">
        <ele>469.9</ele>
      </trkpt>
      <trkpt lat="43.776252" lon="5.741472">
        <ele>470.3</ele>
      </trkpt>
      <trkpt lat="43.776305" lon="5.741486">
        <ele>470.9</ele>
      </trkpt>
      <trkpt lat="43.776335" lon="5.741500">
        <ele>471.2</ele>
      </trkpt>
      <trkpt lat="43.776340" lon="5.741510">
        <ele>471.4</ele>
      </trkpt>
      <trkpt lat="43.776347" lon="5.741522">
        <ele>471.5</ele>
      </trkpt>
      <trkpt lat="43.776359" lon="5.741557">
        <ele>471.9</ele>
      </trkpt>
      <trkpt lat="43.776374" lon="5.741606">
        <ele>472.3</ele>
      </trkpt>
      <trkpt lat="43.776439" lon="5.741632">
        <ele>473.4</ele>
      </trkpt>
      <trkpt lat="43.776495" lon="5.741615">
        <ele>474.4</ele>
      </trkpt>
      <trkpt lat="43.776519" lon="5.741613">
        <ele>474.9</ele>
      </trkpt>
      <trkpt lat="43.776545" lon="5.741610">
        <ele>475.4</ele>
      </trkpt>
      <trkpt lat="43.776601" lon="5.741586">
        <ele>476.2</ele>
      </trkpt>
      <trkpt lat="43.776618" lon="5.741591">
        <ele>476.6</ele>
      </trkpt>
      <trkpt lat="43.776638" lon="5.741597">
        <ele>477.1</ele>
      </trkpt>
      <trkpt lat="43.776748" lon="5.741560">
        <ele>479.7</ele>
      </trkpt>
      <trkpt lat="43.776775" lon="5.741543">
        <ele>479.6</ele>
      </trkpt>
      <trkpt lat="43.776802" lon="5.741540">
        <ele>479.7</ele>
      </trkpt>
      <trkpt lat="43.776891" lon="5.741549">
        <ele>479.9</ele>
      </trkpt>
      <trkpt lat="43.777014" lon="5.741511">
        <ele>480.3</ele>
      </trkpt>
      <trkpt lat="43.777067" lon="5.741471">
        <ele>480.5</ele>
      </trkpt>
      <trkpt lat="43.777175" lon="5.741433">
        <ele>481.1</ele>
      </trkpt>
      <trkpt lat="43.777207" lon="5.741424">
        <ele>481.2</ele>
      </trkpt>
      <trkpt lat="43.777365" lon="5.741355">
        <ele>481.8</ele>
      </trkpt>
      <trkpt lat="43.777526" lon="5.741322">
        <ele>487.6</ele>
      </trkpt>
      <trkpt lat="43.777642" lon="5.741396">
        <ele>488.2</ele>
      </trkpt>
      <trkpt lat="43.777669" lon="5.741411">
        <ele>488.3</ele>
      </trkpt>
      <trkpt lat="43.777723" lon="5.741432">
        <ele>488.5</ele>
      </trkpt>
      <trkpt lat="43.777800" lon="5.741425">
        <ele>488.9</ele>
      </trkpt>
      <trkpt lat="43.777824" lon="5.741416">
        <ele>489</ele>
      </trkpt>
      <trkpt lat="43.777967" lon="5.741308">
        <ele>489.3</ele>
      </trkpt>
      <trkpt lat="43.778035" lon="5.741266">
        <ele>489.4</ele>
      </trkpt>
      <trkpt lat="43.778079" lon="5.741284">
        <ele>489.7</ele>
      </trkpt>
      <trkpt lat="43.778078" lon="5.741399">
        <ele>490.4</ele>
      </trkpt>
      <trkpt lat="43.778094" lon="5.741541">
        <ele>491.5</ele>
      </trkpt>
      <trkpt lat="43.778161" lon="5.741596">
        <ele>492.7</ele>
      </trkpt>
      <trkpt lat="43.778191" lon="5.741634">
        <ele>493.4</ele>
      </trkpt>
      <trkpt lat="43.778257" lon="5.741717">
        <ele>494.8</ele>
      </trkpt>
      <trkpt lat="43.778355" lon="5.741787">
        <ele>497.4</ele>
      </trkpt>
      <trkpt lat="43.778379" lon="5.741798">
        <ele>497.4</ele>
      </trkpt>
      <trkpt lat="43.778480" lon="5.741866">
        <ele>497.6</ele>
      </trkpt>
      <trkpt lat="43.778519" lon="5.741873">
        <ele>497.7</ele>
      </trkpt>
      <trkpt lat="43.778542" lon="5.741871">
        <ele>497.7</ele>
      </trkpt>
      <trkpt lat="43.778566" lon="5.741871">
        <ele>497.8</ele>
      </trkpt>
      <trkpt lat="43.778659" lon="5.741885">
        <ele>498</ele>
      </trkpt>
      <trkpt lat="43.778680" lon="5.741908">
        <ele>498</ele>
      </trkpt>
      <trkpt lat="43.778707" lon="5.741919">
        <ele>498.1</ele>
      </trkpt>
      <trkpt lat="43.778819" lon="5.741869">
        <ele>498.3</ele>
      </trkpt>
      <trkpt lat="43.778975" lon="5.741860">
        <ele>498.6</ele>
      </trkpt>
      <trkpt lat="43.779037" lon="5.741884">
        <ele>498.7</ele>
      </trkpt>
      <trkpt lat="43.779115" lon="5.741949">
        <ele>498.8</ele>
      </trkpt>
      <trkpt lat="43.779127" lon="5.741987">
        <ele>498.9</ele>
      </trkpt>
      <trkpt lat="43.779107" lon="5.742060">
        <ele>499</ele>
      </trkpt>
      <trkpt lat="43.779067" lon="5.742112">
        <ele>499</ele>
      </trkpt>
      <trkpt lat="43.779005" lon="5.742235">
        <ele>499.2</ele>
      </trkpt>
      <trkpt lat="43.779003" lon="5.742381">
        <ele>499.8</ele>
      </trkpt>
      <trkpt lat="43.779019" lon="5.742514">
        <ele>501.7</ele>
      </trkpt>
      <trkpt lat="43.779038" lon="5.742552">
        <ele>501.8</ele>
      </trkpt>
      <trkpt lat="43.779105" lon="5.742714">
        <ele>502.1</ele>
      </trkpt>
      <trkpt lat="43.779124" lon="5.742813">
        <ele>502.4</ele>
      </trkpt>
      <trkpt lat="43.779136" lon="5.742861">
        <ele>502.7</ele>
      </trkpt>
      <trkpt lat="43.779249" lon="5.743103">
        <ele>500.6</ele>
      </trkpt>
      <trkpt lat="43.779256" lon="5.743168">
        <ele>501.6</ele>
      </trkpt>
      <trkpt lat="43.779239" lon="5.743203">
        <ele>502.6</ele>
      </trkpt>
      <trkpt lat="43.779195" lon="5.743219">
        <ele>503.5</ele>
      </trkpt>
      <trkpt lat="43.779203" lon="5.743278">
        <ele>505.1</ele>
      </trkpt>
      <trkpt lat="43.779216" lon="5.743317">
        <ele>505.7</ele>
      </trkpt>
      <trkpt lat="43.779234" lon="5.743401">
        <ele>507.6</ele>
      </trkpt>
      <trkpt lat="43.779260" lon="5.743472">
        <ele>507.5</ele>
      </trkpt>
      <trkpt lat="43.779293" lon="5.743542">
        <ele>507.5</ele>
      </trkpt>
      <trkpt lat="43.779343" lon="5.743652">
        <ele>507.8</ele>
      </trkpt>
      <trkpt lat="43.779337" lon="5.743704">
        <ele>508.2</ele>
      </trkpt>
      <trkpt lat="43.779289" lon="5.743719">
        <ele>508.6</ele>
      </trkpt>
      <trkpt lat="43.779199" lon="5.743666">
        <ele>508.5</ele>
      </trkpt>
      <trkpt lat="43.779134" lon="5.743654">
        <ele>510.3</ele>
      </trkpt>
      <trkpt lat="43.778994" lon="5.743723">
        <ele>510.6</ele>
      </trkpt>
      <trkpt lat="43.778903" lon="5.743766">
        <ele>510.6</ele>
      </trkpt>
      <trkpt lat="43.778864" lon="5.743784">
        <ele>510.6</ele>
      </trkpt>
      <trkpt lat="43.778861" lon="5.743819">
        <ele>510.8</ele>
      </trkpt>
      <trkpt lat="43.778871" lon="5.743833">
        <ele>511</ele>
      </trkpt>
      <trkpt lat="43.778920" lon="5.743826">
        <ele>511.1</ele>
      </trkpt>
      <trkpt lat="43.778953" lon="5.743821">
        <ele>511.2</ele>
      </trkpt>
      <trkpt lat="43.779079" lon="5.743798">
        <ele>511.4</ele>
      </trkpt>
      <trkpt lat="43.779109" lon="5.743809">
        <ele>511.6</ele>
      </trkpt>
      <trkpt lat="43.779154" lon="5.743817">
        <ele>511.8</ele>
      </trkpt>
      <trkpt lat="43.779238" lon="5.743814">
        <ele>509.7</ele>
      </trkpt>
      <trkpt lat="43.779315" lon="5.743878">
        <ele>510.1</ele>
      </trkpt>
      <trkpt lat="43.779393" lon="5.743913">
        <ele>509.8</ele>
      </trkpt>
      <trkpt lat="43.779387" lon="5.743958">
        <ele>510.4</ele>
      </trkpt>
      <trkpt lat="43.779371" lon="5.743971">
        <ele>510.7</ele>
      </trkpt>
      <trkpt lat="43.779322" lon="5.743953">
        <ele>511</ele>
      </trkpt>
      <trkpt lat="43.779296" lon="5.743946">
        <ele>511.1</ele>
      </trkpt>
      <trkpt lat="43.779270" lon="5.743937">
        <ele>511.2</ele>
      </trkpt>
      <trkpt lat="43.779209" lon="5.743921">
        <ele>511.3</ele>
      </trkpt>
      <trkpt lat="43.779152" lon="5.743905">
        <ele>512.8</ele>
      </trkpt>
      <trkpt lat="43.779133" lon="5.743948">
        <ele>513.3</ele>
      </trkpt>
      <trkpt lat="43.779156" lon="5.743983">
        <ele>513.9</ele>
      </trkpt>
      <trkpt lat="43.779173" lon="5.744001">
        <ele>512.9</ele>
      </trkpt>
      <trkpt lat="43.779232" lon="5.744031">
        <ele>513.2</ele>
      </trkpt>
      <trkpt lat="43.779301" lon="5.744067">
        <ele>512.8</ele>
      </trkpt>
      <trkpt lat="43.779328" lon="5.744099">
        <ele>512.7</ele>
      </trkpt>
      <trkpt lat="43.779354" lon="5.744143">
        <ele>512.5</ele>
      </trkpt>
      <trkpt lat="43.779352" lon="5.744173">
        <ele>516.1</ele>
      </trkpt>
      <trkpt lat="43.779333" lon="5.744234">
        <ele>516.2</ele>
      </trkpt>
      <trkpt lat="43.779332" lon="5.744270">
        <ele>516.1</ele>
      </trkpt>
      <trkpt lat="43.779352" lon="5.744329">
        <ele>515.9</ele>
      </trkpt>
      <trkpt lat="43.779424" lon="5.744305">
        <ele>515.5</ele>
      </trkpt>
      <trkpt lat="43.779503" lon="5.744321">
        <ele>515</ele>
      </trkpt>
      <trkpt lat="43.779660" lon="5.744420">
        <ele>514.2</ele>
      </trkpt>
      <trkpt lat="43.779829" lon="5.744495">
        <ele>513.7</ele>
      </trkpt>
      <trkpt lat="43.779900" lon="5.744511">
        <ele>513.5</ele>
      </trkpt>
      <trkpt lat="43.780086" lon="5.744492">
        <ele>508</ele>
      </trkpt>
      <trkpt lat="43.780257" lon="5.744476">
        <ele>507.2</ele>
      </trkpt>
      <trkpt lat="43.780309" lon="5.744487">
        <ele>506.9</ele>
      </trkpt>
      <trkpt lat="43.780369" lon="5.744533">
        <ele>506.6</ele>
      </trkpt>
      <trkpt lat="43.780421" lon="5.744546">
        <ele>506.3</ele>
      </trkpt>
      <trkpt lat="43.780499" lon="5.744517">
        <ele>505.8</ele>
      </trkpt>
      <trkpt lat="43.780605" lon="5.744374">
        <ele>505.4</ele>
      </trkpt>
      <trkpt lat="43.780665" lon="5.744302">
        <ele>505.2</ele>
      </trkpt>
      <trkpt lat="43.780723" lon="5.744262">
        <ele>504.8</ele>
      </trkpt>
      <trkpt lat="43.780785" lon="5.744232">
        <ele>504.5</ele>
      </trkpt>
      <trkpt lat="43.780862" lon="5.744264">
        <ele>501.9</ele>
      </trkpt>
      <trkpt lat="43.780913" lon="5.744331">
        <ele>500.7</ele>
      </trkpt>
      <trkpt lat="43.781085" lon="5.744490">
        <ele>498.7</ele>
      </trkpt>
      <trkpt lat="43.781258" lon="5.744664">
        <ele>497.5</ele>
      </trkpt>
      <trkpt lat="43.781347" lon="5.744753">
        <ele>496.9</ele>
      </trkpt>
      <trkpt lat="43.781451" lon="5.744769">
        <ele>496.4</ele>
      </trkpt>
      <trkpt lat="43.781703" lon="5.744742">
        <ele>494.2</ele>
      </trkpt>
      <trkpt lat="43.781711" lon="5.744750">
        <ele>494.2</ele>
      </trkpt>
      <trkpt lat="43.781653" lon="5.744828">
        <ele>495.2</ele>
      </trkpt>
      <trkpt lat="43.781610" lon="5.744973">
        <ele>494</ele>
      </trkpt>
      <trkpt lat="43.781517" lon="5.745045">
        <ele>490.8</ele>
      </trkpt>
      <trkpt lat="43.781445" lon="5.745096">
        <ele>490.1</ele>
      </trkpt>
      <trkpt lat="43.781254" lon="5.745289">
        <ele>488.7</ele>
      </trkpt>
      <trkpt lat="43.781180" lon="5.745404">
        <ele>487.7</ele>
      </trkpt>
      <trkpt lat="43.781083" lon="5.745485">
        <ele>486.9</ele>
      </trkpt>
      <trkpt lat="43.781012" lon="5.745678">
        <ele>484.3</ele>
      </trkpt>
      <trkpt lat="43.780944" lon="5.745825">
        <ele>482</ele>
      </trkpt>
      <trkpt lat="43.780897" lon="5.745957">
        <ele>477.1</ele>
      </trkpt>
      <trkpt lat="43.780967" lon="5.746011">
        <ele>476.4</ele>
      </trkpt>
      <trkpt lat="43.781056" lon="5.746027">
        <ele>476.1</ele>
      </trkpt>
      <trkpt lat="43.781134" lon="5.745994">
        <ele>476.2</ele>
      </trkpt>
      <trkpt lat="43.781199" lon="5.745930">
        <ele>476.4</ele>
      </trkpt>
      <trkpt lat="43.781267" lon="5.745927">
        <ele>476.5</ele>
      </trkpt>
      <trkpt lat="43.781294" lon="5.745952">
        <ele>476.5</ele>
      </trkpt>
      <trkpt lat="43.781176" lon="5.746249">
        <ele>474.8</ele>
      </trkpt>
      <trkpt lat="43.781091" lon="5.746330">
        <ele>473.9</ele>
      </trkpt>
      <trkpt lat="43.781025" lon="5.746456">
        <ele>472.4</ele>
      </trkpt>
      <trkpt lat="43.780931" lon="5.746544">
        <ele>470.3</ele>
      </trkpt>
      <trkpt lat="43.780855" lon="5.746641">
        <ele>467.2</ele>
      </trkpt>
      <trkpt lat="43.780787" lon="5.746743">
        <ele>465.8</ele>
      </trkpt>
      <trkpt lat="43.780733" lon="5.746912">
        <ele>465.3</ele>
      </trkpt>
      <trkpt lat="43.780630" lon="5.747059">
        <ele>464.6</ele>
      </trkpt>
      <trkpt lat="43.780489" lon="5.747242">
        <ele>463.6</ele>
      </trkpt>
      <trkpt lat="43.780421" lon="5.747287">
        <ele>463.4</ele>
      </trkpt>
      <trkpt lat="43.780301" lon="5.747518">
        <ele>455.7</ele>
      </trkpt>
      <trkpt lat="43.780218" lon="5.747663">
        <ele>455.2</ele>
      </trkpt>
      <trkpt lat="43.780123" lon="5.747786">
        <ele>454.3</ele>
      </trkpt>
      <trkpt lat="43.780059" lon="5.747859">
        <ele>453.4</ele>
      </trkpt>
      <trkpt lat="43.779951" lon="5.747928">
        <ele>453.5</ele>
      </trkpt>
      <trkpt lat="43.779743" lon="5.748065">
        <ele>453.1</ele>
      </trkpt>
      <trkpt lat="43.779706" lon="5.748159">
        <ele>452.4</ele>
      </trkpt>
      <trkpt lat="43.779697" lon="5.748272">
        <ele>451.5</ele>
      </trkpt>
      <trkpt lat="43.779666" lon="5.748403">
        <ele>443</ele>
      </trkpt>
      <trkpt lat="43.779623" lon="5.748631">
        <ele>442.3</ele>
      </trkpt>
      <trkpt lat="43.779548" lon="5.748816">
        <ele>441.4</ele>
      </trkpt>
      <trkpt lat="43.779449" lon="5.749227">
        <ele>432.1</ele>
      </trkpt>
      <trkpt lat="43.779387" lon="5.749302">
        <ele>432.1</ele>
      </trkpt>
      <trkpt lat="43.779345" lon="5.749420">
        <ele>431.1</ele>
      </trkpt>
      <trkpt lat="43.779350" lon="5.749653">
        <ele>428.5</ele>
      </trkpt>
      <trkpt lat="43.779298" lon="5.749945">
        <ele>425.1</ele>
      </trkpt>
      <trkpt lat="43.779213" lon="5.750302">
        <ele>417.8</ele>
      </trkpt>
      <trkpt lat="43.779172" lon="5.750680">
        <ele>414.1</ele>
      </trkpt>
      <trkpt lat="43.779197" lon="5.750860">
        <ele>411</ele>
      </trkpt>
      <trkpt lat="43.779277" lon="5.751075">
        <ele>407.4</ele>
      </trkpt>
      <trkpt lat="43.779282" lon="5.751332">
        <ele>404.9</ele>
      </trkpt>
      <trkpt lat="43.779273" lon="5.751555">
        <ele>402.6</ele>
      </trkpt>
      <trkpt lat="43.779305" lon="5.751767">
        <ele>397.3</ele>
      </trkpt>
      <trkpt lat="43.779341" lon="5.751936">
        <ele>395.6</ele>
      </trkpt>
      <trkpt lat="43.779255" lon="5.752062">
        <ele>394.3</ele>
      </trkpt>
      <trkpt lat="43.779213" lon="5.752137">
        <ele>393.2</ele>
      </trkpt>
      <trkpt lat="43.779213" lon="5.752437">
        <ele>387.7</ele>
      </trkpt>
      <trkpt lat="43.779228" lon="5.752587">
        <ele>384.2</ele>
      </trkpt>
      <trkpt lat="43.779183" lon="5.752743">
        <ele>383</ele>
      </trkpt>
      <trkpt lat="43.779094" lon="5.752963">
        <ele>380.7</ele>
      </trkpt>
      <trkpt lat="43.779059" lon="5.753102">
        <ele>378.9</ele>
      </trkpt>
      <trkpt lat="43.779114" lon="5.753199">
        <ele>376.6</ele>
      </trkpt>
      <trkpt lat="43.779083" lon="5.753773">
        <ele>368.8</ele>
      </trkpt>
      <trkpt lat="43.779086" lon="5.753886">
        <ele>367.9</ele>
      </trkpt>
      <trkpt lat="43.779174" lon="5.753939">
        <ele>368.5</ele>
      </trkpt>
      <trkpt lat="43.779226" lon="5.754041">
        <ele>367.2</ele>
      </trkpt>
      <trkpt lat="43.779299" lon="5.754352">
        <ele>362.7</ele>
      </trkpt>
      <trkpt lat="43.779319" lon="5.754792">
        <ele>360</ele>
      </trkpt>
      <trkpt lat="43.779238" lon="5.755629">
        <ele>353.6</ele>
      </trkpt>
      <trkpt lat="43.779265" lon="5.755742">
        <ele>353.3</ele>
      </trkpt>
      <trkpt lat="43.779288" lon="5.756133">
        <ele>351.3</ele>
      </trkpt>
      <trkpt lat="43.779660" lon="5.757056">
        <ele>352.2</ele>
      </trkpt>
      <trkpt lat="43.779977" lon="5.757571">
        <ele>352.6</ele>
      </trkpt>
      <trkpt lat="43.780179" lon="5.758011">
        <ele>344.5</ele>
      </trkpt>
      <trkpt lat="43.780276" lon="5.758418">
        <ele>343.1</ele>
      </trkpt>
      <trkpt lat="43.780496" lon="5.758907">
        <ele>339.4</ele>
      </trkpt>
      <trkpt lat="43.780678" lon="5.759448">
        <ele>334.4</ele>
      </trkpt>
      <trkpt lat="43.780783" lon="5.759727">
        <ele>332.8</ele>
      </trkpt>
      <trkpt lat="43.781062" lon="5.760124">
        <ele>325.4</ele>
      </trkpt>
      <trkpt lat="43.781178" lon="5.760655">
        <ele>323.7</ele>
      </trkpt>
      <trkpt lat="43.781221" lon="5.761068">
        <ele>321.5</ele>
      </trkpt>
      <trkpt lat="43.781461" lon="5.761594">
        <ele>320.3</ele>
      </trkpt>
      <trkpt lat="43.781960" lon="5.762334">
        <ele>315.9</ele>
      </trkpt>
      <trkpt lat="43.782025" lon="5.762377">
        <ele>315.6</ele>
      </trkpt>
      <trkpt lat="43.782519" lon="5.762168">
        <ele>311.4</ele>
      </trkpt>
      <trkpt lat="43.782722" lon="5.762093">
        <ele>311.1</ele>
      </trkpt>
      <trkpt lat="43.783206" lon="5.761836">
        <ele>310</ele>
      </trkpt>
      <trkpt lat="43.783498" lon="5.761581">
        <ele>307</ele>
      </trkpt>
      <trkpt lat="43.783611" lon="5.761530">
        <ele>306</ele>
      </trkpt>
      <trkpt lat="43.783700" lon="5.761532">
        <ele>305.3</ele>
      </trkpt>
      <trkpt lat="43.784145" lon="5.761685">
        <ele>299.6</ele>
      </trkpt>
      <trkpt lat="43.784542" lon="5.761903">
        <ele>299.9</ele>
      </trkpt>
      <trkpt lat="43.784800" lon="5.761994">
        <ele>300</ele>
      </trkpt>
      <trkpt lat="43.784895" lon="5.762152">
        <ele>300</ele>
      </trkpt>
      <trkpt lat="43.784904" lon="5.762198">
        <ele>300</ele>
      </trkpt>
      <trkpt lat="43.784900" lon="5.762190">
        <ele>300</ele>
      </trkpt>
    </trkseg>
  </trk>
</gpx>