<?xml version="1.0" ?>
<gpx xmlns="http://www.topografix.com/GPX/1/1" xmlns:xsi="http://www.w3.org/2001/XMLSchema-instance" xsi:schemaLocation="http://www.topografix.com/GPX/1/1 http://www.topografix.com/GPX/1/1/gpx.xsd" version="1.1" creator="EditGPX">
  <trk>
    <name>NewTrack</name>
    <trkseg>
      <trkpt lat="43.861500" lon="5.429185">
        <ele>483.8</ele>
      </trkpt>
      <trkpt lat="43.861455" lon="5.429309">
        <ele>485.5</ele>
      </trkpt>
      <trkpt lat="43.861410" lon="5.429392">
        <ele>486.7</ele>
      </trkpt>
      <trkpt lat="43.861256" lon="5.429317">
        <ele>487.5</ele>
      </trkpt>
      <trkpt lat="43.861184" lon="5.429201">
        <ele>487.7</ele>
      </trkpt>
      <trkpt lat="43.861132" lon="5.429226">
        <ele>488.1</ele>
      </trkpt>
      <trkpt lat="43.861178" lon="5.429386">
        <ele>488.3</ele>
      </trkpt>
      <trkpt lat="43.861248" lon="5.429513">
        <ele>488.6</ele>
      </trkpt>
      <trkpt lat="43.861399" lon="5.429641">
        <ele>488.6</ele>
      </trkpt>
      <trkpt lat="43.861639" lon="5.429700">
        <ele>488.3</ele>
      </trkpt>
      <trkpt lat="43.861710" lon="5.429805">
        <ele>487.2</ele>
      </trkpt>
      <trkpt lat="43.861747" lon="5.429918">
        <ele>488.2</ele>
      </trkpt>
      <trkpt lat="43.861409" lon="5.430068">
        <ele>495.9</ele>
      </trkpt>
      <trkpt lat="43.860444" lon="5.430467">
        <ele>518.4</ele>
      </trkpt>
      <trkpt lat="43.860418" lon="5.430604">
        <ele>519.3</ele>
      </trkpt>
      <trkpt lat="43.860240" lon="5.431479">
        <ele>525.8</ele>
      </trkpt>
      <trkpt lat="43.860198" lon="5.431554">
        <ele>526.3</ele>
      </trkpt>
      <trkpt lat="43.860020" lon="5.432409">
        <ele>527.5</ele>
      </trkpt>
      <trkpt lat="43.859962" lon="5.432490">
        <ele>530.7</ele>
      </trkpt>
      <trkpt lat="43.859350" lon="5.433166">
        <ele>531.8</ele>
      </trkpt>
      <trkpt lat="43.859227" lon="5.433343">
        <ele>530.8</ele>
      </trkpt>
      <trkpt lat="43.859059" lon="5.433501">
        <ele>535.2</ele>
      </trkpt>
      <trkpt lat="43.858736" lon="5.433694">
        <ele>537.2</ele>
      </trkpt>
      <trkpt lat="43.858516" lon="5.433780">
        <ele>538.8</ele>
      </trkpt>
      <trkpt lat="43.857970" lon="5.434182">
        <ele>544.2</ele>
      </trkpt>
      <trkpt lat="43.857512" lon="5.434400">
        <ele>546.2</ele>
      </trkpt>
      <trkpt lat="43.857243" lon="5.434467">
        <ele>548.1</ele>
      </trkpt>
      <trkpt lat="43.857208" lon="5.434515">
        <ele>547.9</ele>
      </trkpt>
      <trkpt lat="43.856941" lon="5.434459">
        <ele>548.6</ele>
      </trkpt>
      <trkpt lat="43.856868" lon="5.434456">
        <ele>548.8</ele>
      </trkpt>
      <trkpt lat="43.856820" lon="5.434449">
        <ele>549</ele>
      </trkpt>
      <trkpt lat="43.855976" lon="5.434319">
        <ele>551.8</ele>
      </trkpt>
      <trkpt lat="43.855670" lon="5.434263">
        <ele>554</ele>
      </trkpt>
      <trkpt lat="43.855448" lon="5.434166">
        <ele>559.5</ele>
      </trkpt>
      <trkpt lat="43.854794" lon="5.434416">
        <ele>561.4</ele>
      </trkpt>
      <trkpt lat="43.854409" lon="5.434491">
        <ele>563.4</ele>
      </trkpt>
      <trkpt lat="43.853988" lon="5.434472">
        <ele>569.2</ele>
      </trkpt>
      <trkpt lat="43.853895" lon="5.434434">
        <ele>569.5</ele>
      </trkpt>
      <trkpt lat="43.853622" lon="5.434477">
        <ele>569.9</ele>
      </trkpt>
      <trkpt lat="43.853585" lon="5.434492">
        <ele>570</ele>
      </trkpt>
      <trkpt lat="43.852628" lon="5.434888">
        <ele>574.5</ele>
      </trkpt>
      <trkpt lat="43.852094" lon="5.435188">
        <ele>577.1</ele>
      </trkpt>
      <trkpt lat="43.851568" lon="5.435598">
        <ele>580.5</ele>
      </trkpt>
      <trkpt lat="43.851321" lon="5.435538">
        <ele>581</ele>
      </trkpt>
      <trkpt lat="43.850355" lon="5.435303">
        <ele>583.9</ele>
      </trkpt>
      <trkpt lat="43.850289" lon="5.435226">
        <ele>584</ele>
      </trkpt>
      <trkpt lat="43.850189" lon="5.435153">
        <ele>584.3</ele>
      </trkpt>
      <trkpt lat="43.850003" lon="5.435041">
        <ele>584.8</ele>
      </trkpt>
      <trkpt lat="43.849659" lon="5.434909">
        <ele>583.6</ele>
      </trkpt>
      <trkpt lat="43.849299" lon="5.434740">
        <ele>583.7</ele>
      </trkpt>
      <trkpt lat="43.849067" lon="5.434673">
        <ele>584.4</ele>
      </trkpt>
      <trkpt lat="43.848701" lon="5.434579">
        <ele>584.3</ele>
      </trkpt>
      <trkpt lat="43.848349" lon="5.434408">
        <ele>584</ele>
      </trkpt>
      <trkpt lat="43.847893" lon="5.434362">
        <ele>588.1</ele>
      </trkpt>
      <trkpt lat="43.847605" lon="5.434225">
        <ele>589.4</ele>
      </trkpt>
      <trkpt lat="43.847421" lon="5.434137">
        <ele>589.3</ele>
      </trkpt>
      <trkpt lat="43.847117" lon="5.434056">
        <ele>588.3</ele>
      </trkpt>
      <trkpt lat="43.846825" lon="5.433976">
        <ele>588.4</ele>
      </trkpt>
      <trkpt lat="43.846721" lon="5.434003">
        <ele>588.5</ele>
      </trkpt>
      <trkpt lat="43.846614" lon="5.433952">
        <ele>589.1</ele>
      </trkpt>
      <trkpt lat="43.846506" lon="5.433815">
        <ele>589.2</ele>
      </trkpt>
      <trkpt lat="43.846363" lon="5.433638">
        <ele>589.2</ele>
      </trkpt>
      <trkpt lat="43.846243" lon="5.433514">
        <ele>589.2</ele>
      </trkpt>
      <trkpt lat="43.846179" lon="5.433453">
        <ele>589.2</ele>
      </trkpt>
      <trkpt lat="43.846107" lon="5.433431">
        <ele>589.2</ele>
      </trkpt>
      <trkpt lat="43.846042" lon="5.433332">
        <ele>589</ele>
      </trkpt>
      <trkpt lat="43.845953" lon="5.433270">
        <ele>589</ele>
      </trkpt>
      <trkpt lat="43.845032" lon="5.433182">
        <ele>588.5</ele>
      </trkpt>
      <trkpt lat="43.845090" lon="5.432267">
        <ele>586.9</ele>
      </trkpt>
      <trkpt lat="43.845137" lon="5.431846">
        <ele>587.5</ele>
      </trkpt>
      <trkpt lat="43.845144" lon="5.431704">
        <ele>587.6</ele>
      </trkpt>
      <trkpt lat="43.845133" lon="5.431594">
        <ele>588.1</ele>
      </trkpt>
      <trkpt lat="43.845148" lon="5.431481">
        <ele>588.1</ele>
      </trkpt>
      <trkpt lat="43.845197" lon="5.430883">
        <ele>588.6</ele>
      </trkpt>
      <trkpt lat="43.845207" lon="5.430733">
        <ele>589.1</ele>
      </trkpt>
      <trkpt lat="43.845317" lon="5.429108">
        <ele>586.8</ele>
      </trkpt>
      <trkpt lat="43.845349" lon="5.428678">
        <ele>586.3</ele>
      </trkpt>
      <trkpt lat="43.845363" lon="5.428506">
        <ele>586.1</ele>
      </trkpt>
      <trkpt lat="43.845363" lon="5.428505">
        <ele>586.1</ele>
      </trkpt>
      <trkpt lat="43.845465" lon="5.427262">
        <ele>584.7</ele>
      </trkpt>
      <trkpt lat="43.845889" lon="5.427316">
        <ele>585.4</ele>
      </trkpt>
      <trkpt lat="43.846555" lon="5.427278">
        <ele>585.8</ele>
      </trkpt>
      <trkpt lat="43.846578" lon="5.427184">
        <ele>585.8</ele>
      </trkpt>
      <trkpt lat="43.846763" lon="5.426680">
        <ele>585.9</ele>
      </trkpt>
      <trkpt lat="43.846796" lon="5.426527">
        <ele>585.8</ele>
      </trkpt>
      <trkpt lat="43.846802" lon="5.426420">
        <ele>585.8</ele>
      </trkpt>
      <trkpt lat="43.846804" lon="5.426109">
        <ele>585.6</ele>
      </trkpt>
      <trkpt lat="43.846777" lon="5.425736">
        <ele>584.8</ele>
      </trkpt>
      <trkpt lat="43.846771" lon="5.425224">
        <ele>584</ele>
      </trkpt>
      <trkpt lat="43.846777" lon="5.425108">
        <ele>583.7</ele>
      </trkpt>
      <trkpt lat="43.846845" lon="5.424593">
        <ele>583.2</ele>
      </trkpt>
      <trkpt lat="43.846881" lon="5.424352">
        <ele>583.1</ele>
      </trkpt>
      <trkpt lat="43.846870" lon="5.424215">
        <ele>582.9</ele>
      </trkpt>
      <trkpt lat="43.846901" lon="5.424062">
        <ele>583</ele>
      </trkpt>
      <trkpt lat="43.846934" lon="5.423856">
        <ele>583.2</ele>
      </trkpt>
      <trkpt lat="43.846949" lon="5.423655">
        <ele>583.3</ele>
      </trkpt>
      <trkpt lat="43.846943" lon="5.423451">
        <ele>583.1</ele>
      </trkpt>
      <trkpt lat="43.846945" lon="5.423024">
        <ele>582.9</ele>
      </trkpt>
      <trkpt lat="43.846951" lon="5.422901">
        <ele>582.8</ele>
      </trkpt>
      <trkpt lat="43.846934" lon="5.422812">
        <ele>582.8</ele>
      </trkpt>
      <trkpt lat="43.846880" lon="5.422740">
        <ele>582.7</ele>
      </trkpt>
      <trkpt lat="43.846864" lon="5.422622">
        <ele>582.6</ele>
      </trkpt>
      <trkpt lat="43.846843" lon="5.422238">
        <ele>581.6</ele>
      </trkpt>
      <trkpt lat="43.846849" lon="5.422061">
        <ele>581.3</ele>
      </trkpt>
      <trkpt lat="43.846806" lon="5.421592">
        <ele>580</ele>
      </trkpt>
      <trkpt lat="43.846837" lon="5.421305">
        <ele>579.9</ele>
      </trkpt>
      <trkpt lat="43.846837" lon="5.421039">
        <ele>579.7</ele>
      </trkpt>
      <trkpt lat="43.846852" lon="5.420962">
        <ele>579.6</ele>
      </trkpt>
      <trkpt lat="43.846878" lon="5.420927">
        <ele>579.6</ele>
      </trkpt>
      <trkpt lat="43.846876" lon="5.420828">
        <ele>578.9</ele>
      </trkpt>
      <trkpt lat="43.846907" lon="5.420726">
        <ele>578.9</ele>
      </trkpt>
      <trkpt lat="43.846910" lon="5.420632">
        <ele>578.8</ele>
      </trkpt>
      <trkpt lat="43.846895" lon="5.420554">
        <ele>578.7</ele>
      </trkpt>
      <trkpt lat="43.846885" lon="5.420441">
        <ele>578.6</ele>
      </trkpt>
      <trkpt lat="43.846881" lon="5.419913">
        <ele>577.5</ele>
      </trkpt>
      <trkpt lat="43.846875" lon="5.419832">
        <ele>577.5</ele>
      </trkpt>
      <trkpt lat="43.846914" lon="5.419417">
        <ele>577.6</ele>
      </trkpt>
      <trkpt lat="43.846924" lon="5.419317">
        <ele>577.5</ele>
      </trkpt>
      <trkpt lat="43.846755" lon="5.418894">
        <ele>577.4</ele>
      </trkpt>
      <trkpt lat="43.846726" lon="5.418499">
        <ele>577.4</ele>
      </trkpt>
      <trkpt lat="43.846668" lon="5.418188">
        <ele>577.2</ele>
      </trkpt>
      <trkpt lat="43.846684" lon="5.418027">
        <ele>577.3</ele>
      </trkpt>
      <trkpt lat="43.846810" lon="5.417424">
        <ele>576.5</ele>
      </trkpt>
      <trkpt lat="43.846844" lon="5.417097">
        <ele>575.9</ele>
      </trkpt>
      <trkpt lat="43.846846" lon="5.417013">
        <ele>575.7</ele>
      </trkpt>
      <trkpt lat="43.846968" lon="5.416836">
        <ele>575.6</ele>
      </trkpt>
      <trkpt lat="43.847080" lon="5.415916">
        <ele>574.7</ele>
      </trkpt>
      <trkpt lat="43.847191" lon="5.415782">
        <ele>574.1</ele>
      </trkpt>
      <trkpt lat="43.847268" lon="5.415431">
        <ele>573.8</ele>
      </trkpt>
      <trkpt lat="43.847307" lon="5.415275">
        <ele>573.5</ele>
      </trkpt>
      <trkpt lat="43.847303" lon="5.414768">
        <ele>572.7</ele>
      </trkpt>
      <trkpt lat="43.847222" lon="5.414299">
        <ele>572.7</ele>
      </trkpt>
      <trkpt lat="43.847148" lon="5.414071">
        <ele>571.8</ele>
      </trkpt>
      <trkpt lat="43.847117" lon="5.413832">
        <ele>571.6</ele>
      </trkpt>
      <trkpt lat="43.847080" lon="5.413663">
        <ele>571.4</ele>
      </trkpt>
      <trkpt lat="43.847016" lon="5.413484">
        <ele>571.3</ele>
      </trkpt>
      <trkpt lat="43.846904" lon="5.413154">
        <ele>570.8</ele>
      </trkpt>
      <trkpt lat="43.846839" lon="5.412880">
        <ele>571</ele>
      </trkpt>
      <trkpt lat="43.846842" lon="5.412674">
        <ele>571.2</ele>
      </trkpt>
      <trkpt lat="43.846864" lon="5.412448">
        <ele>571.3</ele>
      </trkpt>
      <trkpt lat="43.846895" lon="5.412253">
        <ele>571</ele>
      </trkpt>
      <trkpt lat="43.846879" lon="5.412167">
        <ele>571</ele>
      </trkpt>
      <trkpt lat="43.847653" lon="5.411402">
        <ele>568</ele>
      </trkpt>
      <trkpt lat="43.847653" lon="5.411402">
        <ele>568</ele>
      </trkpt>
      <trkpt lat="43.847677" lon="5.411379">
        <ele>567.9</ele>
      </trkpt>
      <trkpt lat="43.847829" lon="5.411228">
        <ele>567.3</ele>
      </trkpt>
      <trkpt lat="43.848794" lon="5.410362">
        <ele>561.9</ele>
      </trkpt>
      <trkpt lat="43.848794" lon="5.410362">
        <ele>561.9</ele>
      </trkpt>
      <trkpt lat="43.848876" lon="5.410288">
        <ele>561.7</ele>
      </trkpt>
      <trkpt lat="43.849006" lon="5.410171">
        <ele>561.2</ele>
      </trkpt>
      <trkpt lat="43.849006" lon="5.410171">
        <ele>561.2</ele>
      </trkpt>
      <trkpt lat="43.849030" lon="5.410149">
        <ele>561.1</ele>
      </trkpt>
      <trkpt lat="43.849167" lon="5.410026">
        <ele>559.4</ele>
      </trkpt>
      <trkpt lat="43.848881" lon="5.409329">
        <ele>564.1</ele>
      </trkpt>
      <trkpt lat="43.848417" lon="5.408348">
        <ele>563.3</ele>
      </trkpt>
      <trkpt lat="43.848417" lon="5.408348">
        <ele>563.3</ele>
      </trkpt>
      <trkpt lat="43.848401" lon="5.408314">
        <ele>562.9</ele>
      </trkpt>
      <trkpt lat="43.847959" lon="5.407377">
        <ele>561.8</ele>
      </trkpt>
      <trkpt lat="43.847516" lon="5.406440">
        <ele>559.9</ele>
      </trkpt>
      <trkpt lat="43.847440" lon="5.406280">
        <ele>560.5</ele>
      </trkpt>
      <trkpt lat="43.846550" lon="5.405770">
        <ele>561.1</ele>
      </trkpt>
      <trkpt lat="43.846421" lon="5.405681">
        <ele>561.3</ele>
      </trkpt>
      <trkpt lat="43.846405" lon="5.404435">
        <ele>559.2</ele>
      </trkpt>
      <trkpt lat="43.846405" lon="5.404435">
        <ele>559.2</ele>
      </trkpt>
      <trkpt lat="43.846405" lon="5.404423">
        <ele>559.2</ele>
      </trkpt>
      <trkpt lat="43.846370" lon="5.404297">
        <ele>559.1</ele>
      </trkpt>
      <trkpt lat="43.846361" lon="5.404128">
        <ele>557.8</ele>
      </trkpt>
      <trkpt lat="43.845790" lon="5.404222">
        <ele>559.1</ele>
      </trkpt>
      <trkpt lat="43.845660" lon="5.404254">
        <ele>559.2</ele>
      </trkpt>
      <trkpt lat="43.845423" lon="5.404399">
        <ele>559.2</ele>
      </trkpt>
      <trkpt lat="43.844916" lon="5.404565">
        <ele>559.3</ele>
      </trkpt>
      <trkpt lat="43.844356" lon="5.405037">
        <ele>561.6</ele>
      </trkpt>
      <trkpt lat="43.843523" lon="5.405203">
        <ele>561.7</ele>
      </trkpt>
      <trkpt lat="43.843411" lon="5.405225">
        <ele>561.7</ele>
      </trkpt>
      <trkpt lat="43.843008" lon="5.405542">
        <ele>562.3</ele>
      </trkpt>
      <trkpt lat="43.842436" lon="5.405681">
        <ele>563</ele>
      </trkpt>
      <trkpt lat="43.841561" lon="5.405931">
        <ele>564</ele>
      </trkpt>
      <trkpt lat="43.841190" lon="5.406037">
        <ele>564</ele>
      </trkpt>
      <trkpt lat="43.840594" lon="5.406207">
        <ele>561.6</ele>
      </trkpt>
      <trkpt lat="43.839620" lon="5.406400">
        <ele>549.7</ele>
      </trkpt>
      <trkpt lat="43.838988" lon="5.407160">
        <ele>534.8</ele>
      </trkpt>
      <trkpt lat="43.838771" lon="5.407422">
        <ele>532.5</ele>
      </trkpt>
      <trkpt lat="43.838771" lon="5.407422">
        <ele>532.5</ele>
      </trkpt>
      <trkpt lat="43.838684" lon="5.407526">
        <ele>533.2</ele>
      </trkpt>
      <trkpt lat="43.838591" lon="5.407698">
        <ele>531.9</ele>
      </trkpt>
      <trkpt lat="43.838491" lon="5.407956">
        <ele>531.7</ele>
      </trkpt>
      <trkpt lat="43.838449" lon="5.407988">
        <ele>531.2</ele>
      </trkpt>
      <trkpt lat="43.838414" lon="5.407942">
        <ele>531</ele>
      </trkpt>
      <trkpt lat="43.838333" lon="5.407701">
        <ele>515.4</ele>
      </trkpt>
      <trkpt lat="43.838304" lon="5.407510">
        <ele>519.6</ele>
      </trkpt>
      <trkpt lat="43.838323" lon="5.407374">
        <ele>516.5</ele>
      </trkpt>
      <trkpt lat="43.838286" lon="5.407304">
        <ele>514.8</ele>
      </trkpt>
      <trkpt lat="43.838149" lon="5.407548">
        <ele>514.5</ele>
      </trkpt>
      <trkpt lat="43.838021" lon="5.407524">
        <ele>511.5</ele>
      </trkpt>
      <trkpt lat="43.837969" lon="5.407551">
        <ele>510.3</ele>
      </trkpt>
      <trkpt lat="43.837928" lon="5.407631">
        <ele>509.4</ele>
      </trkpt>
      <trkpt lat="43.837882" lon="5.407596">
        <ele>508.4</ele>
      </trkpt>
      <trkpt lat="43.837847" lon="5.407473">
        <ele>507.7</ele>
      </trkpt>
      <trkpt lat="43.837803" lon="5.407191">
        <ele>507.7</ele>
      </trkpt>
      <trkpt lat="43.837776" lon="5.407084">
        <ele>507.6</ele>
      </trkpt>
      <trkpt lat="43.837735" lon="5.407020">
        <ele>507.2</ele>
      </trkpt>
      <trkpt lat="43.837712" lon="5.406875">
        <ele>506.6</ele>
      </trkpt>
      <trkpt lat="43.837522" lon="5.406722">
        <ele>502.7</ele>
      </trkpt>
      <trkpt lat="43.837485" lon="5.406663">
        <ele>500.6</ele>
      </trkpt>
      <trkpt lat="43.837408" lon="5.406462">
        <ele>497.4</ele>
      </trkpt>
      <trkpt lat="43.837367" lon="5.406413">
        <ele>496.9</ele>
      </trkpt>
      <trkpt lat="43.837317" lon="5.406427">
        <ele>496.5</ele>
      </trkpt>
      <trkpt lat="43.837292" lon="5.406537">
        <ele>496.6</ele>
      </trkpt>
      <trkpt lat="43.837292" lon="5.406733">
        <ele>496.4</ele>
      </trkpt>
      <trkpt lat="43.837282" lon="5.406794">
        <ele>496</ele>
      </trkpt>
      <trkpt lat="43.837278" lon="5.406928">
        <ele>495.3</ele>
      </trkpt>
      <trkpt lat="43.837255" lon="5.406955">
        <ele>495.1</ele>
      </trkpt>
      <trkpt lat="43.837216" lon="5.406961">
        <ele>494.8</ele>
      </trkpt>
      <trkpt lat="43.837162" lon="5.406880">
        <ele>494.4</ele>
      </trkpt>
      <trkpt lat="43.837108" lon="5.406735">
        <ele>494</ele>
      </trkpt>
      <trkpt lat="43.837023" lon="5.406617">
        <ele>493.2</ele>
      </trkpt>
      <trkpt lat="43.836967" lon="5.406507">
        <ele>492.6</ele>
      </trkpt>
      <trkpt lat="43.836885" lon="5.406389">
        <ele>492.1</ele>
      </trkpt>
      <trkpt lat="43.836862" lon="5.406314">
        <ele>492.1</ele>
      </trkpt>
      <trkpt lat="43.836856" lon="5.406180">
        <ele>492.1</ele>
      </trkpt>
      <trkpt lat="43.836889" lon="5.405925">
        <ele>491.5</ele>
      </trkpt>
      <trkpt lat="43.836823" lon="5.405805">
        <ele>492.5</ele>
      </trkpt>
      <trkpt lat="43.836690" lon="5.405743">
        <ele>490.2</ele>
      </trkpt>
      <trkpt lat="43.836520" lon="5.405593">
        <ele>486.9</ele>
      </trkpt>
      <trkpt lat="43.836069" lon="5.404986">
        <ele>487.9</ele>
      </trkpt>
      <trkpt lat="43.835835" lon="5.404791">
        <ele>486.8</ele>
      </trkpt>
      <trkpt lat="43.835589" lon="5.404539">
        <ele>481.3</ele>
      </trkpt>
      <trkpt lat="43.835481" lon="5.404490">
        <ele>480.9</ele>
      </trkpt>
      <trkpt lat="43.835351" lon="5.404482">
        <ele>480.3</ele>
      </trkpt>
      <trkpt lat="43.835347" lon="5.404721">
        <ele>480.2</ele>
      </trkpt>
      <trkpt lat="43.834991" lon="5.405536">
        <ele>488.9</ele>
      </trkpt>
      <trkpt lat="43.834674" lon="5.406604">
        <ele>497.7</ele>
      </trkpt>
      <trkpt lat="43.834498" lon="5.407038">
        <ele>502.4</ele>
      </trkpt>
      <trkpt lat="43.834411" lon="5.407508">
        <ele>505.4</ele>
      </trkpt>
      <trkpt lat="43.834413" lon="5.407623">
        <ele>505.8</ele>
      </trkpt>
      <trkpt lat="43.834469" lon="5.407698">
        <ele>506.6</ele>
      </trkpt>
      <trkpt lat="43.834444" lon="5.407848">
        <ele>507.1</ele>
      </trkpt>
      <trkpt lat="43.834395" lon="5.408009">
        <ele>507.2</ele>
      </trkpt>
      <trkpt lat="43.834362" lon="5.408135">
        <ele>506.7</ele>
      </trkpt>
      <trkpt lat="43.834221" lon="5.408559">
        <ele>511.5</ele>
      </trkpt>
      <trkpt lat="43.834109" lon="5.408795">
        <ele>512.8</ele>
      </trkpt>
      <trkpt lat="43.833933" lon="5.409152">
        <ele>513.6</ele>
      </trkpt>
      <trkpt lat="43.833848" lon="5.409251">
        <ele>515.1</ele>
      </trkpt>
      <trkpt lat="43.833801" lon="5.409318">
        <ele>515.5</ele>
      </trkpt>
      <trkpt lat="43.833755" lon="5.409393">
        <ele>515.9</ele>
      </trkpt>
      <trkpt lat="43.833701" lon="5.409388">
        <ele>516</ele>
      </trkpt>
      <trkpt lat="43.833679" lon="5.409353">
        <ele>516</ele>
      </trkpt>
      <trkpt lat="43.833681" lon="5.409267">
        <ele>516</ele>
      </trkpt>
      <trkpt lat="43.833741" lon="5.409120">
        <ele>515.7</ele>
      </trkpt>
      <trkpt lat="43.833799" lon="5.409010">
        <ele>515.3</ele>
      </trkpt>
      <trkpt lat="43.833900" lon="5.408514">
        <ele>513.5</ele>
      </trkpt>
      <trkpt lat="43.833937" lon="5.408079">
        <ele>515</ele>
      </trkpt>
      <trkpt lat="43.833912" lon="5.407559">
        <ele>514.3</ele>
      </trkpt>
      <trkpt lat="43.833931" lon="5.407400">
        <ele>515.9</ele>
      </trkpt>
      <trkpt lat="43.834008" lon="5.407159">
        <ele>517.1</ele>
      </trkpt>
      <trkpt lat="43.834060" lon="5.406636">
        <ele>514</ele>
      </trkpt>
      <trkpt lat="43.834200" lon="5.405754">
        <ele>505.2</ele>
      </trkpt>
      <trkpt lat="43.834202" lon="5.405617">
        <ele>500.8</ele>
      </trkpt>
      <trkpt lat="43.834177" lon="5.405432">
        <ele>498.2</ele>
      </trkpt>
      <trkpt lat="43.834138" lon="5.405322">
        <ele>515.1</ele>
      </trkpt>
      <trkpt lat="43.834014" lon="5.405182">
        <ele>514.1</ele>
      </trkpt>
      <trkpt lat="43.833679" lon="5.404898">
        <ele>514.4</ele>
      </trkpt>
      <trkpt lat="43.833575" lon="5.404632">
        <ele>513.4</ele>
      </trkpt>
      <trkpt lat="43.833523" lon="5.404426">
        <ele>512</ele>
      </trkpt>
      <trkpt lat="43.833437" lon="5.404286">
        <ele>513.1</ele>
      </trkpt>
      <trkpt lat="43.833211" lon="5.404048">
        <ele>519.8</ele>
      </trkpt>
      <trkpt lat="43.832925" lon="5.403667">
        <ele>522.4</ele>
      </trkpt>
      <trkpt lat="43.832555" lon="5.403101">
        <ele>515.8</ele>
      </trkpt>
      <trkpt lat="43.832414" lon="5.402956">
        <ele>525.2</ele>
      </trkpt>
      <trkpt lat="43.832242" lon="5.402851">
        <ele>524.8</ele>
      </trkpt>
      <trkpt lat="43.832104" lon="5.402833">
        <ele>525.6</ele>
      </trkpt>
      <trkpt lat="43.831934" lon="5.402870">
        <ele>527</ele>
      </trkpt>
      <trkpt lat="43.831758" lon="5.402943">
        <ele>528.7</ele>
      </trkpt>
      <trkpt lat="43.831634" lon="5.403018">
        <ele>537.4</ele>
      </trkpt>
      <trkpt lat="43.831301" lon="5.403356">
        <ele>545</ele>
      </trkpt>
      <trkpt lat="43.831170" lon="5.403380">
        <ele>545.6</ele>
      </trkpt>
      <trkpt lat="43.831001" lon="5.403294">
        <ele>542.3</ele>
      </trkpt>
      <trkpt lat="43.830814" lon="5.403637">
        <ele>551.2</ele>
      </trkpt>
      <trkpt lat="43.830471" lon="5.404085">
        <ele>554.2</ele>
      </trkpt>
      <trkpt lat="43.830427" lon="5.404104">
        <ele>554.7</ele>
      </trkpt>
      <trkpt lat="43.830396" lon="5.404007">
        <ele>555</ele>
      </trkpt>
      <trkpt lat="43.830388" lon="5.403782">
        <ele>555</ele>
      </trkpt>
      <trkpt lat="43.830442" lon="5.403409">
        <ele>554.3</ele>
      </trkpt>
      <trkpt lat="43.830469" lon="5.402857">
        <ele>554.2</ele>
      </trkpt>
      <trkpt lat="43.830477" lon="5.402527">
        <ele>554</ele>
      </trkpt>
      <trkpt lat="43.830467" lon="5.402409">
        <ele>554.9</ele>
      </trkpt>
      <trkpt lat="43.830427" lon="5.402326">
        <ele>555.4</ele>
      </trkpt>
      <trkpt lat="43.829877" lon="5.402771">
        <ele>563.6</ele>
      </trkpt>
      <trkpt lat="43.829824" lon="5.402865">
        <ele>563.8</ele>
      </trkpt>
      <trkpt lat="43.829111" lon="5.403458">
        <ele>570.1</ele>
      </trkpt>
      <trkpt lat="43.828653" lon="5.403551">
        <ele>570.9</ele>
      </trkpt>
      <trkpt lat="43.828296" lon="5.403718">
        <ele>568.7</ele>
      </trkpt>
      <trkpt lat="43.827864" lon="5.403857">
        <ele>567.7</ele>
      </trkpt>
      <trkpt lat="43.827798" lon="5.403900">
        <ele>567.7</ele>
      </trkpt>
      <trkpt lat="43.827608" lon="5.404187">
        <ele>572.3</ele>
      </trkpt>
      <trkpt lat="43.827175" lon="5.404533">
        <ele>572.4</ele>
      </trkpt>
      <trkpt lat="43.827010" lon="5.404697">
        <ele>573</ele>
      </trkpt>
      <trkpt lat="43.826745" lon="5.405005">
        <ele>578</ele>
      </trkpt>
      <trkpt lat="43.826513" lon="5.405201">
        <ele>580.6</ele>
      </trkpt>
      <trkpt lat="43.826466" lon="5.405265">
        <ele>581.4</ele>
      </trkpt>
      <trkpt lat="43.826240" lon="5.405939">
        <ele>589.3</ele>
      </trkpt>
      <trkpt lat="43.826154" lon="5.406805">
        <ele>596.3</ele>
      </trkpt>
      <trkpt lat="43.826102" lon="5.407682">
        <ele>603</ele>
      </trkpt>
      <trkpt lat="43.826101" lon="5.407862">
        <ele>603.7</ele>
      </trkpt>
      <trkpt lat="43.826162" lon="5.408157">
        <ele>604.7</ele>
      </trkpt>
      <trkpt lat="43.826186" lon="5.408438">
        <ele>608.9</ele>
      </trkpt>
      <trkpt lat="43.826178" lon="5.408656">
        <ele>609.7</ele>
      </trkpt>
      <trkpt lat="43.826139" lon="5.409093">
        <ele>611.6</ele>
      </trkpt>
      <trkpt lat="43.826071" lon="5.409361">
        <ele>615.5</ele>
      </trkpt>
      <trkpt lat="43.825729" lon="5.410155">
        <ele>624.2</ele>
      </trkpt>
      <trkpt lat="43.825648" lon="5.410193">
        <ele>625.1</ele>
      </trkpt>
      <trkpt lat="43.825309" lon="5.410340">
        <ele>627.6</ele>
      </trkpt>
      <trkpt lat="43.825139" lon="5.410388">
        <ele>628.4</ele>
      </trkpt>
      <trkpt lat="43.824487" lon="5.411156">
        <ele>642.8</ele>
      </trkpt>
      <trkpt lat="43.824342" lon="5.411287">
        <ele>643.9</ele>
      </trkpt>
      <trkpt lat="43.824127" lon="5.411402">
        <ele>649.8</ele>
      </trkpt>
      <trkpt lat="43.823448" lon="5.411510">
        <ele>649.2</ele>
      </trkpt>
      <trkpt lat="43.822642" lon="5.411483">
        <ele>649</ele>
      </trkpt>
      <trkpt lat="43.822139" lon="5.411279">
        <ele>650.8</ele>
      </trkpt>
      <trkpt lat="43.822015" lon="5.411174">
        <ele>651.7</ele>
      </trkpt>
      <trkpt lat="43.821352" lon="5.410600">
        <ele>665.5</ele>
      </trkpt>
      <trkpt lat="43.820576" lon="5.409903">
        <ele>676.4</ele>
      </trkpt>
      <trkpt lat="43.820489" lon="5.409785">
        <ele>677.9</ele>
      </trkpt>
      <trkpt lat="43.820196" lon="5.409391">
        <ele>680.6</ele>
      </trkpt>
      <trkpt lat="43.819821" lon="5.408656">
        <ele>693.2</ele>
      </trkpt>
      <trkpt lat="43.819513" lon="5.407746">
        <ele>686</ele>
      </trkpt>
      <trkpt lat="43.819262" lon="5.407349">
        <ele>678.2</ele>
      </trkpt>
      <trkpt lat="43.819062" lon="5.407199">
        <ele>685</ele>
      </trkpt>
      <trkpt lat="43.818973" lon="5.407202">
        <ele>685.3</ele>
      </trkpt>
      <trkpt lat="43.818776" lon="5.407293">
        <ele>687.6</ele>
      </trkpt>
      <trkpt lat="43.818520" lon="5.407239">
        <ele>689.6</ele>
      </trkpt>
      <trkpt lat="43.818381" lon="5.407202">
        <ele>690.2</ele>
      </trkpt>
      <trkpt lat="43.818193" lon="5.407312">
        <ele>702.7</ele>
      </trkpt>
      <trkpt lat="43.818085" lon="5.407344">
        <ele>703.7</ele>
      </trkpt>
      <trkpt lat="43.817901" lon="5.407363">
        <ele>705.6</ele>
      </trkpt>
      <trkpt lat="43.817866" lon="5.407422">
        <ele>705.8</ele>
      </trkpt>
      <trkpt lat="43.817692" lon="5.407808">
        <ele>709.5</ele>
      </trkpt>
      <trkpt lat="43.817338" lon="5.408106">
        <ele>713.3</ele>
      </trkpt>
      <trkpt lat="43.816995" lon="5.408449">
        <ele>714.2</ele>
      </trkpt>
      <trkpt lat="43.816688" lon="5.408624">
        <ele>714.9</ele>
      </trkpt>
      <trkpt lat="43.816452" lon="5.408731">
        <ele>721.9</ele>
      </trkpt>
      <trkpt lat="43.816124" lon="5.408996">
        <ele>724.1</ele>
      </trkpt>
      <trkpt lat="43.814979" lon="5.409812">
        <ele>752.5</ele>
      </trkpt>
      <trkpt lat="43.814884" lon="5.409900">
        <ele>751.8</ele>
      </trkpt>
      <trkpt lat="43.814750" lon="5.409951">
        <ele>754.8</ele>
      </trkpt>
      <trkpt lat="43.814503" lon="5.410193">
        <ele>761.6</ele>
      </trkpt>
      <trkpt lat="43.814363" lon="5.410211">
        <ele>762.7</ele>
      </trkpt>
      <trkpt lat="43.813759" lon="5.410388">
        <ele>776.1</ele>
      </trkpt>
      <trkpt lat="43.813332" lon="5.410595">
        <ele>790.7</ele>
      </trkpt>
      <trkpt lat="43.812939" lon="5.410710">
        <ele>795</ele>
      </trkpt>
      <trkpt lat="43.812813" lon="5.410654">
        <ele>797</ele>
      </trkpt>
      <trkpt lat="43.812703" lon="5.410584">
        <ele>798.4</ele>
      </trkpt>
      <trkpt lat="43.812666" lon="5.410598">
        <ele>798.8</ele>
      </trkpt>
      <trkpt lat="43.812652" lon="5.410643">
        <ele>799</ele>
      </trkpt>
      <trkpt lat="43.812689" lon="5.410732">
        <ele>798.9</ele>
      </trkpt>
      <trkpt lat="43.812774" lon="5.410812">
        <ele>797.6</ele>
      </trkpt>
      <trkpt lat="43.812788" lon="5.410863">
        <ele>804</ele>
      </trkpt>
      <trkpt lat="43.812757" lon="5.410885">
        <ele>804.4</ele>
      </trkpt>
      <trkpt lat="43.812631" lon="5.410831">
        <ele>800.1</ele>
      </trkpt>
      <trkpt lat="43.812447" lon="5.410818">
        <ele>806.6</ele>
      </trkpt>
      <trkpt lat="43.812397" lon="5.410767">
        <ele>810</ele>
      </trkpt>
      <trkpt lat="43.812308" lon="5.410742">
        <ele>813.5</ele>
      </trkpt>
      <trkpt lat="43.812292" lon="5.410772">
        <ele>813.7</ele>
      </trkpt>
      <trkpt lat="43.812387" lon="5.410936">
        <ele>814</ele>
      </trkpt>
      <trkpt lat="43.812457" lon="5.411019">
        <ele>815.7</ele>
      </trkpt>
      <trkpt lat="43.812495" lon="5.411080">
        <ele>817.7</ele>
      </trkpt>
      <trkpt lat="43.812494" lon="5.411107">
        <ele>818.6</ele>
      </trkpt>
      <trkpt lat="43.812455" lon="5.411123">
        <ele>819.4</ele>
      </trkpt>
      <trkpt lat="43.812039" lon="5.410970">
        <ele>824.6</ele>
      </trkpt>
      <trkpt lat="43.811756" lon="5.410788">
        <ele>826.9</ele>
      </trkpt>
      <trkpt lat="43.811719" lon="5.410793">
        <ele>827.9</ele>
      </trkpt>
      <trkpt lat="43.811723" lon="5.410828">
        <ele>828.1</ele>
      </trkpt>
      <trkpt lat="43.811750" lon="5.410887">
        <ele>828.7</ele>
      </trkpt>
      <trkpt lat="43.811890" lon="5.411223">
        <ele>828.9</ele>
      </trkpt>
      <trkpt lat="43.811882" lon="5.411265">
        <ele>829.5</ele>
      </trkpt>
      <trkpt lat="43.811683" lon="5.411233">
        <ele>830.7</ele>
      </trkpt>
      <trkpt lat="43.811417" lon="5.411094">
        <ele>843.1</ele>
      </trkpt>
      <trkpt lat="43.811139" lon="5.410989">
        <ele>847.1</ele>
      </trkpt>
      <trkpt lat="43.811106" lon="5.411005">
        <ele>847.6</ele>
      </trkpt>
      <trkpt lat="43.811052" lon="5.411215">
        <ele>848.1</ele>
      </trkpt>
      <trkpt lat="43.811038" lon="5.411325">
        <ele>848.4</ele>
      </trkpt>
      <trkpt lat="43.810961" lon="5.411767">
        <ele>852.1</ele>
      </trkpt>
      <trkpt lat="43.810984" lon="5.411839">
        <ele>851.6</ele>
      </trkpt>
      <trkpt lat="43.811414" lon="5.412282">
        <ele>851.8</ele>
      </trkpt>
      <trkpt lat="43.811539" lon="5.412711">
        <ele>853.1</ele>
      </trkpt>
      <trkpt lat="43.811603" lon="5.413092">
        <ele>853.4</ele>
      </trkpt>
      <trkpt lat="43.811551" lon="5.413755">
        <ele>849.8</ele>
      </trkpt>
      <trkpt lat="43.811586" lon="5.414039">
        <ele>850.9</ele>
      </trkpt>
      <trkpt lat="43.811731" lon="5.414302">
        <ele>853.3</ele>
      </trkpt>
      <trkpt lat="43.812012" lon="5.414634">
        <ele>852.7</ele>
      </trkpt>
      <trkpt lat="43.812328" lon="5.415262">
        <ele>852</ele>
      </trkpt>
      <trkpt lat="43.812563" lon="5.415812">
        <ele>857</ele>
      </trkpt>
      <trkpt lat="43.812768" lon="5.416043">
        <ele>856.4</ele>
      </trkpt>
      <trkpt lat="43.812842" lon="5.416316">
        <ele>856.6</ele>
      </trkpt>
      <trkpt lat="43.812836" lon="5.416389">
        <ele>856.8</ele>
      </trkpt>
      <trkpt lat="43.812813" lon="5.416726">
        <ele>861.6</ele>
      </trkpt>
      <trkpt lat="43.812737" lon="5.417335">
        <ele>864.1</ele>
      </trkpt>
      <trkpt lat="43.812585" lon="5.417883">
        <ele>871.3</ele>
      </trkpt>
      <trkpt lat="43.812548" lon="5.418320">
        <ele>870.8</ele>
      </trkpt>
      <trkpt lat="43.812737" lon="5.418907">
        <ele>877.1</ele>
      </trkpt>
      <trkpt lat="43.812956" lon="5.419256">
        <ele>880.9</ele>
      </trkpt>
      <trkpt lat="43.813055" lon="5.419564">
        <ele>882</ele>
      </trkpt>
      <trkpt lat="43.813221" lon="5.420849">
        <ele>889.7</ele>
      </trkpt>
      <trkpt lat="43.813252" lon="5.421157">
        <ele>886.8</ele>
      </trkpt>
      <trkpt lat="43.813308" lon="5.421482">
        <ele>888.4</ele>
      </trkpt>
      <trkpt lat="43.813324" lon="5.421914">
        <ele>891.7</ele>
      </trkpt>
      <trkpt lat="43.813533" lon="5.422767">
        <ele>894</ele>
      </trkpt>
      <trkpt lat="43.813709" lon="5.423089">
        <ele>893.8</ele>
      </trkpt>
      <trkpt lat="43.813764" lon="5.423421">
        <ele>896.7</ele>
      </trkpt>
      <trkpt lat="43.813729" lon="5.423759">
        <ele>897.1</ele>
      </trkpt>
      <trkpt lat="43.813411" lon="5.424569">
        <ele>899.4</ele>
      </trkpt>
      <trkpt lat="43.813272" lon="5.425095">
        <ele>914.3</ele>
      </trkpt>
      <trkpt lat="43.813307" lon="5.425379">
        <ele>920.6</ele>
      </trkpt>
      <trkpt lat="43.813717" lon="5.426248">
        <ele>907.4</ele>
      </trkpt>
      <trkpt lat="43.813767" lon="5.426543">
        <ele>907.2</ele>
      </trkpt>
      <trkpt lat="43.813675" lon="5.427198">
        <ele>910</ele>
      </trkpt>
      <trkpt lat="43.813427" lon="5.428019">
        <ele>905.7</ele>
      </trkpt>
      <trkpt lat="43.813160" lon="5.428367">
        <ele>910.3</ele>
      </trkpt>
      <trkpt lat="43.812684" lon="5.428684">
        <ele>911.9</ele>
      </trkpt>
      <trkpt lat="43.812304" lon="5.428829">
        <ele>923.7</ele>
      </trkpt>
      <trkpt lat="43.812057" lon="5.428888">
        <ele>926.3</ele>
      </trkpt>
      <trkpt lat="43.811892" lon="5.429011">
        <ele>927.6</ele>
      </trkpt>
      <trkpt lat="43.811628" lon="5.429242">
        <ele>930.5</ele>
      </trkpt>
      <trkpt lat="43.811483" lon="5.429499">
        <ele>930.6</ele>
      </trkpt>
      <trkpt lat="43.811386" lon="5.429773">
        <ele>929.1</ele>
      </trkpt>
      <trkpt lat="43.811247" lon="5.430312">
        <ele>923.5</ele>
      </trkpt>
      <trkpt lat="43.811160" lon="5.430518">
        <ele>923.7</ele>
      </trkpt>
      <trkpt lat="43.810999" lon="5.430730">
        <ele>925.9</ele>
      </trkpt>
      <trkpt lat="43.810854" lon="5.430880">
        <ele>927.3</ele>
      </trkpt>
      <trkpt lat="43.810533" lon="5.430993">
        <ele>928.4</ele>
      </trkpt>
      <trkpt lat="43.810450" lon="5.431143">
        <ele>928.3</ele>
      </trkpt>
      <trkpt lat="43.810306" lon="5.431530">
        <ele>929.7</ele>
      </trkpt>
      <trkpt lat="43.810275" lon="5.431758">
        <ele>932.9</ele>
      </trkpt>
      <trkpt lat="43.810301" lon="5.432503">
        <ele>937.9</ele>
      </trkpt>
      <trkpt lat="43.810287" lon="5.433254">
        <ele>939.4</ele>
      </trkpt>
      <trkpt lat="43.810326" lon="5.434448">
        <ele>940</ele>
      </trkpt>
      <trkpt lat="43.810376" lon="5.434590">
        <ele>939.8</ele>
      </trkpt>
      <trkpt lat="43.810730" lon="5.435041">
        <ele>942.8</ele>
      </trkpt>
      <trkpt lat="43.810980" lon="5.435580">
        <ele>946.3</ele>
      </trkpt>
      <trkpt lat="43.811375" lon="5.436156">
        <ele>949.9</ele>
      </trkpt>
      <trkpt lat="43.811547" lon="5.436484">
        <ele>952.1</ele>
      </trkpt>
      <trkpt lat="43.811657" lon="5.436789">
        <ele>955.7</ele>
      </trkpt>
      <trkpt lat="43.811714" lon="5.437130">
        <ele>954.1</ele>
      </trkpt>
      <trkpt lat="43.811700" lon="5.437361">
        <ele>957.7</ele>
      </trkpt>
      <trkpt lat="43.811619" lon="5.437522">
        <ele>963.1</ele>
      </trkpt>
      <trkpt lat="43.811510" lon="5.437616">
        <ele>963.2</ele>
      </trkpt>
      <trkpt lat="43.811431" lon="5.437691">
        <ele>963.3</ele>
      </trkpt>
      <trkpt lat="43.811166" lon="5.437932">
        <ele>963.7</ele>
      </trkpt>
      <trkpt lat="43.810703" lon="5.438289">
        <ele>963.9</ele>
      </trkpt>
      <trkpt lat="43.810577" lon="5.438369">
        <ele>965.4</ele>
      </trkpt>
      <trkpt lat="43.810461" lon="5.438506">
        <ele>965</ele>
      </trkpt>
      <trkpt lat="43.810417" lon="5.438643">
        <ele>964.7</ele>
      </trkpt>
      <trkpt lat="43.810415" lon="5.438742">
        <ele>964.5</ele>
      </trkpt>
      <trkpt lat="43.810475" lon="5.438887">
        <ele>964.3</ele>
      </trkpt>
      <trkpt lat="43.811023" lon="5.439466">
        <ele>961.4</ele>
      </trkpt>
      <trkpt lat="43.811481" lon="5.439869">
        <ele>960.1</ele>
      </trkpt>
      <trkpt lat="43.812439" lon="5.439973">
        <ele>955.1</ele>
      </trkpt>
      <trkpt lat="43.812586" lon="5.440040">
        <ele>953.1</ele>
      </trkpt>
      <trkpt lat="43.812641" lon="5.440110">
        <ele>952.5</ele>
      </trkpt>
      <trkpt lat="43.813152" lon="5.440949">
        <ele>948.5</ele>
      </trkpt>
      <trkpt lat="43.813558" lon="5.441210">
        <ele>952.5</ele>
      </trkpt>
      <trkpt lat="43.813713" lon="5.441253">
        <ele>952.6</ele>
      </trkpt>
      <trkpt lat="43.814535" lon="5.441084">
        <ele>955.8</ele>
      </trkpt>
      <trkpt lat="43.814874" lon="5.441043">
        <ele>956.3</ele>
      </trkpt>
      <trkpt lat="43.815062" lon="5.441046">
        <ele>955.5</ele>
      </trkpt>
      <trkpt lat="43.815230" lon="5.441108">
        <ele>954.4</ele>
      </trkpt>
      <trkpt lat="43.815403" lon="5.441269">
        <ele>953.5</ele>
      </trkpt>
      <trkpt lat="43.815561" lon="5.441435">
        <ele>953.5</ele>
      </trkpt>
      <trkpt lat="43.815697" lon="5.441690">
        <ele>953.7</ele>
      </trkpt>
      <trkpt lat="43.815753" lon="5.441934">
        <ele>953.3</ele>
      </trkpt>
      <trkpt lat="43.815815" lon="5.442218">
        <ele>954</ele>
      </trkpt>
      <trkpt lat="43.815912" lon="5.442540">
        <ele>959</ele>
      </trkpt>
      <trkpt lat="43.816102" lon="5.442701">
        <ele>960.6</ele>
      </trkpt>
      <trkpt lat="43.816284" lon="5.442867">
        <ele>961.8</ele>
      </trkpt>
      <trkpt lat="43.816396" lon="5.442980">
        <ele>962.9</ele>
      </trkpt>
      <trkpt lat="43.816539" lon="5.443221">
        <ele>966.7</ele>
      </trkpt>
      <trkpt lat="43.816744" lon="5.443404">
        <ele>972</ele>
      </trkpt>
      <trkpt lat="43.817031" lon="5.443962">
        <ele>972.4</ele>
      </trkpt>
      <trkpt lat="43.817348" lon="5.444718">
        <ele>978.1</ele>
      </trkpt>
      <trkpt lat="43.817449" lon="5.445083">
        <ele>981.8</ele>
      </trkpt>
      <trkpt lat="43.817561" lon="5.445206">
        <ele>982.2</ele>
      </trkpt>
      <trkpt lat="43.817956" lon="5.445555">
        <ele>981.3</ele>
      </trkpt>
      <trkpt lat="43.818153" lon="5.445716">
        <ele>982.2</ele>
      </trkpt>
      <trkpt lat="43.818157" lon="5.445984">
        <ele>979</ele>
      </trkpt>
      <trkpt lat="43.818176" lon="5.446290">
        <ele>976.2</ele>
      </trkpt>
      <trkpt lat="43.818215" lon="5.446510">
        <ele>974.8</ele>
      </trkpt>
      <trkpt lat="43.818250" lon="5.446923">
        <ele>964.4</ele>
      </trkpt>
      <trkpt lat="43.818323" lon="5.447529">
        <ele>955.4</ele>
      </trkpt>
      <trkpt lat="43.818370" lon="5.447792">
        <ele>951.5</ele>
      </trkpt>
      <trkpt lat="43.818410" lon="5.447950">
        <ele>949.9</ele>
      </trkpt>
      <trkpt lat="43.818509" lon="5.447988">
        <ele>949.4</ele>
      </trkpt>
      <trkpt lat="43.818658" lon="5.448124">
        <ele>948.3</ele>
      </trkpt>
      <trkpt lat="43.818720" lon="5.448213">
        <ele>947.6</ele>
      </trkpt>
      <trkpt lat="43.818894" lon="5.448218">
        <ele>946.4</ele>
      </trkpt>
      <trkpt lat="43.819058" lon="5.448360">
        <ele>943.1</ele>
      </trkpt>
      <trkpt lat="43.819266" lon="5.448468">
        <ele>939.5</ele>
      </trkpt>
      <trkpt lat="43.819399" lon="5.448521">
        <ele>938.8</ele>
      </trkpt>
      <trkpt lat="43.819486" lon="5.448575">
        <ele>938.3</ele>
      </trkpt>
      <trkpt lat="43.819523" lon="5.448562">
        <ele>937.8</ele>
      </trkpt>
      <trkpt lat="43.819536" lon="5.448524">
        <ele>937.4</ele>
      </trkpt>
      <trkpt lat="43.819447" lon="5.448363">
        <ele>937.7</ele>
      </trkpt>
      <trkpt lat="43.819387" lon="5.448309">
        <ele>937</ele>
      </trkpt>
      <trkpt lat="43.819384" lon="5.448242">
        <ele>937.1</ele>
      </trkpt>
      <trkpt lat="43.819436" lon="5.448194">
        <ele>936.5</ele>
      </trkpt>
      <trkpt lat="43.819585" lon="5.448221">
        <ele>934.2</ele>
      </trkpt>
      <trkpt lat="43.819693" lon="5.448283">
        <ele>931.8</ele>
      </trkpt>
      <trkpt lat="43.819908" lon="5.448275">
        <ele>925.7</ele>
      </trkpt>
      <trkpt lat="43.820059" lon="5.448202">
        <ele>918.7</ele>
      </trkpt>
      <trkpt lat="43.820400" lon="5.448208">
        <ele>915.3</ele>
      </trkpt>
      <trkpt lat="43.820500" lon="5.448108">
        <ele>914.3</ele>
      </trkpt>
      <trkpt lat="43.820556" lon="5.448103">
        <ele>913.7</ele>
      </trkpt>
      <trkpt lat="43.821193" lon="5.447752">
        <ele>900</ele>
      </trkpt>
      <trkpt lat="43.821290" lon="5.447682">
        <ele>898.3</ele>
      </trkpt>
      <trkpt lat="43.821450" lon="5.447604">
        <ele>894.4</ele>
      </trkpt>
      <trkpt lat="43.821675" lon="5.447365">
        <ele>881.3</ele>
      </trkpt>
      <trkpt lat="43.821884" lon="5.447298">
        <ele>879.7</ele>
      </trkpt>
      <trkpt lat="43.822195" lon="5.447011">
        <ele>875.8</ele>
      </trkpt>
      <trkpt lat="43.822610" lon="5.446730">
        <ele>862</ele>
      </trkpt>
      <trkpt lat="43.822670" lon="5.446668">
        <ele>862.1</ele>
      </trkpt>
      <trkpt lat="43.822939" lon="5.446601">
        <ele>854.7</ele>
      </trkpt>
      <trkpt lat="43.823122" lon="5.446456">
        <ele>852.7</ele>
      </trkpt>
      <trkpt lat="43.823422" lon="5.446295">
        <ele>845.1</ele>
      </trkpt>
      <trkpt lat="43.823529" lon="5.446215">
        <ele>844.6</ele>
      </trkpt>
      <trkpt lat="43.823682" lon="5.446121">
        <ele>843.8</ele>
      </trkpt>
      <trkpt lat="43.823765" lon="5.445973">
        <ele>842.3</ele>
      </trkpt>
      <trkpt lat="43.823906" lon="5.445874">
        <ele>840</ele>
      </trkpt>
      <trkpt lat="43.824051" lon="5.445579">
        <ele>832.4</ele>
      </trkpt>
      <trkpt lat="43.824253" lon="5.445276">
        <ele>824.5</ele>
      </trkpt>
      <trkpt lat="43.824622" lon="5.444815">
        <ele>811.6</ele>
      </trkpt>
      <trkpt lat="43.824731" lon="5.444702">
        <ele>810.5</ele>
      </trkpt>
      <trkpt lat="43.824978" lon="5.444351">
        <ele>803.2</ele>
      </trkpt>
      <trkpt lat="43.825019" lon="5.444152">
        <ele>795</ele>
      </trkpt>
      <trkpt lat="43.825038" lon="5.443943">
        <ele>794.1</ele>
      </trkpt>
      <trkpt lat="43.825123" lon="5.443728">
        <ele>792.4</ele>
      </trkpt>
      <trkpt lat="43.825164" lon="5.443578">
        <ele>790.8</ele>
      </trkpt>
      <trkpt lat="43.825385" lon="5.443318">
        <ele>787.4</ele>
      </trkpt>
      <trkpt lat="43.825408" lon="5.443272">
        <ele>787.4</ele>
      </trkpt>
      <trkpt lat="43.825781" lon="5.443044">
        <ele>786.6</ele>
      </trkpt>
      <trkpt lat="43.826168" lon="5.442843">
        <ele>779.5</ele>
      </trkpt>
      <trkpt lat="43.826468" lon="5.442725">
        <ele>777.4</ele>
      </trkpt>
      <trkpt lat="43.826640" lon="5.442682">
        <ele>776</ele>
      </trkpt>
      <trkpt lat="43.826840" lon="5.442739">
        <ele>768.1</ele>
      </trkpt>
      <trkpt lat="43.826929" lon="5.442806">
        <ele>767</ele>
      </trkpt>
      <trkpt lat="43.827024" lon="5.442773">
        <ele>766.2</ele>
      </trkpt>
      <trkpt lat="43.827111" lon="5.442822">
        <ele>765.2</ele>
      </trkpt>
      <trkpt lat="43.827205" lon="5.442921">
        <ele>763.9</ele>
      </trkpt>
      <trkpt lat="43.827664" lon="5.443184">
        <ele>747</ele>
      </trkpt>
      <trkpt lat="43.827956" lon="5.443291">
        <ele>741.4</ele>
      </trkpt>
      <trkpt lat="43.828355" lon="5.443275">
        <ele>725.6</ele>
      </trkpt>
      <trkpt lat="43.828703" lon="5.443444">
        <ele>719.5</ele>
      </trkpt>
      <trkpt lat="43.829235" lon="5.443629">
        <ele>704.3</ele>
      </trkpt>
      <trkpt lat="43.829518" lon="5.443750">
        <ele>701.8</ele>
      </trkpt>
      <trkpt lat="43.829684" lon="5.443707">
        <ele>700.4</ele>
      </trkpt>
      <trkpt lat="43.829790" lon="5.443731">
        <ele>699.5</ele>
      </trkpt>
      <trkpt lat="43.830253" lon="5.443642">
        <ele>691.6</ele>
      </trkpt>
      <trkpt lat="43.830433" lon="5.443728">
        <ele>691</ele>
      </trkpt>
      <trkpt lat="43.830532" lon="5.443817">
        <ele>690.5</ele>
      </trkpt>
      <trkpt lat="43.830837" lon="5.443712">
        <ele>687.1</ele>
      </trkpt>
      <trkpt lat="43.831054" lon="5.443621">
        <ele>687.1</ele>
      </trkpt>
      <trkpt lat="43.831240" lon="5.443680">
        <ele>686.5</ele>
      </trkpt>
      <trkpt lat="43.831623" lon="5.443774">
        <ele>685.4</ele>
      </trkpt>
      <trkpt lat="43.831857" lon="5.443750">
        <ele>679.8</ele>
      </trkpt>
      <trkpt lat="43.831985" lon="5.443693">
        <ele>679.2</ele>
      </trkpt>
      <trkpt lat="43.832234" lon="5.443498">
        <ele>676.6</ele>
      </trkpt>
      <trkpt lat="43.832366" lon="5.443414">
        <ele>674.2</ele>
      </trkpt>
      <trkpt lat="43.832498" lon="5.443404">
        <ele>672.1</ele>
      </trkpt>
      <trkpt lat="43.832614" lon="5.443404">
        <ele>669</ele>
      </trkpt>
      <trkpt lat="43.833030" lon="5.443240">
        <ele>666.6</ele>
      </trkpt>
      <trkpt lat="43.833097" lon="5.443240">
        <ele>665.6</ele>
      </trkpt>
      <trkpt lat="43.833208" lon="5.443168">
        <ele>664.7</ele>
      </trkpt>
      <trkpt lat="43.833575" lon="5.443009">
        <ele>655.9</ele>
      </trkpt>
      <trkpt lat="43.833765" lon="5.442969">
        <ele>654.7</ele>
      </trkpt>
      <trkpt lat="43.833939" lon="5.442991">
        <ele>653.7</ele>
      </trkpt>
      <trkpt lat="43.834115" lon="5.443034">
        <ele>653</ele>
      </trkpt>
      <trkpt lat="43.834200" lon="5.443034">
        <ele>648.9</ele>
      </trkpt>
      <trkpt lat="43.834291" lon="5.442975">
        <ele>648.5</ele>
      </trkpt>
      <trkpt lat="43.834398" lon="5.442940">
        <ele>648.3</ele>
      </trkpt>
      <trkpt lat="43.834502" lon="5.442921">
        <ele>648.1</ele>
      </trkpt>
      <trkpt lat="43.834686" lon="5.442902">
        <ele>647.9</ele>
      </trkpt>
      <trkpt lat="43.834763" lon="5.442881">
        <ele>647.9</ele>
      </trkpt>
      <trkpt lat="43.834901" lon="5.442918">
        <ele>647.7</ele>
      </trkpt>
      <trkpt lat="43.835117" lon="5.442916">
        <ele>645.1</ele>
      </trkpt>
      <trkpt lat="43.835467" lon="5.442870">
        <ele>644.4</ele>
      </trkpt>
      <trkpt lat="43.835580" lon="5.442883">
        <ele>644</ele>
      </trkpt>
      <trkpt lat="43.835719" lon="5.442870">
        <ele>643.8</ele>
      </trkpt>
      <trkpt lat="43.835930" lon="5.442910">
        <ele>639.1</ele>
      </trkpt>
      <trkpt lat="43.836377" lon="5.442849">
        <ele>637.6</ele>
      </trkpt>
      <trkpt lat="43.836460" lon="5.442851">
        <ele>637.3</ele>
      </trkpt>
      <trkpt lat="43.836493" lon="5.442916">
        <ele>636.8</ele>
      </trkpt>
      <trkpt lat="43.837182" lon="5.443031">
        <ele>629</ele>
      </trkpt>
      <trkpt lat="43.837483" lon="5.442948">
        <ele>628.5</ele>
      </trkpt>
      <trkpt lat="43.838128" lon="5.442798">
        <ele>623</ele>
      </trkpt>
      <trkpt lat="43.838420" lon="5.442733">
        <ele>618.9</ele>
      </trkpt>
      <trkpt lat="43.838596" lon="5.442768">
        <ele>617.1</ele>
      </trkpt>
      <trkpt lat="43.838896" lon="5.442744">
        <ele>615.1</ele>
      </trkpt>
      <trkpt lat="43.839205" lon="5.442704">
        <ele>609.9</ele>
      </trkpt>
      <trkpt lat="43.839358" lon="5.442674">
        <ele>609.2</ele>
      </trkpt>
      <trkpt lat="43.839590" lon="5.442760">
        <ele>607.3</ele>
      </trkpt>
      <trkpt lat="43.839757" lon="5.442773">
        <ele>606.1</ele>
      </trkpt>
      <trkpt lat="43.840585" lon="5.442650">
        <ele>596.9</ele>
      </trkpt>
      <trkpt lat="43.841165" lon="5.442666">
        <ele>593</ele>
      </trkpt>
      <trkpt lat="43.841241" lon="5.442653">
        <ele>593</ele>
      </trkpt>
      <trkpt lat="43.841595" lon="5.442398">
        <ele>590.9</ele>
      </trkpt>
      <trkpt lat="43.841718" lon="5.442344">
        <ele>592.6</ele>
      </trkpt>
      <trkpt lat="43.841875" lon="5.442323">
        <ele>593.5</ele>
      </trkpt>
      <trkpt lat="43.841995" lon="5.442355">
        <ele>594.3</ele>
      </trkpt>
      <trkpt lat="43.842223" lon="5.442296">
        <ele>595.9</ele>
      </trkpt>
      <trkpt lat="43.842287" lon="5.442135">
        <ele>595.7</ele>
      </trkpt>
      <trkpt lat="43.842355" lon="5.441947">
        <ele>595.6</ele>
      </trkpt>
      <trkpt lat="43.842604" lon="5.441617">
        <ele>599.1</ele>
      </trkpt>
      <trkpt lat="43.842875" lon="5.441344">
        <ele>602.4</ele>
      </trkpt>
      <trkpt lat="43.843320" lon="5.440896">
        <ele>606.8</ele>
      </trkpt>
      <trkpt lat="43.843378" lon="5.440799">
        <ele>607.9</ele>
      </trkpt>
      <trkpt lat="43.843583" lon="5.440598">
        <ele>607.6</ele>
      </trkpt>
      <trkpt lat="43.844383" lon="5.440168">
        <ele>613.1</ele>
      </trkpt>
      <trkpt lat="43.844396" lon="5.440161">
        <ele>613.2</ele>
      </trkpt>
      <trkpt lat="43.844479" lon="5.440078">
        <ele>613.4</ele>
      </trkpt>
      <trkpt lat="43.844506" lon="5.440115">
        <ele>613.8</ele>
      </trkpt>
      <trkpt lat="43.844485" lon="5.440169">
        <ele>613.9</ele>
      </trkpt>
      <trkpt lat="43.843893" lon="5.440681">
        <ele>610.5</ele>
      </trkpt>
      <trkpt lat="43.843777" lon="5.440912">
        <ele>615.4</ele>
      </trkpt>
      <trkpt lat="43.843367" lon="5.442232">
        <ele>620.8</ele>
      </trkpt>
      <trkpt lat="43.843119" lon="5.443138">
        <ele>615.6</ele>
      </trkpt>
      <trkpt lat="43.843105" lon="5.443565">
        <ele>616.3</ele>
      </trkpt>
      <trkpt lat="43.843082" lon="5.444147">
        <ele>616.4</ele>
      </trkpt>
      <trkpt lat="43.842931" lon="5.444866">
        <ele>615.8</ele>
      </trkpt>
      <trkpt lat="43.842854" lon="5.445440">
        <ele>617.3</ele>
      </trkpt>
      <trkpt lat="43.842869" lon="5.445855">
        <ele>617.8</ele>
      </trkpt>
      <trkpt lat="43.842910" lon="5.446196">
        <ele>617.8</ele>
      </trkpt>
      <trkpt lat="43.842935" lon="5.446290">
        <ele>617.7</ele>
      </trkpt>
      <trkpt lat="43.842985" lon="5.446284">
        <ele>617.8</ele>
      </trkpt>
      <trkpt lat="43.843013" lon="5.446341">
        <ele>617.6</ele>
      </trkpt>
      <trkpt lat="43.843094" lon="5.446545">
        <ele>616.8</ele>
      </trkpt>
      <trkpt lat="43.843191" lon="5.446660">
        <ele>615.8</ele>
      </trkpt>
      <trkpt lat="43.843409" lon="5.447092">
        <ele>610.2</ele>
      </trkpt>
      <trkpt lat="43.843663" lon="5.447352">
        <ele>608.7</ele>
      </trkpt>
      <trkpt lat="43.843815" lon="5.447454">
        <ele>606.5</ele>
      </trkpt>
      <trkpt lat="43.843928" lon="5.447518">
        <ele>604.4</ele>
      </trkpt>
      <trkpt lat="43.844023" lon="5.447577">
        <ele>602.8</ele>
      </trkpt>
      <trkpt lat="43.844119" lon="5.447609">
        <ele>601.6</ele>
      </trkpt>
      <trkpt lat="43.844158" lon="5.447561">
        <ele>600.1</ele>
      </trkpt>
      <trkpt lat="43.844162" lon="5.447491">
        <ele>598.4</ele>
      </trkpt>
      <trkpt lat="43.844239" lon="5.447373">
        <ele>597.6</ele>
      </trkpt>
      <trkpt lat="43.844464" lon="5.447132">
        <ele>597.5</ele>
      </trkpt>
      <trkpt lat="43.844576" lon="5.446950">
        <ele>598.1</ele>
      </trkpt>
      <trkpt lat="43.844646" lon="5.446794">
        <ele>598.8</ele>
      </trkpt>
      <trkpt lat="43.844758" lon="5.446628">
        <ele>607.6</ele>
      </trkpt>
      <trkpt lat="43.844843" lon="5.446488">
        <ele>608.2</ele>
      </trkpt>
      <trkpt lat="43.845002" lon="5.446478">
        <ele>607.1</ele>
      </trkpt>
      <trkpt lat="43.845241" lon="5.446397">
        <ele>609.3</ele>
      </trkpt>
      <trkpt lat="43.845419" lon="5.446376">
        <ele>609.7</ele>
      </trkpt>
      <trkpt lat="43.845718" lon="5.446343">
        <ele>609.3</ele>
      </trkpt>
      <trkpt lat="43.845895" lon="5.446402">
        <ele>606.4</ele>
      </trkpt>
      <trkpt lat="43.846085" lon="5.446376">
        <ele>607.1</ele>
      </trkpt>
      <trkpt lat="43.846240" lon="5.446419">
        <ele>606.4</ele>
      </trkpt>
      <trkpt lat="43.846588" lon="5.446397">
        <ele>604.6</ele>
      </trkpt>
      <trkpt lat="43.846739" lon="5.446461">
        <ele>602.2</ele>
      </trkpt>
      <trkpt lat="43.846886" lon="5.446413">
        <ele>604.3</ele>
      </trkpt>
      <trkpt lat="43.846994" lon="5.446435">
        <ele>604.6</ele>
      </trkpt>
      <trkpt lat="43.847288" lon="5.446349">
        <ele>606</ele>
      </trkpt>
      <trkpt lat="43.847632" lon="5.446258">
        <ele>607.4</ele>
      </trkpt>
      <trkpt lat="43.848097" lon="5.446038">
        <ele>608.6</ele>
      </trkpt>
      <trkpt lat="43.848278" lon="5.445769">
        <ele>612.2</ele>
      </trkpt>
      <trkpt lat="43.848565" lon="5.445582">
        <ele>609.8</ele>
      </trkpt>
      <trkpt lat="43.848731" lon="5.445426">
        <ele>609.3</ele>
      </trkpt>
      <trkpt lat="43.848867" lon="5.444729">
        <ele>608.5</ele>
      </trkpt>
      <trkpt lat="43.848936" lon="5.444632">
        <ele>608.4</ele>
      </trkpt>
      <trkpt lat="43.849052" lon="5.444262">
        <ele>607.4</ele>
      </trkpt>
      <trkpt lat="43.849190" lon="5.443993">
        <ele>605.5</ele>
      </trkpt>
      <trkpt lat="43.849460" lon="5.443725">
        <ele>605</ele>
      </trkpt>
      <trkpt lat="43.849690" lon="5.443392">
        <ele>604.2</ele>
      </trkpt>
      <trkpt lat="43.849820" lon="5.443210">
        <ele>603.3</ele>
      </trkpt>
      <trkpt lat="43.849860" lon="5.442910">
        <ele>603.4</ele>
      </trkpt>
      <trkpt lat="43.849960" lon="5.442738">
        <ele>602.9</ele>
      </trkpt>
      <trkpt lat="43.850130" lon="5.442652">
        <ele>599.9</ele>
      </trkpt>
      <trkpt lat="43.850490" lon="5.442555">
        <ele>598.5</ele>
      </trkpt>
      <trkpt lat="43.850710" lon="5.442448">
        <ele>596.9</ele>
      </trkpt>
      <trkpt lat="43.850820" lon="5.442330">
        <ele>596.9</ele>
      </trkpt>
      <trkpt lat="43.851648" lon="5.441894">
        <ele>592.7</ele>
      </trkpt>
      <trkpt lat="43.851648" lon="5.441894">
        <ele>592.7</ele>
      </trkpt>
      <trkpt lat="43.851673" lon="5.441881">
        <ele>590.7</ele>
      </trkpt>
      <trkpt lat="43.851920" lon="5.441751">
        <ele>590.3</ele>
      </trkpt>
      <trkpt lat="43.852250" lon="5.441815">
        <ele>589.1</ele>
      </trkpt>
      <trkpt lat="43.852500" lon="5.441847">
        <ele>588.7</ele>
      </trkpt>
      <trkpt lat="43.853090" lon="5.441815">
        <ele>585</ele>
      </trkpt>
      <trkpt lat="43.853270" lon="5.441740">
        <ele>584.9</ele>
      </trkpt>
      <trkpt lat="43.853420" lon="5.441622">
        <ele>584.2</ele>
      </trkpt>
      <trkpt lat="43.853800" lon="5.441289">
        <ele>582.6</ele>
      </trkpt>
      <trkpt lat="43.854170" lon="5.440860">
        <ele>580.7</ele>
      </trkpt>
      <trkpt lat="43.854320" lon="5.440871">
        <ele>579.7</ele>
      </trkpt>
      <trkpt lat="43.854510" lon="5.441021">
        <ele>578.7</ele>
      </trkpt>
      <trkpt lat="43.854610" lon="5.441021">
        <ele>578.4</ele>
      </trkpt>
      <trkpt lat="43.854650" lon="5.440989">
        <ele>578.4</ele>
      </trkpt>
      <trkpt lat="43.854700" lon="5.440903">
        <ele>578.5</ele>
      </trkpt>
      <trkpt lat="43.854750" lon="5.440710">
        <ele>579.1</ele>
      </trkpt>
      <trkpt lat="43.854920" lon="5.440174">
        <ele>577.6</ele>
      </trkpt>
      <trkpt lat="43.855030" lon="5.439766">
        <ele>574.7</ele>
      </trkpt>
      <trkpt lat="43.855260" lon="5.438940">
        <ele>573.1</ele>
      </trkpt>
      <trkpt lat="43.855390" lon="5.438822">
        <ele>572.7</ele>
      </trkpt>
      <trkpt lat="43.856040" lon="5.438457">
        <ele>567.5</ele>
      </trkpt>
      <trkpt lat="43.856220" lon="5.438361">
        <ele>566.2</ele>
      </trkpt>
      <trkpt lat="43.857221" lon="5.437093">
        <ele>552.8</ele>
      </trkpt>
      <trkpt lat="43.857241" lon="5.437068">
        <ele>552.6</ele>
      </trkpt>
      <trkpt lat="43.857330" lon="5.436955">
        <ele>552</ele>
      </trkpt>
      <trkpt lat="43.857475" lon="5.436751">
        <ele>549.6</ele>
      </trkpt>
      <trkpt lat="43.857600" lon="5.436655">
        <ele>544.9</ele>
      </trkpt>
      <trkpt lat="43.858111" lon="5.435448">
        <ele>540.3</ele>
      </trkpt>
      <trkpt lat="43.858108" lon="5.435137">
        <ele>540.6</ele>
      </trkpt>
      <trkpt lat="43.858081" lon="5.434815">
        <ele>542.6</ele>
      </trkpt>
      <trkpt lat="43.858019" lon="5.434429">
        <ele>543.7</ele>
      </trkpt>
      <trkpt lat="43.858541" lon="5.434123">
        <ele>538.3</ele>
      </trkpt>
      <trkpt lat="43.858740" lon="5.433943">
        <ele>535.8</ele>
      </trkpt>
      <trkpt lat="43.859050" lon="5.433670">
        <ele>534.6</ele>
      </trkpt>
      <trkpt lat="43.859250" lon="5.433492">
        <ele>526.4</ele>
      </trkpt>
      <trkpt lat="43.859220" lon="5.433621">
        <ele>523.9</ele>
      </trkpt>
      <trkpt lat="43.859030" lon="5.433820">
        <ele>533.4</ele>
      </trkpt>
      <trkpt lat="43.858900" lon="5.434018">
        <ele>532.8</ele>
      </trkpt>
      <trkpt lat="43.858760" lon="5.434201">
        <ele>529.8</ele>
      </trkpt>
      <trkpt lat="43.858731" lon="5.434338">
        <ele>529.9</ele>
      </trkpt>
      <trkpt lat="43.858797" lon="5.434493">
        <ele>528.4</ele>
      </trkpt>
      <trkpt lat="43.858882" lon="5.434842">
        <ele>524.8</ele>
      </trkpt>
      <trkpt lat="43.858920" lon="5.434705">
        <ele>525.4</ele>
      </trkpt>
      <trkpt lat="43.859000" lon="5.434378">
        <ele>526</ele>
      </trkpt>
      <trkpt lat="43.859030" lon="5.434260">
        <ele>525.2</ele>
      </trkpt>
      <trkpt lat="43.859322" lon="5.433801">
        <ele>520.9</ele>
      </trkpt>
      <trkpt lat="43.859651" lon="5.433619">
        <ele>519.3</ele>
      </trkpt>
      <trkpt lat="43.859984" lon="5.433539">
        <ele>518.3</ele>
      </trkpt>
      <trkpt lat="43.860108" lon="5.433565">
        <ele>504.2</ele>
      </trkpt>
      <trkpt lat="43.860220" lon="5.433476">
        <ele>503.5</ele>
      </trkpt>
      <trkpt lat="43.860250" lon="5.433412">
        <ele>503.4</ele>
      </trkpt>
      <trkpt lat="43.860310" lon="5.433294">
        <ele>511.2</ele>
      </trkpt>
      <trkpt lat="43.860330" lon="5.433203">
        <ele>510.9</ele>
      </trkpt>
      <trkpt lat="43.860380" lon="5.433101">
        <ele>510.2</ele>
      </trkpt>
      <trkpt lat="43.860390" lon="5.433032">
        <ele>510.5</ele>
      </trkpt>
      <trkpt lat="43.860460" lon="5.432983">
        <ele>509.6</ele>
      </trkpt>
      <trkpt lat="43.860480" lon="5.432887">
        <ele>510.2</ele>
      </trkpt>
      <trkpt lat="43.860490" lon="5.432769">
        <ele>511.1</ele>
      </trkpt>
      <trkpt lat="43.860590" lon="5.432667">
        <ele>510.2</ele>
      </trkpt>
      <trkpt lat="43.860650" lon="5.432635">
        <ele>509.5</ele>
      </trkpt>
      <trkpt lat="43.860700" lon="5.432484">
        <ele>513.6</ele>
      </trkpt>
      <trkpt lat="43.860720" lon="5.432340">
        <ele>515.6</ele>
      </trkpt>
      <trkpt lat="43.860770" lon="5.432248">
        <ele>517</ele>
      </trkpt>
      <trkpt lat="43.860890" lon="5.432211">
        <ele>505.1</ele>
      </trkpt>
      <trkpt lat="43.860950" lon="5.432114">
        <ele>505.4</ele>
      </trkpt>
      <trkpt lat="43.861040" lon="5.431964">
        <ele>506.3</ele>
      </trkpt>
      <trkpt lat="43.861130" lon="5.431808">
        <ele>506.5</ele>
      </trkpt>
      <trkpt lat="43.861220" lon="5.431605">
        <ele>507.8</ele>
      </trkpt>
      <trkpt lat="43.861280" lon="5.431497">
        <ele>506.2</ele>
      </trkpt>
      <trkpt lat="43.861320" lon="5.431465">
        <ele>505.4</ele>
      </trkpt>
      <trkpt lat="43.861430" lon="5.431497">
        <ele>503</ele>
      </trkpt>
      <trkpt lat="43.861480" lon="5.431487">
        <ele>502</ele>
      </trkpt>
      <trkpt lat="43.861530" lon="5.431422">
        <ele>501.9</ele>
      </trkpt>
      <trkpt lat="43.861600" lon="5.431401">
        <ele>501.3</ele>
      </trkpt>
      <trkpt lat="43.861650" lon="5.431374">
        <ele>501.2</ele>
      </trkpt>
      <trkpt lat="43.861741" lon="5.431253">
        <ele>488.9</ele>
      </trkpt>
      <trkpt lat="43.861766" lon="5.431189">
        <ele>489</ele>
      </trkpt>
      <trkpt lat="43.861819" lon="5.431157">
        <ele>488.9</ele>
      </trkpt>
      <trkpt lat="43.861848" lon="5.431082">
        <ele>489.1</ele>
      </trkpt>
      <trkpt lat="43.861856" lon="5.430894">
        <ele>490.4</ele>
      </trkpt>
      <trkpt lat="43.861844" lon="5.430459">
        <ele>490.6</ele>
      </trkpt>
      <trkpt lat="43.861783" lon="5.429977">
        <ele>488.3</ele>
      </trkpt>
    </trkseg>
  </trk>
</gpx>