<?xml version="1.0" ?>
<gpx xmlns="http://www.topografix.com/GPX/1/1" xmlns:xsi="http://www.w3.org/2001/XMLSchema-instance" xsi:schemaLocation="http://www.topografix.com/GPX/1/1 http://www.topografix.com/GPX/1/1/gpx.xsd" version="1.1" creator="EditGPX">
  <trk>
    <name>NewTrack</name>
    <trkseg>
      <trkpt lat="43.858243" lon="5.202375">
        <ele>129.8</ele>
      </trkpt>
      <trkpt lat="43.858034" lon="5.202386">
        <ele>128.3</ele>
      </trkpt>
      <trkpt lat="43.857963" lon="5.202388">
        <ele>127.9</ele>
      </trkpt>
      <trkpt lat="43.857831" lon="5.202386">
        <ele>127.2</ele>
      </trkpt>
      <trkpt lat="43.857593" lon="5.202338">
        <ele>126.2</ele>
      </trkpt>
      <trkpt lat="43.857558" lon="5.202426">
        <ele>125.7</ele>
      </trkpt>
      <trkpt lat="43.857578" lon="5.202482">
        <ele>125.7</ele>
      </trkpt>
      <trkpt lat="43.857628" lon="5.202555">
        <ele>126.3</ele>
      </trkpt>
      <trkpt lat="43.857665" lon="5.202630">
        <ele>126.7</ele>
      </trkpt>
      <trkpt lat="43.857678" lon="5.202895">
        <ele>127.1</ele>
      </trkpt>
      <trkpt lat="43.857669" lon="5.203365">
        <ele>125.9</ele>
      </trkpt>
      <trkpt lat="43.857672" lon="5.203620">
        <ele>126.7</ele>
      </trkpt>
      <trkpt lat="43.857719" lon="5.203963">
        <ele>126.9</ele>
      </trkpt>
      <trkpt lat="43.857808" lon="5.204317">
        <ele>127.5</ele>
      </trkpt>
      <trkpt lat="43.857814" lon="5.204499">
        <ele>127.6</ele>
      </trkpt>
      <trkpt lat="43.857826" lon="5.205824">
        <ele>126.4</ele>
      </trkpt>
      <trkpt lat="43.857829" lon="5.206144">
        <ele>127.3</ele>
      </trkpt>
      <trkpt lat="43.857821" lon="5.206377">
        <ele>127.6</ele>
      </trkpt>
      <trkpt lat="43.857798" lon="5.206803">
        <ele>129.2</ele>
      </trkpt>
      <trkpt lat="43.857827" lon="5.207399">
        <ele>130.1</ele>
      </trkpt>
      <trkpt lat="43.857825" lon="5.207702">
        <ele>131.7</ele>
      </trkpt>
      <trkpt lat="43.857796" lon="5.207935">
        <ele>131.8</ele>
      </trkpt>
      <trkpt lat="43.858034" lon="5.209131">
        <ele>135</ele>
      </trkpt>
      <trkpt lat="43.858104" lon="5.209480">
        <ele>133</ele>
      </trkpt>
      <trkpt lat="43.858139" lon="5.209714">
        <ele>132.2</ele>
      </trkpt>
      <trkpt lat="43.858183" lon="5.209872">
        <ele>132.2</ele>
      </trkpt>
      <trkpt lat="43.858237" lon="5.210076">
        <ele>131.4</ele>
      </trkpt>
      <trkpt lat="43.858552" lon="5.211039">
        <ele>136.1</ele>
      </trkpt>
      <trkpt lat="43.858607" lon="5.211264">
        <ele>136.9</ele>
      </trkpt>
      <trkpt lat="43.858844" lon="5.211808">
        <ele>136.9</ele>
      </trkpt>
      <trkpt lat="43.859106" lon="5.212645">
        <ele>136.4</ele>
      </trkpt>
      <trkpt lat="43.859227" lon="5.212688">
        <ele>141</ele>
      </trkpt>
      <trkpt lat="43.859251" lon="5.212747">
        <ele>141.4</ele>
      </trkpt>
      <trkpt lat="43.859523" lon="5.213654">
        <ele>138.4</ele>
      </trkpt>
      <trkpt lat="43.859750" lon="5.214354">
        <ele>137.1</ele>
      </trkpt>
      <trkpt lat="43.860305" lon="5.216221">
        <ele>139.4</ele>
      </trkpt>
      <trkpt lat="43.860384" lon="5.216486">
        <ele>139.3</ele>
      </trkpt>
      <trkpt lat="43.860749" lon="5.217696">
        <ele>136.2</ele>
      </trkpt>
      <trkpt lat="43.860848" lon="5.218117">
        <ele>146.1</ele>
      </trkpt>
      <trkpt lat="43.860947" lon="5.218659">
        <ele>147</ele>
      </trkpt>
      <trkpt lat="43.861030" lon="5.219321">
        <ele>145.2</ele>
      </trkpt>
      <trkpt lat="43.861061" lon="5.219927">
        <ele>145.7</ele>
      </trkpt>
      <trkpt lat="43.861061" lon="5.220579">
        <ele>145</ele>
      </trkpt>
      <trkpt lat="43.861028" lon="5.221142">
        <ele>141.6</ele>
      </trkpt>
      <trkpt lat="43.861014" lon="5.221319">
        <ele>141.2</ele>
      </trkpt>
      <trkpt lat="43.860964" lon="5.221749">
        <ele>139.4</ele>
      </trkpt>
      <trkpt lat="43.860877" lon="5.222186">
        <ele>142.4</ele>
      </trkpt>
      <trkpt lat="43.860676" lon="5.223052">
        <ele>142.9</ele>
      </trkpt>
      <trkpt lat="43.860523" lon="5.223516">
        <ele>146.3</ele>
      </trkpt>
      <trkpt lat="43.860328" lon="5.224012">
        <ele>145</ele>
      </trkpt>
      <trkpt lat="43.859922" lon="5.224849">
        <ele>139.4</ele>
      </trkpt>
      <trkpt lat="43.859093" lon="5.226538">
        <ele>140.8</ele>
      </trkpt>
      <trkpt lat="43.859013" lon="5.226700">
        <ele>141.8</ele>
      </trkpt>
      <trkpt lat="43.858721" lon="5.227309">
        <ele>141.5</ele>
      </trkpt>
      <trkpt lat="43.858311" lon="5.228119">
        <ele>137.9</ele>
      </trkpt>
      <trkpt lat="43.858026" lon="5.228706">
        <ele>135.8</ele>
      </trkpt>
      <trkpt lat="43.857273" lon="5.230243">
        <ele>136.7</ele>
      </trkpt>
      <trkpt lat="43.857026" lon="5.230747">
        <ele>137.9</ele>
      </trkpt>
      <trkpt lat="43.856615" lon="5.231555">
        <ele>139.2</ele>
      </trkpt>
      <trkpt lat="43.856442" lon="5.231893">
        <ele>139.4</ele>
      </trkpt>
      <trkpt lat="43.855914" lon="5.233026">
        <ele>139.5</ele>
      </trkpt>
      <trkpt lat="43.855881" lon="5.233097">
        <ele>139.6</ele>
      </trkpt>
      <trkpt lat="43.855661" lon="5.233604">
        <ele>140</ele>
      </trkpt>
      <trkpt lat="43.855491" lon="5.234108">
        <ele>140</ele>
      </trkpt>
      <trkpt lat="43.855276" lon="5.234835">
        <ele>139.3</ele>
      </trkpt>
      <trkpt lat="43.855137" lon="5.235398">
        <ele>138.8</ele>
      </trkpt>
      <trkpt lat="43.854990" lon="5.236208">
        <ele>140.2</ele>
      </trkpt>
      <trkpt lat="43.854601" lon="5.238289">
        <ele>141.6</ele>
      </trkpt>
      <trkpt lat="43.854398" lon="5.239373">
        <ele>142.6</ele>
      </trkpt>
      <trkpt lat="43.854352" lon="5.239620">
        <ele>142.8</ele>
      </trkpt>
      <trkpt lat="43.854329" lon="5.239781">
        <ele>143</ele>
      </trkpt>
      <trkpt lat="43.854008" lon="5.241412">
        <ele>149.4</ele>
      </trkpt>
      <trkpt lat="43.853780" lon="5.242620">
        <ele>146.4</ele>
      </trkpt>
      <trkpt lat="43.853575" lon="5.243704">
        <ele>145.9</ele>
      </trkpt>
      <trkpt lat="43.853371" lon="5.244787">
        <ele>146</ele>
      </trkpt>
      <trkpt lat="43.853166" lon="5.245870">
        <ele>145.9</ele>
      </trkpt>
      <trkpt lat="43.853072" lon="5.246369">
        <ele>145.6</ele>
      </trkpt>
      <trkpt lat="43.852753" lon="5.248034">
        <ele>144</ele>
      </trkpt>
      <trkpt lat="43.852546" lon="5.249116">
        <ele>146.6</ele>
      </trkpt>
      <trkpt lat="43.852356" lon="5.250108">
        <ele>149.5</ele>
      </trkpt>
      <trkpt lat="43.852233" lon="5.250692">
        <ele>150.3</ele>
      </trkpt>
      <trkpt lat="43.851930" lon="5.252364">
        <ele>150.4</ele>
      </trkpt>
      <trkpt lat="43.851769" lon="5.253254">
        <ele>151.2</ele>
      </trkpt>
      <trkpt lat="43.851696" lon="5.253769">
        <ele>151.2</ele>
      </trkpt>
      <trkpt lat="43.851677" lon="5.253997">
        <ele>151.5</ele>
      </trkpt>
      <trkpt lat="43.851626" lon="5.254702">
        <ele>152.6</ele>
      </trkpt>
      <trkpt lat="43.851590" lon="5.256030">
        <ele>153.1</ele>
      </trkpt>
      <trkpt lat="43.851624" lon="5.256880">
        <ele>152.4</ele>
      </trkpt>
      <trkpt lat="43.851553" lon="5.256894">
        <ele>152.4</ele>
      </trkpt>
      <trkpt lat="43.851516" lon="5.256934">
        <ele>152.5</ele>
      </trkpt>
      <trkpt lat="43.851520" lon="5.257047">
        <ele>152.4</ele>
      </trkpt>
      <trkpt lat="43.851570" lon="5.257433">
        <ele>151.6</ele>
      </trkpt>
      <trkpt lat="43.851593" lon="5.257647">
        <ele>151.5</ele>
      </trkpt>
      <trkpt lat="43.851621" lon="5.257910">
        <ele>151.6</ele>
      </trkpt>
      <trkpt lat="43.851576" lon="5.258130">
        <ele>151.6</ele>
      </trkpt>
      <trkpt lat="43.851408" lon="5.258672">
        <ele>151.9</ele>
      </trkpt>
      <trkpt lat="43.851238" lon="5.259270">
        <ele>152.3</ele>
      </trkpt>
      <trkpt lat="43.851081" lon="5.259718">
        <ele>152.8</ele>
      </trkpt>
      <trkpt lat="43.850990" lon="5.259911">
        <ele>153.2</ele>
      </trkpt>
      <trkpt lat="43.850762" lon="5.260319">
        <ele>154</ele>
      </trkpt>
      <trkpt lat="43.849992" lon="5.261591">
        <ele>156</ele>
      </trkpt>
      <trkpt lat="43.849884" lon="5.261770">
        <ele>156.8</ele>
      </trkpt>
      <trkpt lat="43.849677" lon="5.262111">
        <ele>158.3</ele>
      </trkpt>
      <trkpt lat="43.849367" lon="5.262671">
        <ele>159.8</ele>
      </trkpt>
      <trkpt lat="43.849253" lon="5.262953">
        <ele>159.9</ele>
      </trkpt>
      <trkpt lat="43.849102" lon="5.263505">
        <ele>163.1</ele>
      </trkpt>
      <trkpt lat="43.848982" lon="5.263934">
        <ele>163.2</ele>
      </trkpt>
      <trkpt lat="43.848657" lon="5.264774">
        <ele>162.5</ele>
      </trkpt>
      <trkpt lat="43.848568" lon="5.265045">
        <ele>161.5</ele>
      </trkpt>
      <trkpt lat="43.848400" lon="5.265638">
        <ele>161.4</ele>
      </trkpt>
      <trkpt lat="43.848330" lon="5.266115">
        <ele>164.1</ele>
      </trkpt>
      <trkpt lat="43.848301" lon="5.266418">
        <ele>164.3</ele>
      </trkpt>
      <trkpt lat="43.848324" lon="5.266571">
        <ele>163.7</ele>
      </trkpt>
      <trkpt lat="43.848295" lon="5.266764">
        <ele>163.9</ele>
      </trkpt>
      <trkpt lat="43.848063" lon="5.267778">
        <ele>166.4</ele>
      </trkpt>
      <trkpt lat="43.847686" lon="5.267751">
        <ele>169.3</ele>
      </trkpt>
      <trkpt lat="43.847547" lon="5.267735">
        <ele>170</ele>
      </trkpt>
      <trkpt lat="43.847404" lon="5.267681">
        <ele>177.3</ele>
      </trkpt>
      <trkpt lat="43.847270" lon="5.267590">
        <ele>178.1</ele>
      </trkpt>
      <trkpt lat="43.847175" lon="5.267427">
        <ele>173.8</ele>
      </trkpt>
      <trkpt lat="43.847145" lon="5.267335">
        <ele>173.8</ele>
      </trkpt>
      <trkpt lat="43.847023" lon="5.267263">
        <ele>174.3</ele>
      </trkpt>
      <trkpt lat="43.846903" lon="5.267285">
        <ele>175.2</ele>
      </trkpt>
      <trkpt lat="43.846413" lon="5.267499">
        <ele>182.5</ele>
      </trkpt>
      <trkpt lat="43.846291" lon="5.267542">
        <ele>190.7</ele>
      </trkpt>
      <trkpt lat="43.846206" lon="5.267569">
        <ele>191.7</ele>
      </trkpt>
      <trkpt lat="43.846146" lon="5.267561">
        <ele>192.1</ele>
      </trkpt>
      <trkpt lat="43.846094" lon="5.267494">
        <ele>186.3</ele>
      </trkpt>
      <trkpt lat="43.845924" lon="5.267185">
        <ele>185.6</ele>
      </trkpt>
      <trkpt lat="43.845887" lon="5.267252">
        <ele>186.6</ele>
      </trkpt>
      <trkpt lat="43.845889" lon="5.267327">
        <ele>187.8</ele>
      </trkpt>
      <trkpt lat="43.845963" lon="5.267539">
        <ele>192.9</ele>
      </trkpt>
      <trkpt lat="43.845980" lon="5.267660">
        <ele>193.2</ele>
      </trkpt>
      <trkpt lat="43.845928" lon="5.267859">
        <ele>194.5</ele>
      </trkpt>
      <trkpt lat="43.845889" lon="5.268044">
        <ele>196.4</ele>
      </trkpt>
      <trkpt lat="43.845821" lon="5.268199">
        <ele>203.1</ele>
      </trkpt>
      <trkpt lat="43.845790" lon="5.268210">
        <ele>203.2</ele>
      </trkpt>
      <trkpt lat="43.845742" lon="5.268196">
        <ele>203.5</ele>
      </trkpt>
      <trkpt lat="43.845692" lon="5.268084">
        <ele>203.8</ele>
      </trkpt>
      <trkpt lat="43.845500" lon="5.267880">
        <ele>204.5</ele>
      </trkpt>
      <trkpt lat="43.845415" lon="5.267770">
        <ele>204.9</ele>
      </trkpt>
      <trkpt lat="43.845386" lon="5.267652">
        <ele>204.9</ele>
      </trkpt>
      <trkpt lat="43.845371" lon="5.267553">
        <ele>205</ele>
      </trkpt>
      <trkpt lat="43.845347" lon="5.267529">
        <ele>205.3</ele>
      </trkpt>
      <trkpt lat="43.845303" lon="5.267531">
        <ele>205.9</ele>
      </trkpt>
      <trkpt lat="43.845268" lon="5.267572">
        <ele>206.4</ele>
      </trkpt>
      <trkpt lat="43.845268" lon="5.267690">
        <ele>206.4</ele>
      </trkpt>
      <trkpt lat="43.845320" lon="5.267832">
        <ele>206.1</ele>
      </trkpt>
      <trkpt lat="43.845351" lon="5.267960">
        <ele>206.3</ele>
      </trkpt>
      <trkpt lat="43.845347" lon="5.268060">
        <ele>206.8</ele>
      </trkpt>
      <trkpt lat="43.845311" lon="5.268156">
        <ele>207.7</ele>
      </trkpt>
      <trkpt lat="43.845268" lon="5.268140">
        <ele>208.1</ele>
      </trkpt>
      <trkpt lat="43.845164" lon="5.268146">
        <ele>209.5</ele>
      </trkpt>
      <trkpt lat="43.845069" lon="5.268121">
        <ele>210.1</ele>
      </trkpt>
      <trkpt lat="43.844974" lon="5.268188">
        <ele>216.3</ele>
      </trkpt>
      <trkpt lat="43.844895" lon="5.268231">
        <ele>216.4</ele>
      </trkpt>
      <trkpt lat="43.844825" lon="5.268301">
        <ele>216.7</ele>
      </trkpt>
      <trkpt lat="43.844794" lon="5.268368">
        <ele>218.4</ele>
      </trkpt>
      <trkpt lat="43.844759" lon="5.268513">
        <ele>219</ele>
      </trkpt>
      <trkpt lat="43.844668" lon="5.268634">
        <ele>219.7</ele>
      </trkpt>
      <trkpt lat="43.844531" lon="5.268695">
        <ele>220.5</ele>
      </trkpt>
      <trkpt lat="43.844181" lon="5.268905">
        <ele>222.5</ele>
      </trkpt>
      <trkpt lat="43.843436" lon="5.269009">
        <ele>230.2</ele>
      </trkpt>
      <trkpt lat="43.843279" lon="5.269181">
        <ele>233.4</ele>
      </trkpt>
      <trkpt lat="43.843136" lon="5.269414">
        <ele>234.4</ele>
      </trkpt>
      <trkpt lat="43.843014" lon="5.269524">
        <ele>234.7</ele>
      </trkpt>
      <trkpt lat="43.842929" lon="5.269521">
        <ele>235</ele>
      </trkpt>
      <trkpt lat="43.842794" lon="5.269497">
        <ele>235.4</ele>
      </trkpt>
      <trkpt lat="43.842515" lon="5.269318">
        <ele>236.2</ele>
      </trkpt>
      <trkpt lat="43.842386" lon="5.269269">
        <ele>239</ele>
      </trkpt>
      <trkpt lat="43.842272" lon="5.269243">
        <ele>239.9</ele>
      </trkpt>
      <trkpt lat="43.842074" lon="5.269312">
        <ele>241.4</ele>
      </trkpt>
      <trkpt lat="43.841958" lon="5.269377">
        <ele>242.1</ele>
      </trkpt>
      <trkpt lat="43.841891" lon="5.269481">
        <ele>242.2</ele>
      </trkpt>
      <trkpt lat="43.841446" lon="5.269607">
        <ele>247.7</ele>
      </trkpt>
      <trkpt lat="43.841279" lon="5.269669">
        <ele>248.3</ele>
      </trkpt>
      <trkpt lat="43.841088" lon="5.269637">
        <ele>249.1</ele>
      </trkpt>
      <trkpt lat="43.840865" lon="5.269639">
        <ele>249.7</ele>
      </trkpt>
      <trkpt lat="43.840813" lon="5.269688">
        <ele>253.3</ele>
      </trkpt>
      <trkpt lat="43.840716" lon="5.269733">
        <ele>253.3</ele>
      </trkpt>
      <trkpt lat="43.840616" lon="5.269752">
        <ele>253.5</ele>
      </trkpt>
      <trkpt lat="43.840498" lon="5.269720">
        <ele>254</ele>
      </trkpt>
      <trkpt lat="43.840089" lon="5.269559">
        <ele>255.4</ele>
      </trkpt>
      <trkpt lat="43.839988" lon="5.269556">
        <ele>259.6</ele>
      </trkpt>
      <trkpt lat="43.839886" lon="5.269578">
        <ele>259.8</ele>
      </trkpt>
      <trkpt lat="43.839408" lon="5.269902">
        <ele>261.4</ele>
      </trkpt>
      <trkpt lat="43.839319" lon="5.269991">
        <ele>261.9</ele>
      </trkpt>
      <trkpt lat="43.839184" lon="5.270200">
        <ele>259.4</ele>
      </trkpt>
      <trkpt lat="43.839110" lon="5.270254">
        <ele>263.1</ele>
      </trkpt>
      <trkpt lat="43.839027" lon="5.270264">
        <ele>263.2</ele>
      </trkpt>
      <trkpt lat="43.838716" lon="5.270211">
        <ele>264.4</ele>
      </trkpt>
      <trkpt lat="43.838644" lon="5.270205">
        <ele>264.8</ele>
      </trkpt>
      <trkpt lat="43.838518" lon="5.270246">
        <ele>265.3</ele>
      </trkpt>
      <trkpt lat="43.838416" lon="5.270294">
        <ele>265.4</ele>
      </trkpt>
      <trkpt lat="43.838350" lon="5.270348">
        <ele>265.3</ele>
      </trkpt>
      <trkpt lat="43.837932" lon="5.269996">
        <ele>274</ele>
      </trkpt>
      <trkpt lat="43.837865" lon="5.269964">
        <ele>274.5</ele>
      </trkpt>
      <trkpt lat="43.837716" lon="5.269977">
        <ele>275.7</ele>
      </trkpt>
      <trkpt lat="43.837532" lon="5.270095">
        <ele>275.6</ele>
      </trkpt>
      <trkpt lat="43.837464" lon="5.270095">
        <ele>277.7</ele>
      </trkpt>
      <trkpt lat="43.837071" lon="5.269953">
        <ele>280.6</ele>
      </trkpt>
      <trkpt lat="43.836831" lon="5.269905">
        <ele>281.6</ele>
      </trkpt>
      <trkpt lat="43.836644" lon="5.269830">
        <ele>285.7</ele>
      </trkpt>
      <trkpt lat="43.836394" lon="5.269599">
        <ele>288</ele>
      </trkpt>
      <trkpt lat="43.836309" lon="5.269720">
        <ele>288.5</ele>
      </trkpt>
      <trkpt lat="43.836245" lon="5.269862">
        <ele>289</ele>
      </trkpt>
      <trkpt lat="43.836040" lon="5.270356">
        <ele>288.3</ele>
      </trkpt>
      <trkpt lat="43.835920" lon="5.270535">
        <ele>288.5</ele>
      </trkpt>
      <trkpt lat="43.835105" lon="5.271357">
        <ele>296.5</ele>
      </trkpt>
      <trkpt lat="43.835024" lon="5.271439">
        <ele>296.7</ele>
      </trkpt>
      <trkpt lat="43.834976" lon="5.271394">
        <ele>304.3</ele>
      </trkpt>
      <trkpt lat="43.834899" lon="5.271372">
        <ele>305</ele>
      </trkpt>
      <trkpt lat="43.834682" lon="5.271418">
        <ele>306.5</ele>
      </trkpt>
      <trkpt lat="43.834510" lon="5.271485">
        <ele>307.7</ele>
      </trkpt>
      <trkpt lat="43.834357" lon="5.271651">
        <ele>308</ele>
      </trkpt>
      <trkpt lat="43.833858" lon="5.272528">
        <ele>305.1</ele>
      </trkpt>
      <trkpt lat="43.833749" lon="5.272778">
        <ele>305.9</ele>
      </trkpt>
      <trkpt lat="43.833699" lon="5.272845">
        <ele>306.1</ele>
      </trkpt>
      <trkpt lat="43.833531" lon="5.272982">
        <ele>306.7</ele>
      </trkpt>
      <trkpt lat="43.833389" lon="5.273019">
        <ele>307.2</ele>
      </trkpt>
      <trkpt lat="43.833144" lon="5.272995">
        <ele>316.2</ele>
      </trkpt>
      <trkpt lat="43.833037" lon="5.272880">
        <ele>318.1</ele>
      </trkpt>
      <trkpt lat="43.833004" lon="5.272853">
        <ele>318.6</ele>
      </trkpt>
      <trkpt lat="43.832968" lon="5.272834">
        <ele>319</ele>
      </trkpt>
      <trkpt lat="43.832898" lon="5.272850">
        <ele>319.4</ele>
      </trkpt>
      <trkpt lat="43.832846" lon="5.272898">
        <ele>319.2</ele>
      </trkpt>
      <trkpt lat="43.832811" lon="5.272982">
        <ele>318.3</ele>
      </trkpt>
      <trkpt lat="43.832778" lon="5.272914">
        <ele>319.4</ele>
      </trkpt>
      <trkpt lat="43.832747" lon="5.272877">
        <ele>320.2</ele>
      </trkpt>
      <trkpt lat="43.832161" lon="5.272888">
        <ele>321.1</ele>
      </trkpt>
      <trkpt lat="43.832140" lon="5.272853">
        <ele>321.5</ele>
      </trkpt>
      <trkpt lat="43.832120" lon="5.272770">
        <ele>322.7</ele>
      </trkpt>
      <trkpt lat="43.831989" lon="5.272579">
        <ele>324.5</ele>
      </trkpt>
      <trkpt lat="43.831607" lon="5.272338">
        <ele>327.9</ele>
      </trkpt>
      <trkpt lat="43.831368" lon="5.272045">
        <ele>327.1</ele>
      </trkpt>
      <trkpt lat="43.831259" lon="5.271868">
        <ele>327</ele>
      </trkpt>
      <trkpt lat="43.831290" lon="5.271820">
        <ele>328.1</ele>
      </trkpt>
      <trkpt lat="43.831296" lon="5.271756">
        <ele>328.8</ele>
      </trkpt>
      <trkpt lat="43.831279" lon="5.271710">
        <ele>328.6</ele>
      </trkpt>
      <trkpt lat="43.831131" lon="5.271589">
        <ele>335</ele>
      </trkpt>
      <trkpt lat="43.830930" lon="5.271378">
        <ele>334.3</ele>
      </trkpt>
      <trkpt lat="43.830828" lon="5.271166">
        <ele>328.2</ele>
      </trkpt>
      <trkpt lat="43.830756" lon="5.270916">
        <ele>333.9</ele>
      </trkpt>
      <trkpt lat="43.830717" lon="5.270610">
        <ele>339.1</ele>
      </trkpt>
      <trkpt lat="43.830677" lon="5.269988">
        <ele>346.1</ele>
      </trkpt>
      <trkpt lat="43.830628" lon="5.269339">
        <ele>346.8</ele>
      </trkpt>
      <trkpt lat="43.830586" lon="5.268687">
        <ele>349.6</ele>
      </trkpt>
      <trkpt lat="43.830528" lon="5.267883">
        <ele>351.9</ele>
      </trkpt>
      <trkpt lat="43.830448" lon="5.266692">
        <ele>353.3</ele>
      </trkpt>
      <trkpt lat="43.830387" lon="5.265847">
        <ele>355.5</ele>
      </trkpt>
      <trkpt lat="43.830447" lon="5.265850">
        <ele>355.6</ele>
      </trkpt>
      <trkpt lat="43.830561" lon="5.266013">
        <ele>355.8</ele>
      </trkpt>
      <trkpt lat="43.830886" lon="5.266568">
        <ele>355</ele>
      </trkpt>
      <trkpt lat="43.831012" lon="5.266802">
        <ele>354.9</ele>
      </trkpt>
      <trkpt lat="43.831093" lon="5.267019">
        <ele>355</ele>
      </trkpt>
      <trkpt lat="43.831178" lon="5.267352">
        <ele>355.2</ele>
      </trkpt>
      <trkpt lat="43.831410" lon="5.269122">
        <ele>354.7</ele>
      </trkpt>
      <trkpt lat="43.831478" lon="5.269465">
        <ele>354.3</ele>
      </trkpt>
      <trkpt lat="43.831893" lon="5.270793">
        <ele>356.7</ele>
      </trkpt>
      <trkpt lat="43.832093" lon="5.271359">
        <ele>353.1</ele>
      </trkpt>
      <trkpt lat="43.832124" lon="5.271321">
        <ele>353.4</ele>
      </trkpt>
      <trkpt lat="43.832356" lon="5.270956">
        <ele>355.7</ele>
      </trkpt>
      <trkpt lat="43.832494" lon="5.270782">
        <ele>357.9</ele>
      </trkpt>
      <trkpt lat="43.832577" lon="5.270667">
        <ele>356.9</ele>
      </trkpt>
      <trkpt lat="43.832623" lon="5.270527">
        <ele>356.6</ele>
      </trkpt>
      <trkpt lat="43.832677" lon="5.270466">
        <ele>356.4</ele>
      </trkpt>
      <trkpt lat="43.833006" lon="5.269886">
        <ele>355</ele>
      </trkpt>
      <trkpt lat="43.833115" lon="5.269699">
        <ele>354.5</ele>
      </trkpt>
      <trkpt lat="43.833169" lon="5.269575">
        <ele>354.1</ele>
      </trkpt>
      <trkpt lat="43.833560" lon="5.268980">
        <ele>347.5</ele>
      </trkpt>
      <trkpt lat="43.833672" lon="5.268829">
        <ele>346.5</ele>
      </trkpt>
      <trkpt lat="43.833788" lon="5.268701">
        <ele>345.7</ele>
      </trkpt>
      <trkpt lat="43.833886" lon="5.268569">
        <ele>344.9</ele>
      </trkpt>
      <trkpt lat="43.833960" lon="5.268403">
        <ele>343.7</ele>
      </trkpt>
      <trkpt lat="43.834002" lon="5.268258">
        <ele>340.7</ele>
      </trkpt>
      <trkpt lat="43.834044" lon="5.268073">
        <ele>340.1</ele>
      </trkpt>
      <trkpt lat="43.834044" lon="5.268019">
        <ele>339.8</ele>
      </trkpt>
      <trkpt lat="43.833997" lon="5.267960">
        <ele>339.6</ele>
      </trkpt>
      <trkpt lat="43.833919" lon="5.267963">
        <ele>340.2</ele>
      </trkpt>
      <trkpt lat="43.833838" lon="5.267995">
        <ele>340.9</ele>
      </trkpt>
      <trkpt lat="43.833743" lon="5.268065">
        <ele>342</ele>
      </trkpt>
      <trkpt lat="43.833635" lon="5.268068">
        <ele>343</ele>
      </trkpt>
      <trkpt lat="43.833573" lon="5.268006">
        <ele>343.2</ele>
      </trkpt>
      <trkpt lat="43.833571" lon="5.267950">
        <ele>342.9</ele>
      </trkpt>
      <trkpt lat="43.833608" lon="5.267832">
        <ele>342.1</ele>
      </trkpt>
      <trkpt lat="43.833660" lon="5.267732">
        <ele>341.4</ele>
      </trkpt>
      <trkpt lat="43.833674" lon="5.267555">
        <ele>340.9</ele>
      </trkpt>
      <trkpt lat="43.833828" lon="5.267574">
        <ele>338.5</ele>
      </trkpt>
      <trkpt lat="43.833964" lon="5.267563">
        <ele>335.8</ele>
      </trkpt>
      <trkpt lat="43.834151" lon="5.267574">
        <ele>331.5</ele>
      </trkpt>
      <trkpt lat="43.834283" lon="5.267577">
        <ele>324.4</ele>
      </trkpt>
      <trkpt lat="43.834384" lon="5.267617">
        <ele>322.3</ele>
      </trkpt>
      <trkpt lat="43.834500" lon="5.267740">
        <ele>320.2</ele>
      </trkpt>
      <trkpt lat="43.834562" lon="5.267848">
        <ele>319.7</ele>
      </trkpt>
      <trkpt lat="43.834606" lon="5.268068">
        <ele>320.2</ele>
      </trkpt>
      <trkpt lat="43.834602" lon="5.268272">
        <ele>321.1</ele>
      </trkpt>
      <trkpt lat="43.834660" lon="5.268518">
        <ele>324.6</ele>
      </trkpt>
      <trkpt lat="43.834763" lon="5.268706">
        <ele>323.6</ele>
      </trkpt>
      <trkpt lat="43.834853" lon="5.268872">
        <ele>322.6</ele>
      </trkpt>
      <trkpt lat="43.834897" lon="5.269031">
        <ele>320.6</ele>
      </trkpt>
      <trkpt lat="43.834937" lon="5.269245">
        <ele>318.8</ele>
      </trkpt>
      <trkpt lat="43.834972" lon="5.269497">
        <ele>321.7</ele>
      </trkpt>
      <trkpt lat="43.834912" lon="5.269991">
        <ele>315.8</ele>
      </trkpt>
      <trkpt lat="43.834928" lon="5.270133">
        <ele>314.7</ele>
      </trkpt>
      <trkpt lat="43.835094" lon="5.270267">
        <ele>303.7</ele>
      </trkpt>
      <trkpt lat="43.835160" lon="5.270259">
        <ele>303.2</ele>
      </trkpt>
      <trkpt lat="43.835183" lon="5.270195">
        <ele>303.6</ele>
      </trkpt>
      <trkpt lat="43.835318" lon="5.270020">
        <ele>302.6</ele>
      </trkpt>
      <trkpt lat="43.835460" lon="5.269776">
        <ele>303.3</ele>
      </trkpt>
      <trkpt lat="43.835642" lon="5.269583">
        <ele>301.7</ele>
      </trkpt>
      <trkpt lat="43.836065" lon="5.269167">
        <ele>291.1</ele>
      </trkpt>
      <trkpt lat="43.836143" lon="5.269023">
        <ele>289.5</ele>
      </trkpt>
      <trkpt lat="43.836236" lon="5.268918">
        <ele>288.5</ele>
      </trkpt>
      <trkpt lat="43.836508" lon="5.268717">
        <ele>286.8</ele>
      </trkpt>
      <trkpt lat="43.836729" lon="5.268639">
        <ele>281.1</ele>
      </trkpt>
      <trkpt lat="43.836746" lon="5.268298">
        <ele>281.2</ele>
      </trkpt>
      <trkpt lat="43.836806" lon="5.267813">
        <ele>277.3</ele>
      </trkpt>
      <trkpt lat="43.836802" lon="5.267499">
        <ele>275</ele>
      </trkpt>
      <trkpt lat="43.836752" lon="5.267188">
        <ele>273.6</ele>
      </trkpt>
      <trkpt lat="43.836705" lon="5.267070">
        <ele>273.2</ele>
      </trkpt>
      <trkpt lat="43.836505" lon="5.266737">
        <ele>275.8</ele>
      </trkpt>
      <trkpt lat="43.836469" lon="5.266606">
        <ele>276.1</ele>
      </trkpt>
      <trkpt lat="43.836463" lon="5.266493">
        <ele>276.6</ele>
      </trkpt>
      <trkpt lat="43.836500" lon="5.266327">
        <ele>277.1</ele>
      </trkpt>
      <trkpt lat="43.836640" lon="5.266104">
        <ele>276.9</ele>
      </trkpt>
      <trkpt lat="43.836961" lon="5.265756">
        <ele>273</ele>
      </trkpt>
      <trkpt lat="43.837166" lon="5.265498">
        <ele>272.1</ele>
      </trkpt>
      <trkpt lat="43.836237" lon="5.264801">
        <ele>283.3</ele>
      </trkpt>
      <trkpt lat="43.836176" lon="5.264744">
        <ele>283.6</ele>
      </trkpt>
      <trkpt lat="43.836158" lon="5.264656">
        <ele>283.7</ele>
      </trkpt>
      <trkpt lat="43.836156" lon="5.264136">
        <ele>283.5</ele>
      </trkpt>
      <trkpt lat="43.836059" lon="5.263004">
        <ele>282</ele>
      </trkpt>
      <trkpt lat="43.836061" lon="5.262116">
        <ele>282.2</ele>
      </trkpt>
      <trkpt lat="43.836139" lon="5.261247">
        <ele>281.5</ele>
      </trkpt>
      <trkpt lat="43.836150" lon="5.260957">
        <ele>281.1</ele>
      </trkpt>
      <trkpt lat="43.836201" lon="5.260684">
        <ele>279.1</ele>
      </trkpt>
      <trkpt lat="43.836326" lon="5.260056">
        <ele>277.4</ele>
      </trkpt>
      <trkpt lat="43.836342" lon="5.259919">
        <ele>275.9</ele>
      </trkpt>
      <trkpt lat="43.836338" lon="5.259675">
        <ele>276</ele>
      </trkpt>
      <trkpt lat="43.836315" lon="5.259281">
        <ele>275.8</ele>
      </trkpt>
      <trkpt lat="43.836336" lon="5.259037">
        <ele>275.6</ele>
      </trkpt>
      <trkpt lat="43.836437" lon="5.258465">
        <ele>274.8</ele>
      </trkpt>
      <trkpt lat="43.836508" lon="5.258251">
        <ele>274.8</ele>
      </trkpt>
      <trkpt lat="43.836992" lon="5.257481">
        <ele>270.8</ele>
      </trkpt>
      <trkpt lat="43.837149" lon="5.257221">
        <ele>270.7</ele>
      </trkpt>
      <trkpt lat="43.837344" lon="5.256722">
        <ele>270.1</ele>
      </trkpt>
      <trkpt lat="43.837383" lon="5.256617">
        <ele>270.2</ele>
      </trkpt>
      <trkpt lat="43.837584" lon="5.256279">
        <ele>267.3</ele>
      </trkpt>
      <trkpt lat="43.837781" lon="5.255869">
        <ele>267.2</ele>
      </trkpt>
      <trkpt lat="43.837820" lon="5.255676">
        <ele>267.4</ele>
      </trkpt>
      <trkpt lat="43.837837" lon="5.255539">
        <ele>267.4</ele>
      </trkpt>
      <trkpt lat="43.837890" lon="5.255306">
        <ele>267.3</ele>
      </trkpt>
      <trkpt lat="43.837992" lon="5.255115">
        <ele>267.2</ele>
      </trkpt>
      <trkpt lat="43.838104" lon="5.254759">
        <ele>266.9</ele>
      </trkpt>
      <trkpt lat="43.838166" lon="5.254544">
        <ele>266.5</ele>
      </trkpt>
      <trkpt lat="43.838300" lon="5.253957">
        <ele>265.3</ele>
      </trkpt>
      <trkpt lat="43.838311" lon="5.253812">
        <ele>265.4</ele>
      </trkpt>
      <trkpt lat="43.838257" lon="5.253557">
        <ele>264.8</ele>
      </trkpt>
      <trkpt lat="43.838242" lon="5.253415">
        <ele>263.9</ele>
      </trkpt>
      <trkpt lat="43.838248" lon="5.253283">
        <ele>263.5</ele>
      </trkpt>
      <trkpt lat="43.838397" lon="5.252943">
        <ele>259.1</ele>
      </trkpt>
      <trkpt lat="43.838722" lon="5.252092">
        <ele>256.6</ele>
      </trkpt>
      <trkpt lat="43.838849" lon="5.251642">
        <ele>255.8</ele>
      </trkpt>
      <trkpt lat="43.838915" lon="5.251443">
        <ele>255.5</ele>
      </trkpt>
      <trkpt lat="43.838944" lon="5.251406">
        <ele>255.3</ele>
      </trkpt>
      <trkpt lat="43.839000" lon="5.251379">
        <ele>255</ele>
      </trkpt>
      <trkpt lat="43.839043" lon="5.251162">
        <ele>254.6</ele>
      </trkpt>
      <trkpt lat="43.839000" lon="5.250877">
        <ele>253.3</ele>
      </trkpt>
      <trkpt lat="43.838969" lon="5.250633">
        <ele>255.7</ele>
      </trkpt>
      <trkpt lat="43.838983" lon="5.250108">
        <ele>255.5</ele>
      </trkpt>
      <trkpt lat="43.838992" lon="5.249491">
        <ele>260.4</ele>
      </trkpt>
      <trkpt lat="43.839006" lon="5.249247">
        <ele>259.3</ele>
      </trkpt>
      <trkpt lat="43.838952" lon="5.248431">
        <ele>265.1</ele>
      </trkpt>
      <trkpt lat="43.838878" lon="5.247919">
        <ele>270.2</ele>
      </trkpt>
      <trkpt lat="43.838853" lon="5.247396">
        <ele>276.9</ele>
      </trkpt>
      <trkpt lat="43.838859" lon="5.247163">
        <ele>278.9</ele>
      </trkpt>
      <trkpt lat="43.838822" lon="5.247039">
        <ele>280.5</ele>
      </trkpt>
      <trkpt lat="43.838832" lon="5.246940">
        <ele>281</ele>
      </trkpt>
      <trkpt lat="43.839296" lon="5.245882">
        <ele>285.2</ele>
      </trkpt>
      <trkpt lat="43.839397" lon="5.245652">
        <ele>289.5</ele>
      </trkpt>
      <trkpt lat="43.839424" lon="5.245430">
        <ele>290</ele>
      </trkpt>
      <trkpt lat="43.839401" lon="5.245210">
        <ele>292</ele>
      </trkpt>
      <trkpt lat="43.839416" lon="5.244987">
        <ele>297.1</ele>
      </trkpt>
      <trkpt lat="43.839461" lon="5.244821">
        <ele>296.6</ele>
      </trkpt>
      <trkpt lat="43.839540" lon="5.244738">
        <ele>296.1</ele>
      </trkpt>
      <trkpt lat="43.839654" lon="5.244510">
        <ele>295.9</ele>
      </trkpt>
      <trkpt lat="43.839797" lon="5.244384">
        <ele>296</ele>
      </trkpt>
      <trkpt lat="43.839948" lon="5.244277">
        <ele>296.4</ele>
      </trkpt>
      <trkpt lat="43.840095" lon="5.244113">
        <ele>295.6</ele>
      </trkpt>
      <trkpt lat="43.840190" lon="5.244016">
        <ele>294.5</ele>
      </trkpt>
      <trkpt lat="43.840465" lon="5.243858">
        <ele>293.3</ele>
      </trkpt>
      <trkpt lat="43.840544" lon="5.243775">
        <ele>293.2</ele>
      </trkpt>
      <trkpt lat="43.840660" lon="5.243603">
        <ele>293.6</ele>
      </trkpt>
      <trkpt lat="43.840921" lon="5.243378">
        <ele>291.7</ele>
      </trkpt>
      <trkpt lat="43.841248" lon="5.243182">
        <ele>291.6</ele>
      </trkpt>
      <trkpt lat="43.841370" lon="5.243064">
        <ele>291.3</ele>
      </trkpt>
      <trkpt lat="43.841680" lon="5.242627">
        <ele>289</ele>
      </trkpt>
      <trkpt lat="43.841883" lon="5.242378">
        <ele>291.2</ele>
      </trkpt>
      <trkpt lat="43.842024" lon="5.242198">
        <ele>290</ele>
      </trkpt>
      <trkpt lat="43.842107" lon="5.242158">
        <ele>289.5</ele>
      </trkpt>
      <trkpt lat="43.842283" lon="5.242050">
        <ele>289.1</ele>
      </trkpt>
      <trkpt lat="43.842411" lon="5.242002">
        <ele>289.1</ele>
      </trkpt>
      <trkpt lat="43.842610" lon="5.241919">
        <ele>281.7</ele>
      </trkpt>
      <trkpt lat="43.842701" lon="5.241865">
        <ele>281.4</ele>
      </trkpt>
      <trkpt lat="43.842780" lon="5.241795">
        <ele>281</ele>
      </trkpt>
      <trkpt lat="43.842881" lon="5.241753">
        <ele>279.7</ele>
      </trkpt>
      <trkpt lat="43.842924" lon="5.241707">
        <ele>279.3</ele>
      </trkpt>
      <trkpt lat="43.843016" lon="5.241511">
        <ele>285.4</ele>
      </trkpt>
      <trkpt lat="43.843090" lon="5.241297">
        <ele>286</ele>
      </trkpt>
      <trkpt lat="43.843094" lon="5.241189">
        <ele>286.5</ele>
      </trkpt>
      <trkpt lat="43.843189" lon="5.240784">
        <ele>288.3</ele>
      </trkpt>
      <trkpt lat="43.843231" lon="5.240701">
        <ele>288.3</ele>
      </trkpt>
      <trkpt lat="43.843301" lon="5.240645">
        <ele>288.3</ele>
      </trkpt>
      <trkpt lat="43.843537" lon="5.240559">
        <ele>286.8</ele>
      </trkpt>
      <trkpt lat="43.843827" lon="5.240395">
        <ele>286.4</ele>
      </trkpt>
      <trkpt lat="43.844229" lon="5.240124">
        <ele>285.4</ele>
      </trkpt>
      <trkpt lat="43.844520" lon="5.239998">
        <ele>285.3</ele>
      </trkpt>
      <trkpt lat="43.844814" lon="5.239929">
        <ele>284.7</ele>
      </trkpt>
      <trkpt lat="43.844978" lon="5.239905">
        <ele>284.7</ele>
      </trkpt>
      <trkpt lat="43.845100" lon="5.239907">
        <ele>283.1</ele>
      </trkpt>
      <trkpt lat="43.845158" lon="5.239947">
        <ele>282.8</ele>
      </trkpt>
      <trkpt lat="43.845508" lon="5.239955">
        <ele>280.2</ele>
      </trkpt>
      <trkpt lat="43.846075" lon="5.239931">
        <ele>276.9</ele>
      </trkpt>
      <trkpt lat="43.846181" lon="5.239907">
        <ele>276.6</ele>
      </trkpt>
      <trkpt lat="43.846259" lon="5.239864">
        <ele>276.4</ele>
      </trkpt>
      <trkpt lat="43.846348" lon="5.239795">
        <ele>276.3</ele>
      </trkpt>
      <trkpt lat="43.846425" lon="5.239840">
        <ele>275.6</ele>
      </trkpt>
      <trkpt lat="43.846570" lon="5.239870">
        <ele>274.3</ele>
      </trkpt>
      <trkpt lat="43.846903" lon="5.239862">
        <ele>273.5</ele>
      </trkpt>
      <trkpt lat="43.847334" lon="5.239870">
        <ele>271.7</ele>
      </trkpt>
      <trkpt lat="43.847458" lon="5.239725">
        <ele>273</ele>
      </trkpt>
      <trkpt lat="43.847613" lon="5.239666">
        <ele>269.5</ele>
      </trkpt>
      <trkpt lat="43.847868" lon="5.239628">
        <ele>268.6</ele>
      </trkpt>
      <trkpt lat="43.848328" lon="5.239462">
        <ele>268.8</ele>
      </trkpt>
      <trkpt lat="43.848555" lon="5.239306">
        <ele>258.8</ele>
      </trkpt>
      <trkpt lat="43.848684" lon="5.239086">
        <ele>264.3</ele>
      </trkpt>
      <trkpt lat="43.848800" lon="5.238813">
        <ele>263</ele>
      </trkpt>
      <trkpt lat="43.849007" lon="5.238330">
        <ele>263.4</ele>
      </trkpt>
      <trkpt lat="43.849075" lon="5.238035">
        <ele>265</ele>
      </trkpt>
      <trkpt lat="43.849143" lon="5.237796">
        <ele>265.7</ele>
      </trkpt>
      <trkpt lat="43.849212" lon="5.237587">
        <ele>258.6</ele>
      </trkpt>
      <trkpt lat="43.849402" lon="5.237102">
        <ele>255</ele>
      </trkpt>
      <trkpt lat="43.849566" lon="5.236702">
        <ele>253.5</ele>
      </trkpt>
      <trkpt lat="43.849723" lon="5.236340">
        <ele>252.3</ele>
      </trkpt>
      <trkpt lat="43.849769" lon="5.236275">
        <ele>251.9</ele>
      </trkpt>
      <trkpt lat="43.849791" lon="5.236104">
        <ele>251.6</ele>
      </trkpt>
      <trkpt lat="43.849797" lon="5.235921">
        <ele>250.6</ele>
      </trkpt>
      <trkpt lat="43.849818" lon="5.235718">
        <ele>249.9</ele>
      </trkpt>
      <trkpt lat="43.849889" lon="5.235254">
        <ele>250.2</ele>
      </trkpt>
      <trkpt lat="43.849874" lon="5.235058">
        <ele>248.9</ele>
      </trkpt>
      <trkpt lat="43.849891" lon="5.234929">
        <ele>247.8</ele>
      </trkpt>
      <trkpt lat="43.849903" lon="5.234765">
        <ele>248.5</ele>
      </trkpt>
      <trkpt lat="43.849920" lon="5.234610">
        <ele>248.7</ele>
      </trkpt>
      <trkpt lat="43.849945" lon="5.234519">
        <ele>248.4</ele>
      </trkpt>
      <trkpt lat="43.850056" lon="5.234376">
        <ele>234.2</ele>
      </trkpt>
      <trkpt lat="43.850087" lon="5.234250">
        <ele>237.3</ele>
      </trkpt>
      <trkpt lat="43.850079" lon="5.233588">
        <ele>230.4</ele>
      </trkpt>
      <trkpt lat="43.850058" lon="5.233408">
        <ele>233.8</ele>
      </trkpt>
      <trkpt lat="43.850017" lon="5.233298">
        <ele>235</ele>
      </trkpt>
      <trkpt lat="43.849934" lon="5.233175">
        <ele>236.7</ele>
      </trkpt>
      <trkpt lat="43.849489" lon="5.232856">
        <ele>236.6</ele>
      </trkpt>
      <trkpt lat="43.849398" lon="5.232756">
        <ele>237</ele>
      </trkpt>
      <trkpt lat="43.849355" lon="5.232587">
        <ele>237.4</ele>
      </trkpt>
      <trkpt lat="43.849344" lon="5.232408">
        <ele>233.4</ele>
      </trkpt>
      <trkpt lat="43.849307" lon="5.232190">
        <ele>231.7</ele>
      </trkpt>
      <trkpt lat="43.849301" lon="5.231987">
        <ele>231</ele>
      </trkpt>
      <trkpt lat="43.849294" lon="5.231692">
        <ele>233</ele>
      </trkpt>
      <trkpt lat="43.849340" lon="5.231434">
        <ele>229</ele>
      </trkpt>
      <trkpt lat="43.849377" lon="5.231155">
        <ele>228</ele>
      </trkpt>
      <trkpt lat="43.849392" lon="5.231000">
        <ele>228.6</ele>
      </trkpt>
      <trkpt lat="43.849443" lon="5.230804">
        <ele>228.5</ele>
      </trkpt>
      <trkpt lat="43.849590" lon="5.230495">
        <ele>225.9</ele>
      </trkpt>
      <trkpt lat="43.849845" lon="5.229972">
        <ele>223.6</ele>
      </trkpt>
      <trkpt lat="43.849885" lon="5.229884">
        <ele>223.6</ele>
      </trkpt>
      <trkpt lat="43.849998" lon="5.229610">
        <ele>224.2</ele>
      </trkpt>
      <trkpt lat="43.850247" lon="5.229173">
        <ele>216.9</ele>
      </trkpt>
      <trkpt lat="43.850359" lon="5.229068">
        <ele>218.5</ele>
      </trkpt>
      <trkpt lat="43.850738" lon="5.228422">
        <ele>217.9</ele>
      </trkpt>
      <trkpt lat="43.850849" lon="5.228178">
        <ele>213.4</ele>
      </trkpt>
      <trkpt lat="43.850909" lon="5.227977">
        <ele>211.2</ele>
      </trkpt>
      <trkpt lat="43.850961" lon="5.227663">
        <ele>213.1</ele>
      </trkpt>
      <trkpt lat="43.851063" lon="5.227076">
        <ele>213</ele>
      </trkpt>
      <trkpt lat="43.851127" lon="5.226912">
        <ele>212.8</ele>
      </trkpt>
      <trkpt lat="43.851172" lon="5.226874">
        <ele>212.4</ele>
      </trkpt>
      <trkpt lat="43.851313" lon="5.226738">
        <ele>210.9</ele>
      </trkpt>
      <trkpt lat="43.851508" lon="5.226477">
        <ele>210.6</ele>
      </trkpt>
      <trkpt lat="43.851700" lon="5.226121">
        <ele>203.2</ele>
      </trkpt>
      <trkpt lat="43.851824" lon="5.225936">
        <ele>204.6</ele>
      </trkpt>
      <trkpt lat="43.852201" lon="5.225576">
        <ele>206.3</ele>
      </trkpt>
      <trkpt lat="43.852646" lon="5.225118">
        <ele>202.6</ele>
      </trkpt>
      <trkpt lat="43.853129" lon="5.224653">
        <ele>205</ele>
      </trkpt>
      <trkpt lat="43.853230" lon="5.224573">
        <ele>205.1</ele>
      </trkpt>
      <trkpt lat="43.853348" lon="5.224522">
        <ele>196.9</ele>
      </trkpt>
      <trkpt lat="43.853448" lon="5.224425">
        <ele>197.7</ele>
      </trkpt>
      <trkpt lat="43.853671" lon="5.224192">
        <ele>196.7</ele>
      </trkpt>
      <trkpt lat="43.854337" lon="5.223505">
        <ele>200.2</ele>
      </trkpt>
      <trkpt lat="43.854608" lon="5.223259">
        <ele>204.5</ele>
      </trkpt>
      <trkpt lat="43.854817" lon="5.223194">
        <ele>204.4</ele>
      </trkpt>
      <trkpt lat="43.855049" lon="5.223259">
        <ele>204</ele>
      </trkpt>
      <trkpt lat="43.855467" lon="5.223366">
        <ele>195.2</ele>
      </trkpt>
      <trkpt lat="43.855614" lon="5.223323">
        <ele>202.3</ele>
      </trkpt>
      <trkpt lat="43.855683" lon="5.223109">
        <ele>202.7</ele>
      </trkpt>
      <trkpt lat="43.855699" lon="5.222830">
        <ele>203.9</ele>
      </trkpt>
      <trkpt lat="43.855838" lon="5.222358">
        <ele>200.8</ele>
      </trkpt>
      <trkpt lat="43.855945" lon="5.221006">
        <ele>198.1</ele>
      </trkpt>
      <trkpt lat="43.856343" lon="5.219485">
        <ele>188</ele>
      </trkpt>
      <trkpt lat="43.856349" lon="5.219461">
        <ele>187.8</ele>
      </trkpt>
      <trkpt lat="43.856426" lon="5.219150">
        <ele>182.3</ele>
      </trkpt>
      <trkpt lat="43.856449" lon="5.218903">
        <ele>182.1</ele>
      </trkpt>
      <trkpt lat="43.856480" lon="5.218753">
        <ele>181.3</ele>
      </trkpt>
      <trkpt lat="43.856534" lon="5.218688">
        <ele>180.2</ele>
      </trkpt>
      <trkpt lat="43.856612" lon="5.218710">
        <ele>179.7</ele>
      </trkpt>
      <trkpt lat="43.856828" lon="5.219117">
        <ele>168.9</ele>
      </trkpt>
      <trkpt lat="43.857045" lon="5.219278">
        <ele>168.4</ele>
      </trkpt>
      <trkpt lat="43.857215" lon="5.219300">
        <ele>165.3</ele>
      </trkpt>
      <trkpt lat="43.857509" lon="5.219278">
        <ele>153.5</ele>
      </trkpt>
      <trkpt lat="43.856681" lon="5.217612">
        <ele>154.5</ele>
      </trkpt>
      <trkpt lat="43.856457" lon="5.217162">
        <ele>158.4</ele>
      </trkpt>
      <trkpt lat="43.856403" lon="5.216958">
        <ele>156.7</ele>
      </trkpt>
      <trkpt lat="43.856343" lon="5.216623">
        <ele>147.1</ele>
      </trkpt>
      <trkpt lat="43.856252" lon="5.216323">
        <ele>147.2</ele>
      </trkpt>
      <trkpt lat="43.855984" lon="5.215513">
        <ele>140.1</ele>
      </trkpt>
      <trkpt lat="43.855605" lon="5.214053">
        <ele>133</ele>
      </trkpt>
      <trkpt lat="43.855554" lon="5.213681">
        <ele>132.5</ele>
      </trkpt>
      <trkpt lat="43.855524" lon="5.213538">
        <ele>132.1</ele>
      </trkpt>
      <trkpt lat="43.855509" lon="5.213388">
        <ele>131.8</ele>
      </trkpt>
      <trkpt lat="43.855510" lon="5.213343">
        <ele>131.7</ele>
      </trkpt>
      <trkpt lat="43.855251" lon="5.212750">
        <ele>129.7</ele>
      </trkpt>
      <trkpt lat="43.855078" lon="5.211859">
        <ele>130</ele>
      </trkpt>
      <trkpt lat="43.854972" lon="5.211672">
        <ele>132.1</ele>
      </trkpt>
      <trkpt lat="43.854917" lon="5.211446">
        <ele>132.2</ele>
      </trkpt>
      <trkpt lat="43.854879" lon="5.211210">
        <ele>132</ele>
      </trkpt>
      <trkpt lat="43.854956" lon="5.210706">
        <ele>130.4</ele>
      </trkpt>
      <trkpt lat="43.854964" lon="5.210379">
        <ele>130.2</ele>
      </trkpt>
      <trkpt lat="43.854914" lon="5.210132">
        <ele>129.4</ele>
      </trkpt>
      <trkpt lat="43.854403" lon="5.208882">
        <ele>129</ele>
      </trkpt>
      <trkpt lat="43.854295" lon="5.208684">
        <ele>129</ele>
      </trkpt>
      <trkpt lat="43.854271" lon="5.208566">
        <ele>129</ele>
      </trkpt>
      <trkpt lat="43.854239" lon="5.208045">
        <ele>128.9</ele>
      </trkpt>
      <trkpt lat="43.854189" lon="5.206750">
        <ele>128.2</ele>
      </trkpt>
      <trkpt lat="43.854187" lon="5.204974">
        <ele>129.9</ele>
      </trkpt>
      <trkpt lat="43.854187" lon="5.204553">
        <ele>129.7</ele>
      </trkpt>
      <trkpt lat="43.854209" lon="5.204006">
        <ele>130.7</ele>
      </trkpt>
      <trkpt lat="43.854173" lon="5.203550">
        <ele>132.2</ele>
      </trkpt>
      <trkpt lat="43.854193" lon="5.203394">
        <ele>133.8</ele>
      </trkpt>
      <trkpt lat="43.854226" lon="5.203239">
        <ele>133.2</ele>
      </trkpt>
      <trkpt lat="43.854298" lon="5.202954">
        <ele>131.3</ele>
      </trkpt>
      <trkpt lat="43.854340" lon="5.202702">
        <ele>131.1</ele>
      </trkpt>
      <trkpt lat="43.854334" lon="5.202388">
        <ele>130.6</ele>
      </trkpt>
      <trkpt lat="43.854295" lon="5.202037">
        <ele>129.7</ele>
      </trkpt>
      <trkpt lat="43.855286" lon="5.202650">
        <ele>126.6</ele>
      </trkpt>
      <trkpt lat="43.855787" lon="5.202960">
        <ele>127</ele>
      </trkpt>
      <trkpt lat="43.855997" lon="5.203064">
        <ele>126.7</ele>
      </trkpt>
      <trkpt lat="43.856178" lon="5.203078">
        <ele>126.5</ele>
      </trkpt>
      <trkpt lat="43.856452" lon="5.203027">
        <ele>126.2</ele>
      </trkpt>
      <trkpt lat="43.856584" lon="5.202965">
        <ele>126.1</ele>
      </trkpt>
      <trkpt lat="43.856869" lon="5.202804">
        <ele>125.2</ele>
      </trkpt>
      <trkpt lat="43.857146" lon="5.202627">
        <ele>125.1</ele>
      </trkpt>
      <trkpt lat="43.857446" lon="5.202380">
        <ele>125.1</ele>
      </trkpt>
      <trkpt lat="43.857473" lon="5.202394">
        <ele>125.1</ele>
      </trkpt>
      <trkpt lat="43.857535" lon="5.202410">
        <ele>125.7</ele>
      </trkpt>
      <trkpt lat="43.857597" lon="5.202305">
        <ele>126.3</ele>
      </trkpt>
      <trkpt lat="43.857829" lon="5.202346">
        <ele>127.2</ele>
      </trkpt>
      <trkpt lat="43.858024" lon="5.202359">
        <ele>128.2</ele>
      </trkpt>
      <trkpt lat="43.858127" lon="5.202351">
        <ele>128.8</ele>
      </trkpt>
    </trkseg>
  </trk>
</gpx>