<?xml version="1.0" encoding="UTF-8"?>
<gpx xmlns="http://www.topografix.com/GPX/1/1" version="1.1" creator="MyGPSFiles" xsi:schemaLocation="http://www.topografix.com/GPX/1/1 http://www.topografix.com/GPX/1/1/gpx.xsd" xmlns:xsi="http://www.w3.org/2001/XMLSchema-instance">
  <trk>
    <name>Track from PFMLVTTcircuit6</name>
    <desc>Total: 6.6km</desc>
    <trkseg>
      <trkpt lat="43.954738" lon="5.834454"/>
      <trkpt lat="43.954569" lon="5.834726">
        <ele>501.4</ele>
      </trkpt>
      <trkpt lat="43.954497" lon="5.834808">
        <ele>501.2</ele>
      </trkpt>
      <trkpt lat="43.954388" lon="5.83492">
        <ele>501</ele>
      </trkpt>
      <trkpt lat="43.954316" lon="5.835002">
        <ele>500.9</ele>
      </trkpt>
      <trkpt lat="43.954251" lon="5.835092">
        <ele>500.9</ele>
      </trkpt>
      <trkpt lat="43.95418" lon="5.835232">
        <ele>500.8</ele>
      </trkpt>
      <trkpt lat="43.95414" lon="5.835326">
        <ele>500.5</ele>
      </trkpt>
      <trkpt lat="43.954136" lon="5.83547">
        <ele>499.9</ele>
      </trkpt>
      <trkpt lat="43.954192" lon="5.835643">
        <ele>498.7</ele>
      </trkpt>
      <trkpt lat="43.954253" lon="5.835778">
        <ele>497.4</ele>
      </trkpt>
      <trkpt lat="43.954286" lon="5.835842">
        <ele>496.7</ele>
      </trkpt>
      <trkpt lat="43.95439" lon="5.835911">
        <ele>495</ele>
      </trkpt>
      <trkpt lat="43.95452" lon="5.835913">
        <ele>493.5</ele>
      </trkpt>
      <trkpt lat="43.954633" lon="5.835892">
        <ele>492.5</ele>
      </trkpt>
      <trkpt lat="43.954724" lon="5.83587">
        <ele>491.7</ele>
      </trkpt>
      <trkpt lat="43.954763" lon="5.835862">
        <ele>491.3</ele>
      </trkpt>
      <trkpt lat="43.954876" lon="5.835841">
        <ele>490.3</ele>
      </trkpt>
      <trkpt lat="43.955" lon="5.835817">
        <ele>489.2</ele>
      </trkpt>
      <trkpt lat="43.955042" lon="5.835811">
        <ele>488.4</ele>
      </trkpt>
      <trkpt lat="43.955145" lon="5.835783">
        <ele>486.6</ele>
      </trkpt>
      <trkpt lat="43.955167" lon="5.835934">
        <ele>484.8</ele>
      </trkpt>
      <trkpt lat="43.955128" lon="5.83609">
        <ele>483.9</ele>
      </trkpt>
      <trkpt lat="43.955131" lon="5.836248">
        <ele>482</ele>
      </trkpt>
      <trkpt lat="43.955133" lon="5.836429">
        <ele>480.2</ele>
      </trkpt>
      <trkpt lat="43.955123" lon="5.836632">
        <ele>478.1</ele>
      </trkpt>
      <trkpt lat="43.955117" lon="5.836824">
        <ele>476.2</ele>
      </trkpt>
      <trkpt lat="43.955109" lon="5.837011">
        <ele>474.6</ele>
      </trkpt>
      <trkpt lat="43.955103" lon="5.837192">
        <ele>472.9</ele>
      </trkpt>
      <trkpt lat="43.955111" lon="5.837369">
        <ele>471.1</ele>
      </trkpt>
      <trkpt lat="43.955133" lon="5.837556">
        <ele>469.2</ele>
      </trkpt>
      <trkpt lat="43.955154" lon="5.837776">
        <ele>467.6</ele>
      </trkpt>
      <trkpt lat="43.955173" lon="5.838013">
        <ele>466</ele>
      </trkpt>
      <trkpt lat="43.955192" lon="5.838225">
        <ele>464.4</ele>
      </trkpt>
      <trkpt lat="43.955147" lon="5.838342">
        <ele>464.2</ele>
      </trkpt>
      <trkpt lat="43.955243" lon="5.838351">
        <ele>463</ele>
      </trkpt>
      <trkpt lat="43.955303" lon="5.838235">
        <ele>463</ele>
      </trkpt>
      <trkpt lat="43.955364" lon="5.838099">
        <ele>463.2</ele>
      </trkpt>
      <trkpt lat="43.955428" lon="5.837928">
        <ele>463.5</ele>
      </trkpt>
      <trkpt lat="43.955486" lon="5.837747">
        <ele>464.1</ele>
      </trkpt>
      <trkpt lat="43.955525" lon="5.837574">
        <ele>464.9</ele>
      </trkpt>
      <trkpt lat="43.955544" lon="5.837423">
        <ele>465.9</ele>
      </trkpt>
      <trkpt lat="43.95556" lon="5.837289">
        <ele>467.1</ele>
      </trkpt>
      <trkpt lat="43.955602" lon="5.837158">
        <ele>467.9</ele>
      </trkpt>
      <trkpt lat="43.955643" lon="5.837027">
        <ele>468.7</ele>
      </trkpt>
      <trkpt lat="43.955686" lon="5.836971">
        <ele>468.7</ele>
      </trkpt>
      <trkpt lat="43.955785" lon="5.836876">
        <ele>468.5</ele>
      </trkpt>
      <trkpt lat="43.955892" lon="5.836809">
        <ele>467.9</ele>
      </trkpt>
      <trkpt lat="43.955997" lon="5.836748">
        <ele>467.3</ele>
      </trkpt>
      <trkpt lat="43.95609" lon="5.836689">
        <ele>466.8</ele>
      </trkpt>
      <trkpt lat="43.956169" lon="5.836624">
        <ele>466.1</ele>
      </trkpt>
      <trkpt lat="43.956263" lon="5.836531">
        <ele>465.3</ele>
      </trkpt>
      <trkpt lat="43.956325" lon="5.83643">
        <ele>464.8</ele>
      </trkpt>
      <trkpt lat="43.956359" lon="5.836312">
        <ele>464.7</ele>
      </trkpt>
      <trkpt lat="43.956401" lon="5.836164">
        <ele>464.6</ele>
      </trkpt>
      <trkpt lat="43.956435" lon="5.836039">
        <ele>464.5</ele>
      </trkpt>
      <trkpt lat="43.956468" lon="5.835913">
        <ele>464.4</ele>
      </trkpt>
      <trkpt lat="43.956478" lon="5.835874">
        <ele>464.4</ele>
      </trkpt>
      <trkpt lat="43.956507" lon="5.835754">
        <ele>464.6</ele>
      </trkpt>
      <trkpt lat="43.956535" lon="5.835557">
        <ele>465.3</ele>
      </trkpt>
      <trkpt lat="43.956588" lon="5.8354">
        <ele>465.4</ele>
      </trkpt>
      <trkpt lat="43.956675" lon="5.835386">
        <ele>464.1</ele>
      </trkpt>
      <trkpt lat="43.956844" lon="5.835575">
        <ele>461.7</ele>
      </trkpt>
      <trkpt lat="43.956959" lon="5.835688">
        <ele>460.3</ele>
      </trkpt>
      <trkpt lat="43.957089" lon="5.835809">
        <ele>458.6</ele>
      </trkpt>
      <trkpt lat="43.957261" lon="5.835873">
        <ele>456.9</ele>
      </trkpt>
      <trkpt lat="43.957411" lon="5.83592">
        <ele>455.6</ele>
      </trkpt>
      <trkpt lat="43.957497" lon="5.836027">
        <ele>454.8</ele>
      </trkpt>
      <trkpt lat="43.95765" lon="5.83612">
        <ele>453.3</ele>
      </trkpt>
      <trkpt lat="43.957798" lon="5.836216">
        <ele>451.7</ele>
      </trkpt>
      <trkpt lat="43.957955" lon="5.836305">
        <ele>450</ele>
      </trkpt>
      <trkpt lat="43.958113" lon="5.83641">
        <ele>448.1</ele>
      </trkpt>
      <trkpt lat="43.958197" lon="5.836473">
        <ele>447.1</ele>
      </trkpt>
      <trkpt lat="43.958288" lon="5.836541">
        <ele>445.9</ele>
      </trkpt>
      <trkpt lat="43.958382" lon="5.836613">
        <ele>444.8</ele>
      </trkpt>
      <trkpt lat="43.958474" lon="5.83668">
        <ele>444</ele>
      </trkpt>
      <trkpt lat="43.958559" lon="5.836741">
        <ele>443.3</ele>
      </trkpt>
      <trkpt lat="43.958695" lon="5.836856">
        <ele>442.5</ele>
      </trkpt>
      <trkpt lat="43.958797" lon="5.836958">
        <ele>441.9</ele>
      </trkpt>
      <trkpt lat="43.958899" lon="5.837051">
        <ele>441.4</ele>
      </trkpt>
      <trkpt lat="43.95893" lon="5.837067">
        <ele>441.2</ele>
      </trkpt>
      <trkpt lat="43.959013" lon="5.837117">
        <ele>440.9</ele>
      </trkpt>
      <trkpt lat="43.959151" lon="5.837161">
        <ele>440.3</ele>
      </trkpt>
      <trkpt lat="43.959297" lon="5.837153">
        <ele>440.7</ele>
      </trkpt>
      <trkpt lat="43.959402" lon="5.83713">
        <ele>441.2</ele>
      </trkpt>
      <trkpt lat="43.959492" lon="5.837074">
        <ele>441.6</ele>
      </trkpt>
      <trkpt lat="43.959547" lon="5.836914">
        <ele>442</ele>
      </trkpt>
      <trkpt lat="43.95956" lon="5.836897">
        <ele>442.1</ele>
      </trkpt>
      <trkpt lat="43.959659" lon="5.836804">
        <ele>442.9</ele>
      </trkpt>
      <trkpt lat="43.959683" lon="5.836797">
        <ele>443.1</ele>
      </trkpt>
      <trkpt lat="43.959773" lon="5.836768">
        <ele>443.9</ele>
      </trkpt>
      <trkpt lat="43.959886" lon="5.836802">
        <ele>444.5</ele>
      </trkpt>
      <trkpt lat="43.959998" lon="5.836849">
        <ele>445.1</ele>
      </trkpt>
      <trkpt lat="43.960109" lon="5.8369">
        <ele>446.2</ele>
      </trkpt>
      <trkpt lat="43.960234" lon="5.836971">
        <ele>447.5</ele>
      </trkpt>
      <trkpt lat="43.960322" lon="5.83702">
        <ele>448.3</ele>
      </trkpt>
      <trkpt lat="43.960415" lon="5.837099">
        <ele>449.2</ele>
      </trkpt>
      <trkpt lat="43.960497" lon="5.837179">
        <ele>449.9</ele>
      </trkpt>
      <trkpt lat="43.960517" lon="5.837199">
        <ele>450</ele>
      </trkpt>
      <trkpt lat="43.960589" lon="5.837274">
        <ele>450.7</ele>
      </trkpt>
      <trkpt lat="43.960674" lon="5.837365">
        <ele>451.4</ele>
      </trkpt>
      <trkpt lat="43.960772" lon="5.837461">
        <ele>452.3</ele>
      </trkpt>
      <trkpt lat="43.960871" lon="5.837554">
        <ele>453.3</ele>
      </trkpt>
      <trkpt lat="43.96095" lon="5.837636">
        <ele>453.9</ele>
      </trkpt>
      <trkpt lat="43.961026" lon="5.837732">
        <ele>454.3</ele>
      </trkpt>
      <trkpt lat="43.961098" lon="5.837829">
        <ele>454.6</ele>
      </trkpt>
      <trkpt lat="43.961213" lon="5.837951">
        <ele>455</ele>
      </trkpt>
      <trkpt lat="43.961303" lon="5.838031">
        <ele>455.2</ele>
      </trkpt>
      <trkpt lat="43.96138" lon="5.838102">
        <ele>455.2</ele>
      </trkpt>
      <trkpt lat="43.961459" lon="5.838175">
        <ele>455.2</ele>
      </trkpt>
      <trkpt lat="43.961547" lon="5.838246">
        <ele>455.2</ele>
      </trkpt>
      <trkpt lat="43.961662" lon="5.838306">
        <ele>455.1</ele>
      </trkpt>
      <trkpt lat="43.961765" lon="5.838338">
        <ele>456.1</ele>
      </trkpt>
      <trkpt lat="43.961865" lon="5.838392">
        <ele>457.2</ele>
      </trkpt>
      <trkpt lat="43.961963" lon="5.838479">
        <ele>458.5</ele>
      </trkpt>
      <trkpt lat="43.96205" lon="5.838575">
        <ele>459.7</ele>
      </trkpt>
      <trkpt lat="43.962133" lon="5.838669">
        <ele>460.9</ele>
      </trkpt>
      <trkpt lat="43.962209" lon="5.838762">
        <ele>462.1</ele>
      </trkpt>
      <trkpt lat="43.962282" lon="5.838837">
        <ele>463.1</ele>
      </trkpt>
      <trkpt lat="43.962387" lon="5.838872">
        <ele>464.6</ele>
      </trkpt>
      <trkpt lat="43.962477" lon="5.838938">
        <ele>465.9</ele>
      </trkpt>
      <trkpt lat="43.962557" lon="5.839006">
        <ele>467.4</ele>
      </trkpt>
      <trkpt lat="43.962638" lon="5.839059">
        <ele>469</ele>
      </trkpt>
      <trkpt lat="43.962725" lon="5.839098">
        <ele>470.6</ele>
      </trkpt>
      <trkpt lat="43.962817" lon="5.839126">
        <ele>472.3</ele>
      </trkpt>
      <trkpt lat="43.96291" lon="5.839145">
        <ele>473.8</ele>
      </trkpt>
      <trkpt lat="43.963005" lon="5.839126">
        <ele>475.4</ele>
      </trkpt>
      <trkpt lat="43.963099" lon="5.839129">
        <ele>477</ele>
      </trkpt>
      <trkpt lat="43.963192" lon="5.839162">
        <ele>478.6</ele>
      </trkpt>
      <trkpt lat="43.963283" lon="5.839178">
        <ele>480.2</ele>
      </trkpt>
      <trkpt lat="43.963376" lon="5.839212">
        <ele>481.6</ele>
      </trkpt>
      <trkpt lat="43.963476" lon="5.839236">
        <ele>483</ele>
      </trkpt>
      <trkpt lat="43.963574" lon="5.839245">
        <ele>484.3</ele>
      </trkpt>
      <trkpt lat="43.9637" lon="5.839256">
        <ele>486.1</ele>
      </trkpt>
      <trkpt lat="43.963789" lon="5.839273">
        <ele>487.3</ele>
      </trkpt>
      <trkpt lat="43.963885" lon="5.839266">
        <ele>488.7</ele>
      </trkpt>
      <trkpt lat="43.963977" lon="5.83926">
        <ele>490</ele>
      </trkpt>
      <trkpt lat="43.964068" lon="5.839254">
        <ele>491.3</ele>
      </trkpt>
      <trkpt lat="43.964171" lon="5.83926">
        <ele>492.7</ele>
      </trkpt>
      <trkpt lat="43.964274" lon="5.839263">
        <ele>493.6</ele>
      </trkpt>
      <trkpt lat="43.964364" lon="5.839279">
        <ele>494.4</ele>
      </trkpt>
      <trkpt lat="43.964455" lon="5.839356">
        <ele>495</ele>
      </trkpt>
      <trkpt lat="43.964529" lon="5.839447">
        <ele>495.5</ele>
      </trkpt>
      <trkpt lat="43.964609" lon="5.839554">
        <ele>496.1</ele>
      </trkpt>
      <trkpt lat="43.964673" lon="5.839648">
        <ele>496.6</ele>
      </trkpt>
      <trkpt lat="43.964742" lon="5.839739">
        <ele>497.2</ele>
      </trkpt>
      <trkpt lat="43.964814" lon="5.839822">
        <ele>497.9</ele>
      </trkpt>
      <trkpt lat="43.964897" lon="5.839884">
        <ele>498.8</ele>
      </trkpt>
      <trkpt lat="43.964991" lon="5.839892">
        <ele>499.9</ele>
      </trkpt>
      <trkpt lat="43.9651" lon="5.839869">
        <ele>500.5</ele>
      </trkpt>
      <trkpt lat="43.965206" lon="5.839852">
        <ele>501.1</ele>
      </trkpt>
      <trkpt lat="43.965302" lon="5.839836">
        <ele>501.6</ele>
      </trkpt>
      <trkpt lat="43.965395" lon="5.839812">
        <ele>502</ele>
      </trkpt>
      <trkpt lat="43.965494" lon="5.839784">
        <ele>502.5</ele>
      </trkpt>
      <trkpt lat="43.965601" lon="5.839759">
        <ele>503</ele>
      </trkpt>
      <trkpt lat="43.965695" lon="5.839763">
        <ele>503.4</ele>
      </trkpt>
      <trkpt lat="43.965801" lon="5.839768">
        <ele>504</ele>
      </trkpt>
      <trkpt lat="43.965912" lon="5.83977">
        <ele>504.5</ele>
      </trkpt>
      <trkpt lat="43.966014" lon="5.839776">
        <ele>504.9</ele>
      </trkpt>
      <trkpt lat="43.966119" lon="5.839798">
        <ele>505.4</ele>
      </trkpt>
      <trkpt lat="43.96623" lon="5.839816">
        <ele>505.9</ele>
      </trkpt>
      <trkpt lat="43.966343" lon="5.839833">
        <ele>506.4</ele>
      </trkpt>
      <trkpt lat="43.966463" lon="5.839854">
        <ele>506.9</ele>
      </trkpt>
      <trkpt lat="43.966552" lon="5.839877">
        <ele>507.3</ele>
      </trkpt>
      <trkpt lat="43.966645" lon="5.839883">
        <ele>507.6</ele>
      </trkpt>
      <trkpt lat="43.966748" lon="5.839868">
        <ele>507.7</ele>
      </trkpt>
      <trkpt lat="43.966843" lon="5.839898">
        <ele>507.8</ele>
      </trkpt>
      <trkpt lat="43.966903" lon="5.840019">
        <ele>508</ele>
      </trkpt>
      <trkpt lat="43.966918" lon="5.840143">
        <ele>508.1</ele>
      </trkpt>
      <trkpt lat="43.966938" lon="5.840293">
        <ele>508.1</ele>
      </trkpt>
      <trkpt lat="43.966982" lon="5.84045">
        <ele>508.2</ele>
      </trkpt>
      <trkpt lat="43.967027" lon="5.840571">
        <ele>508.3</ele>
      </trkpt>
      <trkpt lat="43.967077" lon="5.840693">
        <ele>508.4</ele>
      </trkpt>
      <trkpt lat="43.967132" lon="5.840808">
        <ele>508.5</ele>
      </trkpt>
      <trkpt lat="43.967237" lon="5.840833">
        <ele>508.7</ele>
      </trkpt>
      <trkpt lat="43.967327" lon="5.840724">
        <ele>508.7</ele>
      </trkpt>
      <trkpt lat="43.967395" lon="5.840631">
        <ele>508.7</ele>
      </trkpt>
      <trkpt lat="43.967496" lon="5.840561">
        <ele>508.7</ele>
      </trkpt>
      <trkpt lat="43.967813" lon="5.840384">
        <ele>509.8</ele>
      </trkpt>
      <trkpt lat="43.967993" lon="5.840332">
        <ele>510.7</ele>
      </trkpt>
      <trkpt lat="43.968113" lon="5.840316">
        <ele>511.2</ele>
      </trkpt>
      <trkpt lat="43.968222" lon="5.840314">
        <ele>511.7</ele>
      </trkpt>
      <trkpt lat="43.968351" lon="5.8403">
        <ele>512.4</ele>
      </trkpt>
      <trkpt lat="43.968473" lon="5.840275">
        <ele>512.9</ele>
      </trkpt>
      <trkpt lat="43.968595" lon="5.840243">
        <ele>513.6</ele>
      </trkpt>
      <trkpt lat="43.968718" lon="5.840199">
        <ele>514.3</ele>
      </trkpt>
      <trkpt lat="43.968831" lon="5.840157">
        <ele>515.1</ele>
      </trkpt>
      <trkpt lat="43.96893" lon="5.840116">
        <ele>515.8</ele>
      </trkpt>
      <trkpt lat="43.969038" lon="5.840087">
        <ele>516.7</ele>
      </trkpt>
      <trkpt lat="43.969148" lon="5.840055">
        <ele>517.5</ele>
      </trkpt>
      <trkpt lat="43.969259" lon="5.840027">
        <ele>518</ele>
      </trkpt>
      <trkpt lat="43.969368" lon="5.839996">
        <ele>518.5</ele>
      </trkpt>
      <trkpt lat="43.969477" lon="5.839973">
        <ele>518.8</ele>
      </trkpt>
      <trkpt lat="43.969586" lon="5.83996">
        <ele>519.2</ele>
      </trkpt>
      <trkpt lat="43.96969" lon="5.839952">
        <ele>519.5</ele>
      </trkpt>
      <trkpt lat="43.969791" lon="5.839952">
        <ele>519.8</ele>
      </trkpt>
      <trkpt lat="43.969889" lon="5.839948">
        <ele>520</ele>
      </trkpt>
      <trkpt lat="43.969986" lon="5.83994">
        <ele>520.4</ele>
      </trkpt>
      <trkpt lat="43.970078" lon="5.839905">
        <ele>520.4</ele>
      </trkpt>
      <trkpt lat="43.970162" lon="5.83984">
        <ele>520.6</ele>
      </trkpt>
      <trkpt lat="43.970223" lon="5.839737">
        <ele>521.1</ele>
      </trkpt>
      <trkpt lat="43.97027" lon="5.839625">
        <ele>521.6</ele>
      </trkpt>
      <trkpt lat="43.970312" lon="5.839504">
        <ele>522.2</ele>
      </trkpt>
      <trkpt lat="43.97036" lon="5.839383">
        <ele>522.9</ele>
      </trkpt>
      <trkpt lat="43.970411" lon="5.839263">
        <ele>523.5</ele>
      </trkpt>
      <trkpt lat="43.97047" lon="5.839146">
        <ele>523.9</ele>
      </trkpt>
      <trkpt lat="43.970535" lon="5.839032">
        <ele>524.1</ele>
      </trkpt>
      <trkpt lat="43.970603" lon="5.838922">
        <ele>524.3</ele>
      </trkpt>
      <trkpt lat="43.970675" lon="5.838816">
        <ele>524.5</ele>
      </trkpt>
      <trkpt lat="43.97075" lon="5.838716">
        <ele>524.7</ele>
      </trkpt>
      <trkpt lat="43.970831" lon="5.838624">
        <ele>525</ele>
      </trkpt>
      <trkpt lat="43.970915" lon="5.838541">
        <ele>524.7</ele>
      </trkpt>
      <trkpt lat="43.971" lon="5.838461">
        <ele>524.5</ele>
      </trkpt>
      <trkpt lat="43.971088" lon="5.838383">
        <ele>524.3</ele>
      </trkpt>
      <trkpt lat="43.971174" lon="5.838302">
        <ele>524.1</ele>
      </trkpt>
      <trkpt lat="43.971249" lon="5.838216">
        <ele>524.1</ele>
      </trkpt>
      <trkpt lat="43.971315" lon="5.838123">
        <ele>524.2</ele>
      </trkpt>
      <trkpt lat="43.971373" lon="5.838021">
        <ele>524.5</ele>
      </trkpt>
      <trkpt lat="43.971444" lon="5.837914">
        <ele>524.9</ele>
      </trkpt>
      <trkpt lat="43.971542" lon="5.837809">
        <ele>525.2</ele>
      </trkpt>
      <trkpt lat="43.971659" lon="5.837716">
        <ele>525.5</ele>
      </trkpt>
      <trkpt lat="43.971742" lon="5.837659">
        <ele>525.8</ele>
      </trkpt>
      <trkpt lat="43.971828" lon="5.837611">
        <ele>526.1</ele>
      </trkpt>
      <trkpt lat="43.971914" lon="5.837571">
        <ele>526.3</ele>
      </trkpt>
      <trkpt lat="43.972045" lon="5.837529">
        <ele>526.4</ele>
      </trkpt>
      <trkpt lat="43.972135" lon="5.837506">
        <ele>526.4</ele>
      </trkpt>
      <trkpt lat="43.972227" lon="5.837486">
        <ele>526.4</ele>
      </trkpt>
      <trkpt lat="43.97232" lon="5.837462">
        <ele>526.5</ele>
      </trkpt>
      <trkpt lat="43.972419" lon="5.837433">
        <ele>526.5</ele>
      </trkpt>
      <trkpt lat="43.97253" lon="5.837398">
        <ele>526.8</ele>
      </trkpt>
      <trkpt lat="43.972641" lon="5.837361">
        <ele>527.2</ele>
      </trkpt>
      <trkpt lat="43.972748" lon="5.837328">
        <ele>527.6</ele>
      </trkpt>
      <trkpt lat="43.9728" lon="5.837315">
        <ele>527.8</ele>
      </trkpt>
      <trkpt lat="43.972896" lon="5.837293">
        <ele>528</ele>
      </trkpt>
      <trkpt lat="43.972983" lon="5.83725">
        <ele>528.5</ele>
      </trkpt>
      <trkpt lat="43.973071" lon="5.837138">
        <ele>529.3</ele>
      </trkpt>
      <trkpt lat="43.973138" lon="5.837044">
        <ele>530</ele>
      </trkpt>
      <trkpt lat="43.973212" lon="5.836948">
        <ele>530.9</ele>
      </trkpt>
      <trkpt lat="43.973287" lon="5.836849">
        <ele>531.6</ele>
      </trkpt>
      <trkpt lat="43.973349" lon="5.836753">
        <ele>532.3</ele>
      </trkpt>
      <trkpt lat="43.973399" lon="5.836645">
        <ele>532.6</ele>
      </trkpt>
      <trkpt lat="43.973453" lon="5.836536">
        <ele>532.7</ele>
      </trkpt>
      <trkpt lat="43.973509" lon="5.836431">
        <ele>532.8</ele>
      </trkpt>
      <trkpt lat="43.973566" lon="5.836323">
        <ele>532.9</ele>
      </trkpt>
      <trkpt lat="43.973618" lon="5.836213">
        <ele>533</ele>
      </trkpt>
      <trkpt lat="43.973666" lon="5.8361">
        <ele>533.1</ele>
      </trkpt>
      <trkpt lat="43.973704" lon="5.835979">
        <ele>533.3</ele>
      </trkpt>
      <trkpt lat="43.973758" lon="5.835871">
        <ele>533.2</ele>
      </trkpt>
      <trkpt lat="43.97383" lon="5.835793">
        <ele>532.9</ele>
      </trkpt>
      <trkpt lat="43.97392" lon="5.835703">
        <ele>532.8</ele>
      </trkpt>
      <trkpt lat="43.973993" lon="5.835629">
        <ele>532.9</ele>
      </trkpt>
      <trkpt lat="43.974071" lon="5.835552">
        <ele>532.9</ele>
      </trkpt>
      <trkpt lat="43.974147" lon="5.835476">
        <ele>533.1</ele>
      </trkpt>
      <trkpt lat="43.97422" lon="5.835399">
        <ele>533.5</ele>
      </trkpt>
      <trkpt lat="43.974303" lon="5.835314">
        <ele>533.8</ele>
      </trkpt>
      <trkpt lat="43.97437" lon="5.835192">
        <ele>534.6</ele>
      </trkpt>
      <trkpt lat="43.974433" lon="5.835077">
        <ele>535.1</ele>
      </trkpt>
      <trkpt lat="43.974471" lon="5.83496">
        <ele>535.9</ele>
      </trkpt>
      <trkpt lat="43.9745" lon="5.834831">
        <ele>537.2</ele>
      </trkpt>
      <trkpt lat="43.974534" lon="5.83471">
        <ele>538.4</ele>
      </trkpt>
      <trkpt lat="43.974594" lon="5.834586">
        <ele>539.1</ele>
      </trkpt>
      <trkpt lat="43.974693" lon="5.834553">
        <ele>538.5</ele>
      </trkpt>
      <trkpt lat="43.974774" lon="5.834449">
        <ele>538.8</ele>
      </trkpt>
      <trkpt lat="43.974871" lon="5.834373">
        <ele>538.4</ele>
      </trkpt>
      <trkpt lat="43.974922" lon="5.834262">
        <ele>539</ele>
      </trkpt>
      <trkpt lat="43.974973" lon="5.834155">
        <ele>539.4</ele>
      </trkpt>
      <trkpt lat="43.975045" lon="5.834073">
        <ele>539.6</ele>
      </trkpt>
      <trkpt lat="43.975123" lon="5.833992">
        <ele>539.7</ele>
      </trkpt>
      <trkpt lat="43.975199" lon="5.833891">
        <ele>539.8</ele>
      </trkpt>
      <trkpt lat="43.975276" lon="5.833788">
        <ele>539.7</ele>
      </trkpt>
      <trkpt lat="43.975272" lon="5.833635">
        <ele>540.9</ele>
      </trkpt>
      <trkpt lat="43.975278" lon="5.833452">
        <ele>542.1</ele>
      </trkpt>
      <trkpt lat="43.975331" lon="5.833351">
        <ele>542.1</ele>
      </trkpt>
      <trkpt lat="43.975341" lon="5.833189">
        <ele>543.6</ele>
      </trkpt>
      <trkpt lat="43.975349" lon="5.833024">
        <ele>545.2</ele>
      </trkpt>
      <trkpt lat="43.975391" lon="5.832837">
        <ele>546.4</ele>
      </trkpt>
      <trkpt lat="43.975454" lon="5.832745">
        <ele>546.5</ele>
      </trkpt>
      <trkpt lat="43.975495" lon="5.83266">
        <ele>546.7</ele>
      </trkpt>
      <trkpt lat="43.975499" lon="5.832498">
        <ele>548.2</ele>
      </trkpt>
      <trkpt lat="43.975525" lon="5.832386">
        <ele>549</ele>
      </trkpt>
      <trkpt lat="43.975574" lon="5.832274">
        <ele>549.6</ele>
      </trkpt>
      <trkpt lat="43.975614" lon="5.832158">
        <ele>550.3</ele>
      </trkpt>
      <trkpt lat="43.975685" lon="5.83206">
        <ele>550.3</ele>
      </trkpt>
      <trkpt lat="43.975749" lon="5.831949">
        <ele>550.8</ele>
      </trkpt>
      <trkpt lat="43.975798" lon="5.831844">
        <ele>551.4</ele>
      </trkpt>
      <trkpt lat="43.975826" lon="5.831723">
        <ele>552.5</ele>
      </trkpt>
      <trkpt lat="43.975881" lon="5.831574">
        <ele>553.3</ele>
      </trkpt>
      <trkpt lat="43.975931" lon="5.831434">
        <ele>554.1</ele>
      </trkpt>
      <trkpt lat="43.975987" lon="5.831318">
        <ele>554.5</ele>
      </trkpt>
      <trkpt lat="43.976031" lon="5.831202">
        <ele>555</ele>
      </trkpt>
      <trkpt lat="43.97609" lon="5.831061">
        <ele>555.5</ele>
      </trkpt>
      <trkpt lat="43.976172" lon="5.830966">
        <ele>555.1</ele>
      </trkpt>
      <trkpt lat="43.976241" lon="5.83087">
        <ele>554.9</ele>
      </trkpt>
      <trkpt lat="43.976279" lon="5.830757">
        <ele>555.4</ele>
      </trkpt>
      <trkpt lat="43.976318" lon="5.830615">
        <ele>556.5</ele>
      </trkpt>
      <trkpt lat="43.976372" lon="5.830477">
        <ele>557.4</ele>
      </trkpt>
      <trkpt lat="43.976388" lon="5.830343">
        <ele>558.8</ele>
      </trkpt>
      <trkpt lat="43.976421" lon="5.830172">
        <ele>560.5</ele>
      </trkpt>
      <trkpt lat="43.976524" lon="5.830093">
        <ele>560.3</ele>
      </trkpt>
      <trkpt lat="43.976589" lon="5.829982">
        <ele>561.2</ele>
      </trkpt>
      <trkpt lat="43.976606" lon="5.829914">
        <ele>562</ele>
      </trkpt>
      <trkpt lat="43.976691" lon="5.829723">
        <ele>564.2</ele>
      </trkpt>
      <trkpt lat="43.976716" lon="5.829639">
        <ele>565.1</ele>
      </trkpt>
      <trkpt lat="43.976627" lon="5.829525">
        <ele>567.6</ele>
      </trkpt>
      <trkpt lat="43.976534" lon="5.829436">
        <ele>569.2</ele>
      </trkpt>
      <trkpt lat="43.976445" lon="5.829365">
        <ele>570.1</ele>
      </trkpt>
      <trkpt lat="43.976354" lon="5.829283">
        <ele>571</ele>
      </trkpt>
      <trkpt lat="43.976275" lon="5.829194">
        <ele>571.8</ele>
      </trkpt>
      <trkpt lat="43.97619" lon="5.829107">
        <ele>572.1</ele>
      </trkpt>
      <trkpt lat="43.976104" lon="5.829056">
        <ele>572.1</ele>
      </trkpt>
      <trkpt lat="43.975977" lon="5.829018">
        <ele>571.7</ele>
      </trkpt>
      <trkpt lat="43.975887" lon="5.829027">
        <ele>571.4</ele>
      </trkpt>
      <trkpt lat="43.975791" lon="5.829059">
        <ele>570.7</ele>
      </trkpt>
      <trkpt lat="43.975738" lon="5.829072">
        <ele>570.2</ele>
      </trkpt>
      <trkpt lat="43.975629" lon="5.829087">
        <ele>569.1</ele>
      </trkpt>
      <trkpt lat="43.975522" lon="5.8291">
        <ele>568</ele>
      </trkpt>
      <trkpt lat="43.975419" lon="5.829125">
        <ele>567</ele>
      </trkpt>
      <trkpt lat="43.975365" lon="5.829148">
        <ele>566.5</ele>
      </trkpt>
      <trkpt lat="43.975257" lon="5.829192">
        <ele>565.5</ele>
      </trkpt>
      <trkpt lat="43.975147" lon="5.82921">
        <ele>564.4</ele>
      </trkpt>
      <trkpt lat="43.975034" lon="5.829249">
        <ele>563.4</ele>
      </trkpt>
      <trkpt lat="43.974914" lon="5.829303">
        <ele>562.1</ele>
      </trkpt>
      <trkpt lat="43.974783" lon="5.829366">
        <ele>560.6</ele>
      </trkpt>
      <trkpt lat="43.974712" lon="5.829417">
        <ele>559.8</ele>
      </trkpt>
      <trkpt lat="43.974562" lon="5.829518">
        <ele>558</ele>
      </trkpt>
      <trkpt lat="43.9744" lon="5.829623">
        <ele>556</ele>
      </trkpt>
      <trkpt lat="43.974317" lon="5.829673">
        <ele>554.9</ele>
      </trkpt>
      <trkpt lat="43.974231" lon="5.829717">
        <ele>553.8</ele>
      </trkpt>
      <trkpt lat="43.974143" lon="5.829754">
        <ele>552.8</ele>
      </trkpt>
      <trkpt lat="43.97405" lon="5.829783">
        <ele>551.8</ele>
      </trkpt>
      <trkpt lat="43.973955" lon="5.829809">
        <ele>550.8</ele>
      </trkpt>
      <trkpt lat="43.973855" lon="5.829834">
        <ele>549.8</ele>
      </trkpt>
      <trkpt lat="43.973758" lon="5.829857">
        <ele>548.8</ele>
      </trkpt>
      <trkpt lat="43.973667" lon="5.829896">
        <ele>547.8</ele>
      </trkpt>
      <trkpt lat="43.973581" lon="5.829951">
        <ele>546.8</ele>
      </trkpt>
      <trkpt lat="43.973498" lon="5.830013">
        <ele>545.8</ele>
      </trkpt>
      <trkpt lat="43.973415" lon="5.830077">
        <ele>544.8</ele>
      </trkpt>
      <trkpt lat="43.973333" lon="5.830137">
        <ele>543.8</ele>
      </trkpt>
      <trkpt lat="43.97325" lon="5.830195">
        <ele>542.7</ele>
      </trkpt>
      <trkpt lat="43.973167" lon="5.830248">
        <ele>541.5</ele>
      </trkpt>
      <trkpt lat="43.973084" lon="5.830299">
        <ele>540.3</ele>
      </trkpt>
      <trkpt lat="43.972923" lon="5.830386">
        <ele>537.9</ele>
      </trkpt>
      <trkpt lat="43.972763" lon="5.830416">
        <ele>535.6</ele>
      </trkpt>
      <trkpt lat="43.9726" lon="5.830449">
        <ele>533.3</ele>
      </trkpt>
      <trkpt lat="43.972432" lon="5.830488">
        <ele>531.4</ele>
      </trkpt>
      <trkpt lat="43.972269" lon="5.830547">
        <ele>529.9</ele>
      </trkpt>
      <trkpt lat="43.972117" lon="5.830592">
        <ele>528.6</ele>
      </trkpt>
      <trkpt lat="43.97199" lon="5.830622">
        <ele>527.5</ele>
      </trkpt>
      <trkpt lat="43.971864" lon="5.830667">
        <ele>526.1</ele>
      </trkpt>
      <trkpt lat="43.97175" lon="5.830744">
        <ele>524.5</ele>
      </trkpt>
      <trkpt lat="43.971644" lon="5.830847">
        <ele>522.9</ele>
      </trkpt>
      <trkpt lat="43.971526" lon="5.83095">
        <ele>522.1</ele>
      </trkpt>
      <trkpt lat="43.971459" lon="5.830998">
        <ele>521.7</ele>
      </trkpt>
      <trkpt lat="43.971322" lon="5.831071">
        <ele>520.6</ele>
      </trkpt>
      <trkpt lat="43.971176" lon="5.831128">
        <ele>519.6</ele>
      </trkpt>
      <trkpt lat="43.971038" lon="5.831214">
        <ele>518.1</ele>
      </trkpt>
      <trkpt lat="43.970916" lon="5.831334">
        <ele>516.2</ele>
      </trkpt>
      <trkpt lat="43.970793" lon="5.83146">
        <ele>514.2</ele>
      </trkpt>
      <trkpt lat="43.970665" lon="5.831578">
        <ele>512.8</ele>
      </trkpt>
      <trkpt lat="43.970534" lon="5.831668">
        <ele>511.6</ele>
      </trkpt>
      <trkpt lat="43.970406" lon="5.831725">
        <ele>511.2</ele>
      </trkpt>
      <trkpt lat="43.970286" lon="5.831739">
        <ele>510.9</ele>
      </trkpt>
      <trkpt lat="43.97018" lon="5.831725">
        <ele>510.8</ele>
      </trkpt>
      <trkpt lat="43.97015" lon="5.831718">
        <ele>510.8</ele>
      </trkpt>
      <trkpt lat="43.97004" lon="5.831724">
        <ele>510.6</ele>
      </trkpt>
      <trkpt lat="43.969917" lon="5.831782">
        <ele>510</ele>
      </trkpt>
      <trkpt lat="43.969799" lon="5.83186">
        <ele>509.4</ele>
      </trkpt>
      <trkpt lat="43.969682" lon="5.831892">
        <ele>509.3</ele>
      </trkpt>
      <trkpt lat="43.969574" lon="5.831834">
        <ele>510.1</ele>
      </trkpt>
      <trkpt lat="43.969459" lon="5.831728">
        <ele>511.7</ele>
      </trkpt>
      <trkpt lat="43.969356" lon="5.83162">
        <ele>512.9</ele>
      </trkpt>
      <trkpt lat="43.969269" lon="5.831545">
        <ele>513.5</ele>
      </trkpt>
      <trkpt lat="43.969236" lon="5.831523">
        <ele>513.6</ele>
      </trkpt>
      <trkpt lat="43.969137" lon="5.831519">
        <ele>513.6</ele>
      </trkpt>
      <trkpt lat="43.96904" lon="5.831596">
        <ele>512.6</ele>
      </trkpt>
      <trkpt lat="43.968959" lon="5.831681">
        <ele>511.6</ele>
      </trkpt>
      <trkpt lat="43.968874" lon="5.831766">
        <ele>510.2</ele>
      </trkpt>
      <trkpt lat="43.968765" lon="5.831827">
        <ele>509</ele>
      </trkpt>
      <trkpt lat="43.968599" lon="5.831856">
        <ele>507.9</ele>
      </trkpt>
      <trkpt lat="43.968419" lon="5.831914">
        <ele>506.6</ele>
      </trkpt>
      <trkpt lat="43.968301" lon="5.83199">
        <ele>505.6</ele>
      </trkpt>
      <trkpt lat="43.968183" lon="5.832099">
        <ele>504.5</ele>
      </trkpt>
      <trkpt lat="43.968072" lon="5.832207">
        <ele>503.5</ele>
      </trkpt>
      <trkpt lat="43.967936" lon="5.832341">
        <ele>502.5</ele>
      </trkpt>
      <trkpt lat="43.967885" lon="5.832431">
        <ele>501.9</ele>
      </trkpt>
      <trkpt lat="43.967825" lon="5.832509">
        <ele>501.4</ele>
      </trkpt>
      <trkpt lat="43.967705" lon="5.832554">
        <ele>500.8</ele>
      </trkpt>
      <trkpt lat="43.967615" lon="5.83258">
        <ele>500.5</ele>
      </trkpt>
      <trkpt lat="43.967601" lon="5.832583">
        <ele>500.5</ele>
      </trkpt>
      <trkpt lat="43.967553" lon="5.832735">
        <ele>499.1</ele>
      </trkpt>
      <trkpt lat="43.967529" lon="5.832893">
        <ele>497.8</ele>
      </trkpt>
      <trkpt lat="43.96749" lon="5.833022">
        <ele>496.6</ele>
      </trkpt>
      <trkpt lat="43.967458" lon="5.833018">
        <ele>496.8</ele>
      </trkpt>
      <trkpt lat="43.967364" lon="5.832934">
        <ele>497.4</ele>
      </trkpt>
      <trkpt lat="43.967282" lon="5.832868">
        <ele>497.9</ele>
      </trkpt>
      <trkpt lat="43.967177" lon="5.832846">
        <ele>498</ele>
      </trkpt>
      <trkpt lat="43.967061" lon="5.832813">
        <ele>498.1</ele>
      </trkpt>
      <trkpt lat="43.966914" lon="5.832801">
        <ele>498.1</ele>
      </trkpt>
      <trkpt lat="43.96678" lon="5.832783">
        <ele>498.1</ele>
      </trkpt>
      <trkpt lat="43.966648" lon="5.832754">
        <ele>498</ele>
      </trkpt>
      <trkpt lat="43.966519" lon="5.832731">
        <ele>497.2</ele>
      </trkpt>
      <trkpt lat="43.966394" lon="5.832707">
        <ele>496.4</ele>
      </trkpt>
      <trkpt lat="43.966282" lon="5.832659">
        <ele>495.8</ele>
      </trkpt>
      <trkpt lat="43.96619" lon="5.832604">
        <ele>495.3</ele>
      </trkpt>
      <trkpt lat="43.966108" lon="5.832546">
        <ele>494.9</ele>
      </trkpt>
      <trkpt lat="43.965998" lon="5.832459">
        <ele>494.3</ele>
      </trkpt>
      <trkpt lat="43.96589" lon="5.83236">
        <ele>493.8</ele>
      </trkpt>
      <trkpt lat="43.965806" lon="5.832311">
        <ele>493.5</ele>
      </trkpt>
      <trkpt lat="43.96571" lon="5.832306">
        <ele>493.5</ele>
      </trkpt>
      <trkpt lat="43.965601" lon="5.832324">
        <ele>493.5</ele>
      </trkpt>
      <trkpt lat="43.965484" lon="5.83234">
        <ele>493.6</ele>
      </trkpt>
      <trkpt lat="43.965364" lon="5.832352">
        <ele>493.6</ele>
      </trkpt>
      <trkpt lat="43.965238" lon="5.832358">
        <ele>493.7</ele>
      </trkpt>
      <trkpt lat="43.965116" lon="5.832337">
        <ele>493.7</ele>
      </trkpt>
      <trkpt lat="43.964999" lon="5.832325">
        <ele>493.8</ele>
      </trkpt>
      <trkpt lat="43.964881" lon="5.832336">
        <ele>493.3</ele>
      </trkpt>
      <trkpt lat="43.964743" lon="5.832361">
        <ele>492.7</ele>
      </trkpt>
      <trkpt lat="43.964603" lon="5.832368">
        <ele>492.2</ele>
      </trkpt>
      <trkpt lat="43.964452" lon="5.832337">
        <ele>491.4</ele>
      </trkpt>
      <trkpt lat="43.964291" lon="5.832238">
        <ele>490.3</ele>
      </trkpt>
      <trkpt lat="43.964209" lon="5.83219">
        <ele>489.7</ele>
      </trkpt>
      <trkpt lat="43.964051" lon="5.832098">
        <ele>488</ele>
      </trkpt>
      <trkpt lat="43.963914" lon="5.83202">
        <ele>486.5</ele>
      </trkpt>
      <trkpt lat="43.96381" lon="5.832041">
        <ele>485.6</ele>
      </trkpt>
      <trkpt lat="43.963698" lon="5.832008">
        <ele>484.5</ele>
      </trkpt>
      <trkpt lat="43.963562" lon="5.832043">
        <ele>483.4</ele>
      </trkpt>
      <trkpt lat="43.963504" lon="5.832061">
        <ele>483</ele>
      </trkpt>
      <trkpt lat="43.963368" lon="5.832089">
        <ele>481.8</ele>
      </trkpt>
      <trkpt lat="43.963215" lon="5.832077">
        <ele>479.4</ele>
      </trkpt>
      <trkpt lat="43.963111" lon="5.832077">
        <ele>477.6</ele>
      </trkpt>
      <trkpt lat="43.963072" lon="5.832071">
        <ele>476.9</ele>
      </trkpt>
      <trkpt lat="43.962982" lon="5.832025">
        <ele>475</ele>
      </trkpt>
      <trkpt lat="43.962898" lon="5.831939">
        <ele>473.2</ele>
      </trkpt>
      <trkpt lat="43.962867" lon="5.831912">
        <ele>472.5</ele>
      </trkpt>
      <trkpt lat="43.962773" lon="5.83185">
        <ele>470.3</ele>
      </trkpt>
      <trkpt lat="43.962672" lon="5.831798">
        <ele>468.2</ele>
      </trkpt>
      <trkpt lat="43.962613" lon="5.831753">
        <ele>466.7</ele>
      </trkpt>
      <trkpt lat="43.962616" lon="5.831591">
        <ele>466</ele>
      </trkpt>
      <trkpt lat="43.962641" lon="5.831518">
        <ele>466.3</ele>
      </trkpt>
      <trkpt lat="43.96264" lon="5.831298">
        <ele>465.6</ele>
      </trkpt>
      <trkpt lat="43.962545" lon="5.831212">
        <ele>463.7</ele>
      </trkpt>
      <trkpt lat="43.962457" lon="5.831163">
        <ele>462.6</ele>
      </trkpt>
      <trkpt lat="43.962426" lon="5.831148">
        <ele>462.4</ele>
      </trkpt>
      <trkpt lat="43.962326" lon="5.831083">
        <ele>461.9</ele>
      </trkpt>
      <trkpt lat="43.962236" lon="5.830992">
        <ele>461.5</ele>
      </trkpt>
      <trkpt lat="43.962153" lon="5.830901">
        <ele>461.2</ele>
      </trkpt>
      <trkpt lat="43.962063" lon="5.830845">
        <ele>461</ele>
      </trkpt>
      <trkpt lat="43.961931" lon="5.830815">
        <ele>460.8</ele>
      </trkpt>
      <trkpt lat="43.961842" lon="5.830767">
        <ele>460.8</ele>
      </trkpt>
      <trkpt lat="43.961768" lon="5.830694">
        <ele>461.1</ele>
      </trkpt>
      <trkpt lat="43.961683" lon="5.830741">
        <ele>460.6</ele>
      </trkpt>
      <trkpt lat="43.961599" lon="5.830816">
        <ele>460.7</ele>
      </trkpt>
      <trkpt lat="43.961535" lon="5.83091">
        <ele>460.9</ele>
      </trkpt>
      <trkpt lat="43.961472" lon="5.831017">
        <ele>461</ele>
      </trkpt>
      <trkpt lat="43.961381" lon="5.830956">
        <ele>462</ele>
      </trkpt>
      <trkpt lat="43.961308" lon="5.830873">
        <ele>462.9</ele>
      </trkpt>
      <trkpt lat="43.961201" lon="5.830793">
        <ele>464</ele>
      </trkpt>
      <trkpt lat="43.961111" lon="5.830731">
        <ele>464.9</ele>
      </trkpt>
      <trkpt lat="43.961021" lon="5.830659">
        <ele>465.8</ele>
      </trkpt>
      <trkpt lat="43.96093" lon="5.830586">
        <ele>466.6</ele>
      </trkpt>
      <trkpt lat="43.960839" lon="5.830525">
        <ele>467.3</ele>
      </trkpt>
      <trkpt lat="43.960748" lon="5.830467">
        <ele>467.4</ele>
      </trkpt>
      <trkpt lat="43.960659" lon="5.830411">
        <ele>467.4</ele>
      </trkpt>
      <trkpt lat="43.960572" lon="5.830355">
        <ele>467.4</ele>
      </trkpt>
      <trkpt lat="43.960486" lon="5.8303">
        <ele>467.4</ele>
      </trkpt>
      <trkpt lat="43.960399" lon="5.830245">
        <ele>467.3</ele>
      </trkpt>
      <trkpt lat="43.960313" lon="5.830192">
        <ele>467.3</ele>
      </trkpt>
      <trkpt lat="43.960227" lon="5.830146">
        <ele>467.2</ele>
      </trkpt>
      <trkpt lat="43.960117" lon="5.830093">
        <ele>467.1</ele>
      </trkpt>
      <trkpt lat="43.960031" lon="5.830051">
        <ele>467</ele>
      </trkpt>
      <trkpt lat="43.959936" lon="5.829993">
        <ele>467.1</ele>
      </trkpt>
      <trkpt lat="43.959856" lon="5.829919">
        <ele>467.3</ele>
      </trkpt>
      <trkpt lat="43.959855" lon="5.829789">
        <ele>467.6</ele>
      </trkpt>
      <trkpt lat="43.959755" lon="5.829723">
        <ele>467.9</ele>
      </trkpt>
      <trkpt lat="43.959668" lon="5.829656">
        <ele>468.3</ele>
      </trkpt>
      <trkpt lat="43.959574" lon="5.829568">
        <ele>468.9</ele>
      </trkpt>
      <trkpt lat="43.959468" lon="5.829423">
        <ele>469.7</ele>
      </trkpt>
      <trkpt lat="43.959368" lon="5.829325">
        <ele>470.4</ele>
      </trkpt>
      <trkpt lat="43.959273" lon="5.829233">
        <ele>471.2</ele>
      </trkpt>
      <trkpt lat="43.959183" lon="5.829171">
        <ele>471.9</ele>
      </trkpt>
      <trkpt lat="43.959083" lon="5.829109">
        <ele>472.5</ele>
      </trkpt>
      <trkpt lat="43.958989" lon="5.829063">
        <ele>472.8</ele>
      </trkpt>
      <trkpt lat="43.958879" lon="5.829055">
        <ele>473</ele>
      </trkpt>
      <trkpt lat="43.958793" lon="5.8291">
        <ele>472.8</ele>
      </trkpt>
      <trkpt lat="43.9587" lon="5.82916">
        <ele>472.6</ele>
      </trkpt>
      <trkpt lat="43.958607" lon="5.829214">
        <ele>472.4</ele>
      </trkpt>
      <trkpt lat="43.958565" lon="5.829232">
        <ele>472.3</ele>
      </trkpt>
      <trkpt lat="43.958471" lon="5.829273">
        <ele>472.1</ele>
      </trkpt>
      <trkpt lat="43.958453" lon="5.829282">
        <ele>472.1</ele>
      </trkpt>
      <trkpt lat="43.958314" lon="5.829336">
        <ele>471.8</ele>
      </trkpt>
      <trkpt lat="43.958054" lon="5.82935">
        <ele>472.5</ele>
      </trkpt>
      <trkpt lat="43.957975" lon="5.829342">
        <ele>472.9</ele>
      </trkpt>
      <trkpt lat="43.957884" lon="5.829347">
        <ele>473.1</ele>
      </trkpt>
      <trkpt lat="43.957777" lon="5.829383">
        <ele>473.2</ele>
      </trkpt>
      <trkpt lat="43.957699" lon="5.82945">
        <ele>472.8</ele>
      </trkpt>
      <trkpt lat="43.957626" lon="5.829528">
        <ele>472.3</ele>
      </trkpt>
      <trkpt lat="43.95756" lon="5.829631">
        <ele>471.5</ele>
      </trkpt>
      <trkpt lat="43.957492" lon="5.829739">
        <ele>470.7</ele>
      </trkpt>
      <trkpt lat="43.957459" lon="5.829869">
        <ele>470.3</ele>
      </trkpt>
      <trkpt lat="43.957428" lon="5.830005">
        <ele>470</ele>
      </trkpt>
      <trkpt lat="43.957379" lon="5.830121">
        <ele>470.9</ele>
      </trkpt>
      <trkpt lat="43.957325" lon="5.83022">
        <ele>472</ele>
      </trkpt>
      <trkpt lat="43.957269" lon="5.830318">
        <ele>473.4</ele>
      </trkpt>
      <trkpt lat="43.957202" lon="5.830435">
        <ele>474.8</ele>
      </trkpt>
      <trkpt lat="43.957132" lon="5.830542">
        <ele>476.5</ele>
      </trkpt>
      <trkpt lat="43.957053" lon="5.830638">
        <ele>478.4</ele>
      </trkpt>
      <trkpt lat="43.956977" lon="5.830722">
        <ele>480.3</ele>
      </trkpt>
      <trkpt lat="43.956904" lon="5.830802">
        <ele>482.3</ele>
      </trkpt>
      <trkpt lat="43.956783" lon="5.830912">
        <ele>485</ele>
      </trkpt>
      <trkpt lat="43.956673" lon="5.830853">
        <ele>488.7</ele>
      </trkpt>
      <trkpt lat="43.956575" lon="5.830924">
        <ele>490.6</ele>
      </trkpt>
      <trkpt lat="43.956536" lon="5.830965">
        <ele>491.2</ele>
      </trkpt>
      <trkpt lat="43.956449" lon="5.831071">
        <ele>492.5</ele>
      </trkpt>
      <trkpt lat="43.956425" lon="5.831101">
        <ele>492.8</ele>
      </trkpt>
      <trkpt lat="43.956352" lon="5.831183">
        <ele>493.6</ele>
      </trkpt>
      <trkpt lat="43.956277" lon="5.831267">
        <ele>494.6</ele>
      </trkpt>
      <trkpt lat="43.956255" lon="5.831297">
        <ele>494.9</ele>
      </trkpt>
      <trkpt lat="43.956199" lon="5.831402">
        <ele>495</ele>
      </trkpt>
      <trkpt lat="43.956121" lon="5.831504">
        <ele>495.5</ele>
      </trkpt>
      <trkpt lat="43.956096" lon="5.83167">
        <ele>494</ele>
      </trkpt>
      <trkpt lat="43.956094" lon="5.831801">
        <ele>493.7</ele>
      </trkpt>
      <trkpt lat="43.95611" lon="5.831935">
        <ele>492.9</ele>
      </trkpt>
      <trkpt lat="43.95612" lon="5.832065">
        <ele>492.2</ele>
      </trkpt>
      <trkpt lat="43.956115" lon="5.832249">
        <ele>491.7</ele>
      </trkpt>
      <trkpt lat="43.956102" lon="5.832364">
        <ele>491.6</ele>
      </trkpt>
      <trkpt lat="43.956076" lon="5.832536">
        <ele>491.9</ele>
      </trkpt>
      <trkpt lat="43.956004" lon="5.832671">
        <ele>494.3</ele>
      </trkpt>
      <trkpt lat="43.955901" lon="5.832726">
        <ele>497.2</ele>
      </trkpt>
      <trkpt lat="43.95582" lon="5.832813">
        <ele>499.7</ele>
      </trkpt>
      <trkpt lat="43.955728" lon="5.832905">
        <ele>501.5</ele>
      </trkpt>
      <trkpt lat="43.955627" lon="5.833006">
        <ele>503.3</ele>
      </trkpt>
      <trkpt lat="43.955593" lon="5.833095">
        <ele>504</ele>
      </trkpt>
      <trkpt lat="43.955527" lon="5.833193">
        <ele>505.1</ele>
      </trkpt>
      <trkpt lat="43.955441" lon="5.833327">
        <ele>506.2</ele>
      </trkpt>
      <trkpt lat="43.955338" lon="5.833496">
        <ele>506.1</ele>
      </trkpt>
      <trkpt lat="43.955249" lon="5.833626">
        <ele>506</ele>
      </trkpt>
      <trkpt lat="43.955135" lon="5.833832">
        <ele>505.8</ele>
      </trkpt>
      <trkpt lat="43.955059" lon="5.833946">
        <ele>505.8</ele>
      </trkpt>
      <trkpt lat="43.954962" lon="5.834103">
        <ele>505.5</ele>
      </trkpt>
      <trkpt lat="43.954787" lon="5.834394">
        <ele>503.4</ele>
      </trkpt>
    </trkseg>
  </trk>
</gpx>
