<?xml version="1.0" encoding="UTF-8"?>
<gpx xmlns="http://www.topografix.com/GPX/1/1" version="1.1" creator="MyGPSFiles" xsi:schemaLocation="http://www.topografix.com/GPX/1/1 http://www.topografix.com/GPX/1/1/gpx.xsd" xmlns:xsi="http://www.w3.org/2001/XMLSchema-instance">
  <trk>
    <name>trace</name>
    <desc>Total: 12.4km</desc>
    <trkseg>
      <trkpt lat="43.89612" lon="5.565275">
        <ele>621.01</ele>
      </trkpt>
      <trkpt lat="43.896279" lon="5.565168">
        <ele>621.7919192237849</ele>
      </trkpt>
      <trkpt lat="43.896263" lon="5.565037">
        <ele>622.2459421401745</ele>
      </trkpt>
      <trkpt lat="43.896203" lon="5.564615">
        <ele>624.04</ele>
      </trkpt>
      <trkpt lat="43.896248" lon="5.564154">
        <ele>626.7516380272242</ele>
      </trkpt>
      <trkpt lat="43.896352" lon="5.563964">
        <ele>628.3393515343067</ele>
      </trkpt>
      <trkpt lat="43.896483" lon="5.5638">
        <ele>630.0035136917811</ele>
      </trkpt>
      <trkpt lat="43.896497" lon="5.563596">
        <ele>631.3683132560684</ele>
      </trkpt>
      <trkpt lat="43.896539999999995" lon="5.563497">
        <ele>632.105776855537</ele>
      </trkpt>
      <trkpt lat="43.896596" lon="5.563357">
        <ele>633.07</ele>
      </trkpt>
      <trkpt lat="43.896834" lon="5.562281">
        <ele>638.3351481564334</ele>
      </trkpt>
      <trkpt lat="43.896834" lon="5.562281">
        <ele>638.3351481564334</ele>
      </trkpt>
      <trkpt lat="43.89693" lon="5.561847">
        <ele>640.4958340961473</ele>
      </trkpt>
      <trkpt lat="43.896984" lon="5.561413">
        <ele>643.13</ele>
      </trkpt>
      <trkpt lat="43.897601" lon="5.560686">
        <ele>651.74</ele>
      </trkpt>
      <trkpt lat="43.89772000000001" lon="5.560498">
        <ele>653.324410604658</ele>
      </trkpt>
      <trkpt lat="43.89779" lon="5.560032">
        <ele>655.7604560099093</ele>
      </trkpt>
      <trkpt lat="43.897850000000005" lon="5.559816999999999">
        <ele>656.75</ele>
      </trkpt>
      <trkpt lat="43.89801999999999" lon="5.559420000000001">
        <ele>658.5106135125849</ele>
      </trkpt>
      <trkpt lat="43.898022" lon="5.559302">
        <ele>658.9182717573372</ele>
      </trkpt>
      <trkpt lat="43.898059999999994" lon="5.5589319999999995">
        <ele>660.1</ele>
      </trkpt>
      <trkpt lat="43.898254" lon="5.557966">
        <ele>662.3467205718916</ele>
      </trkpt>
      <trkpt lat="43.89825" lon="5.557776">
        <ele>662.5755203138323</ele>
      </trkpt>
      <trkpt lat="43.898309999999995" lon="5.557537000000001">
        <ele>662.76</ele>
      </trkpt>
      <trkpt lat="43.898495" lon="5.556649">
        <ele>663.2</ele>
      </trkpt>
      <trkpt lat="43.898649999999996" lon="5.556169">
        <ele>664.5895097693246</ele>
      </trkpt>
      <trkpt lat="43.898769999999985" lon="5.55582">
        <ele>665.9889559677598</ele>
      </trkpt>
      <trkpt lat="43.898859999999985" lon="5.55523">
        <ele>667.95</ele>
      </trkpt>
      <trkpt lat="43.89894999999998" lon="5.5549729999999995">
        <ele>668.5193816404325</ele>
      </trkpt>
      <trkpt lat="43.899236" lon="5.554455">
        <ele>669.36</ele>
      </trkpt>
      <trkpt lat="43.899352" lon="5.554171">
        <ele>669.76</ele>
      </trkpt>
      <trkpt lat="43.899489" lon="5.552124">
        <ele>667.33</ele>
      </trkpt>
      <trkpt lat="43.89960000000001" lon="5.551684">
        <ele>668.2271904757899</ele>
      </trkpt>
      <trkpt lat="43.89969000000001" lon="5.5514">
        <ele>669.2721094901185</ele>
      </trkpt>
      <trkpt lat="43.89985" lon="5.551132">
        <ele>670.67</ele>
      </trkpt>
      <trkpt lat="43.899969999999996" lon="5.550944">
        <ele>671.7024199241686</ele>
      </trkpt>
      <trkpt lat="43.900140000000015" lon="5.550472">
        <ele>673.11</ele>
      </trkpt>
      <trkpt lat="43.90024999999998" lon="5.55008">
        <ele>672.7827471167752</ele>
      </trkpt>
      <trkpt lat="43.90032" lon="5.549694000000001">
        <ele>671.5805920548885</ele>
      </trkpt>
      <trkpt lat="43.900459999999995" lon="5.549201000000001">
        <ele>669.5715442915958</ele>
      </trkpt>
      <trkpt lat="43.9005" lon="5.549163">
        <ele>669.34</ele>
      </trkpt>
      <trkpt lat="43.900579999999984" lon="5.54905">
        <ele>668.8481833664553</ele>
      </trkpt>
      <trkpt lat="43.90069" lon="5.548997">
        <ele>668.4301891711773</ele>
      </trkpt>
      <trkpt lat="43.900967" lon="5.548664">
        <ele>667.7201253346752</ele>
      </trkpt>
      <trkpt lat="43.90108000000001" lon="5.548412">
        <ele>667.78</ele>
      </trkpt>
      <trkpt lat="43.901099" lon="5.547967">
        <ele>668.39</ele>
      </trkpt>
      <trkpt lat="43.901122" lon="5.547122">
        <ele>669.5566339004014</ele>
      </trkpt>
      <trkpt lat="43.901043" lon="5.546655">
        <ele>671.02</ele>
      </trkpt>
      <trkpt lat="43.901087" lon="5.545805">
        <ele>676.19750132112</ele>
      </trkpt>
      <trkpt lat="43.901064" lon="5.545269">
        <ele>679.85</ele>
      </trkpt>
      <trkpt lat="43.900989" lon="5.544241">
        <ele>683.52</ele>
      </trkpt>
      <trkpt lat="43.900994" lon="5.543686">
        <ele>682.4364639460642</ele>
      </trkpt>
      <trkpt lat="43.901099" lon="5.543002">
        <ele>680.47</ele>
      </trkpt>
      <trkpt lat="43.90118" lon="5.542602">
        <ele>680.360862929583</ele>
      </trkpt>
      <trkpt lat="43.90129" lon="5.54202">
        <ele>681.11</ele>
      </trkpt>
      <trkpt lat="43.90134" lon="5.54109">
        <ele>681.7783473588935</ele>
      </trkpt>
      <trkpt lat="43.9014" lon="5.540843">
        <ele>681.7932454192635</ele>
      </trkpt>
      <trkpt lat="43.90145999999998" lon="5.540607">
        <ele>681.75</ele>
      </trkpt>
      <trkpt lat="43.901569999999985" lon="5.540408">
        <ele>681.6441478146787</ele>
      </trkpt>
      <trkpt lat="43.901638" lon="5.540408">
        <ele>681.5771787858143</ele>
      </trkpt>
      <trkpt lat="43.901725" lon="5.540454">
        <ele>681.4512025144468</ele>
      </trkpt>
      <trkpt lat="43.901837" lon="5.540561">
        <ele>681.1775667008947</ele>
      </trkpt>
      <trkpt lat="43.901982" lon="5.540454">
        <ele>680.6672006661954</ele>
      </trkpt>
      <trkpt lat="43.901951" lon="5.540296">
        <ele>680.15</ele>
      </trkpt>
      <trkpt lat="43.901686" lon="5.539649">
        <ele>675.58</ele>
      </trkpt>
      <trkpt lat="43.901593" lon="5.538778">
        <ele>665.4783353772101</ele>
      </trkpt>
      <trkpt lat="43.901458" lon="5.538316">
        <ele>660.41</ele>
      </trkpt>
      <trkpt lat="43.901371" lon="5.537984">
        <ele>658.2347186209564</ele>
      </trkpt>
      <trkpt lat="43.901263" lon="5.537927">
        <ele>657.5875867845346</ele>
      </trkpt>
      <trkpt lat="43.901176" lon="5.537887">
        <ele>657.1807974349315</ele>
      </trkpt>
      <trkpt lat="43.901135" lon="5.537576">
        <ele>656.42</ele>
      </trkpt>
      <trkpt lat="43.901209" lon="5.53679">
        <ele>655.1319371088431</ele>
      </trkpt>
      <trkpt lat="43.901195" lon="5.53638">
        <ele>654.9020785263965</ele>
      </trkpt>
      <trkpt lat="43.901124" lon="5.536112">
        <ele>654.99</ele>
      </trkpt>
      <trkpt lat="43.901058" lon="5.535782">
        <ele>655.3717811938625</ele>
      </trkpt>
      <trkpt lat="43.901033" lon="5.535484">
        <ele>655.8208362583591</ele>
      </trkpt>
      <trkpt lat="43.901004" lon="5.535023">
        <ele>656.37</ele>
      </trkpt>
      <trkpt lat="43.90089" lon="5.534516">
        <ele>656.5988927648322</ele>
      </trkpt>
      <trkpt lat="43.900869" lon="5.534092">
        <ele>657.36</ele>
      </trkpt>
      <trkpt lat="43.900905" lon="5.53359">
        <ele>659.6357108032639</ele>
      </trkpt>
      <trkpt lat="43.900886" lon="5.53333">
        <ele>660.8647538839226</ele>
      </trkpt>
      <trkpt lat="43.900902" lon="5.533097">
        <ele>661.6385106035035</ele>
      </trkpt>
      <trkpt lat="43.90088" lon="5.533008">
        <ele>661.806577290054</ele>
      </trkpt>
      <trkpt lat="43.900832" lon="5.532815">
        <ele>661.79</ele>
      </trkpt>
      <trkpt lat="43.900807" lon="5.532778">
        <ele>661.6922534215055</ele>
      </trkpt>
      <trkpt lat="43.900337" lon="5.532179">
        <ele>657.25</ele>
      </trkpt>
      <trkpt lat="43.900018" lon="5.531772">
        <ele>656.2047297917551</ele>
      </trkpt>
      <trkpt lat="43.899984" lon="5.531568">
        <ele>656.3200216918553</ele>
      </trkpt>
      <trkpt lat="43.90005" lon="5.531386000000001">
        <ele>656.54</ele>
      </trkpt>
      <trkpt lat="43.90016999999999" lon="5.530941">
        <ele>657.0393193667175</ele>
      </trkpt>
      <trkpt lat="43.90021999999999" lon="5.530678">
        <ele>657.0386391119605</ele>
      </trkpt>
      <trkpt lat="43.90021" lon="5.530506">
        <ele>656.8289132354381</ele>
      </trkpt>
      <trkpt lat="43.90016999999999" lon="5.530356">
        <ele>656.4435121176894</ele>
      </trkpt>
      <trkpt lat="43.90016999999999" lon="5.530286">
        <ele>656.2076355151938</ele>
      </trkpt>
      <trkpt lat="43.900140000000015" lon="5.530226999999999">
        <ele>655.9173794275479</ele>
      </trkpt>
      <trkpt lat="43.9001" lon="5.530216">
        <ele>655.6549934585416</ele>
      </trkpt>
      <trkpt lat="43.90003999999998" lon="5.530200000000001">
        <ele>655.2</ele>
      </trkpt>
      <trkpt lat="43.89998999999999" lon="5.530141">
        <ele>654.6260831371977</ele>
      </trkpt>
      <trkpt lat="43.899969999999996" lon="5.530022999999999">
        <ele>653.7456890984105</ele>
      </trkpt>
      <trkpt lat="43.89997999999998" lon="5.529846">
        <ele>652.2889544455812</ele>
      </trkpt>
      <trkpt lat="43.89996000000001" lon="5.52976">
        <ele>651.503711695626</ele>
      </trkpt>
      <trkpt lat="43.89985" lon="5.529539999999999">
        <ele>649.18</ele>
      </trkpt>
      <trkpt lat="43.89965999999998" lon="5.528972">
        <ele>644.645588775741</ele>
      </trkpt>
      <trkpt lat="43.899420000000006" lon="5.528382">
        <ele>640.62</ele>
      </trkpt>
      <trkpt lat="43.899269999999994" lon="5.5279739999999995">
        <ele>637.9182605071571</ele>
      </trkpt>
      <trkpt lat="43.89918" lon="5.527706000000001">
        <ele>636.1097802468032</ele>
      </trkpt>
      <trkpt lat="43.89916" lon="5.527572">
        <ele>635.2508543295556</ele>
      </trkpt>
      <trkpt lat="43.899079999999984" lon="5.527523">
        <ele>634.478453722222</ele>
      </trkpt>
      <trkpt lat="43.89900999999999" lon="5.5274">
        <ele>633.46</ele>
      </trkpt>
      <trkpt lat="43.89891999999999" lon="5.527212">
        <ele>631.981629855884</ele>
      </trkpt>
      <trkpt lat="43.8988" lon="5.527030000000001">
        <ele>630.52</ele>
      </trkpt>
      <trkpt lat="43.89837" lon="5.526374">
        <ele>627.3022656298295</ele>
      </trkpt>
      <trkpt lat="43.89835" lon="5.526347000000001">
        <ele>627.1815777485344</ele>
      </trkpt>
      <trkpt lat="43.898390000000006" lon="5.526229">
        <ele>626.753136698487</ele>
      </trkpt>
      <trkpt lat="43.89835" lon="5.5258959999999995">
        <ele>625.3737511588163</ele>
      </trkpt>
      <trkpt lat="43.89833999999998" lon="5.525456">
        <ele>622.54</ele>
      </trkpt>
      <trkpt lat="43.89827" lon="5.525161">
        <ele>619.5492925475637</ele>
      </trkpt>
      <trkpt lat="43.89826000000001" lon="5.525118">
        <ele>619.0503446078658</ele>
      </trkpt>
      <trkpt lat="43.89826000000001" lon="5.525006">
        <ele>617.753274224222</ele>
      </trkpt>
      <trkpt lat="43.89812999999999" lon="5.524802">
        <ele>614.3030480697217</ele>
      </trkpt>
      <trkpt lat="43.898109999999996" lon="5.524657">
        <ele>612.2915958677745</ele>
      </trkpt>
      <trkpt lat="43.898059999999994" lon="5.52455">
        <ele>610.5005930655329</ele>
      </trkpt>
      <trkpt lat="43.89794" lon="5.524346">
        <ele>606.71</ele>
      </trkpt>
      <trkpt lat="43.89786" lon="5.524094">
        <ele>602.7354538846224</ele>
      </trkpt>
      <trkpt lat="43.89779999999999" lon="5.523847">
        <ele>599.1365173117708</ele>
      </trkpt>
      <trkpt lat="43.89772999999999" lon="5.523477">
        <ele>594.5030682976824</ele>
      </trkpt>
      <trkpt lat="43.897659999999995" lon="5.523320999999999">
        <ele>592.69</ele>
      </trkpt>
      <trkpt lat="43.897479999999995" lon="5.522962">
        <ele>589.5854356500834</ele>
      </trkpt>
      <trkpt lat="43.897399999999976" lon="5.522806">
        <ele>588.5943318246178</ele>
      </trkpt>
      <trkpt lat="43.89733" lon="5.522737">
        <ele>588.037245747198</ele>
      </trkpt>
      <trkpt lat="43.89721" lon="5.522694000000001">
        <ele>587.2664298885402</ele>
      </trkpt>
      <trkpt lat="43.89709999999999" lon="5.522656">
        <ele>586.55</ele>
      </trkpt>
      <trkpt lat="43.89703999999998" lon="5.52262">
        <ele>586.1145210259848</ele>
      </trkpt>
      <trkpt lat="43.89684999999999" lon="5.522513">
        <ele>584.6012632150465</ele>
      </trkpt>
      <trkpt lat="43.896749999999976" lon="5.522421">
        <ele>583.592968986992</ele>
      </trkpt>
      <trkpt lat="43.89673" lon="5.522201">
        <ele>582.0794301462847</ele>
      </trkpt>
      <trkpt lat="43.89674" lon="5.522132">
        <ele>581.5546792922909</ele>
      </trkpt>
      <trkpt lat="43.89679999999997" lon="5.522089">
        <ele>580.8219676145428</ele>
      </trkpt>
      <trkpt lat="43.896856" lon="5.521917">
        <ele>579.21</ele>
      </trkpt>
      <trkpt lat="43.896953" lon="5.521467">
        <ele>574.842618064432</ele>
      </trkpt>
      <trkpt lat="43.897019" lon="5.521392">
        <ele>573.8938090024748</ele>
      </trkpt>
      <trkpt lat="43.897065" lon="5.521413">
        <ele>573.42</ele>
      </trkpt>
      <trkpt lat="43.897459" lon="5.521558">
        <ele>571.3351514212628</ele>
      </trkpt>
      <trkpt lat="43.897769" lon="5.521703">
        <ele>571.1966022749657</ele>
      </trkpt>
      <trkpt lat="43.89781999999999" lon="5.521584">
        <ele>571.2474683621869</ele>
      </trkpt>
      <trkpt lat="43.897829999999985" lon="5.521472">
        <ele>571.2833490076637</ele>
      </trkpt>
      <trkpt lat="43.897769999999994" lon="5.521327000000001">
        <ele>571.29</ele>
      </trkpt>
      <trkpt lat="43.897619999999996" lon="5.521193">
        <ele>571.1173000271189</ele>
      </trkpt>
      <trkpt lat="43.897475" lon="5.521161">
        <ele>570.7766370942933</ele>
      </trkpt>
      <trkpt lat="43.897193" lon="5.521145">
        <ele>569.5262040236121</ele>
      </trkpt>
      <trkpt lat="43.897115" lon="5.521113">
        <ele>569.001314268025</ele>
      </trkpt>
      <trkpt lat="43.89715" lon="5.520877">
        <ele>567.6</ele>
      </trkpt>
      <trkpt lat="43.897482" lon="5.519693">
        <ele>557.49</ele>
      </trkpt>
      <trkpt lat="43.89766999999998" lon="5.519021">
        <ele>554.21</ele>
      </trkpt>
      <trkpt lat="43.89804" lon="5.5183230000000005">
        <ele>549.5164196620224</ele>
      </trkpt>
      <trkpt lat="43.89818999999998" lon="5.518125000000001">
        <ele>547.61</ele>
      </trkpt>
      <trkpt lat="43.898409999999984" lon="5.517819">
        <ele>544.6153889957945</ele>
      </trkpt>
      <trkpt lat="43.89858" lon="5.517384">
        <ele>541.7691173281482</ele>
      </trkpt>
      <trkpt lat="43.898812" lon="5.517545">
        <ele>540.69</ele>
      </trkpt>
      <trkpt lat="43.899272" lon="5.517792">
        <ele>540.72</ele>
      </trkpt>
      <trkpt lat="43.89979" lon="5.517878">
        <ele>539.0307516365641</ele>
      </trkpt>
      <trkpt lat="43.899957" lon="5.517803">
        <ele>538.3</ele>
      </trkpt>
      <trkpt lat="43.900544" lon="5.517089">
        <ele>535.7647876963152</ele>
      </trkpt>
      <trkpt lat="43.900846" lon="5.516966">
        <ele>533.8889323609297</ele>
      </trkpt>
      <trkpt lat="43.901089" lon="5.516993">
        <ele>531.57</ele>
      </trkpt>
      <trkpt lat="43.901371" lon="5.516928">
        <ele>527.995644461352</ele>
      </trkpt>
      <trkpt lat="43.901514" lon="5.516987">
        <ele>526.39</ele>
      </trkpt>
      <trkpt lat="43.902051" lon="5.517663">
        <ele>524.4466667963098</ele>
      </trkpt>
      <trkpt lat="43.902365" lon="5.517926">
        <ele>523.61</ele>
      </trkpt>
      <trkpt lat="43.902612" lon="5.518194">
        <ele>521.1900456483377</ele>
      </trkpt>
      <trkpt lat="43.90272" lon="5.518178">
        <ele>520.1672139924426</ele>
      </trkpt>
      <trkpt lat="43.902779999999986" lon="5.518082000000001">
        <ele>519.3159640425268</ele>
      </trkpt>
      <trkpt lat="43.902813" lon="5.517921">
        <ele>518.287186133696</ele>
      </trkpt>
      <trkpt lat="43.902736" lon="5.517706">
        <ele>517.18</ele>
      </trkpt>
      <trkpt lat="43.902388" lon="5.51724">
        <ele>516.7267321900706</ele>
      </trkpt>
      <trkpt lat="43.902183" lon="5.516746">
        <ele>516.58</ele>
      </trkpt>
      <trkpt lat="43.902167" lon="5.516569">
        <ele>516.0761416264418</ele>
      </trkpt>
      <trkpt lat="43.902239999999985" lon="5.516387">
        <ele>515.4232166181853</ele>
      </trkpt>
      <trkpt lat="43.90230999999999" lon="5.516253000000001">
        <ele>515.11</ele>
      </trkpt>
      <trkpt lat="43.90277" lon="5.515899">
        <ele>517.6887621261218</ele>
      </trkpt>
      <trkpt lat="43.903041" lon="5.515823">
        <ele>520.7903800491837</ele>
      </trkpt>
      <trkpt lat="43.903327" lon="5.515882">
        <ele>524.4855471326703</ele>
      </trkpt>
      <trkpt lat="43.903497" lon="5.515845">
        <ele>526.63</ele>
      </trkpt>
      <trkpt lat="43.904204" lon="5.515272">
        <ele>534.3481923651751</ele>
      </trkpt>
      <trkpt lat="43.904204" lon="5.515272">
        <ele>534.3481923651751</ele>
      </trkpt>
      <trkpt lat="43.904371" lon="5.515137">
        <ele>535.6893448334451</ele>
      </trkpt>
      <trkpt lat="43.90447999999999" lon="5.514970999999999">
        <ele>536.7162597565206</ele>
      </trkpt>
      <trkpt lat="43.90463999999998" lon="5.514724">
        <ele>538.11</ele>
      </trkpt>
      <trkpt lat="43.90472" lon="5.514392">
        <ele>539.4216174257388</ele>
      </trkpt>
      <trkpt lat="43.90472999999998" lon="5.514156">
        <ele>540.1226741483594</ele>
      </trkpt>
      <trkpt lat="43.904664" lon="5.513898">
        <ele>540.6357457091076</ele>
      </trkpt>
      <trkpt lat="43.90466" lon="5.513576">
        <ele>540.68</ele>
      </trkpt>
      <trkpt lat="43.904641" lon="5.512342">
        <ele>535.54</ele>
      </trkpt>
      <trkpt lat="43.9049" lon="5.512681">
        <ele>532.84</ele>
      </trkpt>
      <trkpt lat="43.905863" lon="5.513991">
        <ele>530.06</ele>
      </trkpt>
      <trkpt lat="43.905909" lon="5.514053">
        <ele>530.0085511138449</ele>
      </trkpt>
      <trkpt lat="43.906044" lon="5.514134">
        <ele>529.817086123481</ele>
      </trkpt>
      <trkpt lat="43.906512" lon="5.513973">
        <ele>527.56</ele>
      </trkpt>
      <trkpt lat="43.906867" lon="5.514016">
        <ele>524.17</ele>
      </trkpt>
      <trkpt lat="43.907505" lon="5.514423">
        <ele>523.2</ele>
      </trkpt>
      <trkpt lat="43.908162" lon="5.514708">
        <ele>524.6177794472026</ele>
      </trkpt>
      <trkpt lat="43.908622" lon="5.515319">
        <ele>520.77</ele>
      </trkpt>
      <trkpt lat="43.908734" lon="5.515518">
        <ele>517.9438015695724</ele>
      </trkpt>
      <trkpt lat="43.908838" lon="5.515577">
        <ele>515.9431428515196</ele>
      </trkpt>
      <trkpt lat="43.909005" lon="5.515518">
        <ele>512.7962096698417</ele>
      </trkpt>
      <trkpt lat="43.909352" lon="5.515544">
        <ele>507.67</ele>
      </trkpt>
      <trkpt lat="43.909511" lon="5.515641">
        <ele>506.4128708592041</ele>
      </trkpt>
      <trkpt lat="43.909832" lon="5.51592">
        <ele>505.5658903834457</ele>
      </trkpt>
      <trkpt lat="43.909979" lon="5.516113">
        <ele>505.0548687284458</ele>
      </trkpt>
      <trkpt lat="43.91006" lon="5.516269">
        <ele>504.25</ele>
      </trkpt>
      <trkpt lat="43.910191" lon="5.516446">
        <ele>502.3707710304649</ele>
      </trkpt>
      <trkpt lat="43.910373" lon="5.516542">
        <ele>499.62734484936067</ele>
      </trkpt>
      <trkpt lat="43.910489" lon="5.516682">
        <ele>497.1981037104559</ele>
      </trkpt>
      <trkpt lat="43.910605" lon="5.516845">
        <ele>494.6000559697407</ele>
      </trkpt>
      <trkpt lat="43.910751" lon="5.516969">
        <ele>492.2</ele>
      </trkpt>
      <trkpt lat="43.91078" lon="5.517234">
        <ele>490.1317105072836</ele>
      </trkpt>
      <trkpt lat="43.910846" lon="5.517476">
        <ele>488.79463320957876</ele>
      </trkpt>
      <trkpt lat="43.91091999999998" lon="5.517708">
        <ele>488.05741074428744</ele>
      </trkpt>
      <trkpt lat="43.91105999999998" lon="5.517949">
        <ele>487.85</ele>
      </trkpt>
      <trkpt lat="43.91108" lon="5.518148">
        <ele>488.0723958413389</ele>
      </trkpt>
      <trkpt lat="43.91108840615432" lon="5.518225690778052">
        <ele>488.220276773896</ele>
      </trkpt>
      <trkpt lat="43.911148406166035" lon="5.518429411038706">
        <ele>488.76686449838377</ele>
      </trkpt>
      <trkpt lat="43.91115999999999" lon="5.518647">
        <ele>489.4268329191234</ele>
      </trkpt>
      <trkpt lat="43.91115999999999" lon="5.518936">
        <ele>490.32</ele>
      </trkpt>
      <trkpt lat="43.91120999999998" lon="5.519375999999999">
        <ele>491.4636336927651</ele>
      </trkpt>
      <trkpt lat="43.91124999999999" lon="5.519521">
        <ele>491.8317148697397</ele>
      </trkpt>
      <trkpt lat="43.91127511992785" lon="5.5197600551935375">
        <ele>492.4314879969164</ele>
      </trkpt>
      <trkpt lat="43.91128217216353" lon="5.519953055193533">
        <ele>492.97051193336995</ele>
      </trkpt>
      <trkpt lat="43.911336375212" lon="5.520135495714844">
        <ele>493.61</ele>
      </trkpt>
      <trkpt lat="43.911361713701176" lon="5.5202332012341975">
        <ele>493.98959710374606</ele>
      </trkpt>
      <trkpt lat="43.911335" lon="5.520426">
        <ele>494.7265397846159</ele>
      </trkpt>
      <trkpt lat="43.91132" lon="5.520579">
        <ele>495.2468898617954</ele>
      </trkpt>
      <trkpt lat="43.911186" lon="5.520895">
        <ele>495.84630514033773</ele>
      </trkpt>
      <trkpt lat="43.911209" lon="5.520997">
        <ele>495.7538229143821</ele>
      </trkpt>
      <trkpt lat="43.911308" lon="5.521091">
        <ele>495.28</ele>
      </trkpt>
      <trkpt lat="43.911287" lon="5.521212">
        <ele>494.6366644953163</ele>
      </trkpt>
      <trkpt lat="43.911306" lon="5.521432">
        <ele>493.0841263278692</ele>
      </trkpt>
      <trkpt lat="43.911401" lon="5.521695">
        <ele>490.907352414517</ele>
      </trkpt>
      <trkpt lat="43.91145999999999" lon="5.5219570000000004">
        <ele>489.63</ele>
      </trkpt>
      <trkpt lat="43.911374" lon="5.522392">
        <ele>490.2685290102767</ele>
      </trkpt>
      <trkpt lat="43.911231" lon="5.522931">
        <ele>492.14303932372525</ele>
      </trkpt>
      <trkpt lat="43.911229" lon="5.523106">
        <ele>491.99</ele>
      </trkpt>
      <trkpt lat="43.911084" lon="5.523556">
        <ele>489.1709606828815</ele>
      </trkpt>
      <trkpt lat="43.911124" lon="5.523752">
        <ele>488.10488449190814</ele>
      </trkpt>
      <trkpt lat="43.911213" lon="5.523894">
        <ele>487.82217968989096</ele>
      </trkpt>
      <trkpt lat="43.911254" lon="5.524028">
        <ele>488.3256013873214</ele>
      </trkpt>
      <trkpt lat="43.911273" lon="5.524133">
        <ele>489.23</ele>
      </trkpt>
      <trkpt lat="43.911235" lon="5.524334">
        <ele>492.32612738076836</ele>
      </trkpt>
      <trkpt lat="43.911132" lon="5.524457">
        <ele>496.2390134095597</ele>
      </trkpt>
      <trkpt lat="43.910821" lon="5.524645">
        <ele>507.0277941806272</ele>
      </trkpt>
      <trkpt lat="43.910688" lon="5.524811">
        <ele>511.17</ele>
      </trkpt>
      <trkpt lat="43.910645" lon="5.525112">
        <ele>513.2495662989195</ele>
      </trkpt>
      <trkpt lat="43.910682" lon="5.525238">
        <ele>513.4552786374193</ele>
      </trkpt>
      <trkpt lat="43.910713" lon="5.525318">
        <ele>513.49</ele>
      </trkpt>
      <trkpt lat="43.911184" lon="5.525836">
        <ele>512.943217952754</ele>
      </trkpt>
      <trkpt lat="43.911302" lon="5.526051">
        <ele>512.4010445331609</ele>
      </trkpt>
      <trkpt lat="43.911387" lon="5.526474">
        <ele>511.0501926006427</ele>
      </trkpt>
      <trkpt lat="43.91152" lon="5.526541">
        <ele>510.24</ele>
      </trkpt>
      <trkpt lat="43.911634" lon="5.526625">
        <ele>509.39196474196865</ele>
      </trkpt>
      <trkpt lat="43.911708" lon="5.526818">
        <ele>508.3023832484056</ele>
      </trkpt>
      <trkpt lat="43.911845" lon="5.52747">
        <ele>505.93</ele>
      </trkpt>
      <trkpt lat="43.911874" lon="5.527791">
        <ele>506.05654720222236</ele>
      </trkpt>
      <trkpt lat="43.912048" lon="5.528207">
        <ele>507.5667379026619</ele>
      </trkpt>
      <trkpt lat="43.912239" lon="5.528516">
        <ele>509.47</ele>
      </trkpt>
      <trkpt lat="43.912367" lon="5.528765">
        <ele>510.9884946233313</ele>
      </trkpt>
      <trkpt lat="43.912564" lon="5.529275">
        <ele>514.517035311197</ele>
      </trkpt>
      <trkpt lat="43.912668" lon="5.529578">
        <ele>517.38</ele>
      </trkpt>
      <trkpt lat="43.912796" lon="5.530028">
        <ele>522.4128368381291</ele>
      </trkpt>
      <trkpt lat="43.912896" lon="5.530621">
        <ele>525.45</ele>
      </trkpt>
      <trkpt lat="43.913012" lon="5.530844">
        <ele>524.1217997817503</ele>
      </trkpt>
      <trkpt lat="43.913171" lon="5.530927">
        <ele>522.5389329005071</ele>
      </trkpt>
      <trkpt lat="43.913304" lon="5.530938">
        <ele>521.7621012977704</ele>
      </trkpt>
      <trkpt lat="43.913346" lon="5.531021">
        <ele>521.72</ele>
      </trkpt>
      <trkpt lat="43.913062" lon="5.530991">
        <ele>524.6628551888973</ele>
      </trkpt>
      <trkpt lat="43.912842" lon="5.530844">
        <ele>529.5835994802264</ele>
      </trkpt>
      <trkpt lat="43.912713" lon="5.530782">
        <ele>532.5624732101078</ele>
      </trkpt>
      <trkpt lat="43.9124" lon="5.530677">
        <ele>538.03</ele>
      </trkpt>
      <trkpt lat="43.912033" lon="5.530018">
        <ele>538.75</ele>
      </trkpt>
      <trkpt lat="43.911818" lon="5.529677">
        <ele>539.3006255764199</ele>
      </trkpt>
      <trkpt lat="43.91158" lon="5.529256">
        <ele>542.1657279132598</ele>
      </trkpt>
      <trkpt lat="43.911393" lon="5.52906">
        <ele>545.06</ele>
      </trkpt>
      <trkpt lat="43.911039" lon="5.52884">
        <ele>551.1571746196427</ele>
      </trkpt>
      <trkpt lat="43.910753" lon="5.528593">
        <ele>555.65</ele>
      </trkpt>
      <trkpt lat="43.910365" lon="5.527655">
        <ele>556.655211953678</ele>
      </trkpt>
      <trkpt lat="43.910216" lon="5.527381">
        <ele>555.22</ele>
      </trkpt>
      <trkpt lat="43.909571" lon="5.526692">
        <ele>552.8</ele>
      </trkpt>
      <trkpt lat="43.909492" lon="5.526804">
        <ele>553.6338871711762</ele>
      </trkpt>
      <trkpt lat="43.909538" lon="5.526914">
        <ele>554.5303855980662</ele>
      </trkpt>
      <trkpt lat="43.909693" lon="5.527311">
        <ele>558.11</ele>
      </trkpt>
      <trkpt lat="43.909963" lon="5.527821">
        <ele>561.128979436605</ele>
      </trkpt>
      <trkpt lat="43.910139" lon="5.528229">
        <ele>562.8</ele>
      </trkpt>
      <trkpt lat="43.910313" lon="5.528832">
        <ele>566.290993474184</ele>
      </trkpt>
      <trkpt lat="43.910336" lon="5.52913">
        <ele>568.33</ele>
      </trkpt>
      <trkpt lat="43.910237" lon="5.529819">
        <ele>573.4716524100822</ele>
      </trkpt>
      <trkpt lat="43.910268" lon="5.53005">
        <ele>575.070458890321</ele>
      </trkpt>
      <trkpt lat="43.910427" lon="5.530452">
        <ele>577.62</ele>
      </trkpt>
      <trkpt lat="43.910523" lon="5.530787">
        <ele>578.9341192168628</ele>
      </trkpt>
      <trkpt lat="43.910595" lon="5.531141">
        <ele>579.97</ele>
      </trkpt>
      <trkpt lat="43.910827" lon="5.532043">
        <ele>583.08</ele>
      </trkpt>
      <trkpt lat="43.911141" lon="5.533998">
        <ele>590.5061765670706</ele>
      </trkpt>
      <trkpt lat="43.911141" lon="5.533998">
        <ele>590.5061765670706</ele>
      </trkpt>
      <trkpt lat="43.911294" lon="5.534948">
        <ele>593.27</ele>
      </trkpt>
      <trkpt lat="43.911358" lon="5.535197">
        <ele>593.8356876242837</ele>
      </trkpt>
      <trkpt lat="43.911292" lon="5.535444">
        <ele>594.4803944667523</ele>
      </trkpt>
      <trkpt lat="43.911219" lon="5.535591">
        <ele>595.0564676352712</ele>
      </trkpt>
      <trkpt lat="43.91115999999999" lon="5.5356369999999995">
        <ele>595.4271401429978</ele>
      </trkpt>
      <trkpt lat="43.91111" lon="5.535702">
        <ele>595.8615412930019</ele>
      </trkpt>
      <trkpt lat="43.911068" lon="5.535825">
        <ele>596.6045828686853</ele>
      </trkpt>
      <trkpt lat="43.911101" lon="5.536018">
        <ele>597.99</ele>
      </trkpt>
      <trkpt lat="43.911256" lon="5.536589">
        <ele>604.0993216219333</ele>
      </trkpt>
      <trkpt lat="43.911285" lon="5.536828">
        <ele>606.59</ele>
      </trkpt>
      <trkpt lat="43.911412" lon="5.537206">
        <ele>610.0058213445477</ele>
      </trkpt>
      <trkpt lat="43.911416" lon="5.537273">
        <ele>610.4493299864649</ele>
      </trkpt>
      <trkpt lat="43.911383" lon="5.537316">
        <ele>610.8373439275725</ele>
      </trkpt>
      <trkpt lat="43.911225" lon="5.537388">
        <ele>612.0554219039617</ele>
      </trkpt>
      <trkpt lat="43.910952" lon="5.537455">
        <ele>613.41</ele>
      </trkpt>
      <trkpt lat="43.910676" lon="5.537442">
        <ele>614.1056276088506</ele>
      </trkpt>
      <trkpt lat="43.91037999999999" lon="5.537584">
        <ele>614.9019387561274</ele>
      </trkpt>
      <trkpt lat="43.91019" lon="5.537889999999999">
        <ele>616.55</ele>
      </trkpt>
      <trkpt lat="43.910104" lon="5.538088">
        <ele>618.1614346712857</ele>
      </trkpt>
      <trkpt lat="43.910002" lon="5.538941">
        <ele>625.09</ele>
      </trkpt>
      <trkpt lat="43.90991000000001" lon="5.539258000000001">
        <ele>626.4796291937724</ele>
      </trkpt>
      <trkpt lat="43.909766" lon="5.539454">
        <ele>627.1266304324448</ele>
      </trkpt>
      <trkpt lat="43.90965" lon="5.539424">
        <ele>627.4661735881955</ele>
      </trkpt>
      <trkpt lat="43.909439" lon="5.539405">
        <ele>628.29</ele>
      </trkpt>
      <trkpt lat="43.909155" lon="5.539593">
        <ele>630.480031801291</ele>
      </trkpt>
      <trkpt lat="43.90898" lon="5.539977">
        <ele>633.4349057755136</ele>
      </trkpt>
      <trkpt lat="43.908889" lon="5.540317">
        <ele>635.69</ele>
      </trkpt>
      <trkpt lat="43.908813" lon="5.540634">
        <ele>637.3241590951354</ele>
      </trkpt>
      <trkpt lat="43.908715" lon="5.541495">
        <ele>639.69</ele>
      </trkpt>
      <trkpt lat="43.908639" lon="5.542029">
        <ele>640.351218426116</ele>
      </trkpt>
      <trkpt lat="43.908659" lon="5.542358">
        <ele>640.99</ele>
      </trkpt>
      <trkpt lat="43.908728" lon="5.542793">
        <ele>642.4731943145491</ele>
      </trkpt>
      <trkpt lat="43.908738" lon="5.543115">
        <ele>643.54</ele>
      </trkpt>
      <trkpt lat="43.908531" lon="5.544064">
        <ele>645.040893180521</ele>
      </trkpt>
      <trkpt lat="43.908440000000006" lon="5.544144999999999">
        <ele>645.2582642772618</ele>
      </trkpt>
      <trkpt lat="43.908319999999975" lon="5.544306000000001">
        <ele>645.7185449293268</ele>
      </trkpt>
      <trkpt lat="43.908187" lon="5.544421">
        <ele>646.35</ele>
      </trkpt>
      <trkpt lat="43.908029999999975" lon="5.544530999999999">
        <ele>647.3505311371273</ele>
      </trkpt>
      <trkpt lat="43.907909999999994" lon="5.544757">
        <ele>648.865942177481</ele>
      </trkpt>
      <trkpt lat="43.90788" lon="5.5448960000000005">
        <ele>649.7866301881711</ele>
      </trkpt>
      <trkpt lat="43.90788999999998" lon="5.545041">
        <ele>650.7956639963262</ele>
      </trkpt>
      <trkpt lat="43.907849999999996" lon="5.545154000000001">
        <ele>651.73</ele>
      </trkpt>
      <trkpt lat="43.90760999999999" lon="5.545421999999999">
        <ele>655.1906959935899</ele>
      </trkpt>
      <trkpt lat="43.907559999999975" lon="5.545545">
        <ele>656.3601130438857</ele>
      </trkpt>
      <trkpt lat="43.907227" lon="5.546049">
        <ele>661.22</ele>
      </trkpt>
      <trkpt lat="43.906856" lon="5.546505">
        <ele>663.4932222127147</ele>
      </trkpt>
      <trkpt lat="43.906719999999986" lon="5.546676999999999">
        <ele>663.7834614597347</ele>
      </trkpt>
      <trkpt lat="43.90656" lon="5.546833">
        <ele>663.89</ele>
      </trkpt>
      <trkpt lat="43.90647999999999" lon="5.546908">
        <ele>663.8914103318509</ele>
      </trkpt>
      <trkpt lat="43.90635" lon="5.54709">
        <ele>663.8335126422303</ele>
      </trkpt>
      <trkpt lat="43.90608999999999" lon="5.547637">
        <ele>663.59</ele>
      </trkpt>
      <trkpt lat="43.905961" lon="5.547836">
        <ele>663.5603895963346</ele>
      </trkpt>
      <trkpt lat="43.905750000000005" lon="5.548194999999999">
        <ele>663.5566847413276</ele>
      </trkpt>
      <trkpt lat="43.905671" lon="5.548318">
        <ele>663.5355731316428</ele>
      </trkpt>
      <trkpt lat="43.90557" lon="5.54864">
        <ele>663.39</ele>
      </trkpt>
      <trkpt lat="43.90541" lon="5.548962000000001">
        <ele>663.0084007711837</ele>
      </trkpt>
      <trkpt lat="43.90517999999999" lon="5.549681">
        <ele>661.84</ele>
      </trkpt>
      <trkpt lat="43.905030000000004" lon="5.550014">
        <ele>661.2586712602902</ele>
      </trkpt>
      <trkpt lat="43.90494999999999" lon="5.5501689999999995">
        <ele>661.0135933631939</ele>
      </trkpt>
      <trkpt lat="43.90487" lon="5.55055">
        <ele>660.63</ele>
      </trkpt>
      <trkpt lat="43.90462000000001" lon="5.551006">
        <ele>660.06</ele>
      </trkpt>
      <trkpt lat="43.90438" lon="5.551671">
        <ele>657.2623795927108</ele>
      </trkpt>
      <trkpt lat="43.90427" lon="5.551891">
        <ele>655.8845563647479</ele>
      </trkpt>
      <trkpt lat="43.904189999999986" lon="5.552245">
        <ele>653.9644291298445</ele>
      </trkpt>
      <trkpt lat="43.904099999999985" lon="5.552514">
        <ele>652.6</ele>
      </trkpt>
      <trkpt lat="43.904032" lon="5.552739">
        <ele>651.66320766964</ele>
      </trkpt>
      <trkpt lat="43.90375999999999" lon="5.553367000000001">
        <ele>648.37</ele>
      </trkpt>
      <trkpt lat="43.90364" lon="5.55371">
        <ele>645.4294850750481</ele>
      </trkpt>
      <trkpt lat="43.903551" lon="5.55398">
        <ele>642.731421740808</ele>
      </trkpt>
      <trkpt lat="43.903455" lon="5.554485">
        <ele>638.13</ele>
      </trkpt>
      <trkpt lat="43.90337999999999" lon="5.55474">
        <ele>636.1891445630991</ele>
      </trkpt>
      <trkpt lat="43.90319999999999" lon="5.555346">
        <ele>632.566690849883</ele>
      </trkpt>
      <trkpt lat="43.90317999999999" lon="5.555394">
        <ele>632.2810015520777</ele>
      </trkpt>
      <trkpt lat="43.90310999999999" lon="5.555555">
        <ele>631.29</ele>
      </trkpt>
      <trkpt lat="43.902979999999985" lon="5.555984">
        <ele>628.6578230827632</ele>
      </trkpt>
      <trkpt lat="43.902948" lon="5.556258">
        <ele>627.13</ele>
      </trkpt>
      <trkpt lat="43.90272" lon="5.557067999999999">
        <ele>623.4461616846802</ele>
      </trkpt>
      <trkpt lat="43.902668" lon="5.557336">
        <ele>622.62</ele>
      </trkpt>
      <trkpt lat="43.90254999999999" lon="5.557808">
        <ele>621.4882512605768</ele>
      </trkpt>
      <trkpt lat="43.90250999999999" lon="5.558043999999999">
        <ele>621.0432733110124</ele>
      </trkpt>
      <trkpt lat="43.90252" lon="5.558168">
        <ele>620.8265670805897</ele>
      </trkpt>
      <trkpt lat="43.902351" lon="5.558589">
        <ele>619.98</ele>
      </trkpt>
      <trkpt lat="43.902144" lon="5.558977">
        <ele>619.16</ele>
      </trkpt>
      <trkpt lat="43.900823" lon="5.559854">
        <ele>623.42</ele>
      </trkpt>
      <trkpt lat="43.900639999999996" lon="5.559975">
        <ele>624.6880717637201</ele>
      </trkpt>
      <trkpt lat="43.90043999999999" lon="5.560169">
        <ele>625.6318422866012</ele>
      </trkpt>
      <trkpt lat="43.90032" lon="5.560393999999999">
        <ele>625.3</ele>
      </trkpt>
      <trkpt lat="43.90007999999999" lon="5.560904000000001">
        <ele>620.7198321884415</ele>
      </trkpt>
      <trkpt lat="43.899821" lon="5.561284">
        <ele>617.23</ele>
      </trkpt>
      <trkpt lat="43.89939999999998" lon="5.561773">
        <ele>618.9108932488385</ele>
      </trkpt>
      <trkpt lat="43.89928" lon="5.562062">
        <ele>619.49</ele>
      </trkpt>
      <trkpt lat="43.899079999999984" lon="5.562465">
        <ele>617.6069874773451</ele>
      </trkpt>
      <trkpt lat="43.898859999999985" lon="5.562776">
        <ele>615.3977179151269</ele>
      </trkpt>
      <trkpt lat="43.898648" lon="5.563001">
        <ele>615.29</ele>
      </trkpt>
      <trkpt lat="43.89828999999999" lon="5.563275">
        <ele>619.39</ele>
      </trkpt>
      <trkpt lat="43.897836" lon="5.563628">
        <ele>622.1793599253043</ele>
      </trkpt>
      <trkpt lat="43.897618" lon="5.563905">
        <ele>621.9376187754929</ele>
      </trkpt>
      <trkpt lat="43.897379999999984" lon="5.564272000000001">
        <ele>620.56</ele>
      </trkpt>
      <trkpt lat="43.897119" lon="5.564776">
        <ele>618.3775708307328</ele>
      </trkpt>
      <trkpt lat="43.896961" lon="5.565028">
        <ele>617.8478955834471</ele>
      </trkpt>
      <trkpt lat="43.89682" lon="5.565214">
        <ele>618.15</ele>
      </trkpt>
      <trkpt lat="43.896391" lon="5.565318">
        <ele>621.3272663229058</ele>
      </trkpt>
      <trkpt lat="43.89638" lon="5.565265">
        <ele>621</ele>
      </trkpt>
    </trkseg>
  </trk>
</gpx>
