<?xml version="1.0" ?>
<gpx xmlns="http://www.topografix.com/GPX/1/1" xmlns:xsi="http://www.w3.org/2001/XMLSchema-instance" xsi:schemaLocation="http://www.topografix.com/GPX/1/1 http://www.topografix.com/GPX/1/1/gpx.xsd" version="1.1" creator="EditGPX">
  <trk>
    <name>NewTrack</name>
    <trkseg>
      <trkpt lat="43.903300" lon="5.357447">
        <ele>273.4</ele>
      </trkpt>
      <trkpt lat="43.903331" lon="5.357613">
        <ele>273.1</ele>
      </trkpt>
      <trkpt lat="43.903619" lon="5.357605">
        <ele>272.8</ele>
      </trkpt>
      <trkpt lat="43.903872" lon="5.357605">
        <ele>273.3</ele>
      </trkpt>
      <trkpt lat="43.904032" lon="5.357611">
        <ele>273.8</ele>
      </trkpt>
      <trkpt lat="43.904077" lon="5.357656">
        <ele>273.8</ele>
      </trkpt>
      <trkpt lat="43.904117" lon="5.357688">
        <ele>273.7</ele>
      </trkpt>
      <trkpt lat="43.904181" lon="5.357678">
        <ele>276.1</ele>
      </trkpt>
      <trkpt lat="43.904187" lon="5.357597">
        <ele>275.8</ele>
      </trkpt>
      <trkpt lat="43.904168" lon="5.357514">
        <ele>275.1</ele>
      </trkpt>
      <trkpt lat="43.904162" lon="5.357463">
        <ele>274.9</ele>
      </trkpt>
      <trkpt lat="43.904181" lon="5.357353">
        <ele>275.9</ele>
      </trkpt>
      <trkpt lat="43.904247" lon="5.356677">
        <ele>274.9</ele>
      </trkpt>
      <trkpt lat="43.904328" lon="5.355840">
        <ele>277.7</ele>
      </trkpt>
      <trkpt lat="43.904371" lon="5.355679">
        <ele>279.6</ele>
      </trkpt>
      <trkpt lat="43.904554" lon="5.355403">
        <ele>281</ele>
      </trkpt>
      <trkpt lat="43.904664" lon="5.355215">
        <ele>281.6</ele>
      </trkpt>
      <trkpt lat="43.904811" lon="5.355065">
        <ele>282.4</ele>
      </trkpt>
      <trkpt lat="43.904955" lon="5.354995">
        <ele>284</ele>
      </trkpt>
      <trkpt lat="43.905065" lon="5.355127">
        <ele>283.8</ele>
      </trkpt>
      <trkpt lat="43.905215" lon="5.355057">
        <ele>283.8</ele>
      </trkpt>
      <trkpt lat="43.905426" lon="5.354923">
        <ele>285.3</ele>
      </trkpt>
      <trkpt lat="43.905401" lon="5.354767">
        <ele>285.5</ele>
      </trkpt>
      <trkpt lat="43.905723" lon="5.354521">
        <ele>286.1</ele>
      </trkpt>
      <trkpt lat="43.906067" lon="5.354126">
        <ele>289.4</ele>
      </trkpt>
      <trkpt lat="43.906294" lon="5.353893">
        <ele>290.2</ele>
      </trkpt>
      <trkpt lat="43.906576" lon="5.353518">
        <ele>291.2</ele>
      </trkpt>
      <trkpt lat="43.906651" lon="5.353450">
        <ele>291.4</ele>
      </trkpt>
      <trkpt lat="43.906968" lon="5.353150">
        <ele>294.2</ele>
      </trkpt>
      <trkpt lat="43.907237" lon="5.352992">
        <ele>294.4</ele>
      </trkpt>
      <trkpt lat="43.907318" lon="5.352874">
        <ele>294.6</ele>
      </trkpt>
      <trkpt lat="43.907403" lon="5.352520">
        <ele>295.1</ele>
      </trkpt>
      <trkpt lat="43.907633" lon="5.352147">
        <ele>298</ele>
      </trkpt>
      <trkpt lat="43.907747" lon="5.351938">
        <ele>298.9</ele>
      </trkpt>
      <trkpt lat="43.907788" lon="5.351790">
        <ele>299.3</ele>
      </trkpt>
      <trkpt lat="43.907803" lon="5.351573">
        <ele>301.5</ele>
      </trkpt>
      <trkpt lat="43.907706" lon="5.351106">
        <ele>302.3</ele>
      </trkpt>
      <trkpt lat="43.907626" lon="5.350451">
        <ele>304.3</ele>
      </trkpt>
      <trkpt lat="43.907625" lon="5.350131">
        <ele>304.9</ele>
      </trkpt>
      <trkpt lat="43.907614" lon="5.349832">
        <ele>306.8</ele>
      </trkpt>
      <trkpt lat="43.907706" lon="5.349706">
        <ele>307.2</ele>
      </trkpt>
      <trkpt lat="43.907707" lon="5.349662">
        <ele>307.3</ele>
      </trkpt>
      <trkpt lat="43.907697" lon="5.349621">
        <ele>307.4</ele>
      </trkpt>
      <trkpt lat="43.907696" lon="5.349575">
        <ele>307.5</ele>
      </trkpt>
      <trkpt lat="43.907704" lon="5.349530">
        <ele>307.6</ele>
      </trkpt>
      <trkpt lat="43.907712" lon="5.349487">
        <ele>307.8</ele>
      </trkpt>
      <trkpt lat="43.907716" lon="5.349440">
        <ele>307.9</ele>
      </trkpt>
      <trkpt lat="43.907718" lon="5.349389">
        <ele>308</ele>
      </trkpt>
      <trkpt lat="43.907720" lon="5.349339">
        <ele>308.1</ele>
      </trkpt>
      <trkpt lat="43.907711" lon="5.349247">
        <ele>308.3</ele>
      </trkpt>
      <trkpt lat="43.907690" lon="5.349215">
        <ele>308.4</ele>
      </trkpt>
      <trkpt lat="43.907664" lon="5.349195">
        <ele>308.4</ele>
      </trkpt>
      <trkpt lat="43.907638" lon="5.349179">
        <ele>308.5</ele>
      </trkpt>
      <trkpt lat="43.907624" lon="5.349155">
        <ele>309.5</ele>
      </trkpt>
      <trkpt lat="43.907625" lon="5.349128">
        <ele>309.5</ele>
      </trkpt>
      <trkpt lat="43.907633" lon="5.349097">
        <ele>309.5</ele>
      </trkpt>
      <trkpt lat="43.907647" lon="5.349070">
        <ele>309.6</ele>
      </trkpt>
      <trkpt lat="43.907661" lon="5.349047">
        <ele>309.6</ele>
      </trkpt>
      <trkpt lat="43.907669" lon="5.349020">
        <ele>309.7</ele>
      </trkpt>
      <trkpt lat="43.907670" lon="5.348983">
        <ele>309.7</ele>
      </trkpt>
      <trkpt lat="43.907665" lon="5.348947">
        <ele>309.7</ele>
      </trkpt>
      <trkpt lat="43.907666" lon="5.348912">
        <ele>309.8</ele>
      </trkpt>
      <trkpt lat="43.907669" lon="5.348877">
        <ele>309.8</ele>
      </trkpt>
      <trkpt lat="43.907666" lon="5.348848">
        <ele>309.8</ele>
      </trkpt>
      <trkpt lat="43.907656" lon="5.348822">
        <ele>309.8</ele>
      </trkpt>
      <trkpt lat="43.907643" lon="5.348804">
        <ele>309.8</ele>
      </trkpt>
      <trkpt lat="43.907631" lon="5.348794">
        <ele>309.7</ele>
      </trkpt>
      <trkpt lat="43.907615" lon="5.348791">
        <ele>309.7</ele>
      </trkpt>
      <trkpt lat="43.907595" lon="5.348786">
        <ele>309.7</ele>
      </trkpt>
      <trkpt lat="43.907575" lon="5.348771">
        <ele>309.7</ele>
      </trkpt>
      <trkpt lat="43.907547" lon="5.348753">
        <ele>309.6</ele>
      </trkpt>
      <trkpt lat="43.907517" lon="5.348735">
        <ele>309.6</ele>
      </trkpt>
      <trkpt lat="43.907483" lon="5.348714">
        <ele>307.7</ele>
      </trkpt>
      <trkpt lat="43.907450" lon="5.348696">
        <ele>307.6</ele>
      </trkpt>
      <trkpt lat="43.907378" lon="5.348684">
        <ele>307.6</ele>
      </trkpt>
      <trkpt lat="43.907359" lon="5.348680">
        <ele>307.5</ele>
      </trkpt>
      <trkpt lat="43.907340" lon="5.348676">
        <ele>307.5</ele>
      </trkpt>
      <trkpt lat="43.907270" lon="5.348727">
        <ele>307.5</ele>
      </trkpt>
      <trkpt lat="43.907154" lon="5.348797">
        <ele>307.4</ele>
      </trkpt>
      <trkpt lat="43.907013" lon="5.348877">
        <ele>307.5</ele>
      </trkpt>
      <trkpt lat="43.906858" lon="5.348936">
        <ele>307.6</ele>
      </trkpt>
      <trkpt lat="43.906715" lon="5.348877">
        <ele>307.4</ele>
      </trkpt>
      <trkpt lat="43.906582" lon="5.348655">
        <ele>304.7</ele>
      </trkpt>
      <trkpt lat="43.906477" lon="5.348537">
        <ele>304.3</ele>
      </trkpt>
      <trkpt lat="43.906398" lon="5.348526">
        <ele>304.3</ele>
      </trkpt>
      <trkpt lat="43.906249" lon="5.348598">
        <ele>304.4</ele>
      </trkpt>
      <trkpt lat="43.906159" lon="5.348566">
        <ele>304.1</ele>
      </trkpt>
      <trkpt lat="43.906031" lon="5.348384">
        <ele>303.4</ele>
      </trkpt>
      <trkpt lat="43.905959" lon="5.348327">
        <ele>301</ele>
      </trkpt>
      <trkpt lat="43.906007" lon="5.348266">
        <ele>300.6</ele>
      </trkpt>
      <trkpt lat="43.906034" lon="5.348204">
        <ele>300.3</ele>
      </trkpt>
      <trkpt lat="43.906033" lon="5.348132">
        <ele>300</ele>
      </trkpt>
      <trkpt lat="43.906005" lon="5.348057">
        <ele>299.8</ele>
      </trkpt>
      <trkpt lat="43.905955" lon="5.347963">
        <ele>299.4</ele>
      </trkpt>
      <trkpt lat="43.905890" lon="5.347778">
        <ele>298.5</ele>
      </trkpt>
      <trkpt lat="43.905934" lon="5.347729">
        <ele>298.3</ele>
      </trkpt>
      <trkpt lat="43.905983" lon="5.347652">
        <ele>298.1</ele>
      </trkpt>
      <trkpt lat="43.906037" lon="5.347491">
        <ele>296.2</ele>
      </trkpt>
      <trkpt lat="43.906139" lon="5.347375">
        <ele>295.9</ele>
      </trkpt>
      <trkpt lat="43.906305" lon="5.347295">
        <ele>295.6</ele>
      </trkpt>
      <trkpt lat="43.906394" lon="5.347237">
        <ele>295.5</ele>
      </trkpt>
      <trkpt lat="43.906420" lon="5.347214">
        <ele>295.5</ele>
      </trkpt>
      <trkpt lat="43.906451" lon="5.347192">
        <ele>295.5</ele>
      </trkpt>
      <trkpt lat="43.906599" lon="5.347146">
        <ele>295.5</ele>
      </trkpt>
      <trkpt lat="43.906954" lon="5.346958">
        <ele>297.9</ele>
      </trkpt>
      <trkpt lat="43.907196" lon="5.346707">
        <ele>298.7</ele>
      </trkpt>
      <trkpt lat="43.907231" lon="5.346640">
        <ele>298.8</ele>
      </trkpt>
      <trkpt lat="43.907301" lon="5.346557">
        <ele>298.9</ele>
      </trkpt>
      <trkpt lat="43.907316" lon="5.346514">
        <ele>298.9</ele>
      </trkpt>
      <trkpt lat="43.907338" lon="5.346478">
        <ele>298.9</ele>
      </trkpt>
      <trkpt lat="43.907391" lon="5.346402">
        <ele>298.9</ele>
      </trkpt>
      <trkpt lat="43.907471" lon="5.346332">
        <ele>298.9</ele>
      </trkpt>
      <trkpt lat="43.907654" lon="5.346108">
        <ele>300.6</ele>
      </trkpt>
      <trkpt lat="43.907670" lon="5.346010">
        <ele>300.6</ele>
      </trkpt>
      <trkpt lat="43.907799" lon="5.345833">
        <ele>299.2</ele>
      </trkpt>
      <trkpt lat="43.907790" lon="5.345790">
        <ele>299.2</ele>
      </trkpt>
      <trkpt lat="43.907751" lon="5.345806">
        <ele>299.2</ele>
      </trkpt>
      <trkpt lat="43.907013" lon="5.346710">
        <ele>298.1</ele>
      </trkpt>
      <trkpt lat="43.906991" lon="5.346737">
        <ele>298.1</ele>
      </trkpt>
      <trkpt lat="43.906846" lon="5.346882">
        <ele>297.7</ele>
      </trkpt>
      <trkpt lat="43.906622" lon="5.346992">
        <ele>295.9</ele>
      </trkpt>
      <trkpt lat="43.906311" lon="5.347110">
        <ele>295.7</ele>
      </trkpt>
      <trkpt lat="43.905890" lon="5.347169">
        <ele>296</ele>
      </trkpt>
      <trkpt lat="43.905911" lon="5.346340">
        <ele>295.8</ele>
      </trkpt>
      <trkpt lat="43.905716" lon="5.346203">
        <ele>296.9</ele>
      </trkpt>
      <trkpt lat="43.905469" lon="5.345999">
        <ele>297.4</ele>
      </trkpt>
      <trkpt lat="43.905105" lon="5.345592">
        <ele>297</ele>
      </trkpt>
      <trkpt lat="43.905153" lon="5.345466">
        <ele>296.4</ele>
      </trkpt>
      <trkpt lat="43.905184" lon="5.345404">
        <ele>296.2</ele>
      </trkpt>
      <trkpt lat="43.905192" lon="5.345358">
        <ele>296.1</ele>
      </trkpt>
      <trkpt lat="43.905147" lon="5.345305">
        <ele>296</ele>
      </trkpt>
      <trkpt lat="43.905103" lon="5.345243">
        <ele>295.8</ele>
      </trkpt>
      <trkpt lat="43.904968" lon="5.345187">
        <ele>296.1</ele>
      </trkpt>
      <trkpt lat="43.904856" lon="5.345211">
        <ele>296.3</ele>
      </trkpt>
      <trkpt lat="43.904767" lon="5.345256">
        <ele>296.5</ele>
      </trkpt>
      <trkpt lat="43.904657" lon="5.345243">
        <ele>296.6</ele>
      </trkpt>
      <trkpt lat="43.904591" lon="5.345028">
        <ele>296.6</ele>
      </trkpt>
      <trkpt lat="43.904471" lon="5.344857">
        <ele>297.3</ele>
      </trkpt>
      <trkpt lat="43.904443" lon="5.344776">
        <ele>297.5</ele>
      </trkpt>
      <trkpt lat="43.904415" lon="5.344613">
        <ele>297.7</ele>
      </trkpt>
      <trkpt lat="43.904454" lon="5.344409">
        <ele>298</ele>
      </trkpt>
      <trkpt lat="43.904432" lon="5.343985">
        <ele>299.2</ele>
      </trkpt>
      <trkpt lat="43.904410" lon="5.343854">
        <ele>299.2</ele>
      </trkpt>
      <trkpt lat="43.904336" lon="5.343805">
        <ele>299.5</ele>
      </trkpt>
      <trkpt lat="43.904071" lon="5.343639">
        <ele>301.5</ele>
      </trkpt>
      <trkpt lat="43.903975" lon="5.343473">
        <ele>301.8</ele>
      </trkpt>
      <trkpt lat="43.903608" lon="5.342974">
        <ele>301.7</ele>
      </trkpt>
      <trkpt lat="43.903528" lon="5.342880">
        <ele>301.5</ele>
      </trkpt>
      <trkpt lat="43.903472" lon="5.342775">
        <ele>301.5</ele>
      </trkpt>
      <trkpt lat="43.903461" lon="5.342714">
        <ele>301.4</ele>
      </trkpt>
      <trkpt lat="43.903436" lon="5.342657">
        <ele>301.3</ele>
      </trkpt>
      <trkpt lat="43.903374" lon="5.342647">
        <ele>301.3</ele>
      </trkpt>
      <trkpt lat="43.903181" lon="5.342673">
        <ele>299.7</ele>
      </trkpt>
      <trkpt lat="43.903049" lon="5.342757">
        <ele>299.2</ele>
      </trkpt>
      <trkpt lat="43.903009" lon="5.342789">
        <ele>299</ele>
      </trkpt>
      <trkpt lat="43.902823" lon="5.342955">
        <ele>298.5</ele>
      </trkpt>
      <trkpt lat="43.902668" lon="5.343009">
        <ele>298</ele>
      </trkpt>
      <trkpt lat="43.902450" lon="5.343145">
        <ele>298.9</ele>
      </trkpt>
      <trkpt lat="43.902359" lon="5.343194">
        <ele>299.2</ele>
      </trkpt>
      <trkpt lat="43.902295" lon="5.343237">
        <ele>299.5</ele>
      </trkpt>
      <trkpt lat="43.902068" lon="5.343298">
        <ele>301.4</ele>
      </trkpt>
      <trkpt lat="43.901897" lon="5.343317">
        <ele>302.5</ele>
      </trkpt>
      <trkpt lat="43.901692" lon="5.343210">
        <ele>303.4</ele>
      </trkpt>
      <trkpt lat="43.901628" lon="5.343220">
        <ele>307.6</ele>
      </trkpt>
      <trkpt lat="43.901546" lon="5.343234">
        <ele>308.4</ele>
      </trkpt>
      <trkpt lat="43.901430" lon="5.343336">
        <ele>306.1</ele>
      </trkpt>
      <trkpt lat="43.901021" lon="5.343415">
        <ele>310.7</ele>
      </trkpt>
      <trkpt lat="43.900929" lon="5.343471">
        <ele>311.4</ele>
      </trkpt>
      <trkpt lat="43.900846" lon="5.343394">
        <ele>313.9</ele>
      </trkpt>
      <trkpt lat="43.900879" lon="5.343306">
        <ele>315.5</ele>
      </trkpt>
      <trkpt lat="43.900855" lon="5.343253">
        <ele>315.4</ele>
      </trkpt>
      <trkpt lat="43.900776" lon="5.343175">
        <ele>317</ele>
      </trkpt>
      <trkpt lat="43.900817" lon="5.343073">
        <ele>317.6</ele>
      </trkpt>
      <trkpt lat="43.900850" lon="5.342931">
        <ele>315.7</ele>
      </trkpt>
      <trkpt lat="43.900854" lon="5.342832">
        <ele>316.4</ele>
      </trkpt>
      <trkpt lat="43.900927" lon="5.342775">
        <ele>316.6</ele>
      </trkpt>
      <trkpt lat="43.900987" lon="5.342663">
        <ele>317.4</ele>
      </trkpt>
      <trkpt lat="43.901028" lon="5.342561">
        <ele>317.7</ele>
      </trkpt>
      <trkpt lat="43.901012" lon="5.342519">
        <ele>318.1</ele>
      </trkpt>
      <trkpt lat="43.900975" lon="5.342378">
        <ele>320.6</ele>
      </trkpt>
      <trkpt lat="43.900905" lon="5.342253">
        <ele>320.5</ele>
      </trkpt>
      <trkpt lat="43.900859" lon="5.342082">
        <ele>320.5</ele>
      </trkpt>
      <trkpt lat="43.900829" lon="5.341909">
        <ele>322.9</ele>
      </trkpt>
      <trkpt lat="43.900813" lon="5.341699">
        <ele>324.5</ele>
      </trkpt>
      <trkpt lat="43.900767" lon="5.341492">
        <ele>322.6</ele>
      </trkpt>
      <trkpt lat="43.900710" lon="5.341342">
        <ele>321.5</ele>
      </trkpt>
      <trkpt lat="43.900644" lon="5.341179">
        <ele>320.8</ele>
      </trkpt>
      <trkpt lat="43.900570" lon="5.341004">
        <ele>320.3</ele>
      </trkpt>
      <trkpt lat="43.900251" lon="5.341061">
        <ele>319.6</ele>
      </trkpt>
      <trkpt lat="43.900218" lon="5.340925">
        <ele>319.1</ele>
      </trkpt>
      <trkpt lat="43.900175" lon="5.340927">
        <ele>318.9</ele>
      </trkpt>
      <trkpt lat="43.900117" lon="5.340849">
        <ele>318.3</ele>
      </trkpt>
      <trkpt lat="43.900040" lon="5.340914">
        <ele>318</ele>
      </trkpt>
      <trkpt lat="43.899891" lon="5.340959">
        <ele>317.8</ele>
      </trkpt>
      <trkpt lat="43.899820" lon="5.340941">
        <ele>317.9</ele>
      </trkpt>
      <trkpt lat="43.899640" lon="5.340807">
        <ele>313.4</ele>
      </trkpt>
      <trkpt lat="43.899451" lon="5.340592">
        <ele>312.6</ele>
      </trkpt>
      <trkpt lat="43.899259" lon="5.340337">
        <ele>310.7</ele>
      </trkpt>
      <trkpt lat="43.899153" lon="5.340281">
        <ele>309.5</ele>
      </trkpt>
      <trkpt lat="43.899043" lon="5.340195">
        <ele>308.8</ele>
      </trkpt>
      <trkpt lat="43.898942" lon="5.340184">
        <ele>308.7</ele>
      </trkpt>
      <trkpt lat="43.898486" lon="5.340404">
        <ele>308.8</ele>
      </trkpt>
      <trkpt lat="43.898357" lon="5.340546">
        <ele>310.2</ele>
      </trkpt>
      <trkpt lat="43.898279" lon="5.340900">
        <ele>314</ele>
      </trkpt>
      <trkpt lat="43.898241" lon="5.340981">
        <ele>314</ele>
      </trkpt>
      <trkpt lat="43.898159" lon="5.340954">
        <ele>314</ele>
      </trkpt>
      <trkpt lat="43.897949" lon="5.340782">
        <ele>309.4</ele>
      </trkpt>
      <trkpt lat="43.897881" lon="5.340804">
        <ele>309.3</ele>
      </trkpt>
      <trkpt lat="43.897676" lon="5.340866">
        <ele>313</ele>
      </trkpt>
      <trkpt lat="43.897599" lon="5.340903">
        <ele>312.8</ele>
      </trkpt>
      <trkpt lat="43.897504" lon="5.340957">
        <ele>312.8</ele>
      </trkpt>
      <trkpt lat="43.897392" lon="5.341075">
        <ele>309</ele>
      </trkpt>
      <trkpt lat="43.897325" lon="5.341126">
        <ele>308.5</ele>
      </trkpt>
      <trkpt lat="43.897259" lon="5.341166">
        <ele>308.1</ele>
      </trkpt>
      <trkpt lat="43.897240" lon="5.341271">
        <ele>308.1</ele>
      </trkpt>
      <trkpt lat="43.897338" lon="5.341485">
        <ele>309.7</ele>
      </trkpt>
      <trkpt lat="43.897336" lon="5.341684">
        <ele>311.5</ele>
      </trkpt>
      <trkpt lat="43.897355" lon="5.341917">
        <ele>310.7</ele>
      </trkpt>
      <trkpt lat="43.897355" lon="5.341976">
        <ele>310.5</ele>
      </trkpt>
      <trkpt lat="43.897468" lon="5.342322">
        <ele>310.9</ele>
      </trkpt>
      <trkpt lat="43.897650" lon="5.342638">
        <ele>311.6</ele>
      </trkpt>
      <trkpt lat="43.897866" lon="5.342907">
        <ele>311.3</ele>
      </trkpt>
      <trkpt lat="43.898257" lon="5.343910">
        <ele>308.1</ele>
      </trkpt>
      <trkpt lat="43.898345" lon="5.344285">
        <ele>311.3</ele>
      </trkpt>
      <trkpt lat="43.898567" lon="5.344570">
        <ele>311.6</ele>
      </trkpt>
      <trkpt lat="43.898664" lon="5.344642">
        <ele>311.7</ele>
      </trkpt>
      <trkpt lat="43.898751" lon="5.344634">
        <ele>311.9</ele>
      </trkpt>
      <trkpt lat="43.899018" lon="5.344312">
        <ele>313.3</ele>
      </trkpt>
      <trkpt lat="43.899254" lon="5.343529">
        <ele>315.3</ele>
      </trkpt>
      <trkpt lat="43.899482" lon="5.342950">
        <ele>316</ele>
      </trkpt>
      <trkpt lat="43.899884" lon="5.342461">
        <ele>317.4</ele>
      </trkpt>
      <trkpt lat="43.899895" lon="5.342343">
        <ele>317.6</ele>
      </trkpt>
      <trkpt lat="43.900054" lon="5.342327">
        <ele>319.1</ele>
      </trkpt>
      <trkpt lat="43.900085" lon="5.342124">
        <ele>320.2</ele>
      </trkpt>
      <trkpt lat="43.900120" lon="5.341791">
        <ele>320.6</ele>
      </trkpt>
      <trkpt lat="43.900220" lon="5.341673">
        <ele>320.9</ele>
      </trkpt>
      <trkpt lat="43.900390" lon="5.341356">
        <ele>320.7</ele>
      </trkpt>
      <trkpt lat="43.900607" lon="5.340933">
        <ele>320.2</ele>
      </trkpt>
      <trkpt lat="43.900649" lon="5.340788">
        <ele>315.8</ele>
      </trkpt>
      <trkpt lat="43.900738" lon="5.340589">
        <ele>314.3</ele>
      </trkpt>
      <trkpt lat="43.900889" lon="5.340589">
        <ele>313.7</ele>
      </trkpt>
      <trkpt lat="43.901260" lon="5.340450">
        <ele>310.4</ele>
      </trkpt>
      <trkpt lat="43.901368" lon="5.340471">
        <ele>310.2</ele>
      </trkpt>
      <trkpt lat="43.901442" lon="5.340423">
        <ele>309.6</ele>
      </trkpt>
      <trkpt lat="43.901588" lon="5.340418">
        <ele>309.2</ele>
      </trkpt>
      <trkpt lat="43.901751" lon="5.340611">
        <ele>304.8</ele>
      </trkpt>
      <trkpt lat="43.901797" lon="5.340874">
        <ele>308.7</ele>
      </trkpt>
      <trkpt lat="43.901805" lon="5.341045">
        <ele>307.4</ele>
      </trkpt>
      <trkpt lat="43.901913" lon="5.341163">
        <ele>306</ele>
      </trkpt>
      <trkpt lat="43.902346" lon="5.341362">
        <ele>301.4</ele>
      </trkpt>
      <trkpt lat="43.902524" lon="5.341367">
        <ele>293.7</ele>
      </trkpt>
      <trkpt lat="43.902651" lon="5.341405">
        <ele>293.7</ele>
      </trkpt>
      <trkpt lat="43.902721" lon="5.341485">
        <ele>293.7</ele>
      </trkpt>
      <trkpt lat="43.902829" lon="5.341941">
        <ele>296.6</ele>
      </trkpt>
      <trkpt lat="43.902466" lon="5.343092">
        <ele>299.3</ele>
      </trkpt>
      <trkpt lat="43.902466" lon="5.343092">
        <ele>299.3</ele>
      </trkpt>
      <trkpt lat="43.902453" lon="5.343135">
        <ele>299</ele>
      </trkpt>
      <trkpt lat="43.902458" lon="5.343170">
        <ele>298.7</ele>
      </trkpt>
      <trkpt lat="43.902670" lon="5.343035">
        <ele>298</ele>
      </trkpt>
      <trkpt lat="43.902825" lon="5.342987">
        <ele>298.5</ele>
      </trkpt>
      <trkpt lat="43.903005" lon="5.342966">
        <ele>299</ele>
      </trkpt>
      <trkpt lat="43.903296" lon="5.343202">
        <ele>300.1</ele>
      </trkpt>
      <trkpt lat="43.903343" lon="5.343314">
        <ele>301.1</ele>
      </trkpt>
      <trkpt lat="43.903322" lon="5.343497">
        <ele>298.3</ele>
      </trkpt>
      <trkpt lat="43.903381" lon="5.343765">
        <ele>299.2</ele>
      </trkpt>
      <trkpt lat="43.903499" lon="5.343886">
        <ele>298.7</ele>
      </trkpt>
      <trkpt lat="43.903783" lon="5.343945">
        <ele>299.9</ele>
      </trkpt>
      <trkpt lat="43.904002" lon="5.344098">
        <ele>300.9</ele>
      </trkpt>
      <trkpt lat="43.904135" lon="5.344277">
        <ele>299.5</ele>
      </trkpt>
      <trkpt lat="43.904400" lon="5.344999">
        <ele>297.5</ele>
      </trkpt>
      <trkpt lat="43.904605" lon="5.345299">
        <ele>296.7</ele>
      </trkpt>
      <trkpt lat="43.904995" lon="5.345517">
        <ele>297.2</ele>
      </trkpt>
      <trkpt lat="43.905223" lon="5.345755">
        <ele>297.1</ele>
      </trkpt>
      <trkpt lat="43.905447" lon="5.346015">
        <ele>297.4</ele>
      </trkpt>
      <trkpt lat="43.905838" lon="5.346313">
        <ele>295.8</ele>
      </trkpt>
      <trkpt lat="43.905816" lon="5.347169">
        <ele>297.2</ele>
      </trkpt>
      <trkpt lat="43.905793" lon="5.347649">
        <ele>298.3</ele>
      </trkpt>
      <trkpt lat="43.905658" lon="5.348156">
        <ele>300.5</ele>
      </trkpt>
      <trkpt lat="43.905627" lon="5.348309">
        <ele>300.8</ele>
      </trkpt>
      <trkpt lat="43.905652" lon="5.348537">
        <ele>302.5</ele>
      </trkpt>
      <trkpt lat="43.906045" lon="5.348808">
        <ele>304.6</ele>
      </trkpt>
      <trkpt lat="43.906504" lon="5.349084">
        <ele>306.8</ele>
      </trkpt>
      <trkpt lat="43.906603" lon="5.349234">
        <ele>308.7</ele>
      </trkpt>
      <trkpt lat="43.906673" lon="5.349274">
        <ele>309.1</ele>
      </trkpt>
      <trkpt lat="43.906709" lon="5.349365">
        <ele>309.2</ele>
      </trkpt>
      <trkpt lat="43.906702" lon="5.349526">
        <ele>309.4</ele>
      </trkpt>
      <trkpt lat="43.906690" lon="5.349674">
        <ele>309.8</ele>
      </trkpt>
      <trkpt lat="43.906696" lon="5.349824">
        <ele>310.4</ele>
      </trkpt>
      <trkpt lat="43.906717" lon="5.349945">
        <ele>311.2</ele>
      </trkpt>
      <trkpt lat="43.906779" lon="5.350111">
        <ele>310.5</ele>
      </trkpt>
      <trkpt lat="43.906837" lon="5.350175">
        <ele>310</ele>
      </trkpt>
      <trkpt lat="43.906933" lon="5.350210">
        <ele>309.5</ele>
      </trkpt>
      <trkpt lat="43.906991" lon="5.350318">
        <ele>309.1</ele>
      </trkpt>
      <trkpt lat="43.907042" lon="5.350479">
        <ele>308.9</ele>
      </trkpt>
      <trkpt lat="43.907126" lon="5.350889">
        <ele>307.4</ele>
      </trkpt>
      <trkpt lat="43.907181" lon="5.351262">
        <ele>306.8</ele>
      </trkpt>
      <trkpt lat="43.907173" lon="5.351420">
        <ele>306.5</ele>
      </trkpt>
      <trkpt lat="43.907111" lon="5.351613">
        <ele>306.6</ele>
      </trkpt>
      <trkpt lat="43.907059" lon="5.351771">
        <ele>303.6</ele>
      </trkpt>
      <trkpt lat="43.907017" lon="5.351932">
        <ele>303.3</ele>
      </trkpt>
      <trkpt lat="43.906995" lon="5.352072">
        <ele>302.7</ele>
      </trkpt>
      <trkpt lat="43.906906" lon="5.352294">
        <ele>302.1</ele>
      </trkpt>
      <trkpt lat="43.906814" lon="5.352372">
        <ele>302.1</ele>
      </trkpt>
      <trkpt lat="43.906703" lon="5.352364">
        <ele>302.3</ele>
      </trkpt>
      <trkpt lat="43.906530" lon="5.352324">
        <ele>302.5</ele>
      </trkpt>
      <trkpt lat="43.906450" lon="5.352351">
        <ele>302.3</ele>
      </trkpt>
      <trkpt lat="43.906369" lon="5.352471">
        <ele>301.9</ele>
      </trkpt>
      <trkpt lat="43.906375" lon="5.352632">
        <ele>297.6</ele>
      </trkpt>
      <trkpt lat="43.906373" lon="5.352732">
        <ele>297.1</ele>
      </trkpt>
      <trkpt lat="43.906300" lon="5.353091">
        <ele>295.3</ele>
      </trkpt>
      <trkpt lat="43.906245" lon="5.353263">
        <ele>294.8</ele>
      </trkpt>
      <trkpt lat="43.906189" lon="5.353308">
        <ele>294.7</ele>
      </trkpt>
      <trkpt lat="43.906147" lon="5.353314">
        <ele>294.6</ele>
      </trkpt>
      <trkpt lat="43.906124" lon="5.353319">
        <ele>294.6</ele>
      </trkpt>
      <trkpt lat="43.906097" lon="5.353351">
        <ele>291.5</ele>
      </trkpt>
      <trkpt lat="43.906046" lon="5.353381">
        <ele>291.6</ele>
      </trkpt>
      <trkpt lat="43.905992" lon="5.353507">
        <ele>291.4</ele>
      </trkpt>
      <trkpt lat="43.905965" lon="5.353678">
        <ele>290.8</ele>
      </trkpt>
      <trkpt lat="43.905973" lon="5.353759">
        <ele>290.5</ele>
      </trkpt>
      <trkpt lat="43.906027" lon="5.353850">
        <ele>290.2</ele>
      </trkpt>
      <trkpt lat="43.906046" lon="5.354097">
        <ele>289.4</ele>
      </trkpt>
      <trkpt lat="43.905915" lon="5.354215">
        <ele>287.8</ele>
      </trkpt>
      <trkpt lat="43.905739" lon="5.354416">
        <ele>286.5</ele>
      </trkpt>
      <trkpt lat="43.905681" lon="5.354494">
        <ele>286.2</ele>
      </trkpt>
      <trkpt lat="43.905403" lon="5.354722">
        <ele>285.5</ele>
      </trkpt>
      <trkpt lat="43.905337" lon="5.354641">
        <ele>285.6</ele>
      </trkpt>
      <trkpt lat="43.905285" lon="5.354749">
        <ele>285.4</ele>
      </trkpt>
      <trkpt lat="43.905244" lon="5.354794">
        <ele>285.2</ele>
      </trkpt>
      <trkpt lat="43.905176" lon="5.354851">
        <ele>285</ele>
      </trkpt>
      <trkpt lat="43.904788" lon="5.355041">
        <ele>282.3</ele>
      </trkpt>
      <trkpt lat="43.904578" lon="5.354936">
        <ele>283.5</ele>
      </trkpt>
      <trkpt lat="43.904497" lon="5.354928">
        <ele>283.2</ele>
      </trkpt>
      <trkpt lat="43.903946" lon="5.354483">
        <ele>281.2</ele>
      </trkpt>
      <trkpt lat="43.903760" lon="5.354427">
        <ele>280.6</ele>
      </trkpt>
      <trkpt lat="43.903503" lon="5.354419">
        <ele>279.8</ele>
      </trkpt>
      <trkpt lat="43.903269" lon="5.354357">
        <ele>277</ele>
      </trkpt>
      <trkpt lat="43.903213" lon="5.354360">
        <ele>276.8</ele>
      </trkpt>
      <trkpt lat="43.903161" lon="5.354454">
        <ele>276.2</ele>
      </trkpt>
      <trkpt lat="43.902904" lon="5.355712">
        <ele>273.7</ele>
      </trkpt>
      <trkpt lat="43.902830" lon="5.355776">
        <ele>273.6</ele>
      </trkpt>
      <trkpt lat="43.902583" lon="5.356991">
        <ele>275</ele>
      </trkpt>
      <trkpt lat="43.902446" lon="5.357664">
        <ele>277.4</ele>
      </trkpt>
      <trkpt lat="43.902457" lon="5.357721">
        <ele>277.6</ele>
      </trkpt>
      <trkpt lat="43.903232" lon="5.357656">
        <ele>273.2</ele>
      </trkpt>
      <trkpt lat="43.903286" lon="5.357616">
        <ele>273.2</ele>
      </trkpt>
    </trkseg>
  </trk>
</gpx>