<?xml version="1.0" ?>
<gpx xmlns="http://www.topografix.com/GPX/1/1" xmlns:xsi="http://www.w3.org/2001/XMLSchema-instance" xsi:schemaLocation="http://www.topografix.com/GPX/1/1 http://www.topografix.com/GPX/1/1/gpx.xsd" version="1.1" creator="EditGPX">
  <trk>
    <name>Track from PFMLVTTcircuit5</name>
    <trkseg>
      <trkpt lat="43.959426" lon="5.780565">
        <ele>551.4</ele>
      </trkpt>
      <trkpt lat="43.959548" lon="5.780793">
      </trkpt>
      <trkpt lat="43.959482" lon="5.780887">
        <ele>556.3</ele>
      </trkpt>
      <trkpt lat="43.959551" lon="5.781013">
        <ele>556</ele>
      </trkpt>
      <trkpt lat="43.959636" lon="5.781276">
        <ele>555.8</ele>
      </trkpt>
      <trkpt lat="43.959797" lon="5.781131">
        <ele>555.1</ele>
      </trkpt>
      <trkpt lat="43.959930" lon="5.781003">
        <ele>550.8</ele>
      </trkpt>
      <trkpt lat="43.960144" lon="5.781030">
        <ele>550.5</ele>
      </trkpt>
      <trkpt lat="43.960491" lon="5.781109">
        <ele>550.2</ele>
      </trkpt>
      <trkpt lat="43.960764" lon="5.781135">
        <ele>550</ele>
      </trkpt>
      <trkpt lat="43.960999" lon="5.781250">
        <ele>551.1</ele>
      </trkpt>
      <trkpt lat="43.961253" lon="5.781435">
        <ele>552.7</ele>
      </trkpt>
      <trkpt lat="43.961533" lon="5.781630">
        <ele>554.1</ele>
      </trkpt>
      <trkpt lat="43.961791" lon="5.781950">
        <ele>554.4</ele>
      </trkpt>
      <trkpt lat="43.962070" lon="5.782285">
        <ele>555</ele>
      </trkpt>
      <trkpt lat="43.962309" lon="5.782620">
        <ele>555.4</ele>
      </trkpt>
      <trkpt lat="43.962511" lon="5.782911">
        <ele>555.7</ele>
      </trkpt>
      <trkpt lat="43.962778" lon="5.783410">
        <ele>555.3</ele>
      </trkpt>
      <trkpt lat="43.963092" lon="5.783838">
        <ele>556.1</ele>
      </trkpt>
      <trkpt lat="43.963438" lon="5.784309">
        <ele>556.6</ele>
      </trkpt>
      <trkpt lat="43.963722" lon="5.784688">
        <ele>555</ele>
      </trkpt>
      <trkpt lat="43.963956" lon="5.784999">
        <ele>553.2</ele>
      </trkpt>
      <trkpt lat="43.964085" lon="5.785219">
        <ele>552.8</ele>
      </trkpt>
      <trkpt lat="43.964125" lon="5.785361">
        <ele>552.5</ele>
      </trkpt>
      <trkpt lat="43.964115" lon="5.785522">
        <ele>552.3</ele>
      </trkpt>
      <trkpt lat="43.963999" lon="5.785679">
        <ele>551.7</ele>
      </trkpt>
      <trkpt lat="43.963888" lon="5.785863">
        <ele>550.9</ele>
      </trkpt>
      <trkpt lat="43.963716" lon="5.786079">
        <ele>549.5</ele>
      </trkpt>
      <trkpt lat="43.963636" lon="5.786237">
        <ele>548.5</ele>
      </trkpt>
      <trkpt lat="43.963618" lon="5.786373">
        <ele>547.9</ele>
      </trkpt>
      <trkpt lat="43.963685" lon="5.786582">
        <ele>547.5</ele>
      </trkpt>
      <trkpt lat="43.963782" lon="5.786660">
        <ele>547.7</ele>
      </trkpt>
      <trkpt lat="43.964080" lon="5.786703">
        <ele>549.5</ele>
      </trkpt>
      <trkpt lat="43.964211" lon="5.786728">
        <ele>550.6</ele>
      </trkpt>
      <trkpt lat="43.964350" lon="5.786785">
        <ele>552.4</ele>
      </trkpt>
      <trkpt lat="43.964488" lon="5.786900">
        <ele>554.1</ele>
      </trkpt>
      <trkpt lat="43.964717" lon="5.786910">
        <ele>556.9</ele>
      </trkpt>
      <trkpt lat="43.964844" lon="5.786915">
        <ele>558.4</ele>
      </trkpt>
      <trkpt lat="43.964971" lon="5.786919">
        <ele>559.9</ele>
      </trkpt>
      <trkpt lat="43.965121" lon="5.786896">
        <ele>561.4</ele>
      </trkpt>
      <trkpt lat="43.965328" lon="5.786880">
        <ele>563.2</ele>
      </trkpt>
      <trkpt lat="43.965558" lon="5.786941">
        <ele>565.5</ele>
      </trkpt>
      <trkpt lat="43.965786" lon="5.787011">
        <ele>567.8</ele>
      </trkpt>
      <trkpt lat="43.966055" lon="5.787052">
        <ele>570.8</ele>
      </trkpt>
      <trkpt lat="43.966247" lon="5.787051">
        <ele>572.9</ele>
      </trkpt>
      <trkpt lat="43.966361" lon="5.787089">
        <ele>574.2</ele>
      </trkpt>
      <trkpt lat="43.966421" lon="5.787112">
        <ele>574.9</ele>
      </trkpt>
      <trkpt lat="43.966486" lon="5.787114">
        <ele>575.6</ele>
      </trkpt>
      <trkpt lat="43.966604" lon="5.787156">
        <ele>576.9</ele>
      </trkpt>
      <trkpt lat="43.966732" lon="5.787185">
        <ele>578.4</ele>
      </trkpt>
      <trkpt lat="43.966799" lon="5.787256">
        <ele>579.3</ele>
      </trkpt>
      <trkpt lat="43.966855" lon="5.787336">
        <ele>579.9</ele>
      </trkpt>
      <trkpt lat="43.966964" lon="5.787409">
        <ele>581</ele>
      </trkpt>
      <trkpt lat="43.967050" lon="5.787471">
        <ele>581.8</ele>
      </trkpt>
      <trkpt lat="43.967168" lon="5.787547">
        <ele>582.7</ele>
      </trkpt>
      <trkpt lat="43.967291" lon="5.787613">
        <ele>583.6</ele>
      </trkpt>
      <trkpt lat="43.967385" lon="5.787699">
        <ele>584</ele>
      </trkpt>
      <trkpt lat="43.967477" lon="5.787721">
        <ele>584.7</ele>
      </trkpt>
      <trkpt lat="43.967576" lon="5.787763">
        <ele>585.3</ele>
      </trkpt>
      <trkpt lat="43.967702" lon="5.787843">
        <ele>585.7</ele>
      </trkpt>
      <trkpt lat="43.967842" lon="5.787915">
        <ele>586.3</ele>
      </trkpt>
      <trkpt lat="43.967967" lon="5.788015">
        <ele>586.6</ele>
      </trkpt>
      <trkpt lat="43.968041" lon="5.788113">
        <ele>586.5</ele>
      </trkpt>
      <trkpt lat="43.968100" lon="5.788244">
        <ele>586.1</ele>
      </trkpt>
      <trkpt lat="43.968163" lon="5.788342">
        <ele>586</ele>
      </trkpt>
      <trkpt lat="43.968239" lon="5.788473">
        <ele>585.5</ele>
      </trkpt>
      <trkpt lat="43.968367" lon="5.788636">
        <ele>584.3</ele>
      </trkpt>
      <trkpt lat="43.968494" lon="5.788767">
        <ele>581.4</ele>
      </trkpt>
      <trkpt lat="43.968615" lon="5.788886">
        <ele>578.3</ele>
      </trkpt>
      <trkpt lat="43.968702" lon="5.788977">
        <ele>576</ele>
      </trkpt>
      <trkpt lat="43.968814" lon="5.789167">
        <ele>571.8</ele>
      </trkpt>
      <trkpt lat="43.968889" lon="5.789323">
        <ele>568.2</ele>
      </trkpt>
      <trkpt lat="43.968972" lon="5.789417">
        <ele>565.1</ele>
      </trkpt>
      <trkpt lat="43.969056" lon="5.789536">
        <ele>561.2</ele>
      </trkpt>
      <trkpt lat="43.969078" lon="5.789623">
        <ele>559.1</ele>
      </trkpt>
      <trkpt lat="43.969039" lon="5.789735">
        <ele>558.5</ele>
      </trkpt>
      <trkpt lat="43.969169" lon="5.789656">
        <ele>556.2</ele>
      </trkpt>
      <trkpt lat="43.969297" lon="5.789550">
        <ele>554.3</ele>
      </trkpt>
      <trkpt lat="43.969501" lon="5.789248">
        <ele>551.9</ele>
      </trkpt>
      <trkpt lat="43.969605" lon="5.789095">
        <ele>550</ele>
      </trkpt>
      <trkpt lat="43.969668" lon="5.788923">
        <ele>549.4</ele>
      </trkpt>
      <trkpt lat="43.969719" lon="5.788772">
        <ele>549</ele>
      </trkpt>
      <trkpt lat="43.969736" lon="5.788493">
        <ele>550.9</ele>
      </trkpt>
      <trkpt lat="43.969741" lon="5.788067">
        <ele>556.4</ele>
      </trkpt>
      <trkpt lat="43.969741" lon="5.787781">
        <ele>560.8</ele>
      </trkpt>
      <trkpt lat="43.969780" lon="5.787405">
        <ele>565.1</ele>
      </trkpt>
      <trkpt lat="43.969795" lon="5.786932">
        <ele>572.2</ele>
      </trkpt>
      <trkpt lat="43.969859" lon="5.786627">
        <ele>575</ele>
      </trkpt>
      <trkpt lat="43.969955" lon="5.786286">
        <ele>577.8</ele>
      </trkpt>
      <trkpt lat="43.970067" lon="5.785829">
        <ele>582.4</ele>
      </trkpt>
      <trkpt lat="43.970119" lon="5.785508">
        <ele>587.2</ele>
      </trkpt>
      <trkpt lat="43.970172" lon="5.785233">
        <ele>591.2</ele>
      </trkpt>
      <trkpt lat="43.970243" lon="5.785008">
        <ele>594.1</ele>
      </trkpt>
      <trkpt lat="43.970379" lon="5.784722">
        <ele>596.5</ele>
      </trkpt>
      <trkpt lat="43.970784" lon="5.784009">
        <ele>601</ele>
      </trkpt>
      <trkpt lat="43.970946" lon="5.783696">
        <ele>601.9</ele>
      </trkpt>
      <trkpt lat="43.971083" lon="5.783409">
        <ele>603.5</ele>
      </trkpt>
      <trkpt lat="43.971179" lon="5.783154">
        <ele>605.2</ele>
      </trkpt>
      <trkpt lat="43.971233" lon="5.782984">
        <ele>606.6</ele>
      </trkpt>
      <trkpt lat="43.971328" lon="5.782698">
        <ele>609.1</ele>
      </trkpt>
      <trkpt lat="43.971421" lon="5.782477">
        <ele>610.8</ele>
      </trkpt>
      <trkpt lat="43.971557" lon="5.782282">
        <ele>610.9</ele>
      </trkpt>
      <trkpt lat="43.971697" lon="5.782110">
        <ele>611.5</ele>
      </trkpt>
      <trkpt lat="43.971843" lon="5.781912">
        <ele>612.9</ele>
      </trkpt>
      <trkpt lat="43.971941" lon="5.781725">
        <ele>614.4</ele>
      </trkpt>
      <trkpt lat="43.972039" lon="5.781578">
        <ele>615.2</ele>
      </trkpt>
      <trkpt lat="43.972143" lon="5.781352">
        <ele>616.7</ele>
      </trkpt>
      <trkpt lat="43.972267" lon="5.781061">
        <ele>618.5</ele>
      </trkpt>
      <trkpt lat="43.972353" lon="5.780835">
        <ele>620.1</ele>
      </trkpt>
      <trkpt lat="43.972410" lon="5.780622">
        <ele>621.9</ele>
      </trkpt>
      <trkpt lat="43.972526" lon="5.780438">
        <ele>623.5</ele>
      </trkpt>
      <trkpt lat="43.972623" lon="5.780331">
        <ele>624.7</ele>
      </trkpt>
      <trkpt lat="43.972830" lon="5.780054">
        <ele>626.2</ele>
      </trkpt>
      <trkpt lat="43.973026" lon="5.779815">
        <ele>626.6</ele>
      </trkpt>
      <trkpt lat="43.973188" lon="5.779589">
        <ele>626.6</ele>
      </trkpt>
      <trkpt lat="43.973383" lon="5.779323">
        <ele>626.7</ele>
      </trkpt>
      <trkpt lat="43.973538" lon="5.779047">
        <ele>630.2</ele>
      </trkpt>
      <trkpt lat="43.973751" lon="5.778741">
        <ele>635.2</ele>
      </trkpt>
      <trkpt lat="43.973825" lon="5.778632">
        <ele>636.5</ele>
      </trkpt>
      <trkpt lat="43.973893" lon="5.778536">
        <ele>637.7</ele>
      </trkpt>
      <trkpt lat="43.973918" lon="5.778430">
        <ele>638.9</ele>
      </trkpt>
      <trkpt lat="43.973865" lon="5.778174">
        <ele>644.3</ele>
      </trkpt>
      <trkpt lat="43.973732" lon="5.777544">
        <ele>658.1</ele>
      </trkpt>
      <trkpt lat="43.973508" lon="5.776374">
        <ele>667.6</ele>
      </trkpt>
      <trkpt lat="43.973921" lon="5.776755">
        <ele>667.4</ele>
      </trkpt>
      <trkpt lat="43.974090" lon="5.776895">
        <ele>666.9</ele>
      </trkpt>
      <trkpt lat="43.974324" lon="5.777035">
        <ele>664.8</ele>
      </trkpt>
      <trkpt lat="43.974578" lon="5.777116">
        <ele>662.1</ele>
      </trkpt>
      <trkpt lat="43.974915" lon="5.777179">
        <ele>658.6</ele>
      </trkpt>
      <trkpt lat="43.975132" lon="5.777223">
        <ele>656.8</ele>
      </trkpt>
      <trkpt lat="43.975275" lon="5.777218">
        <ele>656.5</ele>
      </trkpt>
      <trkpt lat="43.975407" lon="5.777080">
        <ele>658.2</ele>
      </trkpt>
      <trkpt lat="43.975449" lon="5.776936">
        <ele>660</ele>
      </trkpt>
      <trkpt lat="43.975530" lon="5.776787">
        <ele>661.2</ele>
      </trkpt>
      <trkpt lat="43.975767" lon="5.776411">
        <ele>665</ele>
      </trkpt>
      <trkpt lat="43.975852" lon="5.776210">
        <ele>668.5</ele>
      </trkpt>
      <trkpt lat="43.975987" lon="5.776029">
        <ele>672.8</ele>
      </trkpt>
      <trkpt lat="43.976079" lon="5.775908">
        <ele>675.3</ele>
      </trkpt>
      <trkpt lat="43.976183" lon="5.775768">
        <ele>677.4</ele>
      </trkpt>
      <trkpt lat="43.976297" lon="5.775573">
        <ele>680</ele>
      </trkpt>
      <trkpt lat="43.976403" lon="5.775461">
        <ele>681.1</ele>
      </trkpt>
      <trkpt lat="43.976660" lon="5.775128">
        <ele>683.1</ele>
      </trkpt>
      <trkpt lat="43.976854" lon="5.774911">
        <ele>687.7</ele>
      </trkpt>
      <trkpt lat="43.977069" lon="5.774689">
        <ele>693.5</ele>
      </trkpt>
      <trkpt lat="43.977252" lon="5.774449">
        <ele>698.4</ele>
      </trkpt>
      <trkpt lat="43.977406" lon="5.774352">
        <ele>700.4</ele>
      </trkpt>
      <trkpt lat="43.977539" lon="5.774313">
        <ele>701.7</ele>
      </trkpt>
      <trkpt lat="43.977674" lon="5.774297">
        <ele>703.4</ele>
      </trkpt>
      <trkpt lat="43.977778" lon="5.774310">
        <ele>704.5</ele>
      </trkpt>
      <trkpt lat="43.977876" lon="5.774410">
        <ele>704.6</ele>
      </trkpt>
      <trkpt lat="43.978060" lon="5.774605">
        <ele>704.9</ele>
      </trkpt>
      <trkpt lat="43.978160" lon="5.774795">
        <ele>704.4</ele>
      </trkpt>
      <trkpt lat="43.978265" lon="5.774978">
        <ele>704.2</ele>
      </trkpt>
      <trkpt lat="43.978322" lon="5.775103">
        <ele>704.4</ele>
      </trkpt>
      <trkpt lat="43.978353" lon="5.775202">
        <ele>704.3</ele>
      </trkpt>
      <trkpt lat="43.978359" lon="5.775336">
        <ele>703.8</ele>
      </trkpt>
      <trkpt lat="43.978350" lon="5.775417">
        <ele>703.2</ele>
      </trkpt>
      <trkpt lat="43.978385" lon="5.775526">
        <ele>703.2</ele>
      </trkpt>
      <trkpt lat="43.978392" lon="5.775664">
        <ele>702.6</ele>
      </trkpt>
      <trkpt lat="43.978397" lon="5.775727">
        <ele>702.4</ele>
      </trkpt>
      <trkpt lat="43.978398" lon="5.775819">
        <ele>701.9</ele>
      </trkpt>
      <trkpt lat="43.978384" lon="5.775868">
        <ele>701.6</ele>
      </trkpt>
      <trkpt lat="43.978484" lon="5.776103">
        <ele>701.5</ele>
      </trkpt>
      <trkpt lat="43.978612" lon="5.776309">
        <ele>701.7</ele>
      </trkpt>
      <trkpt lat="43.978769" lon="5.776624">
        <ele>701</ele>
      </trkpt>
      <trkpt lat="43.978895" lon="5.776905">
        <ele>699.7</ele>
      </trkpt>
      <trkpt lat="43.979035" lon="5.777122">
        <ele>698.7</ele>
      </trkpt>
      <trkpt lat="43.979170" lon="5.777254">
        <ele>698.3</ele>
      </trkpt>
      <trkpt lat="43.979317" lon="5.777392">
        <ele>694.7</ele>
      </trkpt>
      <trkpt lat="43.979407" lon="5.777422">
        <ele>692.8</ele>
      </trkpt>
      <trkpt lat="43.979607" lon="5.777223">
        <ele>692.3</ele>
      </trkpt>
      <trkpt lat="43.979752" lon="5.777073">
        <ele>692.1</ele>
      </trkpt>
      <trkpt lat="43.979868" lon="5.777051">
        <ele>690.9</ele>
      </trkpt>
      <trkpt lat="43.980084" lon="5.777113">
        <ele>684.7</ele>
      </trkpt>
      <trkpt lat="43.980257" lon="5.777148">
        <ele>677.2</ele>
      </trkpt>
      <trkpt lat="43.980362" lon="5.777143">
        <ele>673.3</ele>
      </trkpt>
      <trkpt lat="43.980426" lon="5.777121">
        <ele>670.9</ele>
      </trkpt>
      <trkpt lat="43.980443" lon="5.777041">
        <ele>671.9</ele>
      </trkpt>
      <trkpt lat="43.980420" lon="5.776960">
        <ele>674.2</ele>
      </trkpt>
      <trkpt lat="43.980294" lon="5.776787">
        <ele>682.1</ele>
      </trkpt>
      <trkpt lat="43.980143" lon="5.776574">
        <ele>691.6</ele>
      </trkpt>
      <trkpt lat="43.979984" lon="5.776391">
        <ele>701</ele>
      </trkpt>
      <trkpt lat="43.979931" lon="5.776295">
        <ele>703.1</ele>
      </trkpt>
      <trkpt lat="43.979922" lon="5.776200">
        <ele>704.9</ele>
      </trkpt>
      <trkpt lat="43.979948" lon="5.776139">
        <ele>706.1</ele>
      </trkpt>
      <trkpt lat="43.979984" lon="5.776100">
        <ele>706.7</ele>
      </trkpt>
      <trkpt lat="43.980082" lon="5.776080">
        <ele>704.2</ele>
      </trkpt>
      <trkpt lat="43.980317" lon="5.776093">
        <ele>696.4</ele>
      </trkpt>
      <trkpt lat="43.980411" lon="5.776092">
        <ele>693.7</ele>
      </trkpt>
      <trkpt lat="43.980517" lon="5.776027">
        <ele>691.6</ele>
      </trkpt>
      <trkpt lat="43.980575" lon="5.775932">
        <ele>692.4</ele>
      </trkpt>
      <trkpt lat="43.980606" lon="5.775700">
        <ele>696.2</ele>
      </trkpt>
      <trkpt lat="43.980641" lon="5.775406">
        <ele>700</ele>
      </trkpt>
      <trkpt lat="43.980628" lon="5.775191">
        <ele>704.1</ele>
      </trkpt>
      <trkpt lat="43.980622" lon="5.775006">
        <ele>707.3</ele>
      </trkpt>
      <trkpt lat="43.980632" lon="5.774868">
        <ele>709.7</ele>
      </trkpt>
      <trkpt lat="43.980640" lon="5.774699">
        <ele>712.9</ele>
      </trkpt>
      <trkpt lat="43.980644" lon="5.774503">
        <ele>717</ele>
      </trkpt>
      <trkpt lat="43.980618" lon="5.774308">
        <ele>721.2</ele>
      </trkpt>
      <trkpt lat="43.980625" lon="5.774212">
        <ele>723</ele>
      </trkpt>
      <trkpt lat="43.980515" lon="5.773938">
        <ele>728.6</ele>
      </trkpt>
      <trkpt lat="43.980442" lon="5.773746">
        <ele>731.9</ele>
      </trkpt>
      <trkpt lat="43.980391" lon="5.773582">
        <ele>734.3</ele>
      </trkpt>
      <trkpt lat="43.980365" lon="5.773398">
        <ele>736.8</ele>
      </trkpt>
      <trkpt lat="43.980332" lon="5.773185">
        <ele>738.6</ele>
      </trkpt>
      <trkpt lat="43.980205" lon="5.772697">
        <ele>740.6</ele>
      </trkpt>
      <trkpt lat="43.980263" lon="5.772257">
        <ele>740.4</ele>
      </trkpt>
      <trkpt lat="43.980300" lon="5.772014">
        <ele>739</ele>
      </trkpt>
      <trkpt lat="43.980375" lon="5.771929">
        <ele>739.3</ele>
      </trkpt>
      <trkpt lat="43.980485" lon="5.771906">
        <ele>740.3</ele>
      </trkpt>
      <trkpt lat="43.980709" lon="5.771954">
        <ele>743</ele>
      </trkpt>
      <trkpt lat="43.980813" lon="5.771916">
        <ele>744</ele>
      </trkpt>
      <trkpt lat="43.981049" lon="5.771736">
        <ele>744.6</ele>
      </trkpt>
      <trkpt lat="43.981207" lon="5.771632">
        <ele>745.7</ele>
      </trkpt>
      <trkpt lat="43.981670" lon="5.771360">
        <ele>748.6</ele>
      </trkpt>
      <trkpt lat="43.981935" lon="5.771220">
        <ele>745.8</ele>
      </trkpt>
      <trkpt lat="43.982525" lon="5.770909">
        <ele>741.4</ele>
      </trkpt>
      <trkpt lat="43.982705" lon="5.770695">
        <ele>740.7</ele>
      </trkpt>
      <trkpt lat="43.982825" lon="5.770501">
        <ele>740.6</ele>
      </trkpt>
      <trkpt lat="43.983140" lon="5.770064">
        <ele>741.8</ele>
      </trkpt>
      <trkpt lat="43.983445" lon="5.769657">
        <ele>744.8</ele>
      </trkpt>
      <trkpt lat="43.983539" lon="5.769577">
        <ele>746</ele>
      </trkpt>
      <trkpt lat="43.983746" lon="5.769526">
        <ele>748.4</ele>
      </trkpt>
      <trkpt lat="43.983968" lon="5.769471">
        <ele>750.9</ele>
      </trkpt>
      <trkpt lat="43.984124" lon="5.769436">
        <ele>752.7</ele>
      </trkpt>
      <trkpt lat="43.984274" lon="5.769343">
        <ele>754.9</ele>
      </trkpt>
      <trkpt lat="43.984428" lon="5.769273">
        <ele>756.9</ele>
      </trkpt>
      <trkpt lat="43.984532" lon="5.769331">
        <ele>757.6</ele>
      </trkpt>
      <trkpt lat="43.984672" lon="5.769291">
        <ele>759.3</ele>
      </trkpt>
      <trkpt lat="43.984820" lon="5.769276">
        <ele>760.8</ele>
      </trkpt>
      <trkpt lat="43.984945" lon="5.769294">
        <ele>762</ele>
      </trkpt>
      <trkpt lat="43.985099" lon="5.769383">
        <ele>763</ele>
      </trkpt>
      <trkpt lat="43.985255" lon="5.769418">
        <ele>764</ele>
      </trkpt>
      <trkpt lat="43.985381" lon="5.769413">
        <ele>764.9</ele>
      </trkpt>
      <trkpt lat="43.985467" lon="5.769391">
        <ele>765.6</ele>
      </trkpt>
      <trkpt lat="43.985582" lon="5.769443">
        <ele>766.4</ele>
      </trkpt>
      <trkpt lat="43.985706" lon="5.769407">
        <ele>767.3</ele>
      </trkpt>
      <trkpt lat="43.985835" lon="5.769381">
        <ele>768.3</ele>
      </trkpt>
      <trkpt lat="43.985966" lon="5.769380">
        <ele>769</ele>
      </trkpt>
      <trkpt lat="43.986068" lon="5.769359">
        <ele>769.6</ele>
      </trkpt>
      <trkpt lat="43.986174" lon="5.769274">
        <ele>770.3</ele>
      </trkpt>
      <trkpt lat="43.986444" lon="5.769340">
        <ele>771.9</ele>
      </trkpt>
      <trkpt lat="43.986697" lon="5.769321">
        <ele>773.5</ele>
      </trkpt>
      <trkpt lat="43.986990" lon="5.769228">
        <ele>775.8</ele>
      </trkpt>
      <trkpt lat="43.987345" lon="5.769095">
        <ele>777.8</ele>
      </trkpt>
      <trkpt lat="43.987629" lon="5.768979">
        <ele>779.5</ele>
      </trkpt>
      <trkpt lat="43.987932" lon="5.769005">
        <ele>782.4</ele>
      </trkpt>
      <trkpt lat="43.988530" lon="5.769133">
        <ele>788.2</ele>
      </trkpt>
      <trkpt lat="43.988829" lon="5.769217">
        <ele>791</ele>
      </trkpt>
      <trkpt lat="43.989007" lon="5.769190">
        <ele>793.2</ele>
      </trkpt>
      <trkpt lat="43.989252" lon="5.769053">
        <ele>795.9</ele>
      </trkpt>
      <trkpt lat="43.989394" lon="5.768961">
        <ele>797.3</ele>
      </trkpt>
      <trkpt lat="43.989841" lon="5.768919">
        <ele>801.4</ele>
      </trkpt>
      <trkpt lat="43.990476" lon="5.768803">
        <ele>809.7</ele>
      </trkpt>
      <trkpt lat="43.991056" lon="5.768883">
        <ele>816.2</ele>
      </trkpt>
      <trkpt lat="43.991651" lon="5.768871">
        <ele>822.8</ele>
      </trkpt>
      <trkpt lat="43.992315" lon="5.768855">
        <ele>831.7</ele>
      </trkpt>
      <trkpt lat="43.992777" lon="5.768896">
        <ele>836.4</ele>
      </trkpt>
      <trkpt lat="43.993393" lon="5.768874">
        <ele>843</ele>
      </trkpt>
      <trkpt lat="43.993882" lon="5.768881">
        <ele>849.1</ele>
      </trkpt>
      <trkpt lat="43.994259" lon="5.768905">
        <ele>853.6</ele>
      </trkpt>
      <trkpt lat="43.994464" lon="5.768965">
        <ele>855.7</ele>
      </trkpt>
      <trkpt lat="43.994564" lon="5.769042">
        <ele>856.4</ele>
      </trkpt>
      <trkpt lat="43.994862" lon="5.769059">
        <ele>859.8</ele>
      </trkpt>
      <trkpt lat="43.995034" lon="5.769039">
        <ele>861.9</ele>
      </trkpt>
      <trkpt lat="43.995139" lon="5.768897">
        <ele>863.6</ele>
      </trkpt>
      <trkpt lat="43.995304" lon="5.768911">
        <ele>865.5</ele>
      </trkpt>
      <trkpt lat="43.995485" lon="5.768998">
        <ele>867.8</ele>
      </trkpt>
      <trkpt lat="43.995706" lon="5.769000">
        <ele>870.6</ele>
      </trkpt>
      <trkpt lat="43.995825" lon="5.769012">
        <ele>872.2</ele>
      </trkpt>
      <trkpt lat="43.996023" lon="5.769091">
        <ele>874.5</ele>
      </trkpt>
      <trkpt lat="43.996296" lon="5.769191">
        <ele>877.4</ele>
      </trkpt>
      <trkpt lat="43.996566" lon="5.769279">
        <ele>880.1</ele>
      </trkpt>
      <trkpt lat="43.996859" lon="5.769384">
        <ele>882.6</ele>
      </trkpt>
      <trkpt lat="43.997082" lon="5.769453">
        <ele>884.3</ele>
      </trkpt>
      <trkpt lat="43.997299" lon="5.769570">
        <ele>886</ele>
      </trkpt>
      <trkpt lat="43.997517" lon="5.769687">
        <ele>887.7</ele>
      </trkpt>
      <trkpt lat="43.997755" lon="5.769736">
        <ele>888.9</ele>
      </trkpt>
      <trkpt lat="43.998087" lon="5.769827">
        <ele>890.6</ele>
      </trkpt>
      <trkpt lat="43.998226" lon="5.769822">
        <ele>891.3</ele>
      </trkpt>
      <trkpt lat="43.998348" lon="5.769683">
        <ele>891.6</ele>
      </trkpt>
      <trkpt lat="43.998483" lon="5.769422">
        <ele>891.5</ele>
      </trkpt>
      <trkpt lat="43.998595" lon="5.769186">
        <ele>891</ele>
      </trkpt>
      <trkpt lat="43.998662" lon="5.769121">
        <ele>890.7</ele>
      </trkpt>
      <trkpt lat="43.998717" lon="5.769113">
        <ele>890.7</ele>
      </trkpt>
      <trkpt lat="43.998803" lon="5.769157">
        <ele>890.9</ele>
      </trkpt>
      <trkpt lat="43.999070" lon="5.769145">
        <ele>890.8</ele>
      </trkpt>
      <trkpt lat="43.999235" lon="5.769076">
        <ele>889.9</ele>
      </trkpt>
      <trkpt lat="43.999314" lon="5.768868">
        <ele>887.9</ele>
      </trkpt>
      <trkpt lat="43.999396" lon="5.768711">
        <ele>886.2</ele>
      </trkpt>
      <trkpt lat="43.999490" lon="5.768602">
        <ele>884.7</ele>
      </trkpt>
      <trkpt lat="43.999487" lon="5.768457">
        <ele>883.6</ele>
      </trkpt>
      <trkpt lat="43.999435" lon="5.768259">
        <ele>882.2</ele>
      </trkpt>
      <trkpt lat="43.999440" lon="5.768068">
        <ele>880.2</ele>
      </trkpt>
      <trkpt lat="43.999506" lon="5.767861">
        <ele>877.4</ele>
      </trkpt>
      <trkpt lat="43.999575" lon="5.767557">
        <ele>873.6</ele>
      </trkpt>
      <trkpt lat="43.999611" lon="5.767421">
        <ele>871.7</ele>
      </trkpt>
      <trkpt lat="43.999802" lon="5.767240">
        <ele>867.1</ele>
      </trkpt>
      <trkpt lat="44.000052" lon="5.767064">
        <ele>860.4</ele>
      </trkpt>
      <trkpt lat="44.000244" lon="5.766934">
        <ele>853.4</ele>
      </trkpt>
      <trkpt lat="44.000537" lon="5.766906">
        <ele>845.6</ele>
      </trkpt>
      <trkpt lat="44.000818" lon="5.766977">
        <ele>840.2</ele>
      </trkpt>
      <trkpt lat="44.001256" lon="5.767104">
        <ele>832.4</ele>
      </trkpt>
      <trkpt lat="44.001629" lon="5.767191">
        <ele>824.6</ele>
      </trkpt>
      <trkpt lat="44.001958" lon="5.767306">
        <ele>820.7</ele>
      </trkpt>
      <trkpt lat="44.002256" lon="5.767529">
        <ele>818.3</ele>
      </trkpt>
      <trkpt lat="44.002458" lon="5.767625">
        <ele>815.3</ele>
      </trkpt>
      <trkpt lat="44.002644" lon="5.767757">
        <ele>813.4</ele>
      </trkpt>
      <trkpt lat="44.002818" lon="5.767828">
        <ele>811.2</ele>
      </trkpt>
      <trkpt lat="44.002970" lon="5.768085">
        <ele>811.5</ele>
      </trkpt>
      <trkpt lat="44.003204" lon="5.768669">
        <ele>814.4</ele>
      </trkpt>
      <trkpt lat="44.003485" lon="5.769142">
        <ele>815.3</ele>
      </trkpt>
      <trkpt lat="44.003685" lon="5.769386">
        <ele>815.9</ele>
      </trkpt>
      <trkpt lat="44.003914" lon="5.769661">
        <ele>816.6</ele>
      </trkpt>
      <trkpt lat="44.004191" lon="5.770022">
        <ele>832.9</ele>
      </trkpt>
      <trkpt lat="44.004411" lon="5.769947">
        <ele>823.7</ele>
      </trkpt>
      <trkpt lat="44.004808" lon="5.770274">
        <ele>828.2</ele>
      </trkpt>
      <trkpt lat="44.004997" lon="5.770580">
        <ele>829.6</ele>
      </trkpt>
      <trkpt lat="44.005302" lon="5.770859">
        <ele>824.8</ele>
      </trkpt>
      <trkpt lat="44.005452" lon="5.771095">
        <ele>823.8</ele>
      </trkpt>
      <trkpt lat="44.005603" lon="5.771304">
        <ele>823.5</ele>
      </trkpt>
      <trkpt lat="44.005757" lon="5.771433">
        <ele>822.6</ele>
      </trkpt>
      <trkpt lat="44.005904" lon="5.771443">
        <ele>811.4</ele>
      </trkpt>
      <trkpt lat="44.006077" lon="5.771674">
        <ele>812.4</ele>
      </trkpt>
      <trkpt lat="44.006240" lon="5.772060">
        <ele>809.1</ele>
      </trkpt>
      <trkpt lat="44.006282" lon="5.772194">
        <ele>808.7</ele>
      </trkpt>
      <trkpt lat="44.006413" lon="5.772382">
        <ele>806.6</ele>
      </trkpt>
      <trkpt lat="44.006479" lon="5.772747">
        <ele>811.3</ele>
      </trkpt>
      <trkpt lat="44.006699" lon="5.773112">
        <ele>803.6</ele>
      </trkpt>
      <trkpt lat="44.007154" lon="5.773541">
        <ele>811.6</ele>
      </trkpt>
      <trkpt lat="44.007613" lon="5.774050">
        <ele>810.5</ele>
      </trkpt>
      <trkpt lat="44.007775" lon="5.774190">
        <ele>819</ele>
      </trkpt>
      <trkpt lat="44.007953" lon="5.774484">
        <ele>805.4</ele>
      </trkpt>
      <trkpt lat="44.008369" lon="5.774909">
        <ele>802.2</ele>
      </trkpt>
      <trkpt lat="44.008614" lon="5.775148">
        <ele>797.2</ele>
      </trkpt>
      <trkpt lat="44.008636" lon="5.775418">
        <ele>797.6</ele>
      </trkpt>
      <trkpt lat="44.008669" lon="5.775644">
        <ele>797.6</ele>
      </trkpt>
      <trkpt lat="44.008752" lon="5.775843">
        <ele>795.9</ele>
      </trkpt>
      <trkpt lat="44.008804" lon="5.776113">
        <ele>797.5</ele>
      </trkpt>
      <trkpt lat="44.009111" lon="5.776407">
        <ele>791.8</ele>
      </trkpt>
      <trkpt lat="44.009326" lon="5.776986">
        <ele>793.6</ele>
      </trkpt>
      <trkpt lat="44.009498" lon="5.777400">
        <ele>795.8</ele>
      </trkpt>
      <trkpt lat="44.009673" lon="5.777698">
        <ele>795.3</ele>
      </trkpt>
      <trkpt lat="44.009856" lon="5.777978">
        <ele>793.8</ele>
      </trkpt>
      <trkpt lat="44.010075" lon="5.778545">
        <ele>792.1</ele>
      </trkpt>
      <trkpt lat="44.010176" lon="5.779048">
        <ele>788.5</ele>
      </trkpt>
      <trkpt lat="44.010241" lon="5.779417">
        <ele>785.9</ele>
      </trkpt>
      <trkpt lat="44.010287" lon="5.779757">
        <ele>783.6</ele>
      </trkpt>
      <trkpt lat="44.010320" lon="5.780148">
        <ele>780.6</ele>
      </trkpt>
      <trkpt lat="44.010412" lon="5.780591">
        <ele>774.7</ele>
      </trkpt>
      <trkpt lat="44.010460" lon="5.780917">
        <ele>770.8</ele>
      </trkpt>
      <trkpt lat="44.010463" lon="5.781168">
        <ele>769.4</ele>
      </trkpt>
      <trkpt lat="44.010465" lon="5.781441">
        <ele>767.8</ele>
      </trkpt>
      <trkpt lat="44.010571" lon="5.781675">
        <ele>763.1</ele>
      </trkpt>
      <trkpt lat="44.010578" lon="5.782175">
        <ele>763.4</ele>
      </trkpt>
      <trkpt lat="44.010539" lon="5.782863">
        <ele>765.1</ele>
      </trkpt>
      <trkpt lat="44.010542" lon="5.783332">
        <ele>765.6</ele>
      </trkpt>
      <trkpt lat="44.010538" lon="5.783800">
        <ele>764.3</ele>
      </trkpt>
      <trkpt lat="44.010640" lon="5.784137">
        <ele>761.6</ele>
      </trkpt>
      <trkpt lat="44.010718" lon="5.784445">
        <ele>758.1</ele>
      </trkpt>
      <trkpt lat="44.010767" lon="5.784643">
        <ele>755.8</ele>
      </trkpt>
      <trkpt lat="44.010763" lon="5.784837">
        <ele>754.5</ele>
      </trkpt>
      <trkpt lat="44.010699" lon="5.785078">
        <ele>753.9</ele>
      </trkpt>
      <trkpt lat="44.010568" lon="5.785367">
        <ele>754.1</ele>
      </trkpt>
      <trkpt lat="44.010531" lon="5.785730">
        <ele>752</ele>
      </trkpt>
      <trkpt lat="44.010523" lon="5.786034">
        <ele>749.5</ele>
      </trkpt>
      <trkpt lat="44.010544" lon="5.786333">
        <ele>746.2</ele>
      </trkpt>
      <trkpt lat="44.010523" lon="5.786744">
        <ele>743.1</ele>
      </trkpt>
      <trkpt lat="44.010463" lon="5.787045">
        <ele>743.4</ele>
      </trkpt>
      <trkpt lat="44.010309" lon="5.787289">
        <ele>746.6</ele>
      </trkpt>
      <trkpt lat="44.010126" lon="5.787521">
        <ele>750.6</ele>
      </trkpt>
      <trkpt lat="44.010005" lon="5.787842">
        <ele>752.2</ele>
      </trkpt>
      <trkpt lat="44.009953" lon="5.788201">
        <ele>750.8</ele>
      </trkpt>
      <trkpt lat="44.009954" lon="5.788576">
        <ele>746.5</ele>
      </trkpt>
      <trkpt lat="44.009970" lon="5.788987">
        <ele>740.1</ele>
      </trkpt>
      <trkpt lat="44.010044" lon="5.789538">
        <ele>732</ele>
      </trkpt>
      <trkpt lat="44.010132" lon="5.789867">
        <ele>726.6</ele>
      </trkpt>
      <trkpt lat="44.010204" lon="5.790199">
        <ele>723.3</ele>
      </trkpt>
      <trkpt lat="44.010269" lon="5.790448">
        <ele>721.6</ele>
      </trkpt>
      <trkpt lat="44.010316" lon="5.790661">
        <ele>720.4</ele>
      </trkpt>
      <trkpt lat="44.010321" lon="5.790826">
        <ele>720.1</ele>
      </trkpt>
      <trkpt lat="44.010297" lon="5.791007">
        <ele>720.9</ele>
      </trkpt>
      <trkpt lat="44.010226" lon="5.791143">
        <ele>722.6</ele>
      </trkpt>
      <trkpt lat="44.010107" lon="5.791327">
        <ele>725.4</ele>
      </trkpt>
      <trkpt lat="44.010041" lon="5.791520">
        <ele>727</ele>
      </trkpt>
      <trkpt lat="44.009949" lon="5.791738">
        <ele>727.8</ele>
      </trkpt>
      <trkpt lat="44.009917" lon="5.791953">
        <ele>727.3</ele>
      </trkpt>
      <trkpt lat="44.009866" lon="5.792183">
        <ele>726.8</ele>
      </trkpt>
      <trkpt lat="44.009815" lon="5.792443">
        <ele>726.2</ele>
      </trkpt>
      <trkpt lat="44.009749" lon="5.792647">
        <ele>726.2</ele>
      </trkpt>
      <trkpt lat="44.009702" lon="5.792860">
        <ele>726.5</ele>
      </trkpt>
      <trkpt lat="44.009620" lon="5.793160">
        <ele>726.9</ele>
      </trkpt>
      <trkpt lat="44.009580" lon="5.793382">
        <ele>726.8</ele>
      </trkpt>
      <trkpt lat="44.009555" lon="5.793544">
        <ele>725.9</ele>
      </trkpt>
      <trkpt lat="44.009536" lon="5.793676">
        <ele>725.2</ele>
      </trkpt>
      <trkpt lat="44.009266" lon="5.793561">
        <ele>725</ele>
      </trkpt>
      <trkpt lat="44.009102" lon="5.793460">
        <ele>724.8</ele>
      </trkpt>
      <trkpt lat="44.008920" lon="5.793240">
        <ele>724.2</ele>
      </trkpt>
      <trkpt lat="44.008794" lon="5.793108">
        <ele>723.3</ele>
      </trkpt>
      <trkpt lat="44.008279" lon="5.793021">
        <ele>719.7</ele>
      </trkpt>
      <trkpt lat="44.008027" lon="5.792956">
        <ele>718.4</ele>
      </trkpt>
      <trkpt lat="44.007831" lon="5.792900">
        <ele>717.7</ele>
      </trkpt>
      <trkpt lat="44.007650" lon="5.792771">
        <ele>717.6</ele>
      </trkpt>
      <trkpt lat="44.007466" lon="5.792594">
        <ele>718.1</ele>
      </trkpt>
      <trkpt lat="44.007246" lon="5.792414">
        <ele>718.5</ele>
      </trkpt>
      <trkpt lat="44.007112" lon="5.792332">
        <ele>718.8</ele>
      </trkpt>
      <trkpt lat="44.006812" lon="5.792262">
        <ele>718.7</ele>
      </trkpt>
      <trkpt lat="44.006622" lon="5.792230">
        <ele>718.7</ele>
      </trkpt>
      <trkpt lat="44.006476" lon="5.792164">
        <ele>720.3</ele>
      </trkpt>
      <trkpt lat="44.006299" lon="5.792083">
        <ele>722.3</ele>
      </trkpt>
      <trkpt lat="44.006176" lon="5.791959">
        <ele>725.3</ele>
      </trkpt>
      <trkpt lat="44.006019" lon="5.791815">
        <ele>728.9</ele>
      </trkpt>
      <trkpt lat="44.005786" lon="5.791605">
        <ele>733.6</ele>
      </trkpt>
      <trkpt lat="44.005455" lon="5.791303">
        <ele>735.7</ele>
      </trkpt>
      <trkpt lat="44.005275" lon="5.791026">
        <ele>738.9</ele>
      </trkpt>
      <trkpt lat="44.005105" lon="5.790774">
        <ele>741.3</ele>
      </trkpt>
      <trkpt lat="44.004933" lon="5.790485">
        <ele>743.3</ele>
      </trkpt>
      <trkpt lat="44.004774" lon="5.790135">
        <ele>745.8</ele>
      </trkpt>
      <trkpt lat="44.004682" lon="5.789808">
        <ele>748</ele>
      </trkpt>
      <trkpt lat="44.004594" lon="5.789462">
        <ele>750.2</ele>
      </trkpt>
      <trkpt lat="44.004539" lon="5.789189">
        <ele>752</ele>
      </trkpt>
      <trkpt lat="44.004398" lon="5.788896">
        <ele>753.6</ele>
      </trkpt>
      <trkpt lat="44.004254" lon="5.788700">
        <ele>754.2</ele>
      </trkpt>
      <trkpt lat="44.003915" lon="5.788330">
        <ele>754.1</ele>
      </trkpt>
      <trkpt lat="44.003723" lon="5.788151">
        <ele>753.5</ele>
      </trkpt>
      <trkpt lat="44.003505" lon="5.787979">
        <ele>752.7</ele>
      </trkpt>
      <trkpt lat="44.003391" lon="5.787821">
        <ele>752.7</ele>
      </trkpt>
      <trkpt lat="44.003313" lon="5.787606">
        <ele>754</ele>
      </trkpt>
      <trkpt lat="44.003254" lon="5.787410">
        <ele>756.5</ele>
      </trkpt>
      <trkpt lat="44.003167" lon="5.787240">
        <ele>759.4</ele>
      </trkpt>
      <trkpt lat="44.003062" lon="5.787146">
        <ele>761.1</ele>
      </trkpt>
      <trkpt lat="44.002970" lon="5.787084">
        <ele>762</ele>
      </trkpt>
      <trkpt lat="44.002884" lon="5.786915">
        <ele>764.8</ele>
      </trkpt>
      <trkpt lat="44.002745" lon="5.786850">
        <ele>765.9</ele>
      </trkpt>
      <trkpt lat="44.002346" lon="5.786757">
        <ele>767.1</ele>
      </trkpt>
      <trkpt lat="44.001949" lon="5.786645">
        <ele>768.2</ele>
      </trkpt>
      <trkpt lat="44.001537" lon="5.786557">
        <ele>769.2</ele>
      </trkpt>
      <trkpt lat="44.001238" lon="5.786467">
        <ele>770.3</ele>
      </trkpt>
      <trkpt lat="44.000940" lon="5.786394">
        <ele>770.9</ele>
      </trkpt>
      <trkpt lat="44.000724" lon="5.786277">
        <ele>773</ele>
      </trkpt>
      <trkpt lat="44.000520" lon="5.786104">
        <ele>776.4</ele>
      </trkpt>
      <trkpt lat="44.000396" lon="5.785901">
        <ele>779.8</ele>
      </trkpt>
      <trkpt lat="44.000412" lon="5.785732">
        <ele>782.7</ele>
      </trkpt>
      <trkpt lat="44.000495" lon="5.785417">
        <ele>788.3</ele>
      </trkpt>
      <trkpt lat="44.000812" lon="5.785371">
        <ele>791.4</ele>
      </trkpt>
      <trkpt lat="44.001044" lon="5.785279">
        <ele>794</ele>
      </trkpt>
      <trkpt lat="44.001059" lon="5.785262">
        <ele>794.3</ele>
      </trkpt>
      <trkpt lat="44.001105" lon="5.785168">
        <ele>796.3</ele>
      </trkpt>
      <trkpt lat="44.001130" lon="5.784949">
        <ele>800.4</ele>
      </trkpt>
      <trkpt lat="44.001274" lon="5.784717">
        <ele>804.4</ele>
      </trkpt>
      <trkpt lat="44.001325" lon="5.784524">
        <ele>807.7</ele>
      </trkpt>
      <trkpt lat="44.001380" lon="5.784323">
        <ele>811.1</ele>
      </trkpt>
      <trkpt lat="44.001403" lon="5.784062">
        <ele>815</ele>
      </trkpt>
      <trkpt lat="44.001421" lon="5.783928">
        <ele>816.7</ele>
      </trkpt>
      <trkpt lat="44.001478" lon="5.783719">
        <ele>819.6</ele>
      </trkpt>
      <trkpt lat="44.001441" lon="5.783506">
        <ele>821.7</ele>
      </trkpt>
      <trkpt lat="44.001467" lon="5.783322">
        <ele>824</ele>
      </trkpt>
      <trkpt lat="44.001508" lon="5.783184">
        <ele>825.7</ele>
      </trkpt>
      <trkpt lat="44.001561" lon="5.782831">
        <ele>829.5</ele>
      </trkpt>
      <trkpt lat="44.001565" lon="5.782541">
        <ele>832.2</ele>
      </trkpt>
      <trkpt lat="44.001559" lon="5.782214">
        <ele>834.6</ele>
      </trkpt>
      <trkpt lat="44.001566" lon="5.781975">
        <ele>836.6</ele>
      </trkpt>
      <trkpt lat="44.001605" lon="5.781677">
        <ele>839.7</ele>
      </trkpt>
      <trkpt lat="44.001631" lon="5.781410">
        <ele>840.9</ele>
      </trkpt>
      <trkpt lat="44.001708" lon="5.781168">
        <ele>842.7</ele>
      </trkpt>
      <trkpt lat="44.001704" lon="5.780838">
        <ele>843.4</ele>
      </trkpt>
      <trkpt lat="44.001697" lon="5.780611">
        <ele>844.1</ele>
      </trkpt>
      <trkpt lat="44.001681" lon="5.780385">
        <ele>844.8</ele>
      </trkpt>
      <trkpt lat="44.001673" lon="5.780122">
        <ele>845.6</ele>
      </trkpt>
      <trkpt lat="44.001630" lon="5.779919">
        <ele>845.6</ele>
      </trkpt>
      <trkpt lat="44.001613" lon="5.779762">
        <ele>845.7</ele>
      </trkpt>
      <trkpt lat="44.001666" lon="5.779572">
        <ele>846.5</ele>
      </trkpt>
      <trkpt lat="44.001723" lon="5.779400">
        <ele>847</ele>
      </trkpt>
      <trkpt lat="44.001744" lon="5.779186">
        <ele>847.4</ele>
      </trkpt>
      <trkpt lat="44.001640" lon="5.778975">
        <ele>847.5</ele>
      </trkpt>
      <trkpt lat="44.001600" lon="5.778643">
        <ele>848.7</ele>
      </trkpt>
      <trkpt lat="44.001565" lon="5.778337">
        <ele>849.8</ele>
      </trkpt>
      <trkpt lat="44.001466" lon="5.778087">
        <ele>851.6</ele>
      </trkpt>
      <trkpt lat="44.001344" lon="5.777811">
        <ele>853.6</ele>
      </trkpt>
      <trkpt lat="44.001266" lon="5.777558">
        <ele>855.6</ele>
      </trkpt>
      <trkpt lat="44.001273" lon="5.777380">
        <ele>857.5</ele>
      </trkpt>
      <trkpt lat="44.001331" lon="5.777208">
        <ele>859.6</ele>
      </trkpt>
      <trkpt lat="44.001421" lon="5.777133">
        <ele>860.6</ele>
      </trkpt>
      <trkpt lat="44.001530" lon="5.777093">
        <ele>861.3</ele>
      </trkpt>
      <trkpt lat="44.001607" lon="5.776962">
        <ele>862.8</ele>
      </trkpt>
      <trkpt lat="44.001767" lon="5.776782">
        <ele>865.3</ele>
      </trkpt>
      <trkpt lat="44.002770" lon="5.775466">
        <ele>884</ele>
      </trkpt>
      <trkpt lat="44.002896" lon="5.775323">
        <ele>885.5</ele>
      </trkpt>
      <trkpt lat="44.003068" lon="5.775109">
        <ele>887.6</ele>
      </trkpt>
      <trkpt lat="44.003261" lon="5.774979">
        <ele>888.9</ele>
      </trkpt>
      <trkpt lat="44.003362" lon="5.774887">
        <ele>889.3</ele>
      </trkpt>
      <trkpt lat="44.003359" lon="5.774766">
        <ele>889.6</ele>
      </trkpt>
      <trkpt lat="44.003225" lon="5.774665">
        <ele>889.7</ele>
      </trkpt>
      <trkpt lat="44.003027" lon="5.774511">
        <ele>890.1</ele>
      </trkpt>
      <trkpt lat="44.002886" lon="5.774265">
        <ele>891.1</ele>
      </trkpt>
      <trkpt lat="44.002731" lon="5.774011">
        <ele>892.5</ele>
      </trkpt>
      <trkpt lat="44.002496" lon="5.773868">
        <ele>893.8</ele>
      </trkpt>
      <trkpt lat="44.002266" lon="5.773717">
        <ele>895</ele>
      </trkpt>
      <trkpt lat="44.001941" lon="5.773495">
        <ele>897.2</ele>
      </trkpt>
      <trkpt lat="44.001705" lon="5.773116">
        <ele>899.4</ele>
      </trkpt>
      <trkpt lat="44.001500" lon="5.772811">
        <ele>900.5</ele>
      </trkpt>
      <trkpt lat="44.001282" lon="5.772505">
        <ele>902.4</ele>
      </trkpt>
      <trkpt lat="44.001152" lon="5.772356">
        <ele>903.3</ele>
      </trkpt>
      <trkpt lat="44.000852" lon="5.771936">
        <ele>906.6</ele>
      </trkpt>
      <trkpt lat="44.000595" lon="5.771485">
        <ele>906.6</ele>
      </trkpt>
      <trkpt lat="44.000333" lon="5.771145">
        <ele>905.9</ele>
      </trkpt>
      <trkpt lat="44.000216" lon="5.770888">
        <ele>906.1</ele>
      </trkpt>
      <trkpt lat="43.999954" lon="5.770512">
        <ele>901.8</ele>
      </trkpt>
      <trkpt lat="43.998819" lon="5.769217">
        <ele>889.6</ele>
      </trkpt>
      <trkpt lat="43.999097" lon="5.769131">
        <ele>890.2</ele>
      </trkpt>
      <trkpt lat="43.999290" lon="5.769078">
        <ele>890</ele>
      </trkpt>
      <trkpt lat="43.999367" lon="5.768723">
        <ele>888.9</ele>
      </trkpt>
      <trkpt lat="43.999514" lon="5.768605">
        <ele>888.5</ele>
      </trkpt>
      <trkpt lat="43.999429" lon="5.768058">
        <ele>884.5</ele>
      </trkpt>
      <trkpt lat="43.999637" lon="5.767372">
        <ele>878.3</ele>
      </trkpt>
      <trkpt lat="43.999653" lon="5.767007">
        <ele>877.1</ele>
      </trkpt>
      <trkpt lat="43.999506" lon="5.766696">
        <ele>877.4</ele>
      </trkpt>
      <trkpt lat="43.999066" lon="5.765966">
        <ele>877.9</ele>
      </trkpt>
      <trkpt lat="43.999005" lon="5.765730">
        <ele>874.6</ele>
      </trkpt>
      <trkpt lat="43.998727" lon="5.765119">
        <ele>873.9</ele>
      </trkpt>
      <trkpt lat="43.998572" lon="5.765076">
        <ele>875.7</ele>
      </trkpt>
      <trkpt lat="43.998271" lon="5.764786">
        <ele>876.5</ele>
      </trkpt>
      <trkpt lat="43.998047" lon="5.764818">
        <ele>877.2</ele>
      </trkpt>
      <trkpt lat="43.997754" lon="5.764625">
        <ele>877.5</ele>
      </trkpt>
      <trkpt lat="43.997584" lon="5.764636">
        <ele>878.6</ele>
      </trkpt>
      <trkpt lat="43.997345" lon="5.764410">
        <ele>882.8</ele>
      </trkpt>
      <trkpt lat="43.997191" lon="5.764400">
        <ele>883.8</ele>
      </trkpt>
      <trkpt lat="43.996967" lon="5.764496">
        <ele>885.6</ele>
      </trkpt>
      <trkpt lat="43.996766" lon="5.764743">
        <ele>887.8</ele>
      </trkpt>
      <trkpt lat="43.996164" lon="5.764164">
        <ele>885</ele>
      </trkpt>
      <trkpt lat="43.995922" lon="5.763821">
        <ele>879</ele>
      </trkpt>
      <trkpt lat="43.995790" lon="5.763622">
        <ele>877.8</ele>
      </trkpt>
      <trkpt lat="43.995659" lon="5.763456">
        <ele>876.4</ele>
      </trkpt>
      <trkpt lat="43.995553" lon="5.763310">
        <ele>875.3</ele>
      </trkpt>
      <trkpt lat="43.995466" lon="5.763157">
        <ele>873.6</ele>
      </trkpt>
      <trkpt lat="43.995346" lon="5.763002">
        <ele>872.6</ele>
      </trkpt>
      <trkpt lat="43.995216" lon="5.762880">
        <ele>872.6</ele>
      </trkpt>
      <trkpt lat="43.995066" lon="5.762787">
        <ele>873.5</ele>
      </trkpt>
      <trkpt lat="43.994931" lon="5.762664">
        <ele>873.3</ele>
      </trkpt>
      <trkpt lat="43.994819" lon="5.762519">
        <ele>872.2</ele>
      </trkpt>
      <trkpt lat="43.994553" lon="5.762295">
        <ele>871.6</ele>
      </trkpt>
      <trkpt lat="43.994413" lon="5.762202">
        <ele>871.8</ele>
      </trkpt>
      <trkpt lat="43.994288" lon="5.762115">
        <ele>872.1</ele>
      </trkpt>
      <trkpt lat="43.994191" lon="5.762038">
        <ele>872.4</ele>
      </trkpt>
      <trkpt lat="43.994075" lon="5.761928">
        <ele>872.2</ele>
      </trkpt>
      <trkpt lat="43.993923" lon="5.761836">
        <ele>872.3</ele>
      </trkpt>
      <trkpt lat="43.993766" lon="5.761618">
        <ele>871.3</ele>
      </trkpt>
      <trkpt lat="43.993638" lon="5.761498">
        <ele>870.6</ele>
      </trkpt>
      <trkpt lat="43.993497" lon="5.761380">
        <ele>870</ele>
      </trkpt>
      <trkpt lat="43.993284" lon="5.761135">
        <ele>868.3</ele>
      </trkpt>
      <trkpt lat="43.993145" lon="5.761023">
        <ele>867.5</ele>
      </trkpt>
      <trkpt lat="43.992969" lon="5.760895">
        <ele>866.8</ele>
      </trkpt>
      <trkpt lat="43.992817" lon="5.760769">
        <ele>866</ele>
      </trkpt>
      <trkpt lat="43.992683" lon="5.760703">
        <ele>865.9</ele>
      </trkpt>
      <trkpt lat="43.992492" lon="5.760546">
        <ele>865.3</ele>
      </trkpt>
      <trkpt lat="43.992298" lon="5.760422">
        <ele>864.6</ele>
      </trkpt>
      <trkpt lat="43.992155" lon="5.760338">
        <ele>864.4</ele>
      </trkpt>
      <trkpt lat="43.992010" lon="5.760291">
        <ele>864.5</ele>
      </trkpt>
      <trkpt lat="43.991923" lon="5.760246">
        <ele>864.5</ele>
      </trkpt>
      <trkpt lat="43.991837" lon="5.760150">
        <ele>864.1</ele>
      </trkpt>
      <trkpt lat="43.991746" lon="5.759970">
        <ele>863.4</ele>
      </trkpt>
      <trkpt lat="43.991639" lon="5.759829">
        <ele>863</ele>
      </trkpt>
      <trkpt lat="43.991548" lon="5.759700">
        <ele>862.1</ele>
      </trkpt>
      <trkpt lat="43.991467" lon="5.759548">
        <ele>861</ele>
      </trkpt>
      <trkpt lat="43.991429" lon="5.759408">
        <ele>860.1</ele>
      </trkpt>
      <trkpt lat="43.991429" lon="5.759396">
        <ele>860</ele>
      </trkpt>
      <trkpt lat="43.991391" lon="5.759280">
        <ele>859.3</ele>
      </trkpt>
      <trkpt lat="43.991379" lon="5.759264">
        <ele>859.2</ele>
      </trkpt>
      <trkpt lat="43.991299" lon="5.759177">
        <ele>858.6</ele>
      </trkpt>
      <trkpt lat="43.991290" lon="5.759160">
        <ele>858.4</ele>
      </trkpt>
      <trkpt lat="43.991239" lon="5.759047">
        <ele>857.6</ele>
      </trkpt>
      <trkpt lat="43.991123" lon="5.758909">
        <ele>856.8</ele>
      </trkpt>
      <trkpt lat="43.991114" lon="5.758888">
        <ele>856.6</ele>
      </trkpt>
      <trkpt lat="43.990933" lon="5.758713">
        <ele>856.1</ele>
      </trkpt>
      <trkpt lat="43.990696" lon="5.758620">
        <ele>855.5</ele>
      </trkpt>
      <trkpt lat="43.990474" lon="5.758653">
        <ele>854.9</ele>
      </trkpt>
      <trkpt lat="43.990180" lon="5.758658">
        <ele>854</ele>
      </trkpt>
      <trkpt lat="43.989927" lon="5.758619">
        <ele>852.7</ele>
      </trkpt>
      <trkpt lat="43.989759" lon="5.758612">
        <ele>851.8</ele>
      </trkpt>
      <trkpt lat="43.989570" lon="5.758550">
        <ele>850.3</ele>
      </trkpt>
      <trkpt lat="43.989454" lon="5.758523">
        <ele>849.5</ele>
      </trkpt>
      <trkpt lat="43.989439" lon="5.758515">
        <ele>849.4</ele>
      </trkpt>
      <trkpt lat="43.989415" lon="5.758498">
        <ele>849</ele>
      </trkpt>
      <trkpt lat="43.989256" lon="5.758472">
        <ele>847.9</ele>
      </trkpt>
      <trkpt lat="43.989114" lon="5.758433">
        <ele>846.7</ele>
      </trkpt>
      <trkpt lat="43.989096" lon="5.758434">
        <ele>846.6</ele>
      </trkpt>
      <trkpt lat="43.989086" lon="5.758434">
        <ele>846.5</ele>
      </trkpt>
      <trkpt lat="43.988918" lon="5.758481">
        <ele>846.1</ele>
      </trkpt>
      <trkpt lat="43.988702" lon="5.758495">
        <ele>844.9</ele>
      </trkpt>
      <trkpt lat="43.988467" lon="5.758510">
        <ele>843.6</ele>
      </trkpt>
      <trkpt lat="43.988213" lon="5.758543">
        <ele>842.2</ele>
      </trkpt>
      <trkpt lat="43.987955" lon="5.758569">
        <ele>840.2</ele>
      </trkpt>
      <trkpt lat="43.987801" lon="5.758641">
        <ele>839.5</ele>
      </trkpt>
      <trkpt lat="43.987658" lon="5.758713">
        <ele>839.1</ele>
      </trkpt>
      <trkpt lat="43.987492" lon="5.758746">
        <ele>837.8</ele>
      </trkpt>
      <trkpt lat="43.987360" lon="5.758811">
        <ele>836.7</ele>
      </trkpt>
      <trkpt lat="43.987198" lon="5.758863">
        <ele>835.1</ele>
      </trkpt>
      <trkpt lat="43.986935" lon="5.758921">
        <ele>832.4</ele>
      </trkpt>
      <trkpt lat="43.986749" lon="5.758998">
        <ele>830.6</ele>
      </trkpt>
      <trkpt lat="43.986577" lon="5.759042">
        <ele>828.8</ele>
      </trkpt>
      <trkpt lat="43.986428" lon="5.759105">
        <ele>827.4</ele>
      </trkpt>
      <trkpt lat="43.986322" lon="5.759196">
        <ele>826.5</ele>
      </trkpt>
      <trkpt lat="43.986248" lon="5.759314">
        <ele>825.8</ele>
      </trkpt>
      <trkpt lat="43.986202" lon="5.759433">
        <ele>825.3</ele>
      </trkpt>
      <trkpt lat="43.986134" lon="5.759737">
        <ele>825.1</ele>
      </trkpt>
      <trkpt lat="43.986122" lon="5.759952">
        <ele>825.4</ele>
      </trkpt>
      <trkpt lat="43.986117" lon="5.760145">
        <ele>824.3</ele>
      </trkpt>
      <trkpt lat="43.986110" lon="5.760394">
        <ele>822.2</ele>
      </trkpt>
      <trkpt lat="43.986112" lon="5.760759">
        <ele>819.3</ele>
      </trkpt>
      <trkpt lat="43.986151" lon="5.761069">
        <ele>816.9</ele>
      </trkpt>
      <trkpt lat="43.986176" lon="5.761376">
        <ele>814.2</ele>
      </trkpt>
      <trkpt lat="43.986226" lon="5.761625">
        <ele>812.3</ele>
      </trkpt>
      <trkpt lat="43.986358" lon="5.762165">
        <ele>807.5</ele>
      </trkpt>
      <trkpt lat="43.986420" lon="5.762372">
        <ele>805.9</ele>
      </trkpt>
      <trkpt lat="43.986523" lon="5.762656">
        <ele>804.1</ele>
      </trkpt>
      <trkpt lat="43.986643" lon="5.763051">
        <ele>801.1</ele>
      </trkpt>
      <trkpt lat="43.986809" lon="5.763379">
        <ele>799.7</ele>
      </trkpt>
      <trkpt lat="43.986962" lon="5.763815">
        <ele>798.1</ele>
      </trkpt>
      <trkpt lat="43.987069" lon="5.764193">
        <ele>796.6</ele>
      </trkpt>
      <trkpt lat="43.987147" lon="5.764457">
        <ele>796.2</ele>
      </trkpt>
      <trkpt lat="43.987253" lon="5.764667">
        <ele>796.5</ele>
      </trkpt>
      <trkpt lat="43.987321" lon="5.764951">
        <ele>795.6</ele>
      </trkpt>
      <trkpt lat="43.987363" lon="5.765165">
        <ele>795.3</ele>
      </trkpt>
      <trkpt lat="43.987338" lon="5.765476">
        <ele>793.8</ele>
      </trkpt>
      <trkpt lat="43.987344" lon="5.765897">
        <ele>792.2</ele>
      </trkpt>
      <trkpt lat="43.987337" lon="5.766309">
        <ele>789.6</ele>
      </trkpt>
      <trkpt lat="43.987321" lon="5.766626">
        <ele>787.4</ele>
      </trkpt>
      <trkpt lat="43.987269" lon="5.766831">
        <ele>785.2</ele>
      </trkpt>
      <trkpt lat="43.987190" lon="5.766975">
        <ele>782.9</ele>
      </trkpt>
      <trkpt lat="43.987144" lon="5.767155">
        <ele>780.9</ele>
      </trkpt>
      <trkpt lat="43.987146" lon="5.767359">
        <ele>779.4</ele>
      </trkpt>
      <trkpt lat="43.987119" lon="5.767646">
        <ele>777.2</ele>
      </trkpt>
      <trkpt lat="43.987027" lon="5.767940">
        <ele>774.6</ele>
      </trkpt>
      <trkpt lat="43.986891" lon="5.768173">
        <ele>772.3</ele>
      </trkpt>
      <trkpt lat="43.986761" lon="5.768289">
        <ele>770.8</ele>
      </trkpt>
      <trkpt lat="43.986550" lon="5.768302">
        <ele>769.1</ele>
      </trkpt>
      <trkpt lat="43.986356" lon="5.768309">
        <ele>767.4</ele>
      </trkpt>
      <trkpt lat="43.986206" lon="5.768464">
        <ele>766.9</ele>
      </trkpt>
      <trkpt lat="43.985989" lon="5.768523">
        <ele>765.4</ele>
      </trkpt>
      <trkpt lat="43.985600" lon="5.768500">
        <ele>762.6</ele>
      </trkpt>
      <trkpt lat="43.985302" lon="5.768469">
        <ele>760.6</ele>
      </trkpt>
      <trkpt lat="43.985076" lon="5.768415">
        <ele>758.9</ele>
      </trkpt>
      <trkpt lat="43.984818" lon="5.768503">
        <ele>758</ele>
      </trkpt>
      <trkpt lat="43.984574" lon="5.768713">
        <ele>757.3</ele>
      </trkpt>
      <trkpt lat="43.984281" lon="5.768978">
        <ele>755.7</ele>
      </trkpt>
      <trkpt lat="43.983873" lon="5.769233">
        <ele>751.4</ele>
      </trkpt>
      <trkpt lat="43.983634" lon="5.769434">
        <ele>747.8</ele>
      </trkpt>
      <trkpt lat="43.983378" lon="5.769773">
        <ele>743.5</ele>
      </trkpt>
      <trkpt lat="43.982943" lon="5.770381">
        <ele>740.6</ele>
      </trkpt>
      <trkpt lat="43.982636" lon="5.770769">
        <ele>741</ele>
      </trkpt>
      <trkpt lat="43.982305" lon="5.771027">
        <ele>742.7</ele>
      </trkpt>
      <trkpt lat="43.982008" lon="5.771212">
        <ele>745.1</ele>
      </trkpt>
      <trkpt lat="43.981552" lon="5.771437">
        <ele>747.9</ele>
      </trkpt>
      <trkpt lat="43.981051" lon="5.771773">
        <ele>744.6</ele>
      </trkpt>
      <trkpt lat="43.980762" lon="5.771949">
        <ele>743.5</ele>
      </trkpt>
      <trkpt lat="43.980586" lon="5.771936">
        <ele>741.6</ele>
      </trkpt>
      <trkpt lat="43.980333" lon="5.771965">
        <ele>739.1</ele>
      </trkpt>
      <trkpt lat="43.980268" lon="5.772191">
        <ele>740</ele>
      </trkpt>
      <trkpt lat="43.980221" lon="5.772742">
        <ele>740.5</ele>
      </trkpt>
      <trkpt lat="43.980324" lon="5.773088">
        <ele>739.1</ele>
      </trkpt>
      <trkpt lat="43.980400" lon="5.773513">
        <ele>735.4</ele>
      </trkpt>
      <trkpt lat="43.980485" lon="5.773866">
        <ele>729.7</ele>
      </trkpt>
      <trkpt lat="43.980657" lon="5.774533">
        <ele>716</ele>
      </trkpt>
      <trkpt lat="43.980644" lon="5.774947">
        <ele>707.8</ele>
      </trkpt>
      <trkpt lat="43.980654" lon="5.775247">
        <ele>702.3</ele>
      </trkpt>
      <trkpt lat="43.980612" lon="5.775611">
        <ele>697.3</ele>
      </trkpt>
      <trkpt lat="43.980594" lon="5.775863">
        <ele>693.5</ele>
      </trkpt>
      <trkpt lat="43.980558" lon="5.776005">
        <ele>690.9</ele>
      </trkpt>
      <trkpt lat="43.980462" lon="5.776078">
        <ele>692.4</ele>
      </trkpt>
      <trkpt lat="43.980246" lon="5.776091">
        <ele>699</ele>
      </trkpt>
      <trkpt lat="43.980030" lon="5.776090">
        <ele>706</ele>
      </trkpt>
      <trkpt lat="43.979909" lon="5.776143">
        <ele>706.2</ele>
      </trkpt>
      <trkpt lat="43.979916" lon="5.776263">
        <ele>703.7</ele>
      </trkpt>
      <trkpt lat="43.979958" lon="5.776370">
        <ele>701.4</ele>
      </trkpt>
      <trkpt lat="43.980221" lon="5.776703">
        <ele>686.3</ele>
      </trkpt>
      <trkpt lat="43.980379" lon="5.776886">
        <ele>677.1</ele>
      </trkpt>
      <trkpt lat="43.980467" lon="5.777123">
        <ele>669.2</ele>
      </trkpt>
      <trkpt lat="43.980411" lon="5.777329">
        <ele>667.7</ele>
      </trkpt>
      <trkpt lat="43.980337" lon="5.777546">
        <ele>667.2</ele>
      </trkpt>
      <trkpt lat="43.980282" lon="5.777750">
        <ele>666.4</ele>
      </trkpt>
      <trkpt lat="43.980253" lon="5.777916">
        <ele>665.2</ele>
      </trkpt>
      <trkpt lat="43.980182" lon="5.778014">
        <ele>667.1</ele>
      </trkpt>
      <trkpt lat="43.980082" lon="5.778098">
        <ele>670.4</ele>
      </trkpt>
      <trkpt lat="43.980015" lon="5.778196">
        <ele>672.1</ele>
      </trkpt>
      <trkpt lat="43.980103" lon="5.778319">
        <ele>666.3</ele>
      </trkpt>
      <trkpt lat="43.980186" lon="5.778415">
        <ele>661.2</ele>
      </trkpt>
      <trkpt lat="43.980218" lon="5.778492">
        <ele>658.8</ele>
      </trkpt>
      <trkpt lat="43.980233" lon="5.778591">
        <ele>656.9</ele>
      </trkpt>
      <trkpt lat="43.980235" lon="5.778707">
        <ele>655.5</ele>
      </trkpt>
      <trkpt lat="43.980243" lon="5.778845">
        <ele>653.2</ele>
      </trkpt>
      <trkpt lat="43.980241" lon="5.779011">
        <ele>651.3</ele>
      </trkpt>
      <trkpt lat="43.980253" lon="5.779216">
        <ele>648.5</ele>
      </trkpt>
      <trkpt lat="43.980248" lon="5.779442">
        <ele>647.2</ele>
      </trkpt>
      <trkpt lat="43.980250" lon="5.779714">
        <ele>645.2</ele>
      </trkpt>
      <trkpt lat="43.980257" lon="5.779910">
        <ele>643.6</ele>
      </trkpt>
      <trkpt lat="43.980245" lon="5.780082">
        <ele>642.8</ele>
      </trkpt>
      <trkpt lat="43.980241" lon="5.780245">
        <ele>641.8</ele>
      </trkpt>
      <trkpt lat="43.980217" lon="5.780361">
        <ele>642</ele>
      </trkpt>
      <trkpt lat="43.980207" lon="5.780456">
        <ele>641.6</ele>
      </trkpt>
      <trkpt lat="43.980203" lon="5.780569">
        <ele>641</ele>
      </trkpt>
      <trkpt lat="43.980185" lon="5.780734">
        <ele>640.4</ele>
      </trkpt>
      <trkpt lat="43.980166" lon="5.780886">
        <ele>639.9</ele>
      </trkpt>
      <trkpt lat="43.980151" lon="5.781045">
        <ele>639.1</ele>
      </trkpt>
      <trkpt lat="43.980146" lon="5.781161">
        <ele>638.1</ele>
      </trkpt>
      <trkpt lat="43.980140" lon="5.781280">
        <ele>637.3</ele>
      </trkpt>
      <trkpt lat="43.980156" lon="5.781382">
        <ele>635.5</ele>
      </trkpt>
      <trkpt lat="43.980187" lon="5.781505">
        <ele>632.8</ele>
      </trkpt>
      <trkpt lat="43.980187" lon="5.781625">
        <ele>631.7</ele>
      </trkpt>
      <trkpt lat="43.980174" lon="5.781748">
        <ele>630.7</ele>
      </trkpt>
      <trkpt lat="43.980172" lon="5.781866">
        <ele>629.3</ele>
      </trkpt>
      <trkpt lat="43.980195" lon="5.781968">
        <ele>626.9</ele>
      </trkpt>
      <trkpt lat="43.980196" lon="5.782045">
        <ele>625.7</ele>
      </trkpt>
      <trkpt lat="43.980161" lon="5.782131">
        <ele>626.4</ele>
      </trkpt>
      <trkpt lat="43.980093" lon="5.782208">
        <ele>628.5</ele>
      </trkpt>
      <trkpt lat="43.980003" lon="5.782314">
        <ele>631.4</ele>
      </trkpt>
      <trkpt lat="43.979865" lon="5.782420">
        <ele>635</ele>
      </trkpt>
      <trkpt lat="43.979769" lon="5.782507">
        <ele>637.3</ele>
      </trkpt>
      <trkpt lat="43.979717" lon="5.782671">
        <ele>636</ele>
      </trkpt>
      <trkpt lat="43.979709" lon="5.782857">
        <ele>632.8</ele>
      </trkpt>
      <trkpt lat="43.979707" lon="5.783056">
        <ele>629.3</ele>
      </trkpt>
      <trkpt lat="43.979747" lon="5.783176">
        <ele>625.3</ele>
      </trkpt>
      <trkpt lat="43.979751" lon="5.783338">
        <ele>622.1</ele>
      </trkpt>
      <trkpt lat="43.979710" lon="5.783546">
        <ele>622.3</ele>
      </trkpt>
      <trkpt lat="43.979696" lon="5.783672">
        <ele>621.9</ele>
      </trkpt>
      <trkpt lat="43.979669" lon="5.783853">
        <ele>621.7</ele>
      </trkpt>
      <trkpt lat="43.979652" lon="5.784059">
        <ele>621.1</ele>
      </trkpt>
      <trkpt lat="43.979633" lon="5.784166">
        <ele>621</ele>
      </trkpt>
      <trkpt lat="43.979616" lon="5.784338">
        <ele>622.4</ele>
      </trkpt>
      <trkpt lat="43.979608" lon="5.784520">
        <ele>623.3</ele>
      </trkpt>
      <trkpt lat="43.979612" lon="5.784682">
        <ele>623.8</ele>
      </trkpt>
      <trkpt lat="43.979638" lon="5.784829">
        <ele>623.7</ele>
      </trkpt>
      <trkpt lat="43.979733" lon="5.784951">
        <ele>621.4</ele>
      </trkpt>
      <trkpt lat="43.979857" lon="5.785078">
        <ele>618</ele>
      </trkpt>
      <trkpt lat="43.979997" lon="5.785168">
        <ele>614.1</ele>
      </trkpt>
      <trkpt lat="43.980130" lon="5.785187">
        <ele>607</ele>
      </trkpt>
      <trkpt lat="43.980226" lon="5.785284">
        <ele>601.7</ele>
      </trkpt>
      <trkpt lat="43.980280" lon="5.785379">
        <ele>598.8</ele>
      </trkpt>
      <trkpt lat="43.980367" lon="5.785465">
        <ele>593.9</ele>
      </trkpt>
      <trkpt lat="43.980395" lon="5.785567">
        <ele>592.3</ele>
      </trkpt>
      <trkpt lat="43.980395" lon="5.785759">
        <ele>591.7</ele>
      </trkpt>
      <trkpt lat="43.980385" lon="5.785906">
        <ele>591.9</ele>
      </trkpt>
      <trkpt lat="43.980409" lon="5.785985">
        <ele>590.3</ele>
      </trkpt>
      <trkpt lat="43.980422" lon="5.786081">
        <ele>589.1</ele>
      </trkpt>
      <trkpt lat="43.980388" lon="5.786207">
        <ele>590.6</ele>
      </trkpt>
      <trkpt lat="43.980354" lon="5.786367">
        <ele>591.6</ele>
      </trkpt>
      <trkpt lat="43.980252" lon="5.786610">
        <ele>595.9</ele>
      </trkpt>
      <trkpt lat="43.980152" lon="5.786795">
        <ele>600.4</ele>
      </trkpt>
      <trkpt lat="43.980062" lon="5.786984">
        <ele>604.6</ele>
      </trkpt>
      <trkpt lat="43.979994" lon="5.787170">
        <ele>607.3</ele>
      </trkpt>
      <trkpt lat="43.979917" lon="5.787336">
        <ele>608</ele>
      </trkpt>
      <trkpt lat="43.979829" lon="5.787457">
        <ele>609</ele>
      </trkpt>
      <trkpt lat="43.979708" lon="5.787531">
        <ele>610.6</ele>
      </trkpt>
      <trkpt lat="43.979655" lon="5.787693">
        <ele>610.2</ele>
      </trkpt>
      <trkpt lat="43.979667" lon="5.787896">
        <ele>608.2</ele>
      </trkpt>
      <trkpt lat="43.979683" lon="5.788077">
        <ele>606.3</ele>
      </trkpt>
      <trkpt lat="43.979681" lon="5.788288">
        <ele>604.6</ele>
      </trkpt>
      <trkpt lat="43.979653" lon="5.788565">
        <ele>600.8</ele>
      </trkpt>
      <trkpt lat="43.979636" lon="5.788750">
        <ele>598</ele>
      </trkpt>
      <trkpt lat="43.979619" lon="5.788976">
        <ele>594.7</ele>
      </trkpt>
      <trkpt lat="43.979599" lon="5.789078">
        <ele>593.5</ele>
      </trkpt>
      <trkpt lat="43.979569" lon="5.789255">
        <ele>591.3</ele>
      </trkpt>
      <trkpt lat="43.979534" lon="5.789414">
        <ele>588.9</ele>
      </trkpt>
      <trkpt lat="43.979473" lon="5.789516">
        <ele>588.7</ele>
      </trkpt>
      <trkpt lat="43.979380" lon="5.789602">
        <ele>590.2</ele>
      </trkpt>
      <trkpt lat="43.979320" lon="5.789640">
        <ele>591.5</ele>
      </trkpt>
      <trkpt lat="43.979261" lon="5.789404">
        <ele>597.8</ele>
      </trkpt>
      <trkpt lat="43.979196" lon="5.789270">
        <ele>602.2</ele>
      </trkpt>
      <trkpt lat="43.979088" lon="5.789168">
        <ele>604.8</ele>
      </trkpt>
      <trkpt lat="43.979010" lon="5.789112">
        <ele>605.2</ele>
      </trkpt>
      <trkpt lat="43.978903" lon="5.789052">
        <ele>605.3</ele>
      </trkpt>
      <trkpt lat="43.978767" lon="5.789030">
        <ele>605</ele>
      </trkpt>
      <trkpt lat="43.978664" lon="5.789003">
        <ele>604.8</ele>
      </trkpt>
      <trkpt lat="43.978612" lon="5.789048">
        <ele>604.3</ele>
      </trkpt>
      <trkpt lat="43.978541" lon="5.789069">
        <ele>604</ele>
      </trkpt>
      <trkpt lat="43.978470" lon="5.789051">
        <ele>603.8</ele>
      </trkpt>
      <trkpt lat="43.978342" lon="5.789064">
        <ele>603.3</ele>
      </trkpt>
      <trkpt lat="43.978241" lon="5.789061">
        <ele>601.9</ele>
      </trkpt>
      <trkpt lat="43.978243" lon="5.788959">
        <ele>602.2</ele>
      </trkpt>
      <trkpt lat="43.978232" lon="5.788829">
        <ele>602.4</ele>
      </trkpt>
      <trkpt lat="43.978203" lon="5.788739">
        <ele>602.2</ele>
      </trkpt>
      <trkpt lat="43.978177" lon="5.788696">
        <ele>601.9</ele>
      </trkpt>
      <trkpt lat="43.978122" lon="5.788701">
        <ele>601.1</ele>
      </trkpt>
      <trkpt lat="43.978047" lon="5.788717">
        <ele>600</ele>
      </trkpt>
      <trkpt lat="43.977927" lon="5.788709">
        <ele>598.3</ele>
      </trkpt>
      <trkpt lat="43.977806" lon="5.788697">
        <ele>596.5</ele>
      </trkpt>
      <trkpt lat="43.977715" lon="5.788693">
        <ele>595.2</ele>
      </trkpt>
      <trkpt lat="43.977607" lon="5.788667">
        <ele>593.8</ele>
      </trkpt>
      <trkpt lat="43.977471" lon="5.788732">
        <ele>591.7</ele>
      </trkpt>
      <trkpt lat="43.977320" lon="5.788788">
        <ele>589.7</ele>
      </trkpt>
      <trkpt lat="43.977192" lon="5.788790">
        <ele>588</ele>
      </trkpt>
      <trkpt lat="43.977042" lon="5.788827">
        <ele>585.8</ele>
      </trkpt>
      <trkpt lat="43.976924" lon="5.788868">
        <ele>583.8</ele>
      </trkpt>
      <trkpt lat="43.976788" lon="5.788945">
        <ele>581</ele>
      </trkpt>
      <trkpt lat="43.976650" lon="5.788992">
        <ele>578.5</ele>
      </trkpt>
      <trkpt lat="43.976553" lon="5.789015">
        <ele>577.5</ele>
      </trkpt>
      <trkpt lat="43.976375" lon="5.789046">
        <ele>576</ele>
      </trkpt>
      <trkpt lat="43.976210" lon="5.788978">
        <ele>575.9</ele>
      </trkpt>
      <trkpt lat="43.976076" lon="5.788909">
        <ele>576.2</ele>
      </trkpt>
      <trkpt lat="43.975954" lon="5.788733">
        <ele>578.6</ele>
      </trkpt>
      <trkpt lat="43.975833" lon="5.788691">
        <ele>578.7</ele>
      </trkpt>
      <trkpt lat="43.975762" lon="5.788603">
        <ele>578.9</ele>
      </trkpt>
      <trkpt lat="43.975760" lon="5.788398">
        <ele>582.3</ele>
      </trkpt>
      <trkpt lat="43.975739" lon="5.788239">
        <ele>583.2</ele>
      </trkpt>
      <trkpt lat="43.975674" lon="5.788027">
        <ele>582.3</ele>
      </trkpt>
      <trkpt lat="43.975711" lon="5.787903">
        <ele>583.6</ele>
      </trkpt>
      <trkpt lat="43.975741" lon="5.787683">
        <ele>585</ele>
      </trkpt>
      <trkpt lat="43.975741" lon="5.787666">
        <ele>585.1</ele>
      </trkpt>
      <trkpt lat="43.975746" lon="5.787493">
        <ele>585.7</ele>
      </trkpt>
      <trkpt lat="43.975745" lon="5.787356">
        <ele>585.9</ele>
      </trkpt>
      <trkpt lat="43.975644" lon="5.787330">
        <ele>583.6</ele>
      </trkpt>
      <trkpt lat="43.975505" lon="5.787441">
        <ele>579.7</ele>
      </trkpt>
      <trkpt lat="43.975448" lon="5.787546">
        <ele>577.8</ele>
      </trkpt>
      <trkpt lat="43.975328" lon="5.787618">
        <ele>574.5</ele>
      </trkpt>
      <trkpt lat="43.975169" lon="5.787759">
        <ele>570.3</ele>
      </trkpt>
      <trkpt lat="43.975017" lon="5.787823">
        <ele>566.5</ele>
      </trkpt>
      <trkpt lat="43.974893" lon="5.788070">
        <ele>565.1</ele>
      </trkpt>
      <trkpt lat="43.974732" lon="5.788268">
        <ele>562.6</ele>
      </trkpt>
      <trkpt lat="43.974610" lon="5.788385">
        <ele>560</ele>
      </trkpt>
      <trkpt lat="43.974376" lon="5.788549">
        <ele>554.9</ele>
      </trkpt>
      <trkpt lat="43.974079" lon="5.788632">
        <ele>551.7</ele>
      </trkpt>
      <trkpt lat="43.973805" lon="5.788760">
        <ele>553.8</ele>
      </trkpt>
      <trkpt lat="43.973650" lon="5.788814">
        <ele>554.7</ele>
      </trkpt>
      <trkpt lat="43.973372" lon="5.789040">
        <ele>553.4</ele>
      </trkpt>
      <trkpt lat="43.973230" lon="5.789096">
        <ele>554.1</ele>
      </trkpt>
      <trkpt lat="43.973090" lon="5.789111">
        <ele>555.7</ele>
      </trkpt>
      <trkpt lat="43.972838" lon="5.789054">
        <ele>560.2</ele>
      </trkpt>
      <trkpt lat="43.972556" lon="5.788922">
        <ele>565.8</ele>
      </trkpt>
      <trkpt lat="43.972347" lon="5.788815">
        <ele>566.6</ele>
      </trkpt>
      <trkpt lat="43.972121" lon="5.788868">
        <ele>563.9</ele>
      </trkpt>
      <trkpt lat="43.971799" lon="5.788930">
        <ele>560.6</ele>
      </trkpt>
      <trkpt lat="43.971591" lon="5.788995">
        <ele>557.9</ele>
      </trkpt>
      <trkpt lat="43.971488" lon="5.789003">
        <ele>556.3</ele>
      </trkpt>
      <trkpt lat="43.971421" lon="5.788869">
        <ele>556</ele>
      </trkpt>
      <trkpt lat="43.971339" lon="5.788604">
        <ele>555.9</ele>
      </trkpt>
      <trkpt lat="43.971368" lon="5.788345">
        <ele>557.6</ele>
      </trkpt>
      <trkpt lat="43.971516" lon="5.787899">
        <ele>562.6</ele>
      </trkpt>
      <trkpt lat="43.971773" lon="5.787052">
        <ele>570.8</ele>
      </trkpt>
      <trkpt lat="43.972064" lon="5.786588">
        <ele>578.4</ele>
      </trkpt>
      <trkpt lat="43.972264" lon="5.786131">
        <ele>583.9</ele>
      </trkpt>
      <trkpt lat="43.972389" lon="5.785853">
        <ele>588.3</ele>
      </trkpt>
      <trkpt lat="43.972477" lon="5.785499">
        <ele>588.5</ele>
      </trkpt>
      <trkpt lat="43.972551" lon="5.785169">
        <ele>587.8</ele>
      </trkpt>
      <trkpt lat="43.972593" lon="5.784885">
        <ele>586.6</ele>
      </trkpt>
      <trkpt lat="43.972533" lon="5.784784">
        <ele>584</ele>
      </trkpt>
      <trkpt lat="43.972448" lon="5.784898">
        <ele>583</ele>
      </trkpt>
      <trkpt lat="43.972339" lon="5.785008">
        <ele>581.2</ele>
      </trkpt>
      <trkpt lat="43.972096" lon="5.785137">
        <ele>575.8</ele>
      </trkpt>
      <trkpt lat="43.971956" lon="5.785331">
        <ele>572.6</ele>
      </trkpt>
      <trkpt lat="43.971778" lon="5.785503">
        <ele>567.7</ele>
      </trkpt>
      <trkpt lat="43.971654" lon="5.785712">
        <ele>564.2</ele>
      </trkpt>
      <trkpt lat="43.971566" lon="5.785862">
        <ele>563.8</ele>
      </trkpt>
      <trkpt lat="43.971408" lon="5.785875">
        <ele>563.4</ele>
      </trkpt>
      <trkpt lat="43.971212" lon="5.785901">
        <ele>562.5</ele>
      </trkpt>
      <trkpt lat="43.971091" lon="5.786012">
        <ele>561.1</ele>
      </trkpt>
      <trkpt lat="43.970946" lon="5.786057">
        <ele>559.5</ele>
      </trkpt>
      <trkpt lat="43.970929" lon="5.786212">
        <ele>557.3</ele>
      </trkpt>
      <trkpt lat="43.970909" lon="5.786336">
        <ele>555.5</ele>
      </trkpt>
      <trkpt lat="43.970826" lon="5.786467">
        <ele>552.4</ele>
      </trkpt>
      <trkpt lat="43.970782" lon="5.786657">
        <ele>550.5</ele>
      </trkpt>
      <trkpt lat="43.970803" lon="5.786825">
        <ele>549.6</ele>
      </trkpt>
      <trkpt lat="43.970724" lon="5.787073">
        <ele>550.7</ele>
      </trkpt>
      <trkpt lat="43.970583" lon="5.787309">
        <ele>551.6</ele>
      </trkpt>
      <trkpt lat="43.970418" lon="5.787531">
        <ele>551.3</ele>
      </trkpt>
      <trkpt lat="43.970256" lon="5.787828">
        <ele>548.8</ele>
      </trkpt>
      <trkpt lat="43.970141" lon="5.788125">
        <ele>544.9</ele>
      </trkpt>
      <trkpt lat="43.970051" lon="5.788445">
        <ele>540.7</ele>
      </trkpt>
      <trkpt lat="43.969997" lon="5.788717">
        <ele>538.4</ele>
      </trkpt>
      <trkpt lat="43.969912" lon="5.788930">
        <ele>540.1</ele>
      </trkpt>
      <trkpt lat="43.969824" lon="5.789182">
        <ele>541.2</ele>
      </trkpt>
      <trkpt lat="43.969730" lon="5.789389">
        <ele>542.7</ele>
      </trkpt>
      <trkpt lat="43.969642" lon="5.789561">
        <ele>543.8</ele>
      </trkpt>
      <trkpt lat="43.969522" lon="5.789576">
        <ele>547.1</ele>
      </trkpt>
      <trkpt lat="43.969345" lon="5.789584">
        <ele>552.2</ele>
      </trkpt>
      <trkpt lat="43.969212" lon="5.789650">
        <ele>555</ele>
      </trkpt>
      <trkpt lat="43.969102" lon="5.789748">
        <ele>556.5</ele>
      </trkpt>
      <trkpt lat="43.969019" lon="5.789791">
        <ele>558</ele>
      </trkpt>
      <trkpt lat="43.969093" lon="5.789568">
        <ele>559.6</ele>
      </trkpt>
      <trkpt lat="43.968949" lon="5.789360">
        <ele>566.3</ele>
      </trkpt>
      <trkpt lat="43.968843" lon="5.789203">
        <ele>570.9</ele>
      </trkpt>
      <trkpt lat="43.968737" lon="5.789020">
        <ele>574.9</ele>
      </trkpt>
      <trkpt lat="43.968565" lon="5.788824">
        <ele>579.8</ele>
      </trkpt>
      <trkpt lat="43.968422" lon="5.788689">
        <ele>583.1</ele>
      </trkpt>
      <trkpt lat="43.968287" lon="5.788528">
        <ele>585.3</ele>
      </trkpt>
      <trkpt lat="43.968190" lon="5.788372">
        <ele>585.9</ele>
      </trkpt>
      <trkpt lat="43.968074" lon="5.788175">
        <ele>586.3</ele>
      </trkpt>
      <trkpt lat="43.967905" lon="5.787934">
        <ele>586.6</ele>
      </trkpt>
      <trkpt lat="43.967644" lon="5.787779">
        <ele>585.7</ele>
      </trkpt>
      <trkpt lat="43.967429" lon="5.787686">
        <ele>584.5</ele>
      </trkpt>
      <trkpt lat="43.967212" lon="5.787562">
        <ele>583</ele>
      </trkpt>
      <trkpt lat="43.967008" lon="5.787425">
        <ele>581.4</ele>
      </trkpt>
      <trkpt lat="43.966848" lon="5.787296">
        <ele>579.8</ele>
      </trkpt>
      <trkpt lat="43.966665" lon="5.787146">
        <ele>577.6</ele>
      </trkpt>
      <trkpt lat="43.966437" lon="5.787087">
        <ele>575</ele>
      </trkpt>
      <trkpt lat="43.966290" lon="5.787041">
        <ele>573.3</ele>
      </trkpt>
      <trkpt lat="43.966115" lon="5.787039">
        <ele>571.4</ele>
      </trkpt>
      <trkpt lat="43.965717" lon="5.786964">
        <ele>567</ele>
      </trkpt>
      <trkpt lat="43.965415" lon="5.786876">
        <ele>564</ele>
      </trkpt>
      <trkpt lat="43.965076" lon="5.786870">
        <ele>560.9</ele>
      </trkpt>
      <trkpt lat="43.964810" lon="5.786878">
        <ele>558</ele>
      </trkpt>
      <trkpt lat="43.964603" lon="5.786901">
        <ele>555.5</ele>
      </trkpt>
      <trkpt lat="43.964448" lon="5.786854">
        <ele>553.6</ele>
      </trkpt>
      <trkpt lat="43.964166" lon="5.786740">
        <ele>550.1</ele>
      </trkpt>
      <trkpt lat="43.964014" lon="5.786733">
        <ele>549.1</ele>
      </trkpt>
      <trkpt lat="43.963844" lon="5.786685">
        <ele>548</ele>
      </trkpt>
      <trkpt lat="43.963688" lon="5.786619">
        <ele>547.3</ele>
      </trkpt>
      <trkpt lat="43.963624" lon="5.786455">
        <ele>547.6</ele>
      </trkpt>
      <trkpt lat="43.963605" lon="5.786297">
        <ele>548.2</ele>
      </trkpt>
      <trkpt lat="43.963688" lon="5.786120">
        <ele>549.2</ele>
      </trkpt>
      <trkpt lat="43.963839" lon="5.785922">
        <ele>550.6</ele>
      </trkpt>
      <trkpt lat="43.963974" lon="5.785725">
        <ele>551.6</ele>
      </trkpt>
      <trkpt lat="43.964060" lon="5.785607">
        <ele>552</ele>
      </trkpt>
      <trkpt lat="43.964145" lon="5.785384">
        <ele>552.5</ele>
      </trkpt>
      <trkpt lat="43.964114" lon="5.785252">
        <ele>552.7</ele>
      </trkpt>
      <trkpt lat="43.964018" lon="5.785054">
        <ele>553.1</ele>
      </trkpt>
      <trkpt lat="43.963841" lon="5.784840">
        <ele>554.2</ele>
      </trkpt>
      <trkpt lat="43.963154" lon="5.783894">
        <ele>556.4</ele>
      </trkpt>
      <trkpt lat="43.962729" lon="5.783287">
        <ele>555.5</ele>
      </trkpt>
      <trkpt lat="43.962419" lon="5.782752">
        <ele>555.7</ele>
      </trkpt>
      <trkpt lat="43.962117" lon="5.782356">
        <ele>554.9</ele>
      </trkpt>
      <trkpt lat="43.961819" lon="5.781994">
        <ele>554.3</ele>
      </trkpt>
      <trkpt lat="43.961579" lon="5.781665">
        <ele>554.3</ele>
      </trkpt>
      <trkpt lat="43.961316" lon="5.781448">
        <ele>553.2</ele>
      </trkpt>
      <trkpt lat="43.960978" lon="5.781139">
        <ele>551.4</ele>
      </trkpt>
      <trkpt lat="43.960694" lon="5.780832">
        <ele>551</ele>
      </trkpt>
      <trkpt lat="43.960447" lon="5.780466">
        <ele>551.8</ele>
      </trkpt>
      <trkpt lat="43.960248" lon="5.780216">
        <ele>551.4</ele>
      </trkpt>
      <trkpt lat="43.960134" lon="5.780094">
        <ele>549.9</ele>
      </trkpt>
      <trkpt lat="43.959952" lon="5.780328">
        <ele>550.4</ele>
      </trkpt>
      <trkpt lat="43.959769" lon="5.780541">
        <ele>550.9</ele>
      </trkpt>
      <trkpt lat="43.959623" lon="5.780701">
        <ele>551.5</ele>
      </trkpt>
    </trkseg>
  </trk>
</gpx>