<?xml version="1.0" ?>
<gpx xmlns="http://www.topografix.com/GPX/1/1" xmlns:xsi="http://www.w3.org/2001/XMLSchema-instance" xsi:schemaLocation="http://www.topografix.com/GPX/1/1 http://www.topografix.com/GPX/1/1/gpx.xsd" version="1.1" creator="EditGPX">
  <trk>
    <name>NewTrack</name>
    <trkseg>
      <trkpt lat="43.966643" lon="5.887395">
        <ele>554.6</ele>
      </trkpt>
      <trkpt lat="43.966778" lon="5.887669">
        <ele>554</ele>
      </trkpt>
      <trkpt lat="43.966792" lon="5.887768">
        <ele>553.8</ele>
      </trkpt>
      <trkpt lat="43.966782" lon="5.887921">
        <ele>554.1</ele>
      </trkpt>
      <trkpt lat="43.967340" lon="5.888583">
        <ele>558</ele>
      </trkpt>
      <trkpt lat="43.967487" lon="5.888720">
        <ele>558.7</ele>
      </trkpt>
      <trkpt lat="43.967821" lon="5.889039">
        <ele>561.9</ele>
      </trkpt>
      <trkpt lat="43.968222" lon="5.889519">
        <ele>562</ele>
      </trkpt>
      <trkpt lat="43.968334" lon="5.889670">
        <ele>568</ele>
      </trkpt>
      <trkpt lat="43.968451" lon="5.889804">
        <ele>567.4</ele>
      </trkpt>
      <trkpt lat="43.968587" lon="5.889836">
        <ele>568.5</ele>
      </trkpt>
      <trkpt lat="43.968685" lon="5.889927">
        <ele>569.3</ele>
      </trkpt>
      <trkpt lat="43.968882" lon="5.890128">
        <ele>562.2</ele>
      </trkpt>
      <trkpt lat="43.969027" lon="5.890246">
        <ele>562.3</ele>
      </trkpt>
      <trkpt lat="43.968963" lon="5.890287">
        <ele>560.5</ele>
      </trkpt>
      <trkpt lat="43.968857" lon="5.890241">
        <ele>560.1</ele>
      </trkpt>
      <trkpt lat="43.968795" lon="5.890225">
        <ele>559.6</ele>
      </trkpt>
      <trkpt lat="43.968799" lon="5.890273">
        <ele>558.9</ele>
      </trkpt>
      <trkpt lat="43.968958" lon="5.890426">
        <ele>557.7</ele>
      </trkpt>
      <trkpt lat="43.969035" lon="5.890584">
        <ele>555.1</ele>
      </trkpt>
      <trkpt lat="43.969131" lon="5.890611">
        <ele>554.7</ele>
      </trkpt>
      <trkpt lat="43.969241" lon="5.890689">
        <ele>557.4</ele>
      </trkpt>
      <trkpt lat="43.969651" lon="5.890979">
        <ele>541.5</ele>
      </trkpt>
      <trkpt lat="43.970044" lon="5.891097">
        <ele>541.7</ele>
      </trkpt>
      <trkpt lat="43.970249" lon="5.891314">
        <ele>535.5</ele>
      </trkpt>
      <trkpt lat="43.970344" lon="5.891314">
        <ele>535.5</ele>
      </trkpt>
      <trkpt lat="43.970510" lon="5.891367">
        <ele>534</ele>
      </trkpt>
      <trkpt lat="43.970869" lon="5.891249">
        <ele>534.2</ele>
      </trkpt>
      <trkpt lat="43.971031" lon="5.891282">
        <ele>533.4</ele>
      </trkpt>
      <trkpt lat="43.971224" lon="5.891410">
        <ele>531.1</ele>
      </trkpt>
      <trkpt lat="43.971390" lon="5.891644">
        <ele>527.3</ele>
      </trkpt>
      <trkpt lat="43.971548" lon="5.891756">
        <ele>514.4</ele>
      </trkpt>
      <trkpt lat="43.971728" lon="5.891730">
        <ele>515.7</ele>
      </trkpt>
      <trkpt lat="43.972172" lon="5.891984">
        <ele>511.2</ele>
      </trkpt>
      <trkpt lat="43.972766" lon="5.892049">
        <ele>513.5</ele>
      </trkpt>
      <trkpt lat="43.973091" lon="5.892207">
        <ele>512.7</ele>
      </trkpt>
      <trkpt lat="43.973523" lon="5.892400">
        <ele>515.5</ele>
      </trkpt>
      <trkpt lat="43.973936" lon="5.892674">
        <ele>508</ele>
      </trkpt>
      <trkpt lat="43.974249" lon="5.892856">
        <ele>515.9</ele>
      </trkpt>
      <trkpt lat="43.974448" lon="5.893020">
        <ele>515.6</ele>
      </trkpt>
      <trkpt lat="43.974662" lon="5.893342">
        <ele>508.7</ele>
      </trkpt>
      <trkpt lat="43.974816" lon="5.893613">
        <ele>509.4</ele>
      </trkpt>
      <trkpt lat="43.974855" lon="5.893902">
        <ele>508.2</ele>
      </trkpt>
      <trkpt lat="43.974978" lon="5.894221">
        <ele>508.8</ele>
      </trkpt>
      <trkpt lat="43.975135" lon="5.894468">
        <ele>513.3</ele>
      </trkpt>
      <trkpt lat="43.975335" lon="5.894610">
        <ele>514.1</ele>
      </trkpt>
      <trkpt lat="43.975557" lon="5.894865">
        <ele>514.8</ele>
      </trkpt>
      <trkpt lat="43.975808" lon="5.895147">
        <ele>512.3</ele>
      </trkpt>
      <trkpt lat="43.976017" lon="5.895230">
        <ele>518.2</ele>
      </trkpt>
      <trkpt lat="43.976160" lon="5.895385">
        <ele>518.8</ele>
      </trkpt>
      <trkpt lat="43.976357" lon="5.895538">
        <ele>519.4</ele>
      </trkpt>
      <trkpt lat="43.976673" lon="5.895702">
        <ele>522.9</ele>
      </trkpt>
      <trkpt lat="43.976752" lon="5.895670">
        <ele>523.7</ele>
      </trkpt>
      <trkpt lat="43.977003" lon="5.895804">
        <ele>524.7</ele>
      </trkpt>
      <trkpt lat="43.977499" lon="5.895847">
        <ele>521.7</ele>
      </trkpt>
      <trkpt lat="43.977590" lon="5.895895">
        <ele>520.8</ele>
      </trkpt>
      <trkpt lat="43.977638" lon="5.896072">
        <ele>519.3</ele>
      </trkpt>
      <trkpt lat="43.977681" lon="5.896386">
        <ele>516.8</ele>
      </trkpt>
      <trkpt lat="43.977802" lon="5.896729">
        <ele>510.5</ele>
      </trkpt>
      <trkpt lat="43.977916" lon="5.896979">
        <ele>510</ele>
      </trkpt>
      <trkpt lat="43.977972" lon="5.897056">
        <ele>509.8</ele>
      </trkpt>
      <trkpt lat="43.978026" lon="5.897099">
        <ele>509.7</ele>
      </trkpt>
      <trkpt lat="43.978101" lon="5.897132">
        <ele>509.8</ele>
      </trkpt>
      <trkpt lat="43.978175" lon="5.897150">
        <ele>509.8</ele>
      </trkpt>
      <trkpt lat="43.978236" lon="5.897132">
        <ele>510</ele>
      </trkpt>
      <trkpt lat="43.978291" lon="5.897110">
        <ele>510.2</ele>
      </trkpt>
      <trkpt lat="43.978372" lon="5.897024">
        <ele>515</ele>
      </trkpt>
      <trkpt lat="43.978441" lon="5.896997">
        <ele>515.3</ele>
      </trkpt>
      <trkpt lat="43.978505" lon="5.896997">
        <ele>515.4</ele>
      </trkpt>
      <trkpt lat="43.978584" lon="5.897089">
        <ele>515.4</ele>
      </trkpt>
      <trkpt lat="43.978628" lon="5.897301">
        <ele>514.9</ele>
      </trkpt>
      <trkpt lat="43.978642" lon="5.897539">
        <ele>513</ele>
      </trkpt>
      <trkpt lat="43.978619" lon="5.897724">
        <ele>512.8</ele>
      </trkpt>
      <trkpt lat="43.978522" lon="5.898317">
        <ele>509.7</ele>
      </trkpt>
      <trkpt lat="43.978495" lon="5.898435">
        <ele>507.6</ele>
      </trkpt>
      <trkpt lat="43.978538" lon="5.898478">
        <ele>508.1</ele>
      </trkpt>
      <trkpt lat="43.978604" lon="5.898671">
        <ele>508.6</ele>
      </trkpt>
      <trkpt lat="43.978607" lon="5.898768">
        <ele>508.4</ele>
      </trkpt>
      <trkpt lat="43.978607" lon="5.898972">
        <ele>507.8</ele>
      </trkpt>
      <trkpt lat="43.978650" lon="5.899020">
        <ele>507.9</ele>
      </trkpt>
      <trkpt lat="43.978813" lon="5.899071">
        <ele>508.6</ele>
      </trkpt>
      <trkpt lat="43.979125" lon="5.899208">
        <ele>507.8</ele>
      </trkpt>
      <trkpt lat="43.979404" lon="5.899301">
        <ele>507.3</ele>
      </trkpt>
      <trkpt lat="43.979515" lon="5.899363">
        <ele>507.1</ele>
      </trkpt>
      <trkpt lat="43.979611" lon="5.899567">
        <ele>506.7</ele>
      </trkpt>
      <trkpt lat="43.979677" lon="5.899712">
        <ele>506.5</ele>
      </trkpt>
      <trkpt lat="43.979773" lon="5.899948">
        <ele>506.9</ele>
      </trkpt>
      <trkpt lat="43.979989" lon="5.900551">
        <ele>504.1</ele>
      </trkpt>
      <trkpt lat="43.980159" lon="5.901155">
        <ele>506.8</ele>
      </trkpt>
      <trkpt lat="43.980182" lon="5.901262">
        <ele>507</ele>
      </trkpt>
      <trkpt lat="43.980190" lon="5.901348">
        <ele>507.1</ele>
      </trkpt>
      <trkpt lat="43.980221" lon="5.901428">
        <ele>507.3</ele>
      </trkpt>
      <trkpt lat="43.980333" lon="5.901793">
        <ele>506.5</ele>
      </trkpt>
      <trkpt lat="43.980395" lon="5.902002">
        <ele>506</ele>
      </trkpt>
      <trkpt lat="43.980433" lon="5.902131">
        <ele>505.6</ele>
      </trkpt>
      <trkpt lat="43.980541" lon="5.902340">
        <ele>505.1</ele>
      </trkpt>
      <trkpt lat="43.980634" lon="5.902501">
        <ele>501.8</ele>
      </trkpt>
      <trkpt lat="43.980653" lon="5.902614">
        <ele>501.6</ele>
      </trkpt>
      <trkpt lat="43.980642" lon="5.902770">
        <ele>500.6</ele>
      </trkpt>
      <trkpt lat="43.980680" lon="5.902920">
        <ele>499.7</ele>
      </trkpt>
      <trkpt lat="43.981408" lon="5.903831">
        <ele>489.4</ele>
      </trkpt>
      <trkpt lat="43.981536" lon="5.903991">
        <ele>487.5</ele>
      </trkpt>
      <trkpt lat="43.981722" lon="5.904223">
        <ele>481</ele>
      </trkpt>
      <trkpt lat="43.982035" lon="5.904722">
        <ele>475.3</ele>
      </trkpt>
      <trkpt lat="43.982317" lon="5.904939">
        <ele>471.2</ele>
      </trkpt>
      <trkpt lat="43.982436" lon="5.905165">
        <ele>467</ele>
      </trkpt>
      <trkpt lat="43.982544" lon="5.905358">
        <ele>456.7</ele>
      </trkpt>
      <trkpt lat="43.982834" lon="5.905567">
        <ele>453.6</ele>
      </trkpt>
      <trkpt lat="43.983085" lon="5.905690">
        <ele>450.9</ele>
      </trkpt>
      <trkpt lat="43.983249" lon="5.905932">
        <ele>444.1</ele>
      </trkpt>
      <trkpt lat="43.983347" lon="5.906058">
        <ele>438.6</ele>
      </trkpt>
      <trkpt lat="43.983421" lon="5.906197">
        <ele>436.4</ele>
      </trkpt>
      <trkpt lat="43.983467" lon="5.906407">
        <ele>433.7</ele>
      </trkpt>
      <trkpt lat="43.983725" lon="5.906763">
        <ele>425.7</ele>
      </trkpt>
      <trkpt lat="43.983878" lon="5.907069">
        <ele>423.6</ele>
      </trkpt>
      <trkpt lat="43.984005" lon="5.907294">
        <ele>420</ele>
      </trkpt>
      <trkpt lat="43.984258" lon="5.907635">
        <ele>405</ele>
      </trkpt>
      <trkpt lat="43.984438" lon="5.907930">
        <ele>399.5</ele>
      </trkpt>
      <trkpt lat="43.984565" lon="5.908182">
        <ele>397.5</ele>
      </trkpt>
      <trkpt lat="43.984588" lon="5.908324">
        <ele>396.9</ele>
      </trkpt>
      <trkpt lat="43.984592" lon="5.908432">
        <ele>393.5</ele>
      </trkpt>
      <trkpt lat="43.984662" lon="5.908343">
        <ele>393.2</ele>
      </trkpt>
      <trkpt lat="43.984770" lon="5.908193">
        <ele>395.9</ele>
      </trkpt>
      <trkpt lat="43.984847" lon="5.908048">
        <ele>396.4</ele>
      </trkpt>
      <trkpt lat="43.984918" lon="5.907901">
        <ele>397.1</ele>
      </trkpt>
      <trkpt lat="43.984988" lon="5.907726">
        <ele>397.3</ele>
      </trkpt>
      <trkpt lat="43.985078" lon="5.907380">
        <ele>397.1</ele>
      </trkpt>
      <trkpt lat="43.985103" lon="5.907171">
        <ele>398.1</ele>
      </trkpt>
      <trkpt lat="43.985055" lon="5.906015">
        <ele>401.6</ele>
      </trkpt>
      <trkpt lat="43.984961" lon="5.905645">
        <ele>411.4</ele>
      </trkpt>
      <trkpt lat="43.984839" lon="5.905398">
        <ele>413.8</ele>
      </trkpt>
      <trkpt lat="43.984370" lon="5.904856">
        <ele>418.9</ele>
      </trkpt>
      <trkpt lat="43.984173" lon="5.904661">
        <ele>418.7</ele>
      </trkpt>
      <trkpt lat="43.983920" lon="5.904333">
        <ele>433.2</ele>
      </trkpt>
      <trkpt lat="43.983878" lon="5.904202">
        <ele>433.5</ele>
      </trkpt>
      <trkpt lat="43.983880" lon="5.904084">
        <ele>431.4</ele>
      </trkpt>
      <trkpt lat="43.983903" lon="5.903982">
        <ele>431.4</ele>
      </trkpt>
      <trkpt lat="43.983974" lon="5.903775">
        <ele>431.4</ele>
      </trkpt>
      <trkpt lat="43.983986" lon="5.903663">
        <ele>431.3</ele>
      </trkpt>
      <trkpt lat="43.983994" lon="5.903585">
        <ele>430.9</ele>
      </trkpt>
      <trkpt lat="43.983951" lon="5.903370">
        <ele>430.4</ele>
      </trkpt>
      <trkpt lat="43.983805" lon="5.902973">
        <ele>434.3</ele>
      </trkpt>
      <trkpt lat="43.983675" lon="5.902748">
        <ele>435.1</ele>
      </trkpt>
      <trkpt lat="43.983652" lon="5.902697">
        <ele>435.1</ele>
      </trkpt>
      <trkpt lat="43.983671" lon="5.902627">
        <ele>435.1</ele>
      </trkpt>
      <trkpt lat="43.983733" lon="5.902593">
        <ele>435</ele>
      </trkpt>
      <trkpt lat="43.984083" lon="5.902780">
        <ele>434.1</ele>
      </trkpt>
      <trkpt lat="43.984308" lon="5.903062">
        <ele>428.9</ele>
      </trkpt>
      <trkpt lat="43.984484" lon="5.903242">
        <ele>428.2</ele>
      </trkpt>
      <trkpt lat="43.984573" lon="5.903368">
        <ele>421.3</ele>
      </trkpt>
      <trkpt lat="43.984717" lon="5.903714">
        <ele>419.7</ele>
      </trkpt>
      <trkpt lat="43.984847" lon="5.903813">
        <ele>418.7</ele>
      </trkpt>
      <trkpt lat="43.985067" lon="5.903636">
        <ele>414.4</ele>
      </trkpt>
      <trkpt lat="43.985146" lon="5.903478">
        <ele>416.2</ele>
      </trkpt>
      <trkpt lat="43.985173" lon="5.903349">
        <ele>417.1</ele>
      </trkpt>
      <trkpt lat="43.985163" lon="5.903003">
        <ele>423</ele>
      </trkpt>
      <trkpt lat="43.985196" lon="5.902745">
        <ele>425.6</ele>
      </trkpt>
      <trkpt lat="43.985327" lon="5.902485">
        <ele>431.8</ele>
      </trkpt>
      <trkpt lat="43.985393" lon="5.902297">
        <ele>431.1</ele>
      </trkpt>
      <trkpt lat="43.985435" lon="5.902002">
        <ele>432.2</ele>
      </trkpt>
      <trkpt lat="43.985462" lon="5.901863">
        <ele>432.4</ele>
      </trkpt>
      <trkpt lat="43.985470" lon="5.901745">
        <ele>432.5</ele>
      </trkpt>
      <trkpt lat="43.985374" lon="5.901428">
        <ele>441.8</ele>
      </trkpt>
      <trkpt lat="43.985383" lon="5.901324">
        <ele>442</ele>
      </trkpt>
      <trkpt lat="43.985634" lon="5.900938">
        <ele>438.9</ele>
      </trkpt>
      <trkpt lat="43.985781" lon="5.900892">
        <ele>436</ele>
      </trkpt>
      <trkpt lat="43.986159" lon="5.900710">
        <ele>430.2</ele>
      </trkpt>
      <trkpt lat="43.986325" lon="5.900589">
        <ele>428.7</ele>
      </trkpt>
      <trkpt lat="43.986478" lon="5.900385">
        <ele>428.9</ele>
      </trkpt>
      <trkpt lat="43.986572" lon="5.900297">
        <ele>429.1</ele>
      </trkpt>
      <trkpt lat="43.986626" lon="5.900184">
        <ele>429.4</ele>
      </trkpt>
      <trkpt lat="43.986661" lon="5.899956">
        <ele>429.6</ele>
      </trkpt>
      <trkpt lat="43.986634" lon="5.899857">
        <ele>430.4</ele>
      </trkpt>
      <trkpt lat="43.986605" lon="5.899787">
        <ele>430.7</ele>
      </trkpt>
      <trkpt lat="43.986534" lon="5.899709">
        <ele>431</ele>
      </trkpt>
      <trkpt lat="43.986263" lon="5.899645">
        <ele>432.7</ele>
      </trkpt>
      <trkpt lat="43.986057" lon="5.899572">
        <ele>433.9</ele>
      </trkpt>
      <trkpt lat="43.985729" lon="5.899312">
        <ele>440.8</ele>
      </trkpt>
      <trkpt lat="43.985578" lon="5.899087">
        <ele>439.9</ele>
      </trkpt>
      <trkpt lat="43.985493" lon="5.898816">
        <ele>441.4</ele>
      </trkpt>
      <trkpt lat="43.985401" lon="5.898634">
        <ele>442</ele>
      </trkpt>
      <trkpt lat="43.985306" lon="5.898558">
        <ele>442.6</ele>
      </trkpt>
      <trkpt lat="43.985264" lon="5.898467">
        <ele>442.9</ele>
      </trkpt>
      <trkpt lat="43.985252" lon="5.898403">
        <ele>443</ele>
      </trkpt>
      <trkpt lat="43.985275" lon="5.898328">
        <ele>445.6</ele>
      </trkpt>
      <trkpt lat="43.985323" lon="5.898301">
        <ele>445.5</ele>
      </trkpt>
      <trkpt lat="43.985401" lon="5.898277">
        <ele>445.3</ele>
      </trkpt>
      <trkpt lat="43.985542" lon="5.898288">
        <ele>444.3</ele>
      </trkpt>
      <trkpt lat="43.985953" lon="5.898521">
        <ele>434.3</ele>
      </trkpt>
      <trkpt lat="43.986041" lon="5.898502">
        <ele>433.8</ele>
      </trkpt>
      <trkpt lat="43.986097" lon="5.898432">
        <ele>433.6</ele>
      </trkpt>
      <trkpt lat="43.986128" lon="5.898325">
        <ele>439.8</ele>
      </trkpt>
      <trkpt lat="43.986134" lon="5.898215">
        <ele>440.3</ele>
      </trkpt>
      <trkpt lat="43.986099" lon="5.897995">
        <ele>442.2</ele>
      </trkpt>
      <trkpt lat="43.986099" lon="5.897901">
        <ele>443.3</ele>
      </trkpt>
      <trkpt lat="43.986132" lon="5.897818">
        <ele>444</ele>
      </trkpt>
      <trkpt lat="43.986163" lon="5.897805">
        <ele>443.9</ele>
      </trkpt>
      <trkpt lat="43.986225" lon="5.897802">
        <ele>443.5</ele>
      </trkpt>
      <trkpt lat="43.986321" lon="5.897875">
        <ele>442.2</ele>
      </trkpt>
      <trkpt lat="43.986553" lon="5.898100">
        <ele>438.3</ele>
      </trkpt>
      <trkpt lat="43.986624" lon="5.898124">
        <ele>437.4</ele>
      </trkpt>
      <trkpt lat="43.986657" lon="5.898124">
        <ele>437.3</ele>
      </trkpt>
      <trkpt lat="43.986726" lon="5.898084">
        <ele>434</ele>
      </trkpt>
      <trkpt lat="43.986759" lon="5.897952">
        <ele>435.3</ele>
      </trkpt>
      <trkpt lat="43.986767" lon="5.897813">
        <ele>436.9</ele>
      </trkpt>
      <trkpt lat="43.986703" lon="5.897553">
        <ele>441.9</ele>
      </trkpt>
      <trkpt lat="43.986661" lon="5.897209">
        <ele>452.2</ele>
      </trkpt>
      <trkpt lat="43.986659" lon="5.896995">
        <ele>454.8</ele>
      </trkpt>
      <trkpt lat="43.986682" lon="5.896879">
        <ele>451.9</ele>
      </trkpt>
      <trkpt lat="43.986742" lon="5.896834">
        <ele>452.4</ele>
      </trkpt>
      <trkpt lat="43.986784" lon="5.896842">
        <ele>452</ele>
      </trkpt>
      <trkpt lat="43.986838" lon="5.896901">
        <ele>450.9</ele>
      </trkpt>
      <trkpt lat="43.987134" lon="5.897480">
        <ele>445.2</ele>
      </trkpt>
      <trkpt lat="43.987475" lon="5.897773">
        <ele>435.2</ele>
      </trkpt>
      <trkpt lat="43.987560" lon="5.897762">
        <ele>428.4</ele>
      </trkpt>
      <trkpt lat="43.987653" lon="5.897657">
        <ele>429.1</ele>
      </trkpt>
      <trkpt lat="43.987705" lon="5.897585">
        <ele>429</ele>
      </trkpt>
      <trkpt lat="43.987684" lon="5.897303">
        <ele>436.5</ele>
      </trkpt>
      <trkpt lat="43.987732" lon="5.897148">
        <ele>437.1</ele>
      </trkpt>
      <trkpt lat="43.987896" lon="5.896995">
        <ele>436.6</ele>
      </trkpt>
      <trkpt lat="43.987967" lon="5.896933">
        <ele>436.1</ele>
      </trkpt>
      <trkpt lat="43.987996" lon="5.896831">
        <ele>436.3</ele>
      </trkpt>
      <trkpt lat="43.987964" lon="5.896611">
        <ele>447.7</ele>
      </trkpt>
      <trkpt lat="43.987954" lon="5.896488">
        <ele>448.8</ele>
      </trkpt>
      <trkpt lat="43.988004" lon="5.896324">
        <ele>449.8</ele>
      </trkpt>
      <trkpt lat="43.988070" lon="5.896204">
        <ele>450.5</ele>
      </trkpt>
      <trkpt lat="43.988126" lon="5.895965">
        <ele>451.9</ele>
      </trkpt>
      <trkpt lat="43.988126" lon="5.895855">
        <ele>452.2</ele>
      </trkpt>
      <trkpt lat="43.988120" lon="5.895713">
        <ele>461.4</ele>
      </trkpt>
      <trkpt lat="43.988164" lon="5.895646">
        <ele>461.6</ele>
      </trkpt>
      <trkpt lat="43.988234" lon="5.895621">
        <ele>461</ele>
      </trkpt>
      <trkpt lat="43.988438" lon="5.895723">
        <ele>451.2</ele>
      </trkpt>
      <trkpt lat="43.988807" lon="5.895643">
        <ele>448.6</ele>
      </trkpt>
      <trkpt lat="43.988928" lon="5.895584">
        <ele>447.6</ele>
      </trkpt>
      <trkpt lat="43.989062" lon="5.895385">
        <ele>449</ele>
      </trkpt>
      <trkpt lat="43.989262" lon="5.894916">
        <ele>445.5</ele>
      </trkpt>
      <trkpt lat="43.989316" lon="5.894747">
        <ele>442.7</ele>
      </trkpt>
      <trkpt lat="43.989338" lon="5.894608">
        <ele>442</ele>
      </trkpt>
      <trkpt lat="43.989307" lon="5.894484">
        <ele>442.5</ele>
      </trkpt>
      <trkpt lat="43.988971" lon="5.894063">
        <ele>458.2</ele>
      </trkpt>
      <trkpt lat="43.988901" lon="5.893996">
        <ele>460.2</ele>
      </trkpt>
      <trkpt lat="43.988869" lon="5.893897">
        <ele>461.4</ele>
      </trkpt>
      <trkpt lat="43.988888" lon="5.893811">
        <ele>461.7</ele>
      </trkpt>
      <trkpt lat="43.988988" lon="5.893733">
        <ele>461.1</ele>
      </trkpt>
      <trkpt lat="43.989148" lon="5.893661">
        <ele>460.4</ele>
      </trkpt>
      <trkpt lat="43.989368" lon="5.893433">
        <ele>451</ele>
      </trkpt>
      <trkpt lat="43.989828" lon="5.893127">
        <ele>456.5</ele>
      </trkpt>
      <trkpt lat="43.990013" lon="5.892845">
        <ele>451.4</ele>
      </trkpt>
      <trkpt lat="43.990146" lon="5.892746">
        <ele>452.5</ele>
      </trkpt>
      <trkpt lat="43.990401" lon="5.892765">
        <ele>448.4</ele>
      </trkpt>
      <trkpt lat="43.990480" lon="5.892639">
        <ele>448.4</ele>
      </trkpt>
      <trkpt lat="43.990544" lon="5.892513">
        <ele>448.2</ele>
      </trkpt>
      <trkpt lat="43.990582" lon="5.892306">
        <ele>456.9</ele>
      </trkpt>
      <trkpt lat="43.990627" lon="5.892191">
        <ele>457.5</ele>
      </trkpt>
      <trkpt lat="43.990739" lon="5.892108">
        <ele>457.3</ele>
      </trkpt>
      <trkpt lat="43.990901" lon="5.891939">
        <ele>448.1</ele>
      </trkpt>
      <trkpt lat="43.990947" lon="5.891813">
        <ele>449.7</ele>
      </trkpt>
      <trkpt lat="43.990953" lon="5.891606">
        <ele>453.8</ele>
      </trkpt>
      <trkpt lat="43.990955" lon="5.891405">
        <ele>452.8</ele>
      </trkpt>
      <trkpt lat="43.990903" lon="5.891276">
        <ele>452.9</ele>
      </trkpt>
      <trkpt lat="43.990831" lon="5.891172">
        <ele>461.1</ele>
      </trkpt>
      <trkpt lat="43.990706" lon="5.890984">
        <ele>460.5</ele>
      </trkpt>
      <trkpt lat="43.990679" lon="5.890823">
        <ele>460</ele>
      </trkpt>
      <trkpt lat="43.990702" lon="5.890531">
        <ele>461.9</ele>
      </trkpt>
      <trkpt lat="43.990762" lon="5.890356">
        <ele>462.2</ele>
      </trkpt>
      <trkpt lat="43.990860" lon="5.890233">
        <ele>458.5</ele>
      </trkpt>
      <trkpt lat="43.990918" lon="5.890193">
        <ele>458.6</ele>
      </trkpt>
      <trkpt lat="43.991030" lon="5.890187">
        <ele>458.5</ele>
      </trkpt>
      <trkpt lat="43.991258" lon="5.890297">
        <ele>458</ele>
      </trkpt>
      <trkpt lat="43.991460" lon="5.890426">
        <ele>457.3</ele>
      </trkpt>
      <trkpt lat="43.991543" lon="5.890498">
        <ele>456.7</ele>
      </trkpt>
      <trkpt lat="43.991686" lon="5.890560">
        <ele>452.6</ele>
      </trkpt>
      <trkpt lat="43.991811" lon="5.890544">
        <ele>452.3</ele>
      </trkpt>
      <trkpt lat="43.991927" lon="5.890496">
        <ele>452.1</ele>
      </trkpt>
      <trkpt lat="43.992041" lon="5.890413">
        <ele>451.8</ele>
      </trkpt>
      <trkpt lat="43.992091" lon="5.890335">
        <ele>451.8</ele>
      </trkpt>
      <trkpt lat="43.992116" lon="5.890238">
        <ele>451.9</ele>
      </trkpt>
      <trkpt lat="43.992170" lon="5.889798">
        <ele>457</ele>
      </trkpt>
      <trkpt lat="43.992261" lon="5.889329">
        <ele>457.7</ele>
      </trkpt>
      <trkpt lat="43.992226" lon="5.889214">
        <ele>458.1</ele>
      </trkpt>
      <trkpt lat="43.992130" lon="5.888932">
        <ele>466.5</ele>
      </trkpt>
      <trkpt lat="43.992161" lon="5.888637">
        <ele>468</ele>
      </trkpt>
      <trkpt lat="43.992222" lon="5.888489">
        <ele>467.8</ele>
      </trkpt>
      <trkpt lat="43.992385" lon="5.888382">
        <ele>465.8</ele>
      </trkpt>
      <trkpt lat="43.992518" lon="5.888388">
        <ele>460.3</ele>
      </trkpt>
      <trkpt lat="43.992703" lon="5.888275">
        <ele>459.3</ele>
      </trkpt>
      <trkpt lat="43.992745" lon="5.888165">
        <ele>458.4</ele>
      </trkpt>
      <trkpt lat="43.992742" lon="5.887988">
        <ele>458.7</ele>
      </trkpt>
      <trkpt lat="43.992610" lon="5.887698">
        <ele>462.6</ele>
      </trkpt>
      <trkpt lat="43.992552" lon="5.887607">
        <ele>465.3</ele>
      </trkpt>
      <trkpt lat="43.992525" lon="5.887494">
        <ele>469.5</ele>
      </trkpt>
      <trkpt lat="43.992539" lon="5.887401">
        <ele>468.2</ele>
      </trkpt>
      <trkpt lat="43.992616" lon="5.887288">
        <ele>466.9</ele>
      </trkpt>
      <trkpt lat="43.992809" lon="5.887218">
        <ele>465.3</ele>
      </trkpt>
      <trkpt lat="43.992931" lon="5.887138">
        <ele>464.4</ele>
      </trkpt>
      <trkpt lat="43.993007" lon="5.886998">
        <ele>464.3</ele>
      </trkpt>
      <trkpt lat="43.993078" lon="5.886837">
        <ele>464.2</ele>
      </trkpt>
      <trkpt lat="43.993116" lon="5.886698">
        <ele>463.9</ele>
      </trkpt>
      <trkpt lat="43.993239" lon="5.886620">
        <ele>463.4</ele>
      </trkpt>
      <trkpt lat="43.993332" lon="5.886607">
        <ele>462.8</ele>
      </trkpt>
      <trkpt lat="43.993514" lon="5.886708">
        <ele>458.8</ele>
      </trkpt>
      <trkpt lat="43.993604" lon="5.886832">
        <ele>457.5</ele>
      </trkpt>
      <trkpt lat="43.993685" lon="5.886990">
        <ele>456.5</ele>
      </trkpt>
      <trkpt lat="43.993760" lon="5.887116">
        <ele>455.9</ele>
      </trkpt>
      <trkpt lat="43.993865" lon="5.887170">
        <ele>455.5</ele>
      </trkpt>
      <trkpt lat="43.993934" lon="5.887170">
        <ele>455.4</ele>
      </trkpt>
      <trkpt lat="43.994002" lon="5.887100">
        <ele>455.4</ele>
      </trkpt>
      <trkpt lat="43.994027" lon="5.887036">
        <ele>455.5</ele>
      </trkpt>
      <trkpt lat="43.993932" lon="5.886623">
        <ele>458.1</ele>
      </trkpt>
      <trkpt lat="43.993886" lon="5.886481">
        <ele>458.8</ele>
      </trkpt>
      <trkpt lat="43.993824" lon="5.886140">
        <ele>459.8</ele>
      </trkpt>
      <trkpt lat="43.993656" lon="5.885837">
        <ele>460.3</ele>
      </trkpt>
      <trkpt lat="43.993625" lon="5.885657">
        <ele>462.8</ele>
      </trkpt>
      <trkpt lat="43.993627" lon="5.885561">
        <ele>463.1</ele>
      </trkpt>
      <trkpt lat="43.993670" lon="5.885461">
        <ele>463.5</ele>
      </trkpt>
      <trkpt lat="43.993737" lon="5.885410">
        <ele>463.7</ele>
      </trkpt>
      <trkpt lat="43.993832" lon="5.885402">
        <ele>464</ele>
      </trkpt>
      <trkpt lat="43.993938" lon="5.885472">
        <ele>463.8</ele>
      </trkpt>
      <trkpt lat="43.994046" lon="5.885558">
        <ele>463.4</ele>
      </trkpt>
      <trkpt lat="43.994160" lon="5.885550">
        <ele>463.5</ele>
      </trkpt>
      <trkpt lat="43.994225" lon="5.885499">
        <ele>469.4</ele>
      </trkpt>
      <trkpt lat="43.994301" lon="5.885504">
        <ele>469.8</ele>
      </trkpt>
      <trkpt lat="43.994364" lon="5.885649">
        <ele>468.9</ele>
      </trkpt>
      <trkpt lat="43.994422" lon="5.885815">
        <ele>468.6</ele>
      </trkpt>
      <trkpt lat="43.994492" lon="5.885947">
        <ele>463.8</ele>
      </trkpt>
      <trkpt lat="43.994654" lon="5.886051">
        <ele>464.9</ele>
      </trkpt>
      <trkpt lat="43.994889" lon="5.886183">
        <ele>465.5</ele>
      </trkpt>
      <trkpt lat="43.995044" lon="5.886199">
        <ele>474.7</ele>
      </trkpt>
      <trkpt lat="43.995175" lon="5.886194">
        <ele>475.6</ele>
      </trkpt>
      <trkpt lat="43.995240" lon="5.886215">
        <ele>475.9</ele>
      </trkpt>
      <trkpt lat="43.995321" lon="5.886306">
        <ele>475.9</ele>
      </trkpt>
      <trkpt lat="43.995406" lon="5.886612">
        <ele>475</ele>
      </trkpt>
      <trkpt lat="43.995530" lon="5.886840">
        <ele>470.3</ele>
      </trkpt>
      <trkpt lat="43.995599" lon="5.887030">
        <ele>469.8</ele>
      </trkpt>
      <trkpt lat="43.995605" lon="5.887245">
        <ele>469.1</ele>
      </trkpt>
      <trkpt lat="43.995588" lon="5.887460">
        <ele>468.9</ele>
      </trkpt>
      <trkpt lat="43.995632" lon="5.887596">
        <ele>463.9</ele>
      </trkpt>
      <trkpt lat="43.995750" lon="5.887679">
        <ele>464.9</ele>
      </trkpt>
      <trkpt lat="43.995949" lon="5.887760">
        <ele>466.5</ele>
      </trkpt>
      <trkpt lat="43.996049" lon="5.887816">
        <ele>465.1</ele>
      </trkpt>
      <trkpt lat="43.996165" lon="5.887816">
        <ele>464.3</ele>
      </trkpt>
      <trkpt lat="43.996265" lon="5.887709">
        <ele>464.4</ele>
      </trkpt>
      <trkpt lat="43.996302" lon="5.887553">
        <ele>464.9</ele>
      </trkpt>
      <trkpt lat="43.996250" lon="5.886904">
        <ele>475.2</ele>
      </trkpt>
      <trkpt lat="43.996342" lon="5.886381">
        <ele>483.3</ele>
      </trkpt>
      <trkpt lat="43.996356" lon="5.885987">
        <ele>485.8</ele>
      </trkpt>
      <trkpt lat="43.996317" lon="5.885571">
        <ele>492.2</ele>
      </trkpt>
      <trkpt lat="43.996186" lon="5.885008">
        <ele>494.6</ele>
      </trkpt>
      <trkpt lat="43.996059" lon="5.884606">
        <ele>499</ele>
      </trkpt>
      <trkpt lat="43.995746" lon="5.884134">
        <ele>503</ele>
      </trkpt>
      <trkpt lat="43.995761" lon="5.883881">
        <ele>502.6</ele>
      </trkpt>
      <trkpt lat="43.995813" lon="5.883739">
        <ele>503.3</ele>
      </trkpt>
      <trkpt lat="43.995867" lon="5.883602">
        <ele>506.7</ele>
      </trkpt>
      <trkpt lat="43.996033" lon="5.883302">
        <ele>511.7</ele>
      </trkpt>
      <trkpt lat="43.996284" lon="5.882814">
        <ele>513.2</ele>
      </trkpt>
      <trkpt lat="43.996508" lon="5.882479">
        <ele>518.8</ele>
      </trkpt>
      <trkpt lat="43.996578" lon="5.882414">
        <ele>518.3</ele>
      </trkpt>
      <trkpt lat="43.996711" lon="5.882044">
        <ele>523.3</ele>
      </trkpt>
      <trkpt lat="43.996799" lon="5.881687">
        <ele>526.7</ele>
      </trkpt>
      <trkpt lat="43.996908" lon="5.881540">
        <ele>530.9</ele>
      </trkpt>
      <trkpt lat="43.997035" lon="5.881508">
        <ele>531.1</ele>
      </trkpt>
      <trkpt lat="43.997149" lon="5.881551">
        <ele>530.8</ele>
      </trkpt>
      <trkpt lat="43.997253" lon="5.881685">
        <ele>525.5</ele>
      </trkpt>
      <trkpt lat="43.997330" lon="5.881851">
        <ele>525.1</ele>
      </trkpt>
      <trkpt lat="43.997430" lon="5.882269">
        <ele>522.5</ele>
      </trkpt>
      <trkpt lat="43.997510" lon="5.882269">
        <ele>520.3</ele>
      </trkpt>
      <trkpt lat="43.997550" lon="5.882200">
        <ele>520.3</ele>
      </trkpt>
      <trkpt lat="43.997544" lon="5.882041">
        <ele>521.1</ele>
      </trkpt>
      <trkpt lat="43.997353" lon="5.881132">
        <ele>531.8</ele>
      </trkpt>
      <trkpt lat="43.997085" lon="5.881070">
        <ele>532.7</ele>
      </trkpt>
      <trkpt lat="43.996757" lon="5.881156">
        <ele>533.5</ele>
      </trkpt>
      <trkpt lat="43.996518" lon="5.881282">
        <ele>533.4</ele>
      </trkpt>
      <trkpt lat="43.996348" lon="5.881430">
        <ele>532.7</ele>
      </trkpt>
      <trkpt lat="43.996084" lon="5.881435">
        <ele>532.7</ele>
      </trkpt>
      <trkpt lat="43.995424" lon="5.881231">
        <ele>528.3</ele>
      </trkpt>
      <trkpt lat="43.994746" lon="5.881301">
        <ele>519.5</ele>
      </trkpt>
      <trkpt lat="43.994571" lon="5.881390">
        <ele>518.4</ele>
      </trkpt>
      <trkpt lat="43.994362" lon="5.881328">
        <ele>517.4</ele>
      </trkpt>
      <trkpt lat="43.993483" lon="5.880757">
        <ele>509</ele>
      </trkpt>
      <trkpt lat="43.993479" lon="5.880754">
        <ele>509</ele>
      </trkpt>
      <trkpt lat="43.993174" lon="5.880628">
        <ele>506.8</ele>
      </trkpt>
      <trkpt lat="43.992741" lon="5.880585">
        <ele>505.9</ele>
      </trkpt>
      <trkpt lat="43.992539" lon="5.880649">
        <ele>505.9</ele>
      </trkpt>
      <trkpt lat="43.992358" lon="5.880810">
        <ele>506.9</ele>
      </trkpt>
      <trkpt lat="43.992157" lon="5.880891">
        <ele>509.1</ele>
      </trkpt>
      <trkpt lat="43.991755" lon="5.880888">
        <ele>513.1</ele>
      </trkpt>
      <trkpt lat="43.991497" lon="5.880912">
        <ele>516.3</ele>
      </trkpt>
      <trkpt lat="43.991360" lon="5.881033">
        <ele>517.1</ele>
      </trkpt>
      <trkpt lat="43.991344" lon="5.881213">
        <ele>517</ele>
      </trkpt>
      <trkpt lat="43.991192" lon="5.881414">
        <ele>517.2</ele>
      </trkpt>
      <trkpt lat="43.990835" lon="5.881553">
        <ele>517.8</ele>
      </trkpt>
      <trkpt lat="43.990370" lon="5.881315">
        <ele>519.6</ele>
      </trkpt>
      <trkpt lat="43.990123" lon="5.881293">
        <ele>519.5</ele>
      </trkpt>
      <trkpt lat="43.989832" lon="5.881451">
        <ele>514.6</ele>
      </trkpt>
      <trkpt lat="43.989671" lon="5.881661">
        <ele>513.6</ele>
      </trkpt>
      <trkpt lat="43.989505" lon="5.881985">
        <ele>511.4</ele>
      </trkpt>
      <trkpt lat="43.989173" lon="5.882377">
        <ele>511.6</ele>
      </trkpt>
      <trkpt lat="43.988894" lon="5.882586">
        <ele>514.5</ele>
      </trkpt>
      <trkpt lat="43.988749" lon="5.882613">
        <ele>515</ele>
      </trkpt>
      <trkpt lat="43.988409" lon="5.882575">
        <ele>515.3</ele>
      </trkpt>
      <trkpt lat="43.988319" lon="5.882642">
        <ele>518.3</ele>
      </trkpt>
      <trkpt lat="43.988322" lon="5.882792">
        <ele>520.1</ele>
      </trkpt>
      <trkpt lat="43.988427" lon="5.882943">
        <ele>516.4</ele>
      </trkpt>
      <trkpt lat="43.988473" lon="5.883104">
        <ele>517.1</ele>
      </trkpt>
      <trkpt lat="43.988463" lon="5.883216">
        <ele>517.8</ele>
      </trkpt>
      <trkpt lat="43.988353" lon="5.883428">
        <ele>519</ele>
      </trkpt>
      <trkpt lat="43.988184" lon="5.883637">
        <ele>523.6</ele>
      </trkpt>
      <trkpt lat="43.988033" lon="5.883739">
        <ele>524.6</ele>
      </trkpt>
      <trkpt lat="43.987881" lon="5.883670">
        <ele>525.9</ele>
      </trkpt>
      <trkpt lat="43.987778" lon="5.883517">
        <ele>527.2</ele>
      </trkpt>
      <trkpt lat="43.987676" lon="5.883535">
        <ele>528.1</ele>
      </trkpt>
      <trkpt lat="43.987514" lon="5.883594">
        <ele>528.8</ele>
      </trkpt>
      <trkpt lat="43.987280" lon="5.883868">
        <ele>538.5</ele>
      </trkpt>
      <trkpt lat="43.987033" lon="5.884434">
        <ele>540.3</ele>
      </trkpt>
      <trkpt lat="43.986964" lon="5.884598">
        <ele>540.6</ele>
      </trkpt>
      <trkpt lat="43.986665" lon="5.885035">
        <ele>543.6</ele>
      </trkpt>
      <trkpt lat="43.986535" lon="5.885201">
        <ele>542.3</ele>
      </trkpt>
      <trkpt lat="43.986408" lon="5.885416">
        <ele>541.7</ele>
      </trkpt>
      <trkpt lat="43.986252" lon="5.885837">
        <ele>542.6</ele>
      </trkpt>
      <trkpt lat="43.986188" lon="5.886191">
        <ele>543.1</ele>
      </trkpt>
      <trkpt lat="43.986136" lon="5.886443">
        <ele>543.8</ele>
      </trkpt>
      <trkpt lat="43.985980" lon="5.886829">
        <ele>546.5</ele>
      </trkpt>
      <trkpt lat="43.985906" lon="5.886998">
        <ele>546.6</ele>
      </trkpt>
      <trkpt lat="43.985866" lon="5.887071">
        <ele>546.8</ele>
      </trkpt>
      <trkpt lat="43.985825" lon="5.887116">
        <ele>551.2</ele>
      </trkpt>
      <trkpt lat="43.985814" lon="5.887261">
        <ele>551.2</ele>
      </trkpt>
      <trkpt lat="43.985767" lon="5.887449">
        <ele>550.7</ele>
      </trkpt>
      <trkpt lat="43.985584" lon="5.887913">
        <ele>550.9</ele>
      </trkpt>
      <trkpt lat="43.985563" lon="5.888197">
        <ele>550.5</ele>
      </trkpt>
      <trkpt lat="43.985599" lon="5.888414">
        <ele>550</ele>
      </trkpt>
      <trkpt lat="43.985864" lon="5.889066">
        <ele>549.5</ele>
      </trkpt>
      <trkpt lat="43.985895" lon="5.889235">
        <ele>550.5</ele>
      </trkpt>
      <trkpt lat="43.985877" lon="5.889308">
        <ele>550.4</ele>
      </trkpt>
      <trkpt lat="43.985680" lon="5.889428">
        <ele>553.4</ele>
      </trkpt>
      <trkpt lat="43.985308" lon="5.889493">
        <ele>554.2</ele>
      </trkpt>
      <trkpt lat="43.984958" lon="5.889439">
        <ele>553.8</ele>
      </trkpt>
      <trkpt lat="43.984712" lon="5.889350">
        <ele>553.2</ele>
      </trkpt>
      <trkpt lat="43.984436" lon="5.889257">
        <ele>551.6</ele>
      </trkpt>
      <trkpt lat="43.983805" lon="5.889072">
        <ele>543.6</ele>
      </trkpt>
      <trkpt lat="43.983295" lon="5.889023">
        <ele>538.3</ele>
      </trkpt>
      <trkpt lat="43.982658" lon="5.888929">
        <ele>534.8</ele>
      </trkpt>
      <trkpt lat="43.982266" lon="5.888932">
        <ele>530.8</ele>
      </trkpt>
      <trkpt lat="43.981969" lon="5.888889">
        <ele>530.2</ele>
      </trkpt>
      <trkpt lat="43.981745" lon="5.888913">
        <ele>530.6</ele>
      </trkpt>
      <trkpt lat="43.981469" lon="5.888908">
        <ele>530.2</ele>
      </trkpt>
      <trkpt lat="43.981272" lon="5.888876">
        <ele>529.9</ele>
      </trkpt>
      <trkpt lat="43.980942" lon="5.888758">
        <ele>529.4</ele>
      </trkpt>
      <trkpt lat="43.980543" lon="5.888801">
        <ele>531.7</ele>
      </trkpt>
      <trkpt lat="43.979821" lon="5.889122">
        <ele>533.9</ele>
      </trkpt>
      <trkpt lat="43.979588" lon="5.889157">
        <ele>532.6</ele>
      </trkpt>
      <trkpt lat="43.978690" lon="5.889114">
        <ele>528.7</ele>
      </trkpt>
      <trkpt lat="43.978511" lon="5.889106">
        <ele>529.3</ele>
      </trkpt>
      <trkpt lat="43.978296" lon="5.889133">
        <ele>530.9</ele>
      </trkpt>
      <trkpt lat="43.977665" lon="5.889281">
        <ele>536.8</ele>
      </trkpt>
      <trkpt lat="43.977316" lon="5.889391">
        <ele>539.4</ele>
      </trkpt>
      <trkpt lat="43.976972" lon="5.889396">
        <ele>540.7</ele>
      </trkpt>
      <trkpt lat="43.976571" lon="5.889085">
        <ele>534.5</ele>
      </trkpt>
      <trkpt lat="43.976403" lon="5.888988">
        <ele>534.2</ele>
      </trkpt>
      <trkpt lat="43.976225" lon="5.888972">
        <ele>534.3</ele>
      </trkpt>
      <trkpt lat="43.976002" lon="5.889037">
        <ele>535.3</ele>
      </trkpt>
      <trkpt lat="43.975315" lon="5.888801">
        <ele>534</ele>
      </trkpt>
      <trkpt lat="43.974551" lon="5.888650">
        <ele>536.2</ele>
      </trkpt>
      <trkpt lat="43.973894" lon="5.888345">
        <ele>539.6</ele>
      </trkpt>
      <trkpt lat="43.973485" lon="5.888296">
        <ele>532.2</ele>
      </trkpt>
      <trkpt lat="43.972809" lon="5.888302">
        <ele>533.4</ele>
      </trkpt>
      <trkpt lat="43.972157" lon="5.888355">
        <ele>551.1</ele>
      </trkpt>
      <trkpt lat="43.971839" lon="5.888288">
        <ele>539.8</ele>
      </trkpt>
      <trkpt lat="43.971523" lon="5.888111">
        <ele>541.6</ele>
      </trkpt>
      <trkpt lat="43.971391" lon="5.888068">
        <ele>541.1</ele>
      </trkpt>
      <trkpt lat="43.971220" lon="5.888103">
        <ele>542.1</ele>
      </trkpt>
      <trkpt lat="43.971006" lon="5.888162">
        <ele>545</ele>
      </trkpt>
      <trkpt lat="43.970934" lon="5.888135">
        <ele>545.4</ele>
      </trkpt>
      <trkpt lat="43.970890" lon="5.888162">
        <ele>546.5</ele>
      </trkpt>
      <trkpt lat="43.970751" lon="5.888133">
        <ele>548</ele>
      </trkpt>
      <trkpt lat="43.970473" lon="5.888025">
        <ele>545.6</ele>
      </trkpt>
      <trkpt lat="43.970403" lon="5.888036">
        <ele>545.8</ele>
      </trkpt>
      <trkpt lat="43.969765" lon="5.888232">
        <ele>547.8</ele>
      </trkpt>
      <trkpt lat="43.969645" lon="5.888337">
        <ele>561.1</ele>
      </trkpt>
      <trkpt lat="43.969573" lon="5.888393">
        <ele>561.2</ele>
      </trkpt>
      <trkpt lat="43.969427" lon="5.888476">
        <ele>560.7</ele>
      </trkpt>
      <trkpt lat="43.969127" lon="5.888755">
        <ele>560.9</ele>
      </trkpt>
      <trkpt lat="43.969058" lon="5.888916">
        <ele>564.1</ele>
      </trkpt>
      <trkpt lat="43.968707" lon="5.889393">
        <ele>570.2</ele>
      </trkpt>
      <trkpt lat="43.968620" lon="5.889503">
        <ele>569.7</ele>
      </trkpt>
      <trkpt lat="43.968575" lon="5.889514">
        <ele>569.4</ele>
      </trkpt>
      <trkpt lat="43.968523" lon="5.889493">
        <ele>569.2</ele>
      </trkpt>
      <trkpt lat="43.968429" lon="5.889308">
        <ele>568.9</ele>
      </trkpt>
      <trkpt lat="43.968046" lon="5.888894">
        <ele>560.7</ele>
      </trkpt>
      <trkpt lat="43.967888" lon="5.888919">
        <ele>561</ele>
      </trkpt>
      <trkpt lat="43.967740" lon="5.888894">
        <ele>561.2</ele>
      </trkpt>
      <trkpt lat="43.967585" lon="5.888774">
        <ele>560.5</ele>
      </trkpt>
      <trkpt lat="43.967353" lon="5.888557">
        <ele>558</ele>
      </trkpt>
      <trkpt lat="43.966828" lon="5.887937">
        <ele>554</ele>
      </trkpt>
    </trkseg>
  </trk>
</gpx>