<?xml version="1.0" ?>
<gpx xmlns="http://www.topografix.com/GPX/1/1" xmlns:xsi="http://www.w3.org/2001/XMLSchema-instance" xsi:schemaLocation="http://www.topografix.com/GPX/1/1 http://www.topografix.com/GPX/1/1/gpx.xsd" version="1.1" creator="EditGPX">
  <trk>
    <name>NewTrack</name>
    <trkseg>
      <trkpt lat="43.890030" lon="5.150560">
        <ele>166.1</ele>
      </trkpt>
      <trkpt lat="43.890104" lon="5.150657">
        <ele>165.7</ele>
      </trkpt>
      <trkpt lat="43.890359" lon="5.150533">
        <ele>167.3</ele>
      </trkpt>
      <trkpt lat="43.890571" lon="5.151440">
        <ele>165</ele>
      </trkpt>
      <trkpt lat="43.890647" lon="5.151958">
        <ele>164.4</ele>
      </trkpt>
      <trkpt lat="43.890618" lon="5.152073">
        <ele>164.4</ele>
      </trkpt>
      <trkpt lat="43.890619" lon="5.152159">
        <ele>164.4</ele>
      </trkpt>
      <trkpt lat="43.890650" lon="5.152199">
        <ele>164.6</ele>
      </trkpt>
      <trkpt lat="43.890699" lon="5.152228">
        <ele>164.8</ele>
      </trkpt>
      <trkpt lat="43.890730" lon="5.152191">
        <ele>164.8</ele>
      </trkpt>
      <trkpt lat="43.890973" lon="5.152389">
        <ele>168.6</ele>
      </trkpt>
      <trkpt lat="43.891211" lon="5.152615">
        <ele>170.1</ele>
      </trkpt>
      <trkpt lat="43.891306" lon="5.152655">
        <ele>170.6</ele>
      </trkpt>
      <trkpt lat="43.891460" lon="5.152658">
        <ele>171.5</ele>
      </trkpt>
      <trkpt lat="43.891587" lon="5.152652">
        <ele>172.2</ele>
      </trkpt>
      <trkpt lat="43.891752" lon="5.152778">
        <ele>175.3</ele>
      </trkpt>
      <trkpt lat="43.892216" lon="5.152856">
        <ele>176.7</ele>
      </trkpt>
      <trkpt lat="43.892400" lon="5.152878">
        <ele>177.2</ele>
      </trkpt>
      <trkpt lat="43.892867" lon="5.153124">
        <ele>182.2</ele>
      </trkpt>
      <trkpt lat="43.892904" lon="5.153175">
        <ele>182.4</ele>
      </trkpt>
      <trkpt lat="43.893078" lon="5.153505">
        <ele>182.7</ele>
      </trkpt>
      <trkpt lat="43.893258" lon="5.153865">
        <ele>182.6</ele>
      </trkpt>
      <trkpt lat="43.893507" lon="5.154393">
        <ele>186.5</ele>
      </trkpt>
      <trkpt lat="43.893784" lon="5.154878">
        <ele>187.7</ele>
      </trkpt>
      <trkpt lat="43.893907" lon="5.155168">
        <ele>187.8</ele>
      </trkpt>
      <trkpt lat="43.894006" lon="5.155538">
        <ele>187.8</ele>
      </trkpt>
      <trkpt lat="43.894271" lon="5.156584">
        <ele>190.2</ele>
      </trkpt>
      <trkpt lat="43.894476" lon="5.157311">
        <ele>189.4</ele>
      </trkpt>
      <trkpt lat="43.894738" lon="5.157968">
        <ele>188.1</ele>
      </trkpt>
      <trkpt lat="43.895187" lon="5.159022">
        <ele>190.9</ele>
      </trkpt>
      <trkpt lat="43.895187" lon="5.159022">
        <ele>190.9</ele>
      </trkpt>
      <trkpt lat="43.895313" lon="5.159318">
        <ele>191.4</ele>
      </trkpt>
      <trkpt lat="43.895593" lon="5.159865">
        <ele>192.7</ele>
      </trkpt>
      <trkpt lat="43.895755" lon="5.160079">
        <ele>193.3</ele>
      </trkpt>
      <trkpt lat="43.896157" lon="5.160626">
        <ele>196.3</ele>
      </trkpt>
      <trkpt lat="43.896476" lon="5.160970">
        <ele>197.7</ele>
      </trkpt>
      <trkpt lat="43.896873" lon="5.161423">
        <ele>201.8</ele>
      </trkpt>
      <trkpt lat="43.897097" lon="5.162126">
        <ele>202</ele>
      </trkpt>
      <trkpt lat="43.897039" lon="5.162324">
        <ele>201.6</ele>
      </trkpt>
      <trkpt lat="43.897033" lon="5.162464">
        <ele>201.4</ele>
      </trkpt>
      <trkpt lat="43.897042" lon="5.162657">
        <ele>199.8</ele>
      </trkpt>
      <trkpt lat="43.897067" lon="5.162727">
        <ele>199.8</ele>
      </trkpt>
      <trkpt lat="43.897187" lon="5.162863">
        <ele>199.9</ele>
      </trkpt>
      <trkpt lat="43.897255" lon="5.162933">
        <ele>200</ele>
      </trkpt>
      <trkpt lat="43.897276" lon="5.163011">
        <ele>199.9</ele>
      </trkpt>
      <trkpt lat="43.897259" lon="5.163086">
        <ele>199.8</ele>
      </trkpt>
      <trkpt lat="43.897218" lon="5.163134">
        <ele>199.7</ele>
      </trkpt>
      <trkpt lat="43.897131" lon="5.163199">
        <ele>199.3</ele>
      </trkpt>
      <trkpt lat="43.897048" lon="5.163250">
        <ele>198.8</ele>
      </trkpt>
      <trkpt lat="43.897008" lon="5.163317">
        <ele>198.5</ele>
      </trkpt>
      <trkpt lat="43.896986" lon="5.163400">
        <ele>197.6</ele>
      </trkpt>
      <trkpt lat="43.896996" lon="5.163561">
        <ele>197.8</ele>
      </trkpt>
      <trkpt lat="43.897006" lon="5.163682">
        <ele>198</ele>
      </trkpt>
      <trkpt lat="43.896984" lon="5.163746">
        <ele>197.9</ele>
      </trkpt>
      <trkpt lat="43.896959" lon="5.163934">
        <ele>197.9</ele>
      </trkpt>
      <trkpt lat="43.896930" lon="5.164132">
        <ele>197.6</ele>
      </trkpt>
      <trkpt lat="43.896892" lon="5.164339">
        <ele>198.1</ele>
      </trkpt>
      <trkpt lat="43.896859" lon="5.164395">
        <ele>198</ele>
      </trkpt>
      <trkpt lat="43.896437" lon="5.164344">
        <ele>194.4</ele>
      </trkpt>
      <trkpt lat="43.895848" lon="5.164312">
        <ele>192.2</ele>
      </trkpt>
      <trkpt lat="43.895560" lon="5.164290">
        <ele>189.6</ele>
      </trkpt>
      <trkpt lat="43.895401" lon="5.164352">
        <ele>189.1</ele>
      </trkpt>
      <trkpt lat="43.894789" lon="5.164626">
        <ele>185.3</ele>
      </trkpt>
      <trkpt lat="43.894077" lon="5.164931">
        <ele>182</ele>
      </trkpt>
      <trkpt lat="43.894029" lon="5.164950">
        <ele>182</ele>
      </trkpt>
      <trkpt lat="43.894021" lon="5.164990">
        <ele>182</ele>
      </trkpt>
      <trkpt lat="43.894054" lon="5.165074">
        <ele>181.5</ele>
      </trkpt>
      <trkpt lat="43.894396" lon="5.165650">
        <ele>183.7</ele>
      </trkpt>
      <trkpt lat="43.894682" lon="5.166104">
        <ele>184.9</ele>
      </trkpt>
      <trkpt lat="43.895258" lon="5.166643">
        <ele>189</ele>
      </trkpt>
      <trkpt lat="43.895353" lon="5.166723">
        <ele>190</ele>
      </trkpt>
      <trkpt lat="43.895463" lon="5.166726">
        <ele>190.6</ele>
      </trkpt>
      <trkpt lat="43.895898" lon="5.166758">
        <ele>194.3</ele>
      </trkpt>
      <trkpt lat="43.896292" lon="5.166863">
        <ele>196.9</ele>
      </trkpt>
      <trkpt lat="43.896470" lon="5.167037">
        <ele>197.7</ele>
      </trkpt>
      <trkpt lat="43.896756" lon="5.167139">
        <ele>202.7</ele>
      </trkpt>
      <trkpt lat="43.897017" lon="5.167252">
        <ele>203.6</ele>
      </trkpt>
      <trkpt lat="43.897352" lon="5.167493">
        <ele>206.1</ele>
      </trkpt>
      <trkpt lat="43.897464" lon="5.167501">
        <ele>207.5</ele>
      </trkpt>
      <trkpt lat="43.897628" lon="5.167380">
        <ele>208.7</ele>
      </trkpt>
      <trkpt lat="43.897794" lon="5.167319">
        <ele>209.2</ele>
      </trkpt>
      <trkpt lat="43.897986" lon="5.167356">
        <ele>209.9</ele>
      </trkpt>
      <trkpt lat="43.898159" lon="5.167386">
        <ele>210.8</ele>
      </trkpt>
      <trkpt lat="43.898241" lon="5.167356">
        <ele>211.1</ele>
      </trkpt>
      <trkpt lat="43.898384" lon="5.167260">
        <ele>212.8</ele>
      </trkpt>
      <trkpt lat="43.899253" lon="5.167229">
        <ele>216.3</ele>
      </trkpt>
      <trkpt lat="43.899253" lon="5.167229">
        <ele>216.3</ele>
      </trkpt>
      <trkpt lat="43.899315" lon="5.167227">
        <ele>216.4</ele>
      </trkpt>
      <trkpt lat="43.899340" lon="5.167289">
        <ele>216.4</ele>
      </trkpt>
      <trkpt lat="43.899356" lon="5.167343">
        <ele>216.4</ele>
      </trkpt>
      <trkpt lat="43.899360" lon="5.167469">
        <ele>216.3</ele>
      </trkpt>
      <trkpt lat="43.899340" lon="5.167705">
        <ele>217.2</ele>
      </trkpt>
      <trkpt lat="43.899335" lon="5.167812">
        <ele>217.4</ele>
      </trkpt>
      <trkpt lat="43.899358" lon="5.167874">
        <ele>217.6</ele>
      </trkpt>
      <trkpt lat="43.899402" lon="5.167893">
        <ele>217.8</ele>
      </trkpt>
      <trkpt lat="43.899791" lon="5.167944">
        <ele>218.8</ele>
      </trkpt>
      <trkpt lat="43.900146" lon="5.168024">
        <ele>223.2</ele>
      </trkpt>
      <trkpt lat="43.900320" lon="5.168048">
        <ele>223.9</ele>
      </trkpt>
      <trkpt lat="43.900461" lon="5.168096">
        <ele>224.6</ele>
      </trkpt>
      <trkpt lat="43.900817" lon="5.168153">
        <ele>226.7</ele>
      </trkpt>
      <trkpt lat="43.900877" lon="5.168102">
        <ele>229.6</ele>
      </trkpt>
      <trkpt lat="43.901001" lon="5.167748">
        <ele>229.2</ele>
      </trkpt>
      <trkpt lat="43.900995" lon="5.167589">
        <ele>228.7</ele>
      </trkpt>
      <trkpt lat="43.901016" lon="5.167493">
        <ele>227.5</ele>
      </trkpt>
      <trkpt lat="43.901064" lon="5.167458">
        <ele>227.6</ele>
      </trkpt>
      <trkpt lat="43.901223" lon="5.167461">
        <ele>228.1</ele>
      </trkpt>
      <trkpt lat="43.901439" lon="5.167506">
        <ele>230.4</ele>
      </trkpt>
      <trkpt lat="43.901702" lon="5.167694">
        <ele>233.2</ele>
      </trkpt>
      <trkpt lat="43.901789" lon="5.167750">
        <ele>233.8</ele>
      </trkpt>
      <trkpt lat="43.901859" lon="5.167732">
        <ele>234</ele>
      </trkpt>
      <trkpt lat="43.901913" lon="5.167699">
        <ele>234.2</ele>
      </trkpt>
      <trkpt lat="43.901961" lon="5.167732">
        <ele>234.5</ele>
      </trkpt>
      <trkpt lat="43.901992" lon="5.167815">
        <ele>234.8</ele>
      </trkpt>
      <trkpt lat="43.902034" lon="5.167986">
        <ele>235.2</ele>
      </trkpt>
      <trkpt lat="43.902098" lon="5.168056">
        <ele>235.5</ele>
      </trkpt>
      <trkpt lat="43.902235" lon="5.168161">
        <ele>236.2</ele>
      </trkpt>
      <trkpt lat="43.902535" lon="5.168268">
        <ele>239.4</ele>
      </trkpt>
      <trkpt lat="43.902610" lon="5.168284">
        <ele>239.7</ele>
      </trkpt>
      <trkpt lat="43.902717" lon="5.168244">
        <ele>240.2</ele>
      </trkpt>
      <trkpt lat="43.902775" lon="5.168169">
        <ele>240.5</ele>
      </trkpt>
      <trkpt lat="43.902850" lon="5.167994">
        <ele>240.6</ele>
      </trkpt>
      <trkpt lat="43.902900" lon="5.167721">
        <ele>240.4</ele>
      </trkpt>
      <trkpt lat="43.902937" lon="5.167485">
        <ele>238.5</ele>
      </trkpt>
      <trkpt lat="43.902987" lon="5.167410">
        <ele>238.7</ele>
      </trkpt>
      <trkpt lat="43.903026" lon="5.167361">
        <ele>238.7</ele>
      </trkpt>
      <trkpt lat="43.903065" lon="5.167504">
        <ele>240.9</ele>
      </trkpt>
      <trkpt lat="43.903138" lon="5.168134">
        <ele>242.1</ele>
      </trkpt>
      <trkpt lat="43.903215" lon="5.169164">
        <ele>246.3</ele>
      </trkpt>
      <trkpt lat="43.903204" lon="5.169451">
        <ele>246</ele>
      </trkpt>
      <trkpt lat="43.903225" lon="5.169775">
        <ele>246.2</ele>
      </trkpt>
      <trkpt lat="43.903296" lon="5.170205">
        <ele>246.8</ele>
      </trkpt>
      <trkpt lat="43.903410" lon="5.170701">
        <ele>250.4</ele>
      </trkpt>
      <trkpt lat="43.903422" lon="5.170972">
        <ele>250.9</ele>
      </trkpt>
      <trkpt lat="43.903422" lon="5.171562">
        <ele>251.3</ele>
      </trkpt>
      <trkpt lat="43.903391" lon="5.171994">
        <ele>253</ele>
      </trkpt>
      <trkpt lat="43.903383" lon="5.172426">
        <ele>252.7</ele>
      </trkpt>
      <trkpt lat="43.903399" lon="5.172825">
        <ele>254.1</ele>
      </trkpt>
      <trkpt lat="43.903351" lon="5.173211">
        <ele>253.2</ele>
      </trkpt>
      <trkpt lat="43.903355" lon="5.173563">
        <ele>253.9</ele>
      </trkpt>
      <trkpt lat="43.903339" lon="5.173675">
        <ele>254.2</ele>
      </trkpt>
      <trkpt lat="43.903270" lon="5.173756">
        <ele>250.4</ele>
      </trkpt>
      <trkpt lat="43.903189" lon="5.173767">
        <ele>250.2</ele>
      </trkpt>
      <trkpt lat="43.903077" lon="5.173842">
        <ele>249.9</ele>
      </trkpt>
      <trkpt lat="43.902624" lon="5.175124">
        <ele>248.9</ele>
      </trkpt>
      <trkpt lat="43.902566" lon="5.175333">
        <ele>249.4</ele>
      </trkpt>
      <trkpt lat="43.902520" lon="5.175730">
        <ele>248.2</ele>
      </trkpt>
      <trkpt lat="43.902551" lon="5.175945">
        <ele>248.4</ele>
      </trkpt>
      <trkpt lat="43.902671" lon="5.176798">
        <ele>249.1</ele>
      </trkpt>
      <trkpt lat="43.902620" lon="5.177098">
        <ele>249</ele>
      </trkpt>
      <trkpt lat="43.902458" lon="5.177715">
        <ele>244.8</ele>
      </trkpt>
      <trkpt lat="43.902378" lon="5.178294">
        <ele>244.8</ele>
      </trkpt>
      <trkpt lat="43.902138" lon="5.179067">
        <ele>241.5</ele>
      </trkpt>
      <trkpt lat="43.902053" lon="5.179378">
        <ele>239.4</ele>
      </trkpt>
      <trkpt lat="43.902022" lon="5.179549">
        <ele>239.1</ele>
      </trkpt>
      <trkpt lat="43.901883" lon="5.179700">
        <ele>238.6</ele>
      </trkpt>
      <trkpt lat="43.901798" lon="5.180011">
        <ele>236.2</ele>
      </trkpt>
      <trkpt lat="43.901612" lon="5.180440">
        <ele>233.7</ele>
      </trkpt>
      <trkpt lat="43.901512" lon="5.180708">
        <ele>233.4</ele>
      </trkpt>
      <trkpt lat="43.901365" lon="5.180944">
        <ele>230.9</ele>
      </trkpt>
      <trkpt lat="43.901482" lon="5.181081">
        <ele>230.7</ele>
      </trkpt>
      <trkpt lat="43.901507" lon="5.181145">
        <ele>230.3</ele>
      </trkpt>
      <trkpt lat="43.901551" lon="5.181290">
        <ele>229.2</ele>
      </trkpt>
      <trkpt lat="43.901602" lon="5.181328">
        <ele>228.8</ele>
      </trkpt>
      <trkpt lat="43.901748" lon="5.181336">
        <ele>226.8</ele>
      </trkpt>
      <trkpt lat="43.901779" lon="5.181368">
        <ele>226.5</ele>
      </trkpt>
      <trkpt lat="43.901785" lon="5.181408">
        <ele>226.2</ele>
      </trkpt>
      <trkpt lat="43.901760" lon="5.181427">
        <ele>226</ele>
      </trkpt>
      <trkpt lat="43.901708" lon="5.181446">
        <ele>225.8</ele>
      </trkpt>
      <trkpt lat="43.901677" lon="5.181470">
        <ele>225.5</ele>
      </trkpt>
      <trkpt lat="43.901671" lon="5.181505">
        <ele>225.2</ele>
      </trkpt>
      <trkpt lat="43.901690" lon="5.181532">
        <ele>224.9</ele>
      </trkpt>
      <trkpt lat="43.901748" lon="5.181497">
        <ele>225.4</ele>
      </trkpt>
      <trkpt lat="43.901814" lon="5.181489">
        <ele>225.6</ele>
      </trkpt>
      <trkpt lat="43.901857" lon="5.181518">
        <ele>225.6</ele>
      </trkpt>
      <trkpt lat="43.901882" lon="5.181583">
        <ele>225.3</ele>
      </trkpt>
      <trkpt lat="43.901932" lon="5.181875">
        <ele>221.8</ele>
      </trkpt>
      <trkpt lat="43.901967" lon="5.182092">
        <ele>221.3</ele>
      </trkpt>
      <trkpt lat="43.901984" lon="5.182194">
        <ele>221</ele>
      </trkpt>
      <trkpt lat="43.902021" lon="5.182473">
        <ele>220.6</ele>
      </trkpt>
      <trkpt lat="43.902060" lon="5.182610">
        <ele>222.4</ele>
      </trkpt>
      <trkpt lat="43.902067" lon="5.182688">
        <ele>222.7</ele>
      </trkpt>
      <trkpt lat="43.901965" lon="5.182811">
        <ele>222.7</ele>
      </trkpt>
      <trkpt lat="43.901727" lon="5.183098">
        <ele>223.1</ele>
      </trkpt>
      <trkpt lat="43.901663" lon="5.183264">
        <ele>222.5</ele>
      </trkpt>
      <trkpt lat="43.901578" lon="5.183610">
        <ele>223.2</ele>
      </trkpt>
      <trkpt lat="43.901520" lon="5.184522">
        <ele>230.3</ele>
      </trkpt>
      <trkpt lat="43.901538" lon="5.184766">
        <ele>232.7</ele>
      </trkpt>
      <trkpt lat="43.901607" lon="5.185035">
        <ele>239.3</ele>
      </trkpt>
      <trkpt lat="43.901830" lon="5.185464">
        <ele>244</ele>
      </trkpt>
      <trkpt lat="43.901911" lon="5.185783">
        <ele>244.4</ele>
      </trkpt>
      <trkpt lat="43.901932" lon="5.185979">
        <ele>246.6</ele>
      </trkpt>
      <trkpt lat="43.901928" lon="5.186295">
        <ele>247.5</ele>
      </trkpt>
      <trkpt lat="43.901959" lon="5.186408">
        <ele>247.7</ele>
      </trkpt>
      <trkpt lat="43.902062" lon="5.186633">
        <ele>248.4</ele>
      </trkpt>
      <trkpt lat="43.902102" lon="5.186746">
        <ele>251.1</ele>
      </trkpt>
      <trkpt lat="43.902147" lon="5.186915">
        <ele>251.6</ele>
      </trkpt>
      <trkpt lat="43.902208" lon="5.187196">
        <ele>252.6</ele>
      </trkpt>
      <trkpt lat="43.902263" lon="5.187443">
        <ele>253.7</ele>
      </trkpt>
      <trkpt lat="43.902290" lon="5.187717">
        <ele>255.4</ele>
      </trkpt>
      <trkpt lat="43.902324" lon="5.188084">
        <ele>255.8</ele>
      </trkpt>
      <trkpt lat="43.902388" lon="5.188299">
        <ele>256.8</ele>
      </trkpt>
      <trkpt lat="43.902572" lon="5.188637">
        <ele>259.9</ele>
      </trkpt>
      <trkpt lat="43.902806" lon="5.189130">
        <ele>260.4</ele>
      </trkpt>
      <trkpt lat="43.903072" lon="5.189734">
        <ele>263.2</ele>
      </trkpt>
      <trkpt lat="43.903163" lon="5.189970">
        <ele>264.6</ele>
      </trkpt>
      <trkpt lat="43.903366" lon="5.190198">
        <ele>268.9</ele>
      </trkpt>
      <trkpt lat="43.903420" lon="5.190396">
        <ele>269.8</ele>
      </trkpt>
      <trkpt lat="43.903494" lon="5.190724">
        <ele>270.4</ele>
      </trkpt>
      <trkpt lat="43.903644" lon="5.191043">
        <ele>274</ele>
      </trkpt>
      <trkpt lat="43.903917" lon="5.191571">
        <ele>276.7</ele>
      </trkpt>
      <trkpt lat="43.904027" lon="5.191794">
        <ele>279</ele>
      </trkpt>
      <trkpt lat="43.904155" lon="5.192116">
        <ele>279.1</ele>
      </trkpt>
      <trkpt lat="43.904585" lon="5.192869">
        <ele>284.4</ele>
      </trkpt>
      <trkpt lat="43.904713" lon="5.193081">
        <ele>285.2</ele>
      </trkpt>
      <trkpt lat="43.904904" lon="5.193717">
        <ele>288.9</ele>
      </trkpt>
      <trkpt lat="43.904984" lon="5.193966">
        <ele>290.1</ele>
      </trkpt>
      <trkpt lat="43.905078" lon="5.194087">
        <ele>292.4</ele>
      </trkpt>
      <trkpt lat="43.905206" lon="5.194613">
        <ele>296.8</ele>
      </trkpt>
      <trkpt lat="43.905270" lon="5.194857">
        <ele>297.6</ele>
      </trkpt>
      <trkpt lat="43.905333" lon="5.195007">
        <ele>300.9</ele>
      </trkpt>
      <trkpt lat="43.905521" lon="5.195232">
        <ele>301.9</ele>
      </trkpt>
      <trkpt lat="43.905666" lon="5.195380">
        <ele>302.6</ele>
      </trkpt>
      <trkpt lat="43.906041" lon="5.195814">
        <ele>307.1</ele>
      </trkpt>
      <trkpt lat="43.906302" lon="5.196230">
        <ele>312.1</ele>
      </trkpt>
      <trkpt lat="43.906588" lon="5.196831">
        <ele>316.4</ele>
      </trkpt>
      <trkpt lat="43.906877" lon="5.197150">
        <ele>320.2</ele>
      </trkpt>
      <trkpt lat="43.907100" lon="5.197327">
        <ele>321</ele>
      </trkpt>
      <trkpt lat="43.907592" lon="5.197807">
        <ele>318.5</ele>
      </trkpt>
      <trkpt lat="43.907718" lon="5.197890">
        <ele>317.4</ele>
      </trkpt>
      <trkpt lat="43.908151" lon="5.197780">
        <ele>318.3</ele>
      </trkpt>
      <trkpt lat="43.908137" lon="5.197571">
        <ele>320.9</ele>
      </trkpt>
      <trkpt lat="43.908124" lon="5.197324">
        <ele>325</ele>
      </trkpt>
      <trkpt lat="43.908249" lon="5.196799">
        <ele>324.8</ele>
      </trkpt>
      <trkpt lat="43.908290" lon="5.196691">
        <ele>324.9</ele>
      </trkpt>
      <trkpt lat="43.908315" lon="5.196587">
        <ele>324.2</ele>
      </trkpt>
      <trkpt lat="43.908331" lon="5.196533">
        <ele>323.8</ele>
      </trkpt>
      <trkpt lat="43.908429" lon="5.196273">
        <ele>324.9</ele>
      </trkpt>
      <trkpt lat="43.908495" lon="5.196176">
        <ele>324.7</ele>
      </trkpt>
      <trkpt lat="43.908769" lon="5.196007">
        <ele>325.2</ele>
      </trkpt>
      <trkpt lat="43.909005" lon="5.195793">
        <ele>323.7</ele>
      </trkpt>
      <trkpt lat="43.909229" lon="5.195501">
        <ele>326.2</ele>
      </trkpt>
      <trkpt lat="43.909343" lon="5.195358">
        <ele>326</ele>
      </trkpt>
      <trkpt lat="43.909455" lon="5.195157">
        <ele>325.8</ele>
      </trkpt>
      <trkpt lat="43.909575" lon="5.195015">
        <ele>326.2</ele>
      </trkpt>
      <trkpt lat="43.909722" lon="5.194696">
        <ele>324.5</ele>
      </trkpt>
      <trkpt lat="43.909790" lon="5.194353">
        <ele>324.4</ele>
      </trkpt>
      <trkpt lat="43.909942" lon="5.193974">
        <ele>324</ele>
      </trkpt>
      <trkpt lat="43.910029" lon="5.193594">
        <ele>327.4</ele>
      </trkpt>
      <trkpt lat="43.910170" lon="5.193180">
        <ele>327.6</ele>
      </trkpt>
      <trkpt lat="43.910275" lon="5.192915">
        <ele>328.5</ele>
      </trkpt>
      <trkpt lat="43.910381" lon="5.192620">
        <ele>329.1</ele>
      </trkpt>
      <trkpt lat="43.910429" lon="5.192488">
        <ele>328.5</ele>
      </trkpt>
      <trkpt lat="43.910414" lon="5.192226">
        <ele>328</ele>
      </trkpt>
      <trkpt lat="43.910410" lon="5.192041">
        <ele>327.6</ele>
      </trkpt>
      <trkpt lat="43.910468" lon="5.191756">
        <ele>327.4</ele>
      </trkpt>
      <trkpt lat="43.910588" lon="5.191343">
        <ele>325.2</ele>
      </trkpt>
      <trkpt lat="43.910648" lon="5.191174">
        <ele>324.8</ele>
      </trkpt>
      <trkpt lat="43.910744" lon="5.190906">
        <ele>324.2</ele>
      </trkpt>
      <trkpt lat="43.910837" lon="5.190793">
        <ele>323.4</ele>
      </trkpt>
      <trkpt lat="43.911018" lon="5.190458">
        <ele>320.4</ele>
      </trkpt>
      <trkpt lat="43.911139" lon="5.190343">
        <ele>319.9</ele>
      </trkpt>
      <trkpt lat="43.911158" lon="5.190289">
        <ele>319.7</ele>
      </trkpt>
      <trkpt lat="43.911136" lon="5.190235">
        <ele>319.4</ele>
      </trkpt>
      <trkpt lat="43.911092" lon="5.190219">
        <ele>319.1</ele>
      </trkpt>
      <trkpt lat="43.911000" lon="5.190074">
        <ele>317.5</ele>
      </trkpt>
      <trkpt lat="43.910992" lon="5.189908">
        <ele>316.7</ele>
      </trkpt>
      <trkpt lat="43.910926" lon="5.189710">
        <ele>317.4</ele>
      </trkpt>
      <trkpt lat="43.910876" lon="5.189511">
        <ele>317.8</ele>
      </trkpt>
      <trkpt lat="43.910799" lon="5.189275">
        <ele>315</ele>
      </trkpt>
      <trkpt lat="43.910775" lon="5.189211">
        <ele>315.2</ele>
      </trkpt>
      <trkpt lat="43.910520" lon="5.188948">
        <ele>314.3</ele>
      </trkpt>
      <trkpt lat="43.910308" lon="5.188701">
        <ele>313.9</ele>
      </trkpt>
      <trkpt lat="43.910218" lon="5.188621">
        <ele>313.8</ele>
      </trkpt>
      <trkpt lat="43.910122" lon="5.188610">
        <ele>313.5</ele>
      </trkpt>
      <trkpt lat="43.909917" lon="5.188602">
        <ele>308.5</ele>
      </trkpt>
      <trkpt lat="43.909757" lon="5.188677">
        <ele>307.3</ele>
      </trkpt>
      <trkpt lat="43.909616" lon="5.188688">
        <ele>306.5</ele>
      </trkpt>
      <trkpt lat="43.909401" lon="5.188637">
        <ele>305.3</ele>
      </trkpt>
      <trkpt lat="43.909177" lon="5.188272">
        <ele>302.9</ele>
      </trkpt>
      <trkpt lat="43.908906" lon="5.187915">
        <ele>299.5</ele>
      </trkpt>
      <trkpt lat="43.908760" lon="5.187717">
        <ele>299.1</ele>
      </trkpt>
      <trkpt lat="43.908684" lon="5.187575">
        <ele>298.7</ele>
      </trkpt>
      <trkpt lat="43.908431" lon="5.187451">
        <ele>297.6</ele>
      </trkpt>
      <trkpt lat="43.908476" lon="5.187204">
        <ele>300</ele>
      </trkpt>
      <trkpt lat="43.908545" lon="5.186963">
        <ele>301</ele>
      </trkpt>
      <trkpt lat="43.908495" lon="5.186856">
        <ele>300.7</ele>
      </trkpt>
      <trkpt lat="43.908144" lon="5.186437">
        <ele>295</ele>
      </trkpt>
      <trkpt lat="43.907936" lon="5.186201">
        <ele>293.4</ele>
      </trkpt>
      <trkpt lat="43.907776" lon="5.186073">
        <ele>292.4</ele>
      </trkpt>
      <trkpt lat="43.907668" lon="5.185917">
        <ele>291.3</ele>
      </trkpt>
      <trkpt lat="43.907648" lon="5.185863">
        <ele>291</ele>
      </trkpt>
      <trkpt lat="43.907500" lon="5.185662">
        <ele>287.3</ele>
      </trkpt>
      <trkpt lat="43.907277" lon="5.185423">
        <ele>285.9</ele>
      </trkpt>
      <trkpt lat="43.907219" lon="5.185391">
        <ele>285.6</ele>
      </trkpt>
      <trkpt lat="43.907136" lon="5.185410">
        <ele>285.2</ele>
      </trkpt>
      <trkpt lat="43.907102" lon="5.185399">
        <ele>285.1</ele>
      </trkpt>
      <trkpt lat="43.907061" lon="5.185327">
        <ele>284.8</ele>
      </trkpt>
      <trkpt lat="43.906862" lon="5.185147">
        <ele>282.9</ele>
      </trkpt>
      <trkpt lat="43.906806" lon="5.185067">
        <ele>281.9</ele>
      </trkpt>
      <trkpt lat="43.906789" lon="5.185018">
        <ele>281.4</ele>
      </trkpt>
      <trkpt lat="43.906750" lon="5.184989">
        <ele>280.5</ele>
      </trkpt>
      <trkpt lat="43.906632" lon="5.184951">
        <ele>278.4</ele>
      </trkpt>
      <trkpt lat="43.906491" lon="5.184764">
        <ele>277.1</ele>
      </trkpt>
      <trkpt lat="43.906174" lon="5.184450">
        <ele>275.5</ele>
      </trkpt>
      <trkpt lat="43.906118" lon="5.184345">
        <ele>275</ele>
      </trkpt>
      <trkpt lat="43.905851" lon="5.183846">
        <ele>273.7</ele>
      </trkpt>
      <trkpt lat="43.906083" lon="5.183680">
        <ele>274.6</ele>
      </trkpt>
      <trkpt lat="43.906127" lon="5.183608">
        <ele>274.8</ele>
      </trkpt>
      <trkpt lat="43.906152" lon="5.183519">
        <ele>274.8</ele>
      </trkpt>
      <trkpt lat="43.906114" lon="5.183356">
        <ele>274.4</ele>
      </trkpt>
      <trkpt lat="43.906100" lon="5.183110">
        <ele>273.4</ele>
      </trkpt>
      <trkpt lat="43.906300" lon="5.182340">
        <ele>272.1</ele>
      </trkpt>
      <trkpt lat="43.906450" lon="5.182146">
        <ele>272.5</ele>
      </trkpt>
      <trkpt lat="43.906660" lon="5.181950">
        <ele>272.5</ele>
      </trkpt>
      <trkpt lat="43.906890" lon="5.181820">
        <ele>276.8</ele>
      </trkpt>
      <trkpt lat="43.906894" lon="5.181615">
        <ele>276.5</ele>
      </trkpt>
      <trkpt lat="43.906871" lon="5.181384">
        <ele>277.4</ele>
      </trkpt>
      <trkpt lat="43.906670" lon="5.181336">
        <ele>277.2</ele>
      </trkpt>
      <trkpt lat="43.906473" lon="5.181196">
        <ele>274</ele>
      </trkpt>
      <trkpt lat="43.906427" lon="5.181094">
        <ele>274.3</ele>
      </trkpt>
      <trkpt lat="43.906369" lon="5.180933">
        <ele>274.6</ele>
      </trkpt>
      <trkpt lat="43.906400" lon="5.180720">
        <ele>276.7</ele>
      </trkpt>
      <trkpt lat="43.906554" lon="5.180612">
        <ele>277.3</ele>
      </trkpt>
      <trkpt lat="43.906540" lon="5.180480">
        <ele>277.2</ele>
      </trkpt>
      <trkpt lat="43.906340" lon="5.180010">
        <ele>276.9</ele>
      </trkpt>
      <trkpt lat="43.906284" lon="5.179764">
        <ele>275.9</ele>
      </trkpt>
      <trkpt lat="43.906674" lon="5.179614">
        <ele>283.1</ele>
      </trkpt>
      <trkpt lat="43.906879" lon="5.179448">
        <ele>283.6</ele>
      </trkpt>
      <trkpt lat="43.906875" lon="5.179029">
        <ele>282.6</ele>
      </trkpt>
      <trkpt lat="43.906844" lon="5.178820">
        <ele>283</ele>
      </trkpt>
      <trkpt lat="43.906879" lon="5.178600">
        <ele>283</ele>
      </trkpt>
      <trkpt lat="43.906780" lon="5.177660">
        <ele>279.3</ele>
      </trkpt>
      <trkpt lat="43.906790" lon="5.177520">
        <ele>278.4</ele>
      </trkpt>
      <trkpt lat="43.906933" lon="5.177366">
        <ele>271.2</ele>
      </trkpt>
      <trkpt lat="43.907014" lon="5.177221">
        <ele>269.6</ele>
      </trkpt>
      <trkpt lat="43.907323" lon="5.177280">
        <ele>272.9</ele>
      </trkpt>
      <trkpt lat="43.907374" lon="5.177372">
        <ele>275.8</ele>
      </trkpt>
      <trkpt lat="43.907648" lon="5.177441">
        <ele>278.1</ele>
      </trkpt>
      <trkpt lat="43.907800" lon="5.177530">
        <ele>286.8</ele>
      </trkpt>
      <trkpt lat="43.908000" lon="5.177480">
        <ele>275.9</ele>
      </trkpt>
      <trkpt lat="43.908240" lon="5.177520">
        <ele>285.5</ele>
      </trkpt>
      <trkpt lat="43.908650" lon="5.177650">
        <ele>286.5</ele>
      </trkpt>
      <trkpt lat="43.909050" lon="5.177690">
        <ele>283</ele>
      </trkpt>
      <trkpt lat="43.909510" lon="5.177680">
        <ele>285.3</ele>
      </trkpt>
      <trkpt lat="43.909680" lon="5.177620">
        <ele>285.1</ele>
      </trkpt>
      <trkpt lat="43.909560" lon="5.177620">
        <ele>284.9</ele>
      </trkpt>
      <trkpt lat="43.909440" lon="5.177580">
        <ele>283.3</ele>
      </trkpt>
      <trkpt lat="43.909440" lon="5.177540">
        <ele>282.9</ele>
      </trkpt>
      <trkpt lat="43.909610" lon="5.177500">
        <ele>284.1</ele>
      </trkpt>
      <trkpt lat="43.909950" lon="5.177290">
        <ele>270.2</ele>
      </trkpt>
      <trkpt lat="43.910170" lon="5.177080">
        <ele>273.8</ele>
      </trkpt>
      <trkpt lat="43.910310" lon="5.176890">
        <ele>272.4</ele>
      </trkpt>
      <trkpt lat="43.910300" lon="5.176790">
        <ele>270.9</ele>
      </trkpt>
      <trkpt lat="43.910270" lon="5.176710">
        <ele>269.5</ele>
      </trkpt>
      <trkpt lat="43.910400" lon="5.176580">
        <ele>264.8</ele>
      </trkpt>
      <trkpt lat="43.910560" lon="5.176460">
        <ele>266.3</ele>
      </trkpt>
      <trkpt lat="43.910680" lon="5.176350">
        <ele>266.4</ele>
      </trkpt>
      <trkpt lat="43.910850" lon="5.176210">
        <ele>270.1</ele>
      </trkpt>
      <trkpt lat="43.910972" lon="5.176103">
        <ele>269</ele>
      </trkpt>
      <trkpt lat="43.911034" lon="5.175977">
        <ele>267.7</ele>
      </trkpt>
      <trkpt lat="43.911170" lon="5.175970">
        <ele>269</ele>
      </trkpt>
      <trkpt lat="43.911310" lon="5.175910">
        <ele>269</ele>
      </trkpt>
      <trkpt lat="43.911390" lon="5.175920">
        <ele>268.9</ele>
      </trkpt>
      <trkpt lat="43.911520" lon="5.175820">
        <ele>265.9</ele>
      </trkpt>
      <trkpt lat="43.911570" lon="5.175760">
        <ele>265.7</ele>
      </trkpt>
      <trkpt lat="43.911890" lon="5.175690">
        <ele>267.9</ele>
      </trkpt>
      <trkpt lat="43.912090" lon="5.175680">
        <ele>269</ele>
      </trkpt>
      <trkpt lat="43.912250" lon="5.175780">
        <ele>268.5</ele>
      </trkpt>
      <trkpt lat="43.912490" lon="5.175810">
        <ele>266.5</ele>
      </trkpt>
      <trkpt lat="43.912540" lon="5.175770">
        <ele>268.7</ele>
      </trkpt>
      <trkpt lat="43.912540" lon="5.175700">
        <ele>270.5</ele>
      </trkpt>
      <trkpt lat="43.912590" lon="5.175670">
        <ele>271.5</ele>
      </trkpt>
      <trkpt lat="43.912650" lon="5.175660">
        <ele>272.3</ele>
      </trkpt>
      <trkpt lat="43.912740" lon="5.175670">
        <ele>273.2</ele>
      </trkpt>
      <trkpt lat="43.912850" lon="5.175690">
        <ele>273.9</ele>
      </trkpt>
      <trkpt lat="43.912920" lon="5.175770">
        <ele>273.9</ele>
      </trkpt>
      <trkpt lat="43.912930" lon="5.175870">
        <ele>274.6</ele>
      </trkpt>
      <trkpt lat="43.913030" lon="5.175910">
        <ele>274.7</ele>
      </trkpt>
      <trkpt lat="43.913250" lon="5.176030">
        <ele>274.7</ele>
      </trkpt>
      <trkpt lat="43.913310" lon="5.176070">
        <ele>275</ele>
      </trkpt>
      <trkpt lat="43.913340" lon="5.176160">
        <ele>274.5</ele>
      </trkpt>
      <trkpt lat="43.913360" lon="5.176190">
        <ele>274.7</ele>
      </trkpt>
      <trkpt lat="43.913440" lon="5.176220">
        <ele>274.9</ele>
      </trkpt>
      <trkpt lat="43.913520" lon="5.176280">
        <ele>275.1</ele>
      </trkpt>
      <trkpt lat="43.913570" lon="5.176300">
        <ele>275.1</ele>
      </trkpt>
      <trkpt lat="43.913670" lon="5.176330">
        <ele>275</ele>
      </trkpt>
      <trkpt lat="43.913800" lon="5.176470">
        <ele>274.5</ele>
      </trkpt>
      <trkpt lat="43.913880" lon="5.176540">
        <ele>273.8</ele>
      </trkpt>
      <trkpt lat="43.913990" lon="5.176610">
        <ele>272.5</ele>
      </trkpt>
      <trkpt lat="43.914380" lon="5.176750">
        <ele>273.3</ele>
      </trkpt>
      <trkpt lat="43.914470" lon="5.176960">
        <ele>275.4</ele>
      </trkpt>
      <trkpt lat="43.914650" lon="5.176990">
        <ele>275.3</ele>
      </trkpt>
      <trkpt lat="43.914730" lon="5.176830">
        <ele>274</ele>
      </trkpt>
      <trkpt lat="43.914900" lon="5.176690">
        <ele>271.8</ele>
      </trkpt>
      <trkpt lat="43.915020" lon="5.176600">
        <ele>271.7</ele>
      </trkpt>
      <trkpt lat="43.915160" lon="5.176480">
        <ele>274.3</ele>
      </trkpt>
      <trkpt lat="43.915290" lon="5.176470">
        <ele>275</ele>
      </trkpt>
      <trkpt lat="43.915550" lon="5.176350">
        <ele>276.2</ele>
      </trkpt>
      <trkpt lat="43.915760" lon="5.176340">
        <ele>276.4</ele>
      </trkpt>
      <trkpt lat="43.915990" lon="5.176380">
        <ele>280.5</ele>
      </trkpt>
      <trkpt lat="43.916320" lon="5.176520">
        <ele>281.7</ele>
      </trkpt>
      <trkpt lat="43.916520" lon="5.176550">
        <ele>282</ele>
      </trkpt>
      <trkpt lat="43.916680" lon="5.176440">
        <ele>287</ele>
      </trkpt>
      <trkpt lat="43.917060" lon="5.176250">
        <ele>290.4</ele>
      </trkpt>
      <trkpt lat="43.917270" lon="5.176130">
        <ele>291.1</ele>
      </trkpt>
      <trkpt lat="43.917450" lon="5.176210">
        <ele>291.3</ele>
      </trkpt>
      <trkpt lat="43.917590" lon="5.176290">
        <ele>300.3</ele>
      </trkpt>
      <trkpt lat="43.917760" lon="5.176190">
        <ele>301.5</ele>
      </trkpt>
      <trkpt lat="43.917790" lon="5.175970">
        <ele>300.5</ele>
      </trkpt>
      <trkpt lat="43.917750" lon="5.175740">
        <ele>298.3</ele>
      </trkpt>
      <trkpt lat="43.917800" lon="5.175400">
        <ele>300.7</ele>
      </trkpt>
      <trkpt lat="43.917950" lon="5.175120">
        <ele>301.4</ele>
      </trkpt>
      <trkpt lat="43.918060" lon="5.174990">
        <ele>304.7</ele>
      </trkpt>
      <trkpt lat="43.918170" lon="5.174930">
        <ele>303.5</ele>
      </trkpt>
      <trkpt lat="43.918220" lon="5.174790">
        <ele>304.5</ele>
      </trkpt>
      <trkpt lat="43.918109" lon="5.174748">
        <ele>305.8</ele>
      </trkpt>
      <trkpt lat="43.917966" lon="5.174523">
        <ele>308.2</ele>
      </trkpt>
      <trkpt lat="43.917870" lon="5.174008">
        <ele>318.5</ele>
      </trkpt>
      <trkpt lat="43.917890" lon="5.173863">
        <ele>319.3</ele>
      </trkpt>
      <trkpt lat="43.917925" lon="5.173622">
        <ele>320.9</ele>
      </trkpt>
      <trkpt lat="43.917925" lon="5.173348">
        <ele>322.4</ele>
      </trkpt>
      <trkpt lat="43.917952" lon="5.173042">
        <ele>329.7</ele>
      </trkpt>
      <trkpt lat="43.917909" lon="5.172672">
        <ele>331.3</ele>
      </trkpt>
      <trkpt lat="43.917882" lon="5.172415">
        <ele>336.9</ele>
      </trkpt>
      <trkpt lat="43.917855" lon="5.172302">
        <ele>337.4</ele>
      </trkpt>
      <trkpt lat="43.917778" lon="5.172265">
        <ele>337.5</ele>
      </trkpt>
      <trkpt lat="43.917731" lon="5.172393">
        <ele>336.5</ele>
      </trkpt>
      <trkpt lat="43.917720" lon="5.172790">
        <ele>330.9</ele>
      </trkpt>
      <trkpt lat="43.917658" lon="5.173037">
        <ele>329.8</ele>
      </trkpt>
      <trkpt lat="43.917619" lon="5.173225">
        <ele>329</ele>
      </trkpt>
      <trkpt lat="43.917523" lon="5.173477">
        <ele>324.6</ele>
      </trkpt>
      <trkpt lat="43.917445" lon="5.173654">
        <ele>329.4</ele>
      </trkpt>
      <trkpt lat="43.917349" lon="5.173992">
        <ele>326</ele>
      </trkpt>
      <trkpt lat="43.917074" lon="5.174046">
        <ele>329.4</ele>
      </trkpt>
      <trkpt lat="43.916816" lon="5.174062">
        <ele>331</ele>
      </trkpt>
      <trkpt lat="43.916572" lon="5.173906">
        <ele>336.7</ele>
      </trkpt>
      <trkpt lat="43.916317" lon="5.173906">
        <ele>337</ele>
      </trkpt>
      <trkpt lat="43.916081" lon="5.173874">
        <ele>336.6</ele>
      </trkpt>
      <trkpt lat="43.915985" lon="5.173831">
        <ele>337</ele>
      </trkpt>
      <trkpt lat="43.915683" lon="5.173702">
        <ele>339</ele>
      </trkpt>
      <trkpt lat="43.915274" lon="5.173568">
        <ele>340.9</ele>
      </trkpt>
      <trkpt lat="43.915034" lon="5.173638">
        <ele>340.6</ele>
      </trkpt>
      <trkpt lat="43.914829" lon="5.173793">
        <ele>340</ele>
      </trkpt>
      <trkpt lat="43.914574" lon="5.173911">
        <ele>339.4</ele>
      </trkpt>
      <trkpt lat="43.914346" lon="5.173869">
        <ele>340</ele>
      </trkpt>
      <trkpt lat="43.913724" lon="5.173284">
        <ele>351.3</ele>
      </trkpt>
      <trkpt lat="43.913593" lon="5.173230">
        <ele>349.9</ele>
      </trkpt>
      <trkpt lat="43.913403" lon="5.173252">
        <ele>346.6</ele>
      </trkpt>
      <trkpt lat="43.913160" lon="5.173241">
        <ele>342.9</ele>
      </trkpt>
      <trkpt lat="43.913063" lon="5.173284">
        <ele>342.4</ele>
      </trkpt>
      <trkpt lat="43.912986" lon="5.173278">
        <ele>342</ele>
      </trkpt>
      <trkpt lat="43.912905" lon="5.173257">
        <ele>341.5</ele>
      </trkpt>
      <trkpt lat="43.912847" lon="5.173155">
        <ele>341.5</ele>
      </trkpt>
      <trkpt lat="43.912800" lon="5.173010">
        <ele>341.9</ele>
      </trkpt>
      <trkpt lat="43.912773" lon="5.172914">
        <ele>342.3</ele>
      </trkpt>
      <trkpt lat="43.912708" lon="5.172849">
        <ele>342.3</ele>
      </trkpt>
      <trkpt lat="43.912623" lon="5.172855">
        <ele>341.9</ele>
      </trkpt>
      <trkpt lat="43.912572" lon="5.172790">
        <ele>342.1</ele>
      </trkpt>
      <trkpt lat="43.912603" lon="5.172281">
        <ele>345</ele>
      </trkpt>
      <trkpt lat="43.912603" lon="5.172120">
        <ele>345.4</ele>
      </trkpt>
      <trkpt lat="43.912696" lon="5.171138">
        <ele>345.2</ele>
      </trkpt>
      <trkpt lat="43.912713" lon="5.169944">
        <ele>342.9</ele>
      </trkpt>
      <trkpt lat="43.912713" lon="5.169909">
        <ele>343</ele>
      </trkpt>
      <trkpt lat="43.912715" lon="5.169786">
        <ele>343.4</ele>
      </trkpt>
      <trkpt lat="43.912704" lon="5.169556">
        <ele>343.8</ele>
      </trkpt>
      <trkpt lat="43.912623" lon="5.169674">
        <ele>343.2</ele>
      </trkpt>
      <trkpt lat="43.912232" lon="5.170183">
        <ele>335.7</ele>
      </trkpt>
      <trkpt lat="43.912140" lon="5.170312">
        <ele>335.1</ele>
      </trkpt>
      <trkpt lat="43.911819" lon="5.170628">
        <ele>333</ele>
      </trkpt>
      <trkpt lat="43.911660" lon="5.170800">
        <ele>329.3</ele>
      </trkpt>
      <trkpt lat="43.911483" lon="5.171009">
        <ele>326.9</ele>
      </trkpt>
      <trkpt lat="43.911193" lon="5.171272">
        <ele>324.9</ele>
      </trkpt>
      <trkpt lat="43.911046" lon="5.171385">
        <ele>324.1</ele>
      </trkpt>
      <trkpt lat="43.910930" lon="5.171417">
        <ele>323.5</ele>
      </trkpt>
      <trkpt lat="43.910868" lon="5.171406">
        <ele>323.3</ele>
      </trkpt>
      <trkpt lat="43.910854" lon="5.171320">
        <ele>323.5</ele>
      </trkpt>
      <trkpt lat="43.910858" lon="5.171186">
        <ele>323.4</ele>
      </trkpt>
      <trkpt lat="43.910868" lon="5.171071">
        <ele>322.9</ele>
      </trkpt>
      <trkpt lat="43.910825" lon="5.170974">
        <ele>318.7</ele>
      </trkpt>
      <trkpt lat="43.910775" lon="5.170873">
        <ele>319.2</ele>
      </trkpt>
      <trkpt lat="43.910742" lon="5.170792">
        <ele>318.5</ele>
      </trkpt>
      <trkpt lat="43.910657" lon="5.170690">
        <ele>317.3</ele>
      </trkpt>
      <trkpt lat="43.910537" lon="5.170521">
        <ele>316.2</ele>
      </trkpt>
      <trkpt lat="43.910504" lon="5.170457">
        <ele>316</ele>
      </trkpt>
      <trkpt lat="43.910433" lon="5.170387">
        <ele>315.5</ele>
      </trkpt>
      <trkpt lat="43.910331" lon="5.170272">
        <ele>314.8</ele>
      </trkpt>
      <trkpt lat="43.910275" lon="5.170159">
        <ele>314.2</ele>
      </trkpt>
      <trkpt lat="43.910228" lon="5.170003">
        <ele>313.4</ele>
      </trkpt>
      <trkpt lat="43.910220" lon="5.169802">
        <ele>311.2</ele>
      </trkpt>
      <trkpt lat="43.910205" lon="5.169692">
        <ele>310.8</ele>
      </trkpt>
      <trkpt lat="43.910213" lon="5.169547">
        <ele>310.2</ele>
      </trkpt>
      <trkpt lat="43.910164" lon="5.169419">
        <ele>308.9</ele>
      </trkpt>
      <trkpt lat="43.910195" lon="5.168389">
        <ele>302</ele>
      </trkpt>
      <trkpt lat="43.910149" lon="5.168290">
        <ele>300</ele>
      </trkpt>
      <trkpt lat="43.910041" lon="5.168204">
        <ele>299.4</ele>
      </trkpt>
      <trkpt lat="43.909794" lon="5.168150">
        <ele>292.2</ele>
      </trkpt>
      <trkpt lat="43.909236" lon="5.167027">
        <ele>290.9</ele>
      </trkpt>
      <trkpt lat="43.909222" lon="5.166999">
        <ele>290.8</ele>
      </trkpt>
      <trkpt lat="43.909133" lon="5.166820">
        <ele>285.3</ele>
      </trkpt>
      <trkpt lat="43.909098" lon="5.166557">
        <ele>287</ele>
      </trkpt>
      <trkpt lat="43.909071" lon="5.166423">
        <ele>286.6</ele>
      </trkpt>
      <trkpt lat="43.909013" lon="5.166315">
        <ele>286.4</ele>
      </trkpt>
      <trkpt lat="43.908955" lon="5.166192">
        <ele>286.5</ele>
      </trkpt>
      <trkpt lat="43.908897" lon="5.165935">
        <ele>287.2</ele>
      </trkpt>
      <trkpt lat="43.908816" lon="5.165843">
        <ele>286.5</ele>
      </trkpt>
      <trkpt lat="43.908402" lon="5.165500">
        <ele>287.2</ele>
      </trkpt>
      <trkpt lat="43.908302" lon="5.165527">
        <ele>280.6</ele>
      </trkpt>
      <trkpt lat="43.907896" lon="5.165653">
        <ele>278.6</ele>
      </trkpt>
      <trkpt lat="43.907772" lon="5.165693">
        <ele>277.7</ele>
      </trkpt>
      <trkpt lat="43.907670" lon="5.165693">
        <ele>276.9</ele>
      </trkpt>
      <trkpt lat="43.906988" lon="5.165658">
        <ele>269.2</ele>
      </trkpt>
      <trkpt lat="43.906758" lon="5.165618">
        <ele>268.1</ele>
      </trkpt>
      <trkpt lat="43.906560" lon="5.165728">
        <ele>264.1</ele>
      </trkpt>
      <trkpt lat="43.906354" lon="5.165752">
        <ele>262.7</ele>
      </trkpt>
      <trkpt lat="43.906160" lon="5.165924">
        <ele>262</ele>
      </trkpt>
      <trkpt lat="43.905958" lon="5.165902">
        <ele>260.5</ele>
      </trkpt>
      <trkpt lat="43.905747" lon="5.165913">
        <ele>257.2</ele>
      </trkpt>
      <trkpt lat="43.905681" lon="5.165876">
        <ele>256.6</ele>
      </trkpt>
      <trkpt lat="43.905619" lon="5.165752">
        <ele>255.6</ele>
      </trkpt>
      <trkpt lat="43.905252" lon="5.165438">
        <ele>252.7</ele>
      </trkpt>
      <trkpt lat="43.904640" lon="5.165489">
        <ele>244.9</ele>
      </trkpt>
      <trkpt lat="43.903961" lon="5.165524">
        <ele>238.7</ele>
      </trkpt>
      <trkpt lat="43.903679" lon="5.165473">
        <ele>237.9</ele>
      </trkpt>
      <trkpt lat="43.902755" lon="5.165245">
        <ele>234.7</ele>
      </trkpt>
      <trkpt lat="43.902597" lon="5.165221">
        <ele>234.5</ele>
      </trkpt>
      <trkpt lat="43.902684" lon="5.164803">
        <ele>234.4</ele>
      </trkpt>
      <trkpt lat="43.902782" lon="5.164065">
        <ele>236.3</ele>
      </trkpt>
      <trkpt lat="43.902873" lon="5.163622">
        <ele>238.1</ele>
      </trkpt>
      <trkpt lat="43.903020" lon="5.162485">
        <ele>245.4</ele>
      </trkpt>
      <trkpt lat="43.903049" lon="5.162096">
        <ele>246</ele>
      </trkpt>
      <trkpt lat="43.903053" lon="5.161935">
        <ele>246.5</ele>
      </trkpt>
      <trkpt lat="43.903111" lon="5.161809">
        <ele>247.4</ele>
      </trkpt>
      <trkpt lat="43.903213" lon="5.161410">
        <ele>251.2</ele>
      </trkpt>
      <trkpt lat="43.903289" lon="5.161045">
        <ele>253.9</ele>
      </trkpt>
      <trkpt lat="43.902573" lon="5.160033">
        <ele>255.6</ele>
      </trkpt>
      <trkpt lat="43.902570" lon="5.160028">
        <ele>255.6</ele>
      </trkpt>
      <trkpt lat="43.902153" lon="5.159277">
        <ele>255.6</ele>
      </trkpt>
      <trkpt lat="43.902029" lon="5.159111">
        <ele>258.1</ele>
      </trkpt>
      <trkpt lat="43.901909" lon="5.158827">
        <ele>258.2</ele>
      </trkpt>
      <trkpt lat="43.901844" lon="5.158660">
        <ele>258.5</ele>
      </trkpt>
      <trkpt lat="43.901759" lon="5.158467">
        <ele>258.5</ele>
      </trkpt>
      <trkpt lat="43.901627" lon="5.158365">
        <ele>256.6</ele>
      </trkpt>
      <trkpt lat="43.901608" lon="5.158253">
        <ele>256.8</ele>
      </trkpt>
      <trkpt lat="43.901612" lon="5.158060">
        <ele>256</ele>
      </trkpt>
      <trkpt lat="43.901581" lon="5.157915">
        <ele>256</ele>
      </trkpt>
      <trkpt lat="43.901418" lon="5.157421">
        <ele>258.1</ele>
      </trkpt>
      <trkpt lat="43.901271" lon="5.157126">
        <ele>257.1</ele>
      </trkpt>
      <trkpt lat="43.901183" lon="5.156896">
        <ele>256.7</ele>
      </trkpt>
      <trkpt lat="43.901086" lon="5.156810">
        <ele>256</ele>
      </trkpt>
      <trkpt lat="43.900951" lon="5.156515">
        <ele>254.6</ele>
      </trkpt>
      <trkpt lat="43.900881" lon="5.156450">
        <ele>254.5</ele>
      </trkpt>
      <trkpt lat="43.900850" lon="5.156364">
        <ele>254.5</ele>
      </trkpt>
      <trkpt lat="43.900750" lon="5.156289">
        <ele>249.8</ele>
      </trkpt>
      <trkpt lat="43.900657" lon="5.156123">
        <ele>249.3</ele>
      </trkpt>
      <trkpt lat="43.900533" lon="5.156005">
        <ele>248.8</ele>
      </trkpt>
      <trkpt lat="43.900437" lon="5.155925">
        <ele>248.4</ele>
      </trkpt>
      <trkpt lat="43.900324" lon="5.155849">
        <ele>247.8</ele>
      </trkpt>
      <trkpt lat="43.900294" lon="5.155753">
        <ele>244.3</ele>
      </trkpt>
      <trkpt lat="43.900197" lon="5.155624">
        <ele>243.8</ele>
      </trkpt>
      <trkpt lat="43.900193" lon="5.155495">
        <ele>243.1</ele>
      </trkpt>
      <trkpt lat="43.900054" lon="5.155163">
        <ele>240.1</ele>
      </trkpt>
      <trkpt lat="43.899977" lon="5.154862">
        <ele>234.7</ele>
      </trkpt>
      <trkpt lat="43.899923" lon="5.154659">
        <ele>232.6</ele>
      </trkpt>
      <trkpt lat="43.899718" lon="5.153645">
        <ele>226</ele>
      </trkpt>
      <trkpt lat="43.899387" lon="5.153591">
        <ele>224.7</ele>
      </trkpt>
      <trkpt lat="43.899360" lon="5.153497">
        <ele>224.2</ele>
      </trkpt>
      <trkpt lat="43.899205" lon="5.153047">
        <ele>222.8</ele>
      </trkpt>
      <trkpt lat="43.898996" lon="5.152389">
        <ele>218.6</ele>
      </trkpt>
      <trkpt lat="43.898822" lon="5.151778">
        <ele>216.8</ele>
      </trkpt>
      <trkpt lat="43.898652" lon="5.150936">
        <ele>215.8</ele>
      </trkpt>
      <trkpt lat="43.898621" lon="5.150828">
        <ele>216.3</ele>
      </trkpt>
      <trkpt lat="43.898556" lon="5.150737">
        <ele>215.9</ele>
      </trkpt>
      <trkpt lat="43.898463" lon="5.150346">
        <ele>216.1</ele>
      </trkpt>
      <trkpt lat="43.898030" lon="5.148739">
        <ele>211.1</ele>
      </trkpt>
      <trkpt lat="43.897989" lon="5.148530">
        <ele>211.1</ele>
      </trkpt>
      <trkpt lat="43.897966" lon="5.148227">
        <ele>210.8</ele>
      </trkpt>
      <trkpt lat="43.897943" lon="5.147958">
        <ele>210.4</ele>
      </trkpt>
      <trkpt lat="43.897797" lon="5.147696">
        <ele>209.3</ele>
      </trkpt>
      <trkpt lat="43.897580" lon="5.147092">
        <ele>209.3</ele>
      </trkpt>
      <trkpt lat="43.897616" lon="5.147044">
        <ele>209.5</ele>
      </trkpt>
      <trkpt lat="43.897606" lon="5.146958">
        <ele>209.4</ele>
      </trkpt>
      <trkpt lat="43.897570" lon="5.146875">
        <ele>209.1</ele>
      </trkpt>
      <trkpt lat="43.897507" lon="5.146762">
        <ele>208.2</ele>
      </trkpt>
      <trkpt lat="43.897387" lon="5.146596">
        <ele>208</ele>
      </trkpt>
      <trkpt lat="43.896911" lon="5.146065">
        <ele>209.8</ele>
      </trkpt>
      <trkpt lat="43.896687" lon="5.145625">
        <ele>215.9</ele>
      </trkpt>
      <trkpt lat="43.896691" lon="5.145528">
        <ele>217.4</ele>
      </trkpt>
      <trkpt lat="43.896648" lon="5.144783">
        <ele>221.1</ele>
      </trkpt>
      <trkpt lat="43.896664" lon="5.144691">
        <ele>221.5</ele>
      </trkpt>
      <trkpt lat="43.896590" lon="5.144600">
        <ele>221.9</ele>
      </trkpt>
      <trkpt lat="43.896575" lon="5.144300">
        <ele>225.4</ele>
      </trkpt>
      <trkpt lat="43.896590" lon="5.143517">
        <ele>233.4</ele>
      </trkpt>
      <trkpt lat="43.896560" lon="5.143313">
        <ele>237.8</ele>
      </trkpt>
      <trkpt lat="43.896641" lon="5.143195">
        <ele>237.9</ele>
      </trkpt>
      <trkpt lat="43.896919" lon="5.143120">
        <ele>242.2</ele>
      </trkpt>
      <trkpt lat="43.896911" lon="5.142927">
        <ele>242.8</ele>
      </trkpt>
      <trkpt lat="43.896855" lon="5.142902">
        <ele>242.7</ele>
      </trkpt>
      <trkpt lat="43.896652" lon="5.142763">
        <ele>239.4</ele>
      </trkpt>
      <trkpt lat="43.896570" lon="5.142720">
        <ele>239.5</ele>
      </trkpt>
      <trkpt lat="43.896480" lon="5.142613">
        <ele>239.7</ele>
      </trkpt>
      <trkpt lat="43.896296" lon="5.142463">
        <ele>241.2</ele>
      </trkpt>
      <trkpt lat="43.896120" lon="5.142259">
        <ele>241</ele>
      </trkpt>
      <trkpt lat="43.896018" lon="5.142194">
        <ele>241</ele>
      </trkpt>
      <trkpt lat="43.895854" lon="5.142044">
        <ele>241</ele>
      </trkpt>
      <trkpt lat="43.895728" lon="5.141942">
        <ele>239</ele>
      </trkpt>
      <trkpt lat="43.895660" lon="5.141846">
        <ele>239.1</ele>
      </trkpt>
      <trkpt lat="43.895591" lon="5.141803">
        <ele>238.9</ele>
      </trkpt>
      <trkpt lat="43.895411" lon="5.141768">
        <ele>238.3</ele>
      </trkpt>
      <trkpt lat="43.895301" lon="5.141658">
        <ele>237.4</ele>
      </trkpt>
      <trkpt lat="43.894899" lon="5.141497">
        <ele>235.8</ele>
      </trkpt>
      <trkpt lat="43.894684" lon="5.141392">
        <ele>234.6</ele>
      </trkpt>
      <trkpt lat="43.894466" lon="5.141285">
        <ele>234</ele>
      </trkpt>
      <trkpt lat="43.894128" lon="5.141221">
        <ele>231.8</ele>
      </trkpt>
      <trkpt lat="43.894019" lon="5.141154">
        <ele>231.5</ele>
      </trkpt>
      <trkpt lat="43.893971" lon="5.141143">
        <ele>231.5</ele>
      </trkpt>
      <trkpt lat="43.893903" lon="5.141167">
        <ele>231.4</ele>
      </trkpt>
      <trkpt lat="43.893764" lon="5.141229">
        <ele>231.3</ele>
      </trkpt>
      <trkpt lat="43.893672" lon="5.141215">
        <ele>231.1</ele>
      </trkpt>
      <trkpt lat="43.893563" lon="5.141100">
        <ele>230.8</ele>
      </trkpt>
      <trkpt lat="43.893471" lon="5.141049">
        <ele>230.7</ele>
      </trkpt>
      <trkpt lat="43.893329" lon="5.140939">
        <ele>228.5</ele>
      </trkpt>
      <trkpt lat="43.893198" lon="5.140934">
        <ele>227.8</ele>
      </trkpt>
      <trkpt lat="43.893072" lon="5.140864">
        <ele>226.9</ele>
      </trkpt>
      <trkpt lat="43.892813" lon="5.140751">
        <ele>223.2</ele>
      </trkpt>
      <trkpt lat="43.892742" lon="5.140757">
        <ele>223.1</ele>
      </trkpt>
      <trkpt lat="43.892684" lon="5.140773">
        <ele>223.1</ele>
      </trkpt>
      <trkpt lat="43.892608" lon="5.140848">
        <ele>224.4</ele>
      </trkpt>
      <trkpt lat="43.892442" lon="5.140877">
        <ele>222.9</ele>
      </trkpt>
      <trkpt lat="43.892369" lon="5.140893">
        <ele>222.2</ele>
      </trkpt>
      <trkpt lat="43.892315" lon="5.140845">
        <ele>222</ele>
      </trkpt>
      <trkpt lat="43.892303" lon="5.140786">
        <ele>222.6</ele>
      </trkpt>
      <trkpt lat="43.892297" lon="5.140719">
        <ele>222.4</ele>
      </trkpt>
      <trkpt lat="43.892330" lon="5.140566">
        <ele>221.9</ele>
      </trkpt>
      <trkpt lat="43.892392" lon="5.140451">
        <ele>221.2</ele>
      </trkpt>
      <trkpt lat="43.892407" lon="5.140357">
        <ele>220.6</ele>
      </trkpt>
      <trkpt lat="43.892549" lon="5.140252">
        <ele>219.7</ele>
      </trkpt>
      <trkpt lat="43.892678" lon="5.140209">
        <ele>219.8</ele>
      </trkpt>
      <trkpt lat="43.892751" lon="5.140134">
        <ele>219.6</ele>
      </trkpt>
      <trkpt lat="43.892867" lon="5.140091">
        <ele>219.9</ele>
      </trkpt>
      <trkpt lat="43.893018" lon="5.139995">
        <ele>214.3</ele>
      </trkpt>
      <trkpt lat="43.893171" lon="5.139847">
        <ele>214.5</ele>
      </trkpt>
      <trkpt lat="43.893287" lon="5.139630">
        <ele>213.5</ele>
      </trkpt>
      <trkpt lat="43.893312" lon="5.139542">
        <ele>213</ele>
      </trkpt>
      <trkpt lat="43.893329" lon="5.139453">
        <ele>212.7</ele>
      </trkpt>
      <trkpt lat="43.893399" lon="5.139279">
        <ele>214.5</ele>
      </trkpt>
      <trkpt lat="43.893471" lon="5.139112">
        <ele>214.7</ele>
      </trkpt>
      <trkpt lat="43.893573" lon="5.138724">
        <ele>216.9</ele>
      </trkpt>
      <trkpt lat="43.893596" lon="5.138563">
        <ele>217</ele>
      </trkpt>
      <trkpt lat="43.893637" lon="5.138356">
        <ele>217.2</ele>
      </trkpt>
      <trkpt lat="43.893641" lon="5.138265">
        <ele>219.6</ele>
      </trkpt>
      <trkpt lat="43.893954" lon="5.137766">
        <ele>223.4</ele>
      </trkpt>
      <trkpt lat="43.894399" lon="5.137267">
        <ele>233.6</ele>
      </trkpt>
      <trkpt lat="43.894620" lon="5.136856">
        <ele>236.1</ele>
      </trkpt>
      <trkpt lat="43.894646" lon="5.136387">
        <ele>240.6</ele>
      </trkpt>
      <trkpt lat="43.894557" lon="5.135309">
        <ele>245.5</ele>
      </trkpt>
      <trkpt lat="43.894526" lon="5.134853">
        <ele>246.9</ele>
      </trkpt>
      <trkpt lat="43.894441" lon="5.134698">
        <ele>246.9</ele>
      </trkpt>
      <trkpt lat="43.894329" lon="5.134306">
        <ele>246.5</ele>
      </trkpt>
      <trkpt lat="43.894174" lon="5.134118">
        <ele>246.1</ele>
      </trkpt>
      <trkpt lat="43.893942" lon="5.133861">
        <ele>242.8</ele>
      </trkpt>
      <trkpt lat="43.893830" lon="5.133756">
        <ele>242.2</ele>
      </trkpt>
      <trkpt lat="43.893666" lon="5.133477">
        <ele>240.9</ele>
      </trkpt>
      <trkpt lat="43.893440" lon="5.133327">
        <ele>237.5</ele>
      </trkpt>
      <trkpt lat="43.893213" lon="5.133287">
        <ele>235.8</ele>
      </trkpt>
      <trkpt lat="43.892887" lon="5.133348">
        <ele>236.4</ele>
      </trkpt>
      <trkpt lat="43.892750" lon="5.133354">
        <ele>235.7</ele>
      </trkpt>
      <trkpt lat="43.892506" lon="5.133276">
        <ele>233.2</ele>
      </trkpt>
      <trkpt lat="43.892369" lon="5.133161">
        <ele>232.1</ele>
      </trkpt>
      <trkpt lat="43.892347" lon="5.133024">
        <ele>231.9</ele>
      </trkpt>
      <trkpt lat="43.892338" lon="5.132874">
        <ele>231.7</ele>
      </trkpt>
      <trkpt lat="43.892268" lon="5.132817">
        <ele>231.7</ele>
      </trkpt>
      <trkpt lat="43.892114" lon="5.132764">
        <ele>231.5</ele>
      </trkpt>
      <trkpt lat="43.892077" lon="5.132670">
        <ele>231.4</ele>
      </trkpt>
      <trkpt lat="43.892063" lon="5.132479">
        <ele>230.8</ele>
      </trkpt>
      <trkpt lat="43.891974" lon="5.132219">
        <ele>230.6</ele>
      </trkpt>
      <trkpt lat="43.891868" lon="5.131761">
        <ele>229.7</ele>
      </trkpt>
      <trkpt lat="43.891880" lon="5.131546">
        <ele>228.6</ele>
      </trkpt>
      <trkpt lat="43.891872" lon="5.131385">
        <ele>228.4</ele>
      </trkpt>
      <trkpt lat="43.891851" lon="5.131114">
        <ele>227.6</ele>
      </trkpt>
      <trkpt lat="43.891746" lon="5.131141">
        <ele>227.4</ele>
      </trkpt>
      <trkpt lat="43.891630" lon="5.131203">
        <ele>223.5</ele>
      </trkpt>
      <trkpt lat="43.891379" lon="5.131404">
        <ele>223.3</ele>
      </trkpt>
      <trkpt lat="43.891294" lon="5.131463">
        <ele>223</ele>
      </trkpt>
      <trkpt lat="43.891145" lon="5.131522">
        <ele>222.4</ele>
      </trkpt>
      <trkpt lat="43.890890" lon="5.131739">
        <ele>222.6</ele>
      </trkpt>
      <trkpt lat="43.890662" lon="5.131921">
        <ele>221.2</ele>
      </trkpt>
      <trkpt lat="43.890598" lon="5.131986">
        <ele>221.2</ele>
      </trkpt>
      <trkpt lat="43.890486" lon="5.132152">
        <ele>221.3</ele>
      </trkpt>
      <trkpt lat="43.890386" lon="5.132249">
        <ele>221.2</ele>
      </trkpt>
      <trkpt lat="43.890270" lon="5.132364">
        <ele>220.9</ele>
      </trkpt>
      <trkpt lat="43.890192" lon="5.132402">
        <ele>220.7</ele>
      </trkpt>
      <trkpt lat="43.890051" lon="5.132302">
        <ele>220.5</ele>
      </trkpt>
      <trkpt lat="43.890012" lon="5.132195">
        <ele>220.4</ele>
      </trkpt>
      <trkpt lat="43.889960" lon="5.132029">
        <ele>218.1</ele>
      </trkpt>
      <trkpt lat="43.889940" lon="5.131911">
        <ele>218</ele>
      </trkpt>
      <trkpt lat="43.889870" lon="5.131520">
        <ele>216</ele>
      </trkpt>
      <trkpt lat="43.889640" lon="5.131042">
        <ele>213.9</ele>
      </trkpt>
      <trkpt lat="43.888828" lon="5.130487">
        <ele>210.5</ele>
      </trkpt>
      <trkpt lat="43.888796" lon="5.130465">
        <ele>210.4</ele>
      </trkpt>
      <trkpt lat="43.888646" lon="5.130362">
        <ele>210.1</ele>
      </trkpt>
      <trkpt lat="43.888646" lon="5.130362">
        <ele>210.1</ele>
      </trkpt>
      <trkpt lat="43.888610" lon="5.130337">
        <ele>210</ele>
      </trkpt>
      <trkpt lat="43.888321" lon="5.130299">
        <ele>209.2</ele>
      </trkpt>
      <trkpt lat="43.887969" lon="5.130229">
        <ele>209.1</ele>
      </trkpt>
      <trkpt lat="43.887800" lon="5.130276">
        <ele>209.1</ele>
      </trkpt>
      <trkpt lat="43.887570" lon="5.130017">
        <ele>209</ele>
      </trkpt>
      <trkpt lat="43.887374" lon="5.130631">
        <ele>208</ele>
      </trkpt>
      <trkpt lat="43.887281" lon="5.131270">
        <ele>207.7</ele>
      </trkpt>
      <trkpt lat="43.887335" lon="5.131881">
        <ele>207.8</ele>
      </trkpt>
      <trkpt lat="43.887350" lon="5.132096">
        <ele>207.6</ele>
      </trkpt>
      <trkpt lat="43.887273" lon="5.132423">
        <ele>207.5</ele>
      </trkpt>
      <trkpt lat="43.887280" lon="5.132528">
        <ele>207.5</ele>
      </trkpt>
      <trkpt lat="43.887118" lon="5.132729">
        <ele>207.3</ele>
      </trkpt>
      <trkpt lat="43.886650" lon="5.133080">
        <ele>205.6</ele>
      </trkpt>
      <trkpt lat="43.886763" lon="5.133464">
        <ele>206</ele>
      </trkpt>
      <trkpt lat="43.886879" lon="5.133689">
        <ele>205.9</ele>
      </trkpt>
      <trkpt lat="43.887050" lon="5.133970">
        <ele>205.6</ele>
      </trkpt>
      <trkpt lat="43.886740" lon="5.134266">
        <ele>202.6</ele>
      </trkpt>
      <trkpt lat="43.886666" lon="5.134284">
        <ele>202.7</ele>
      </trkpt>
      <trkpt lat="43.886330" lon="5.134065">
        <ele>204.1</ele>
      </trkpt>
      <trkpt lat="43.886040" lon="5.133995">
        <ele>203.8</ele>
      </trkpt>
      <trkpt lat="43.885970" lon="5.134054">
        <ele>203.6</ele>
      </trkpt>
      <trkpt lat="43.885943" lon="5.134150">
        <ele>203.4</ele>
      </trkpt>
      <trkpt lat="43.885951" lon="5.134381">
        <ele>201.7</ele>
      </trkpt>
      <trkpt lat="43.885935" lon="5.134274">
        <ele>202.1</ele>
      </trkpt>
      <trkpt lat="43.885950" lon="5.134588">
        <ele>201</ele>
      </trkpt>
      <trkpt lat="43.885890" lon="5.134668">
        <ele>200.8</ele>
      </trkpt>
      <trkpt lat="43.885850" lon="5.134920">
        <ele>200.2</ele>
      </trkpt>
      <trkpt lat="43.886140" lon="5.135697">
        <ele>195.4</ele>
      </trkpt>
      <trkpt lat="43.886280" lon="5.135788">
        <ele>194.4</ele>
      </trkpt>
      <trkpt lat="43.886370" lon="5.136004">
        <ele>191.7</ele>
      </trkpt>
      <trkpt lat="43.886360" lon="5.136222">
        <ele>191.8</ele>
      </trkpt>
      <trkpt lat="43.886270" lon="5.136730">
        <ele>190.1</ele>
      </trkpt>
      <trkpt lat="43.886030" lon="5.136845">
        <ele>191.4</ele>
      </trkpt>
      <trkpt lat="43.885960" lon="5.136841">
        <ele>191.8</ele>
      </trkpt>
      <trkpt lat="43.885850" lon="5.137084">
        <ele>190.8</ele>
      </trkpt>
      <trkpt lat="43.885710" lon="5.137138">
        <ele>190.6</ele>
      </trkpt>
      <trkpt lat="43.885540" lon="5.137263">
        <ele>189.8</ele>
      </trkpt>
      <trkpt lat="43.885400" lon="5.137314">
        <ele>189.1</ele>
      </trkpt>
      <trkpt lat="43.885390" lon="5.137460">
        <ele>188.8</ele>
      </trkpt>
      <trkpt lat="43.885470" lon="5.137527">
        <ele>185.8</ele>
      </trkpt>
      <trkpt lat="43.885500" lon="5.137834">
        <ele>185</ele>
      </trkpt>
      <trkpt lat="43.885510" lon="5.137894">
        <ele>184.9</ele>
      </trkpt>
      <trkpt lat="43.885375" lon="5.138260">
        <ele>182.7</ele>
      </trkpt>
      <trkpt lat="43.885332" lon="5.138469">
        <ele>176.7</ele>
      </trkpt>
      <trkpt lat="43.885406" lon="5.138737">
        <ele>176</ele>
      </trkpt>
      <trkpt lat="43.885456" lon="5.138844">
        <ele>175.7</ele>
      </trkpt>
      <trkpt lat="43.885193" lon="5.139204">
        <ele>165</ele>
      </trkpt>
      <trkpt lat="43.884992" lon="5.139456">
        <ele>158.4</ele>
      </trkpt>
      <trkpt lat="43.884810" lon="5.139709">
        <ele>155.7</ele>
      </trkpt>
      <trkpt lat="43.884594" lon="5.139933">
        <ele>154.2</ele>
      </trkpt>
      <trkpt lat="43.884451" lon="5.140041">
        <ele>149.3</ele>
      </trkpt>
      <trkpt lat="43.884350" lon="5.140073">
        <ele>149</ele>
      </trkpt>
      <trkpt lat="43.883650" lon="5.140534">
        <ele>144</ele>
      </trkpt>
      <trkpt lat="43.883059" lon="5.140765">
        <ele>139.7</ele>
      </trkpt>
      <trkpt lat="43.882962" lon="5.140942">
        <ele>137.7</ele>
      </trkpt>
      <trkpt lat="43.882923" lon="5.141011">
        <ele>137.5</ele>
      </trkpt>
      <trkpt lat="43.883025" lon="5.141087">
        <ele>137.8</ele>
      </trkpt>
      <trkpt lat="43.883156" lon="5.141290">
        <ele>137.9</ele>
      </trkpt>
      <trkpt lat="43.883191" lon="5.141467">
        <ele>138</ele>
      </trkpt>
      <trkpt lat="43.883218" lon="5.141762">
        <ele>137.7</ele>
      </trkpt>
      <trkpt lat="43.883291" lon="5.142159">
        <ele>137</ele>
      </trkpt>
      <trkpt lat="43.883400" lon="5.142809">
        <ele>139.4</ele>
      </trkpt>
      <trkpt lat="43.883489" lon="5.143034">
        <ele>139.2</ele>
      </trkpt>
      <trkpt lat="43.883810" lon="5.143265">
        <ele>140.3</ele>
      </trkpt>
      <trkpt lat="43.884390" lon="5.144128">
        <ele>139.4</ele>
      </trkpt>
      <trkpt lat="43.884459" lon="5.144230">
        <ele>137.4</ele>
      </trkpt>
      <trkpt lat="43.884911" lon="5.144654">
        <ele>138.3</ele>
      </trkpt>
      <trkpt lat="43.885634" lon="5.145351">
        <ele>141.6</ele>
      </trkpt>
      <trkpt lat="43.885955" lon="5.145797">
        <ele>145.2</ele>
      </trkpt>
      <trkpt lat="43.886141" lon="5.146108">
        <ele>146</ele>
      </trkpt>
      <trkpt lat="43.886373" lon="5.146354">
        <ele>146.5</ele>
      </trkpt>
      <trkpt lat="43.886489" lon="5.146419">
        <ele>146.6</ele>
      </trkpt>
      <trkpt lat="43.886860" lon="5.146800">
        <ele>148.9</ele>
      </trkpt>
      <trkpt lat="43.887586" lon="5.147525">
        <ele>152.6</ele>
      </trkpt>
      <trkpt lat="43.887586" lon="5.147525">
        <ele>152.6</ele>
      </trkpt>
      <trkpt lat="43.887676" lon="5.147615">
        <ele>153.2</ele>
      </trkpt>
      <trkpt lat="43.888148" lon="5.147856">
        <ele>154.7</ele>
      </trkpt>
      <trkpt lat="43.888310" lon="5.147948">
        <ele>154.9</ele>
      </trkpt>
      <trkpt lat="43.888488" lon="5.147980">
        <ele>158.2</ele>
      </trkpt>
      <trkpt lat="43.889234" lon="5.148076">
        <ele>163.1</ele>
      </trkpt>
      <trkpt lat="43.889342" lon="5.148093">
        <ele>163.3</ele>
      </trkpt>
      <trkpt lat="43.889748" lon="5.148044">
        <ele>164.8</ele>
      </trkpt>
      <trkpt lat="43.890030" lon="5.147953">
        <ele>168.1</ele>
      </trkpt>
      <trkpt lat="43.890185" lon="5.148103">
        <ele>167.7</ele>
      </trkpt>
      <trkpt lat="43.890347" lon="5.148371">
        <ele>167.4</ele>
      </trkpt>
      <trkpt lat="43.890432" lon="5.148634">
        <ele>167.9</ele>
      </trkpt>
      <trkpt lat="43.890424" lon="5.148884">
        <ele>168.2</ele>
      </trkpt>
      <trkpt lat="43.890296" lon="5.149047">
        <ele>167.9</ele>
      </trkpt>
      <trkpt lat="43.890227" lon="5.149308">
        <ele>168.5</ele>
      </trkpt>
      <trkpt lat="43.890223" lon="5.149667">
        <ele>168.7</ele>
      </trkpt>
      <trkpt lat="43.890380" lon="5.150480">
        <ele>167.5</ele>
      </trkpt>
    </trkseg>
  </trk>
</gpx>