<?xml version="1.0" ?>
<gpx xmlns="http://www.topografix.com/GPX/1/1" xmlns:xsi="http://www.w3.org/2001/XMLSchema-instance" xsi:schemaLocation="http://www.topografix.com/GPX/1/1 http://www.topografix.com/GPX/1/1/gpx.xsd" version="1.1" creator="EditGPX">
  <trk>
    <name>NewTrack</name>
    <trkseg>
      <trkpt lat="43.857444" lon="5.593886">
        <ele>377.4</ele>
      </trkpt>
      <trkpt lat="43.857198" lon="5.592982">
        <ele>376.6</ele>
      </trkpt>
      <trkpt lat="43.856980" lon="5.593103">
        <ele>378.2</ele>
      </trkpt>
      <trkpt lat="43.856943" lon="5.593143">
        <ele>378.5</ele>
      </trkpt>
      <trkpt lat="43.857082" lon="5.593489">
        <ele>378.5</ele>
      </trkpt>
      <trkpt lat="43.857017" lon="5.593873">
        <ele>379.2</ele>
      </trkpt>
      <trkpt lat="43.856951" lon="5.594168">
        <ele>379.5</ele>
      </trkpt>
      <trkpt lat="43.856773" lon="5.594648">
        <ele>378.8</ele>
      </trkpt>
      <trkpt lat="43.856605" lon="5.595048">
        <ele>378.8</ele>
      </trkpt>
      <trkpt lat="43.856467" lon="5.595211">
        <ele>378.4</ele>
      </trkpt>
      <trkpt lat="43.856173" lon="5.595394">
        <ele>378.6</ele>
      </trkpt>
      <trkpt lat="43.856003" lon="5.595619">
        <ele>378.5</ele>
      </trkpt>
      <trkpt lat="43.855682" lon="5.596059">
        <ele>380.2</ele>
      </trkpt>
      <trkpt lat="43.855326" lon="5.596483">
        <ele>381.3</ele>
      </trkpt>
      <trkpt lat="43.854924" lon="5.596654">
        <ele>386.2</ele>
      </trkpt>
      <trkpt lat="43.854560" lon="5.596896">
        <ele>384.5</ele>
      </trkpt>
      <trkpt lat="43.854390" lon="5.597089">
        <ele>384.3</ele>
      </trkpt>
      <trkpt lat="43.854123" lon="5.597486">
        <ele>385</ele>
      </trkpt>
      <trkpt lat="43.854046" lon="5.597631">
        <ele>384.1</ele>
      </trkpt>
      <trkpt lat="43.853937" lon="5.597802">
        <ele>383.9</ele>
      </trkpt>
      <trkpt lat="43.853821" lon="5.598028">
        <ele>383.3</ele>
      </trkpt>
      <trkpt lat="43.853499" lon="5.598449">
        <ele>381</ele>
      </trkpt>
      <trkpt lat="43.853234" lon="5.598832">
        <ele>387.4</ele>
      </trkpt>
      <trkpt lat="43.853156" lon="5.598891">
        <ele>387.5</ele>
      </trkpt>
      <trkpt lat="43.852974" lon="5.599106">
        <ele>388.5</ele>
      </trkpt>
      <trkpt lat="43.852893" lon="5.599184">
        <ele>383.5</ele>
      </trkpt>
      <trkpt lat="43.852595" lon="5.599589">
        <ele>383.4</ele>
      </trkpt>
      <trkpt lat="43.852456" lon="5.599675">
        <ele>387.3</ele>
      </trkpt>
      <trkpt lat="43.852334" lon="5.599688">
        <ele>387.4</ele>
      </trkpt>
      <trkpt lat="43.851996" lon="5.599667">
        <ele>388.3</ele>
      </trkpt>
      <trkpt lat="43.851504" lon="5.599844">
        <ele>386.8</ele>
      </trkpt>
      <trkpt lat="43.850819" lon="5.599948">
        <ele>384</ele>
      </trkpt>
      <trkpt lat="43.850307" lon="5.599951">
        <ele>388.6</ele>
      </trkpt>
      <trkpt lat="43.850139" lon="5.600013">
        <ele>382.6</ele>
      </trkpt>
      <trkpt lat="43.849870" lon="5.600147">
        <ele>382.3</ele>
      </trkpt>
      <trkpt lat="43.849415" lon="5.600291">
        <ele>382.1</ele>
      </trkpt>
      <trkpt lat="43.849048" lon="5.600415">
        <ele>383.7</ele>
      </trkpt>
      <trkpt lat="43.848994" lon="5.600463">
        <ele>383.7</ele>
      </trkpt>
      <trkpt lat="43.848949" lon="5.600530">
        <ele>383.5</ele>
      </trkpt>
      <trkpt lat="43.848872" lon="5.600511">
        <ele>383.8</ele>
      </trkpt>
      <trkpt lat="43.848769" lon="5.600434">
        <ele>384.4</ele>
      </trkpt>
      <trkpt lat="43.848657" lon="5.600369">
        <ele>384.9</ele>
      </trkpt>
      <trkpt lat="43.848456" lon="5.599911">
        <ele>390.4</ele>
      </trkpt>
      <trkpt lat="43.848258" lon="5.599760">
        <ele>392.8</ele>
      </trkpt>
      <trkpt lat="43.848038" lon="5.599439">
        <ele>394.7</ele>
      </trkpt>
      <trkpt lat="43.847906" lon="5.599321">
        <ele>395.4</ele>
      </trkpt>
      <trkpt lat="43.847709" lon="5.599321">
        <ele>396.4</ele>
      </trkpt>
      <trkpt lat="43.847608" lon="5.599278">
        <ele>397.4</ele>
      </trkpt>
      <trkpt lat="43.847554" lon="5.598966">
        <ele>400.9</ele>
      </trkpt>
      <trkpt lat="43.847550" lon="5.598827">
        <ele>401.5</ele>
      </trkpt>
      <trkpt lat="43.847323" lon="5.597609">
        <ele>405.3</ele>
      </trkpt>
      <trkpt lat="43.847323" lon="5.597609">
        <ele>405.3</ele>
      </trkpt>
      <trkpt lat="43.847280" lon="5.597379">
        <ele>409</ele>
      </trkpt>
      <trkpt lat="43.847179" lon="5.597175">
        <ele>409.5</ele>
      </trkpt>
      <trkpt lat="43.847175" lon="5.596966">
        <ele>410.8</ele>
      </trkpt>
      <trkpt lat="43.847113" lon="5.596848">
        <ele>411</ele>
      </trkpt>
      <trkpt lat="43.847140" lon="5.596606">
        <ele>418.2</ele>
      </trkpt>
      <trkpt lat="43.847125" lon="5.596520">
        <ele>418.3</ele>
      </trkpt>
      <trkpt lat="43.846846" lon="5.596536">
        <ele>415.6</ele>
      </trkpt>
      <trkpt lat="43.846668" lon="5.596408">
        <ele>416</ele>
      </trkpt>
      <trkpt lat="43.846562" lon="5.596279">
        <ele>412.1</ele>
      </trkpt>
      <trkpt lat="43.846369" lon="5.595796">
        <ele>418.8</ele>
      </trkpt>
      <trkpt lat="43.845943" lon="5.595944">
        <ele>410.5</ele>
      </trkpt>
      <trkpt lat="43.845852" lon="5.595968">
        <ele>410.3</ele>
      </trkpt>
      <trkpt lat="43.845662" lon="5.595839">
        <ele>408.5</ele>
      </trkpt>
      <trkpt lat="43.845245" lon="5.595496">
        <ele>411.1</ele>
      </trkpt>
      <trkpt lat="43.844638" lon="5.595230">
        <ele>410</ele>
      </trkpt>
      <trkpt lat="43.844576" lon="5.595305">
        <ele>409.9</ele>
      </trkpt>
      <trkpt lat="43.844492" lon="5.595026">
        <ele>410.2</ele>
      </trkpt>
      <trkpt lat="43.844401" lon="5.594836">
        <ele>411.8</ele>
      </trkpt>
      <trkpt lat="43.844282" lon="5.594675">
        <ele>412</ele>
      </trkpt>
      <trkpt lat="43.844140" lon="5.594490">
        <ele>414.5</ele>
      </trkpt>
      <trkpt lat="43.843854" lon="5.594396">
        <ele>415.5</ele>
      </trkpt>
      <trkpt lat="43.843566" lon="5.594383">
        <ele>417.1</ele>
      </trkpt>
      <trkpt lat="43.843254" lon="5.594377">
        <ele>423.9</ele>
      </trkpt>
      <trkpt lat="43.843040" lon="5.594490">
        <ele>425.6</ele>
      </trkpt>
      <trkpt lat="43.842836" lon="5.594664">
        <ele>427</ele>
      </trkpt>
      <trkpt lat="43.842637" lon="5.594954">
        <ele>429.5</ele>
      </trkpt>
      <trkpt lat="43.842457" lon="5.595158">
        <ele>433.6</ele>
      </trkpt>
      <trkpt lat="43.842262" lon="5.595329">
        <ele>434.7</ele>
      </trkpt>
      <trkpt lat="43.842153" lon="5.595501">
        <ele>434.7</ele>
      </trkpt>
      <trkpt lat="43.842104" lon="5.595496">
        <ele>435.1</ele>
      </trkpt>
      <trkpt lat="43.842041" lon="5.595356">
        <ele>436.5</ele>
      </trkpt>
      <trkpt lat="43.841981" lon="5.594831">
        <ele>443.7</ele>
      </trkpt>
      <trkpt lat="43.841578" lon="5.593146">
        <ele>463.8</ele>
      </trkpt>
      <trkpt lat="43.841523" lon="5.593109">
        <ele>465</ele>
      </trkpt>
      <trkpt lat="43.841493" lon="5.593243">
        <ele>464.1</ele>
      </trkpt>
      <trkpt lat="43.841369" lon="5.593758">
        <ele>464.2</ele>
      </trkpt>
      <trkpt lat="43.841276" lon="5.594101">
        <ele>464.1</ele>
      </trkpt>
      <trkpt lat="43.841201" lon="5.594230">
        <ele>460</ele>
      </trkpt>
      <trkpt lat="43.841093" lon="5.594251">
        <ele>461.4</ele>
      </trkpt>
      <trkpt lat="43.841031" lon="5.594155">
        <ele>466.8</ele>
      </trkpt>
      <trkpt lat="43.840977" lon="5.594047">
        <ele>467.3</ele>
      </trkpt>
      <trkpt lat="43.840606" lon="5.593607">
        <ele>476.7</ele>
      </trkpt>
      <trkpt lat="43.840401" lon="5.593452">
        <ele>477.8</ele>
      </trkpt>
      <trkpt lat="43.839720" lon="5.593039">
        <ele>487.6</ele>
      </trkpt>
      <trkpt lat="43.839406" lon="5.592728">
        <ele>489.9</ele>
      </trkpt>
      <trkpt lat="43.838888" lon="5.591944">
        <ele>502</ele>
      </trkpt>
      <trkpt lat="43.838583" lon="5.591580">
        <ele>504.9</ele>
      </trkpt>
      <trkpt lat="43.838296" lon="5.591639">
        <ele>503.4</ele>
      </trkpt>
      <trkpt lat="43.837709" lon="5.591590">
        <ele>508.5</ele>
      </trkpt>
      <trkpt lat="43.837508" lon="5.591633">
        <ele>512</ele>
      </trkpt>
      <trkpt lat="43.837410" lon="5.591810">
        <ele>520.3</ele>
      </trkpt>
      <trkpt lat="43.837197" lon="5.592846">
        <ele>525.5</ele>
      </trkpt>
      <trkpt lat="43.837073" lon="5.593205">
        <ele>526.9</ele>
      </trkpt>
      <trkpt lat="43.836891" lon="5.593404">
        <ele>529.2</ele>
      </trkpt>
      <trkpt lat="43.836672" lon="5.593586">
        <ele>530.2</ele>
      </trkpt>
      <trkpt lat="43.836556" lon="5.593522">
        <ele>541.8</ele>
      </trkpt>
      <trkpt lat="43.836527" lon="5.593371">
        <ele>541.5</ele>
      </trkpt>
      <trkpt lat="43.836601" lon="5.593210">
        <ele>543.2</ele>
      </trkpt>
      <trkpt lat="43.836587" lon="5.593125">
        <ele>544.7</ele>
      </trkpt>
      <trkpt lat="43.836556" lon="5.592932">
        <ele>546.6</ele>
      </trkpt>
      <trkpt lat="43.836185" lon="5.591883">
        <ele>552.8</ele>
      </trkpt>
      <trkpt lat="43.836108" lon="5.591676">
        <ele>554.3</ele>
      </trkpt>
      <trkpt lat="43.836042" lon="5.591604">
        <ele>552.5</ele>
      </trkpt>
      <trkpt lat="43.835833" lon="5.591564">
        <ele>560.7</ele>
      </trkpt>
      <trkpt lat="43.835743" lon="5.591590">
        <ele>560.9</ele>
      </trkpt>
      <trkpt lat="43.835618" lon="5.591719">
        <ele>564.9</ele>
      </trkpt>
      <trkpt lat="43.835506" lon="5.591936">
        <ele>566.5</ele>
      </trkpt>
      <trkpt lat="43.835268" lon="5.592044">
        <ele>568.2</ele>
      </trkpt>
      <trkpt lat="43.835042" lon="5.592116">
        <ele>569.4</ele>
      </trkpt>
      <trkpt lat="43.834853" lon="5.592073">
        <ele>578.3</ele>
      </trkpt>
      <trkpt lat="43.834655" lon="5.592095">
        <ele>579.9</ele>
      </trkpt>
      <trkpt lat="43.834523" lon="5.592143">
        <ele>581.1</ele>
      </trkpt>
      <trkpt lat="43.834372" lon="5.592304">
        <ele>583.1</ele>
      </trkpt>
      <trkpt lat="43.834256" lon="5.592433">
        <ele>585.9</ele>
      </trkpt>
      <trkpt lat="43.833842" lon="5.592921">
        <ele>595.5</ele>
      </trkpt>
      <trkpt lat="43.833538" lon="5.593200">
        <ele>599.4</ele>
      </trkpt>
      <trkpt lat="43.833412" lon="5.593382">
        <ele>601.5</ele>
      </trkpt>
      <trkpt lat="43.833308" lon="5.593736">
        <ele>612.2</ele>
      </trkpt>
      <trkpt lat="43.833199" lon="5.593961">
        <ele>611.5</ele>
      </trkpt>
      <trkpt lat="43.832987" lon="5.592894">
        <ele>617</ele>
      </trkpt>
      <trkpt lat="43.832913" lon="5.592733">
        <ele>618</ele>
      </trkpt>
      <trkpt lat="43.832841" lon="5.592567">
        <ele>619.3</ele>
      </trkpt>
      <trkpt lat="43.832764" lon="5.592567">
        <ele>620.8</ele>
      </trkpt>
      <trkpt lat="43.832414" lon="5.591939">
        <ele>629.4</ele>
      </trkpt>
      <trkpt lat="43.832263" lon="5.591666">
        <ele>622</ele>
      </trkpt>
      <trkpt lat="43.832167" lon="5.591183">
        <ele>622.2</ele>
      </trkpt>
      <trkpt lat="43.832121" lon="5.591049">
        <ele>621.8</ele>
      </trkpt>
      <trkpt lat="43.831903" lon="5.590957">
        <ele>624.6</ele>
      </trkpt>
      <trkpt lat="43.831628" lon="5.590893">
        <ele>631.5</ele>
      </trkpt>
      <trkpt lat="43.830898" lon="5.590941">
        <ele>643.3</ele>
      </trkpt>
      <trkpt lat="43.830692" lon="5.590931">
        <ele>652.1</ele>
      </trkpt>
      <trkpt lat="43.830476" lon="5.590754">
        <ele>654</ele>
      </trkpt>
      <trkpt lat="43.830491" lon="5.590662">
        <ele>654.1</ele>
      </trkpt>
      <trkpt lat="43.830835" lon="5.590271">
        <ele>639.3</ele>
      </trkpt>
      <trkpt lat="43.831203" lon="5.589686">
        <ele>639.4</ele>
      </trkpt>
      <trkpt lat="43.831342" lon="5.589402">
        <ele>638.6</ele>
      </trkpt>
      <trkpt lat="43.831412" lon="5.589219">
        <ele>637.3</ele>
      </trkpt>
      <trkpt lat="43.831404" lon="5.588946">
        <ele>644.4</ele>
      </trkpt>
      <trkpt lat="43.831265" lon="5.588382">
        <ele>649.2</ele>
      </trkpt>
      <trkpt lat="43.831320" lon="5.588227">
        <ele>652.9</ele>
      </trkpt>
      <trkpt lat="43.831517" lon="5.587878">
        <ele>652.5</ele>
      </trkpt>
      <trkpt lat="43.831590" lon="5.587626">
        <ele>651.3</ele>
      </trkpt>
      <trkpt lat="43.831570" lon="5.586526">
        <ele>656.7</ele>
      </trkpt>
      <trkpt lat="43.831513" lon="5.586215">
        <ele>658.6</ele>
      </trkpt>
      <trkpt lat="43.831231" lon="5.585368">
        <ele>654.3</ele>
      </trkpt>
      <trkpt lat="43.831114" lon="5.585191">
        <ele>653.9</ele>
      </trkpt>
      <trkpt lat="43.831010" lon="5.585158">
        <ele>654.1</ele>
      </trkpt>
      <trkpt lat="43.830774" lon="5.585276">
        <ele>657.4</ele>
      </trkpt>
      <trkpt lat="43.830008" lon="5.585636">
        <ele>662.2</ele>
      </trkpt>
      <trkpt lat="43.829597" lon="5.585979">
        <ele>676</ele>
      </trkpt>
      <trkpt lat="43.829366" lon="5.586129">
        <ele>677.4</ele>
      </trkpt>
      <trkpt lat="43.829103" lon="5.586301">
        <ele>689.8</ele>
      </trkpt>
      <trkpt lat="43.828971" lon="5.586280">
        <ele>691</ele>
      </trkpt>
      <trkpt lat="43.828940" lon="5.586097">
        <ele>689.2</ele>
      </trkpt>
      <trkpt lat="43.828947" lon="5.584719">
        <ele>682.7</ele>
      </trkpt>
      <trkpt lat="43.828948" lon="5.584520">
        <ele>683.6</ele>
      </trkpt>
      <trkpt lat="43.828924" lon="5.584279">
        <ele>682.8</ele>
      </trkpt>
      <trkpt lat="43.828866" lon="5.583737">
        <ele>687</ele>
      </trkpt>
      <trkpt lat="43.828866" lon="5.583608">
        <ele>686.8</ele>
      </trkpt>
      <trkpt lat="43.828881" lon="5.583361">
        <ele>685.6</ele>
      </trkpt>
      <trkpt lat="43.828893" lon="5.583168">
        <ele>688.1</ele>
      </trkpt>
      <trkpt lat="43.829118" lon="5.582476">
        <ele>688</ele>
      </trkpt>
      <trkpt lat="43.829261" lon="5.582047">
        <ele>680.9</ele>
      </trkpt>
      <trkpt lat="43.829292" lon="5.581833">
        <ele>683.8</ele>
      </trkpt>
      <trkpt lat="43.829292" lon="5.581586">
        <ele>688.3</ele>
      </trkpt>
      <trkpt lat="43.829137" lon="5.580432">
        <ele>693.6</ele>
      </trkpt>
      <trkpt lat="43.829127" lon="5.580277">
        <ele>693.7</ele>
      </trkpt>
      <trkpt lat="43.829190" lon="5.580120">
        <ele>692</ele>
      </trkpt>
      <trkpt lat="43.829260" lon="5.580027">
        <ele>692.4</ele>
      </trkpt>
      <trkpt lat="43.829295" lon="5.579794">
        <ele>692.7</ele>
      </trkpt>
      <trkpt lat="43.829537" lon="5.579314">
        <ele>692.5</ele>
      </trkpt>
      <trkpt lat="43.829870" lon="5.578480">
        <ele>698.4</ele>
      </trkpt>
      <trkpt lat="43.829880" lon="5.578359">
        <ele>699.1</ele>
      </trkpt>
      <trkpt lat="43.829874" lon="5.578271">
        <ele>700.7</ele>
      </trkpt>
      <trkpt lat="43.830069" lon="5.577748">
        <ele>700.7</ele>
      </trkpt>
      <trkpt lat="43.830135" lon="5.577498">
        <ele>703.3</ele>
      </trkpt>
      <trkpt lat="43.830150" lon="5.577254">
        <ele>702.7</ele>
      </trkpt>
      <trkpt lat="43.830149" lon="5.576978">
        <ele>703.1</ele>
      </trkpt>
      <trkpt lat="43.830230" lon="5.576790">
        <ele>703.4</ele>
      </trkpt>
      <trkpt lat="43.830269" lon="5.576476">
        <ele>703</ele>
      </trkpt>
      <trkpt lat="43.830259" lon="5.576213">
        <ele>702.6</ele>
      </trkpt>
      <trkpt lat="43.830253" lon="5.575918">
        <ele>703</ele>
      </trkpt>
      <trkpt lat="43.830259" lon="5.575653">
        <ele>701.3</ele>
      </trkpt>
      <trkpt lat="43.830232" lon="5.575478">
        <ele>700.9</ele>
      </trkpt>
      <trkpt lat="43.830267" lon="5.575076">
        <ele>700.8</ele>
      </trkpt>
      <trkpt lat="43.830257" lon="5.574939">
        <ele>701.2</ele>
      </trkpt>
      <trkpt lat="43.830191" lon="5.574835">
        <ele>701.8</ele>
      </trkpt>
      <trkpt lat="43.830183" lon="5.574642">
        <ele>701.6</ele>
      </trkpt>
      <trkpt lat="43.830203" lon="5.574470">
        <ele>702</ele>
      </trkpt>
      <trkpt lat="43.830166" lon="5.574196">
        <ele>704.7</ele>
      </trkpt>
      <trkpt lat="43.830085" lon="5.573730">
        <ele>706</ele>
      </trkpt>
      <trkpt lat="43.829982" lon="5.573413">
        <ele>716.2</ele>
      </trkpt>
      <trkpt lat="43.829922" lon="5.573233">
        <ele>717.5</ele>
      </trkpt>
      <trkpt lat="43.829701" lon="5.572359">
        <ele>720</ele>
      </trkpt>
      <trkpt lat="43.829640" lon="5.572070">
        <ele>720.6</ele>
      </trkpt>
      <trkpt lat="43.829470" lon="5.571426">
        <ele>721.8</ele>
      </trkpt>
      <trkpt lat="43.829195" lon="5.570830">
        <ele>729.6</ele>
      </trkpt>
      <trkpt lat="43.829044" lon="5.570439">
        <ele>732.7</ele>
      </trkpt>
      <trkpt lat="43.828634" lon="5.569623">
        <ele>734.5</ele>
      </trkpt>
      <trkpt lat="43.828440" lon="5.569392">
        <ele>736.7</ele>
      </trkpt>
      <trkpt lat="43.827900" lon="5.568277">
        <ele>744.3</ele>
      </trkpt>
      <trkpt lat="43.827900" lon="5.568277">
        <ele>744.3</ele>
      </trkpt>
      <trkpt lat="43.827864" lon="5.568202">
        <ele>744.6</ele>
      </trkpt>
      <trkpt lat="43.827740" lon="5.568025">
        <ele>745.3</ele>
      </trkpt>
      <trkpt lat="43.827635" lon="5.567960">
        <ele>746</ele>
      </trkpt>
      <trkpt lat="43.827546" lon="5.567724">
        <ele>748</ele>
      </trkpt>
      <trkpt lat="43.827349" lon="5.567429">
        <ele>755.2</ele>
      </trkpt>
      <trkpt lat="43.827256" lon="5.567392">
        <ele>755.8</ele>
      </trkpt>
      <trkpt lat="43.827012" lon="5.567381">
        <ele>757.5</ele>
      </trkpt>
      <trkpt lat="43.826803" lon="5.567290">
        <ele>758.7</ele>
      </trkpt>
      <trkpt lat="43.826536" lon="5.567263">
        <ele>763.3</ele>
      </trkpt>
      <trkpt lat="43.826296" lon="5.567333">
        <ele>764.3</ele>
      </trkpt>
      <trkpt lat="43.825840" lon="5.567343">
        <ele>767.1</ele>
      </trkpt>
      <trkpt lat="43.825220" lon="5.567338">
        <ele>773.1</ele>
      </trkpt>
      <trkpt lat="43.824872" lon="5.567096">
        <ele>778.9</ele>
      </trkpt>
      <trkpt lat="43.824419" lon="5.566941">
        <ele>781.5</ele>
      </trkpt>
      <trkpt lat="43.824141" lon="5.566801">
        <ele>787.2</ele>
      </trkpt>
      <trkpt lat="43.823850" lon="5.566619">
        <ele>790.2</ele>
      </trkpt>
      <trkpt lat="43.823649" lon="5.566442">
        <ele>791.4</ele>
      </trkpt>
      <trkpt lat="43.823444" lon="5.566233">
        <ele>792.1</ele>
      </trkpt>
      <trkpt lat="43.823398" lon="5.566152">
        <ele>792.4</ele>
      </trkpt>
      <trkpt lat="43.823339" lon="5.566131">
        <ele>792.6</ele>
      </trkpt>
      <trkpt lat="43.823130" lon="5.566120">
        <ele>797.5</ele>
      </trkpt>
      <trkpt lat="43.822712" lon="5.566029">
        <ele>799.6</ele>
      </trkpt>
      <trkpt lat="43.822465" lon="5.566040">
        <ele>805.5</ele>
      </trkpt>
      <trkpt lat="43.822136" lon="5.566147">
        <ele>808.3</ele>
      </trkpt>
      <trkpt lat="43.821818" lon="5.565986">
        <ele>811.7</ele>
      </trkpt>
      <trkpt lat="43.821358" lon="5.565401">
        <ele>820.7</ele>
      </trkpt>
      <trkpt lat="43.821238" lon="5.565122">
        <ele>821.9</ele>
      </trkpt>
      <trkpt lat="43.821176" lon="5.564838">
        <ele>824.3</ele>
      </trkpt>
      <trkpt lat="43.821110" lon="5.564527">
        <ele>825.1</ele>
      </trkpt>
      <trkpt lat="43.820941" lon="5.563232">
        <ele>831.1</ele>
      </trkpt>
      <trkpt lat="43.820936" lon="5.563191">
        <ele>830.8</ele>
      </trkpt>
      <trkpt lat="43.820920" lon="5.562907">
        <ele>829.9</ele>
      </trkpt>
      <trkpt lat="43.820959" lon="5.562574">
        <ele>831.3</ele>
      </trkpt>
      <trkpt lat="43.821102" lon="5.561791">
        <ele>831.1</ele>
      </trkpt>
      <trkpt lat="43.821195" lon="5.561271">
        <ele>832</ele>
      </trkpt>
      <trkpt lat="43.821261" lon="5.561110">
        <ele>832.2</ele>
      </trkpt>
      <trkpt lat="43.821400" lon="5.560675">
        <ele>834.5</ele>
      </trkpt>
      <trkpt lat="43.821478" lon="5.560434">
        <ele>835.3</ele>
      </trkpt>
      <trkpt lat="43.821497" lon="5.560246">
        <ele>836</ele>
      </trkpt>
      <trkpt lat="43.821536" lon="5.559994">
        <ele>838.6</ele>
      </trkpt>
      <trkpt lat="43.821540" lon="5.559779">
        <ele>839</ele>
      </trkpt>
      <trkpt lat="43.821478" lon="5.559527">
        <ele>839.7</ele>
      </trkpt>
      <trkpt lat="43.821428" lon="5.559377">
        <ele>840</ele>
      </trkpt>
      <trkpt lat="43.821385" lon="5.559275">
        <ele>840.2</ele>
      </trkpt>
      <trkpt lat="43.821362" lon="5.559120">
        <ele>842.9</ele>
      </trkpt>
      <trkpt lat="43.821230" lon="5.558744">
        <ele>844.3</ele>
      </trkpt>
      <trkpt lat="43.821029" lon="5.558395">
        <ele>846.7</ele>
      </trkpt>
      <trkpt lat="43.820990" lon="5.558234">
        <ele>847.7</ele>
      </trkpt>
      <trkpt lat="43.820998" lon="5.557939">
        <ele>847</ele>
      </trkpt>
      <trkpt lat="43.821106" lon="5.557768">
        <ele>846.5</ele>
      </trkpt>
      <trkpt lat="43.821095" lon="5.557521">
        <ele>847.2</ele>
      </trkpt>
      <trkpt lat="43.821068" lon="5.556958">
        <ele>843.4</ele>
      </trkpt>
      <trkpt lat="43.820882" lon="5.556234">
        <ele>840.6</ele>
      </trkpt>
      <trkpt lat="43.820773" lon="5.555847">
        <ele>851.3</ele>
      </trkpt>
      <trkpt lat="43.820746" lon="5.555230">
        <ele>855.7</ele>
      </trkpt>
      <trkpt lat="43.820758" lon="5.555145">
        <ele>853.7</ele>
      </trkpt>
      <trkpt lat="43.820820" lon="5.554039">
        <ele>852.7</ele>
      </trkpt>
      <trkpt lat="43.820804" lon="5.553659">
        <ele>858.7</ele>
      </trkpt>
      <trkpt lat="43.820816" lon="5.553482">
        <ele>857.6</ele>
      </trkpt>
      <trkpt lat="43.820855" lon="5.553417">
        <ele>853.3</ele>
      </trkpt>
      <trkpt lat="43.820886" lon="5.553390">
        <ele>853.4</ele>
      </trkpt>
      <trkpt lat="43.821215" lon="5.553626">
        <ele>852.2</ele>
      </trkpt>
      <trkpt lat="43.821381" lon="5.553680">
        <ele>852.3</ele>
      </trkpt>
      <trkpt lat="43.821458" lon="5.553707">
        <ele>852.3</ele>
      </trkpt>
      <trkpt lat="43.821520" lon="5.553777">
        <ele>851.7</ele>
      </trkpt>
      <trkpt lat="43.821745" lon="5.553997">
        <ele>848.8</ele>
      </trkpt>
      <trkpt lat="43.821826" lon="5.554013">
        <ele>849</ele>
      </trkpt>
      <trkpt lat="43.821880" lon="5.553997">
        <ele>849.3</ele>
      </trkpt>
      <trkpt lat="43.821911" lon="5.553921">
        <ele>849.9</ele>
      </trkpt>
      <trkpt lat="43.821900" lon="5.553825">
        <ele>850.6</ele>
      </trkpt>
      <trkpt lat="43.821807" lon="5.553643">
        <ele>852.6</ele>
      </trkpt>
      <trkpt lat="43.821648" lon="5.553090">
        <ele>861.9</ele>
      </trkpt>
      <trkpt lat="43.821567" lon="5.552902">
        <ele>863.3</ele>
      </trkpt>
      <trkpt lat="43.821311" lon="5.552591">
        <ele>864.7</ele>
      </trkpt>
      <trkpt lat="43.821102" lon="5.552044">
        <ele>874</ele>
      </trkpt>
      <trkpt lat="43.820975" lon="5.551851">
        <ele>876.8</ele>
      </trkpt>
      <trkpt lat="43.820777" lon="5.551207">
        <ele>887.6</ele>
      </trkpt>
      <trkpt lat="43.820607" lon="5.550998">
        <ele>888.7</ele>
      </trkpt>
      <trkpt lat="43.820181" lon="5.550424">
        <ele>895.3</ele>
      </trkpt>
      <trkpt lat="43.820073" lon="5.550215">
        <ele>897.9</ele>
      </trkpt>
      <trkpt lat="43.819721" lon="5.549743">
        <ele>907.2</ele>
      </trkpt>
      <trkpt lat="43.819380" lon="5.549330">
        <ele>911.2</ele>
      </trkpt>
      <trkpt lat="43.819125" lon="5.549002">
        <ele>921.4</ele>
      </trkpt>
      <trkpt lat="43.819043" lon="5.548970">
        <ele>922.3</ele>
      </trkpt>
      <trkpt lat="43.819008" lon="5.548857">
        <ele>923.2</ele>
      </trkpt>
      <trkpt lat="43.818977" lon="5.548766">
        <ele>923.6</ele>
      </trkpt>
      <trkpt lat="43.818734" lon="5.548182">
        <ele>926.7</ele>
      </trkpt>
      <trkpt lat="43.818621" lon="5.547699">
        <ele>928.4</ele>
      </trkpt>
      <trkpt lat="43.818587" lon="5.547441">
        <ele>929.1</ele>
      </trkpt>
      <trkpt lat="43.818465" lon="5.546329">
        <ele>928</ele>
      </trkpt>
      <trkpt lat="43.818463" lon="5.546309">
        <ele>927.9</ele>
      </trkpt>
      <trkpt lat="43.818397" lon="5.546122">
        <ele>928.3</ele>
      </trkpt>
      <trkpt lat="43.818230" lon="5.545778">
        <ele>937.2</ele>
      </trkpt>
      <trkpt lat="43.817840" lon="5.545118">
        <ele>942.2</ele>
      </trkpt>
      <trkpt lat="43.817692" lon="5.544952">
        <ele>943.7</ele>
      </trkpt>
      <trkpt lat="43.817630" lon="5.544861">
        <ele>944</ele>
      </trkpt>
      <trkpt lat="43.817665" lon="5.544780">
        <ele>943.8</ele>
      </trkpt>
      <trkpt lat="43.817747" lon="5.544802">
        <ele>943.5</ele>
      </trkpt>
      <trkpt lat="43.818056" lon="5.544625">
        <ele>942.5</ele>
      </trkpt>
      <trkpt lat="43.818192" lon="5.544512">
        <ele>942.7</ele>
      </trkpt>
      <trkpt lat="43.818304" lon="5.544325">
        <ele>943.4</ele>
      </trkpt>
      <trkpt lat="43.818366" lon="5.544105">
        <ele>943.2</ele>
      </trkpt>
      <trkpt lat="43.818362" lon="5.543949">
        <ele>942.7</ele>
      </trkpt>
      <trkpt lat="43.818331" lon="5.543606">
        <ele>950.8</ele>
      </trkpt>
      <trkpt lat="43.818250" lon="5.543219">
        <ele>955.6</ele>
      </trkpt>
      <trkpt lat="43.818296" lon="5.542957">
        <ele>958.7</ele>
      </trkpt>
      <trkpt lat="43.819052" lon="5.542436">
        <ele>960.4</ele>
      </trkpt>
      <trkpt lat="43.819053" lon="5.542436">
        <ele>960.4</ele>
      </trkpt>
      <trkpt lat="43.819341" lon="5.542238">
        <ele>958.2</ele>
      </trkpt>
      <trkpt lat="43.819616" lon="5.542071">
        <ele>958.1</ele>
      </trkpt>
      <trkpt lat="43.819767" lon="5.541943">
        <ele>958.4</ele>
      </trkpt>
      <trkpt lat="43.819868" lon="5.541787">
        <ele>959.2</ele>
      </trkpt>
      <trkpt lat="43.819988" lon="5.541782">
        <ele>959.2</ele>
      </trkpt>
      <trkpt lat="43.820019" lon="5.541921">
        <ele>948.5</ele>
      </trkpt>
      <trkpt lat="43.820104" lon="5.542018">
        <ele>945.7</ele>
      </trkpt>
      <trkpt lat="43.820282" lon="5.542023">
        <ele>943.6</ele>
      </trkpt>
      <trkpt lat="43.820757" lon="5.541825">
        <ele>939.7</ele>
      </trkpt>
      <trkpt lat="43.820994" lon="5.541680">
        <ele>926.1</ele>
      </trkpt>
      <trkpt lat="43.821319" lon="5.541428">
        <ele>918.9</ele>
      </trkpt>
      <trkpt lat="43.821478" lon="5.541192">
        <ele>915.8</ele>
      </trkpt>
      <trkpt lat="43.821880" lon="5.540124">
        <ele>882.7</ele>
      </trkpt>
      <trkpt lat="43.822027" lon="5.539872">
        <ele>880.8</ele>
      </trkpt>
      <trkpt lat="43.822407" lon="5.539711">
        <ele>869.8</ele>
      </trkpt>
      <trkpt lat="43.822631" lon="5.539620">
        <ele>840.3</ele>
      </trkpt>
      <trkpt lat="43.822871" lon="5.539427">
        <ele>836.8</ele>
      </trkpt>
      <trkpt lat="43.823111" lon="5.539320">
        <ele>830.3</ele>
      </trkpt>
      <trkpt lat="43.823347" lon="5.538987">
        <ele>812.6</ele>
      </trkpt>
      <trkpt lat="43.823560" lon="5.538515">
        <ele>812.2</ele>
      </trkpt>
      <trkpt lat="43.823680" lon="5.538204">
        <ele>815.6</ele>
      </trkpt>
      <trkpt lat="43.823839" lon="5.537968">
        <ele>810.3</ele>
      </trkpt>
      <trkpt lat="43.823916" lon="5.537657">
        <ele>807.6</ele>
      </trkpt>
      <trkpt lat="43.823947" lon="5.537399">
        <ele>805.6</ele>
      </trkpt>
      <trkpt lat="43.823897" lon="5.536889">
        <ele>806.5</ele>
      </trkpt>
      <trkpt lat="43.823881" lon="5.536610">
        <ele>800.7</ele>
      </trkpt>
      <trkpt lat="43.823831" lon="5.536305">
        <ele>803.9</ele>
      </trkpt>
      <trkpt lat="43.823812" lon="5.536069">
        <ele>803.7</ele>
      </trkpt>
      <trkpt lat="43.823835" lon="5.535774">
        <ele>805.3</ele>
      </trkpt>
      <trkpt lat="43.823893" lon="5.535586">
        <ele>805.7</ele>
      </trkpt>
      <trkpt lat="43.823970" lon="5.535462">
        <ele>806</ele>
      </trkpt>
      <trkpt lat="43.824493" lon="5.535414">
        <ele>776.6</ele>
      </trkpt>
      <trkpt lat="43.824756" lon="5.535425">
        <ele>771.2</ele>
      </trkpt>
      <trkpt lat="43.824903" lon="5.535339">
        <ele>770.7</ele>
      </trkpt>
      <trkpt lat="43.825484" lon="5.535339">
        <ele>742</ele>
      </trkpt>
      <trkpt lat="43.825662" lon="5.535216">
        <ele>740.7</ele>
      </trkpt>
      <trkpt lat="43.825840" lon="5.535039">
        <ele>735.4</ele>
      </trkpt>
      <trkpt lat="43.825975" lon="5.534803">
        <ele>728.7</ele>
      </trkpt>
      <trkpt lat="43.825983" lon="5.534540">
        <ele>726.2</ele>
      </trkpt>
      <trkpt lat="43.825983" lon="5.534320">
        <ele>727.6</ele>
      </trkpt>
      <trkpt lat="43.825913" lon="5.533993">
        <ele>722</ele>
      </trkpt>
      <trkpt lat="43.825956" lon="5.533735">
        <ele>715</ele>
      </trkpt>
      <trkpt lat="43.825952" lon="5.533537">
        <ele>714.8</ele>
      </trkpt>
      <trkpt lat="43.825925" lon="5.533333">
        <ele>714.6</ele>
      </trkpt>
      <trkpt lat="43.825902" lon="5.533134">
        <ele>708.3</ele>
      </trkpt>
      <trkpt lat="43.825905" lon="5.532898">
        <ele>703.5</ele>
      </trkpt>
      <trkpt lat="43.826025" lon="5.532598">
        <ele>702.7</ele>
      </trkpt>
      <trkpt lat="43.826285" lon="5.532340">
        <ele>696.2</ele>
      </trkpt>
      <trkpt lat="43.826490" lon="5.532045">
        <ele>694.7</ele>
      </trkpt>
      <trkpt lat="43.826923" lon="5.531702">
        <ele>672.9</ele>
      </trkpt>
      <trkpt lat="43.827283" lon="5.531563">
        <ele>673</ele>
      </trkpt>
      <trkpt lat="43.827535" lon="5.531428">
        <ele>655.3</ele>
      </trkpt>
      <trkpt lat="43.827674" lon="5.531455">
        <ele>653.9</ele>
      </trkpt>
      <trkpt lat="43.827848" lon="5.531493">
        <ele>650.8</ele>
      </trkpt>
      <trkpt lat="43.828057" lon="5.531369">
        <ele>647.6</ele>
      </trkpt>
      <trkpt lat="43.828390" lon="5.531176">
        <ele>630.3</ele>
      </trkpt>
      <trkpt lat="43.828518" lon="5.531187">
        <ele>628.9</ele>
      </trkpt>
      <trkpt lat="43.828878" lon="5.531353">
        <ele>623</ele>
      </trkpt>
      <trkpt lat="43.829056" lon="5.531396">
        <ele>620.4</ele>
      </trkpt>
      <trkpt lat="43.829152" lon="5.531423">
        <ele>619.3</ele>
      </trkpt>
      <trkpt lat="43.829195" lon="5.531375">
        <ele>605.6</ele>
      </trkpt>
      <trkpt lat="43.829164" lon="5.531251">
        <ele>620.8</ele>
      </trkpt>
      <trkpt lat="43.828924" lon="5.530806">
        <ele>622.4</ele>
      </trkpt>
      <trkpt lat="43.828645" lon="5.530345">
        <ele>626.7</ele>
      </trkpt>
      <trkpt lat="43.828560" lon="5.530189">
        <ele>628.2</ele>
      </trkpt>
      <trkpt lat="43.828479" lon="5.530103">
        <ele>630.3</ele>
      </trkpt>
      <trkpt lat="43.828425" lon="5.530007">
        <ele>632.5</ele>
      </trkpt>
      <trkpt lat="43.828653" lon="5.529900">
        <ele>627.8</ele>
      </trkpt>
      <trkpt lat="43.828862" lon="5.529798">
        <ele>623.6</ele>
      </trkpt>
      <trkpt lat="43.829257" lon="5.529830">
        <ele>604.1</ele>
      </trkpt>
      <trkpt lat="43.829857" lon="5.529878">
        <ele>591.9</ele>
      </trkpt>
      <trkpt lat="43.830360" lon="5.530028">
        <ele>572.4</ele>
      </trkpt>
      <trkpt lat="43.830886" lon="5.530055">
        <ele>557.9</ele>
      </trkpt>
      <trkpt lat="43.831122" lon="5.529969">
        <ele>553.2</ele>
      </trkpt>
      <trkpt lat="43.831222" lon="5.529873">
        <ele>550.7</ele>
      </trkpt>
      <trkpt lat="43.831323" lon="5.529642">
        <ele>549.1</ele>
      </trkpt>
      <trkpt lat="43.831331" lon="5.529449">
        <ele>549.2</ele>
      </trkpt>
      <trkpt lat="43.831327" lon="5.529218">
        <ele>549</ele>
      </trkpt>
      <trkpt lat="43.831258" lon="5.528966">
        <ele>555</ele>
      </trkpt>
      <trkpt lat="43.831238" lon="5.528843">
        <ele>556</ele>
      </trkpt>
      <trkpt lat="43.831296" lon="5.528730">
        <ele>555.6</ele>
      </trkpt>
      <trkpt lat="43.831455" lon="5.528650">
        <ele>553.4</ele>
      </trkpt>
      <trkpt lat="43.831850" lon="5.528548">
        <ele>537.2</ele>
      </trkpt>
      <trkpt lat="43.832221" lon="5.528446">
        <ele>532.4</ele>
      </trkpt>
      <trkpt lat="43.832538" lon="5.528263">
        <ele>527.5</ele>
      </trkpt>
      <trkpt lat="43.832747" lon="5.528108">
        <ele>524.6</ele>
      </trkpt>
      <trkpt lat="43.832867" lon="5.527995">
        <ele>523.5</ele>
      </trkpt>
      <trkpt lat="43.832976" lon="5.527872">
        <ele>522.7</ele>
      </trkpt>
      <trkpt lat="43.833080" lon="5.527706">
        <ele>521.7</ele>
      </trkpt>
      <trkpt lat="43.833220" lon="5.527529">
        <ele>518.9</ele>
      </trkpt>
      <trkpt lat="43.833301" lon="5.527325">
        <ele>520.3</ele>
      </trkpt>
      <trkpt lat="43.833374" lon="5.526976">
        <ele>506.2</ele>
      </trkpt>
      <trkpt lat="43.833405" lon="5.526735">
        <ele>508.7</ele>
      </trkpt>
      <trkpt lat="43.833370" lon="5.526525">
        <ele>504.6</ele>
      </trkpt>
      <trkpt lat="43.833262" lon="5.526241">
        <ele>514.1</ele>
      </trkpt>
      <trkpt lat="43.833192" lon="5.526091">
        <ele>512.5</ele>
      </trkpt>
      <trkpt lat="43.833018" lon="5.525672">
        <ele>511</ele>
      </trkpt>
      <trkpt lat="43.832933" lon="5.525495">
        <ele>513</ele>
      </trkpt>
      <trkpt lat="43.832895" lon="5.525393">
        <ele>513.6</ele>
      </trkpt>
      <trkpt lat="43.832922" lon="5.525318">
        <ele>513.2</ele>
      </trkpt>
      <trkpt lat="43.832984" lon="5.525302">
        <ele>512.2</ele>
      </trkpt>
      <trkpt lat="43.833076" lon="5.525168">
        <ele>510.4</ele>
      </trkpt>
      <trkpt lat="43.833185" lon="5.525061">
        <ele>507.4</ele>
      </trkpt>
      <trkpt lat="43.833258" lon="5.524943">
        <ele>508.1</ele>
      </trkpt>
      <trkpt lat="43.833328" lon="5.524841">
        <ele>510.8</ele>
      </trkpt>
      <trkpt lat="43.833363" lon="5.524755">
        <ele>501.7</ele>
      </trkpt>
      <trkpt lat="43.833332" lon="5.524632">
        <ele>516.2</ele>
      </trkpt>
      <trkpt lat="43.833293" lon="5.524541">
        <ele>517.7</ele>
      </trkpt>
      <trkpt lat="43.833301" lon="5.524380">
        <ele>518.6</ele>
      </trkpt>
      <trkpt lat="43.833239" lon="5.524192">
        <ele>518.7</ele>
      </trkpt>
      <trkpt lat="43.833231" lon="5.523897">
        <ele>525.6</ele>
      </trkpt>
      <trkpt lat="43.833262" lon="5.523752">
        <ele>526.2</ele>
      </trkpt>
      <trkpt lat="43.833274" lon="5.523596">
        <ele>525.6</ele>
      </trkpt>
      <trkpt lat="43.833243" lon="5.523484">
        <ele>524.6</ele>
      </trkpt>
      <trkpt lat="43.833235" lon="5.523344">
        <ele>522.9</ele>
      </trkpt>
      <trkpt lat="43.833173" lon="5.523194">
        <ele>524.7</ele>
      </trkpt>
      <trkpt lat="43.833134" lon="5.523060">
        <ele>525.9</ele>
      </trkpt>
      <trkpt lat="43.833026" lon="5.523006">
        <ele>527.3</ele>
      </trkpt>
      <trkpt lat="43.832976" lon="5.522937">
        <ele>527.8</ele>
      </trkpt>
      <trkpt lat="43.832906" lon="5.522926">
        <ele>528.7</ele>
      </trkpt>
      <trkpt lat="43.832778" lon="5.522727">
        <ele>529.7</ele>
      </trkpt>
      <trkpt lat="43.832709" lon="5.522620">
        <ele>530.7</ele>
      </trkpt>
      <trkpt lat="43.832655" lon="5.522491">
        <ele>532.3</ele>
      </trkpt>
      <trkpt lat="43.832554" lon="5.522357">
        <ele>532.9</ele>
      </trkpt>
      <trkpt lat="43.832446" lon="5.522341">
        <ele>541</ele>
      </trkpt>
      <trkpt lat="43.832314" lon="5.522352">
        <ele>542.9</ele>
      </trkpt>
      <trkpt lat="43.832252" lon="5.522271">
        <ele>544.6</ele>
      </trkpt>
      <trkpt lat="43.832198" lon="5.522202">
        <ele>545.7</ele>
      </trkpt>
      <trkpt lat="43.832186" lon="5.522078">
        <ele>546.5</ele>
      </trkpt>
      <trkpt lat="43.832306" lon="5.521901">
        <ele>545.9</ele>
      </trkpt>
      <trkpt lat="43.832422" lon="5.521762">
        <ele>544.6</ele>
      </trkpt>
      <trkpt lat="43.832651" lon="5.521569">
        <ele>541.9</ele>
      </trkpt>
      <trkpt lat="43.832778" lon="5.521381">
        <ele>541.6</ele>
      </trkpt>
      <trkpt lat="43.833239" lon="5.520984">
        <ele>540</ele>
      </trkpt>
      <trkpt lat="43.833425" lon="5.520517">
        <ele>534.2</ele>
      </trkpt>
      <trkpt lat="43.833529" lon="5.520142">
        <ele>535.3</ele>
      </trkpt>
      <trkpt lat="43.833630" lon="5.519895">
        <ele>533.6</ele>
      </trkpt>
      <trkpt lat="43.833630" lon="5.519600">
        <ele>532.4</ele>
      </trkpt>
      <trkpt lat="43.833630" lon="5.519342">
        <ele>532.2</ele>
      </trkpt>
      <trkpt lat="43.833572" lon="5.519224">
        <ele>533.2</ele>
      </trkpt>
      <trkpt lat="43.833537" lon="5.519176">
        <ele>533.8</ele>
      </trkpt>
      <trkpt lat="43.833804" lon="5.519080">
        <ele>525.4</ele>
      </trkpt>
      <trkpt lat="43.833978" lon="5.518903">
        <ele>523.1</ele>
      </trkpt>
      <trkpt lat="43.834295" lon="5.518742">
        <ele>509.7</ele>
      </trkpt>
      <trkpt lat="43.834423" lon="5.518709">
        <ele>508.5</ele>
      </trkpt>
      <trkpt lat="43.834709" lon="5.518382">
        <ele>504.5</ele>
      </trkpt>
      <trkpt lat="43.835000" lon="5.518125">
        <ele>489.8</ele>
      </trkpt>
      <trkpt lat="43.835081" lon="5.518447">
        <ele>493.4</ele>
      </trkpt>
      <trkpt lat="43.835181" lon="5.518602">
        <ele>490.4</ele>
      </trkpt>
      <trkpt lat="43.835495" lon="5.518779">
        <ele>485.9</ele>
      </trkpt>
      <trkpt lat="43.835766" lon="5.518742">
        <ele>482.8</ele>
      </trkpt>
      <trkpt lat="43.835963" lon="5.518720">
        <ele>468.6</ele>
      </trkpt>
      <trkpt lat="43.836083" lon="5.518768">
        <ele>467.5</ele>
      </trkpt>
      <trkpt lat="43.836195" lon="5.518935">
        <ele>466.4</ele>
      </trkpt>
      <trkpt lat="43.836269" lon="5.518988">
        <ele>465.4</ele>
      </trkpt>
      <trkpt lat="43.836420" lon="5.519042">
        <ele>463</ele>
      </trkpt>
      <trkpt lat="43.836559" lon="5.519230">
        <ele>459.1</ele>
      </trkpt>
      <trkpt lat="43.836853" lon="5.519332">
        <ele>448.5</ele>
      </trkpt>
      <trkpt lat="43.836950" lon="5.519369">
        <ele>446.7</ele>
      </trkpt>
      <trkpt lat="43.837186" lon="5.519637">
        <ele>443</ele>
      </trkpt>
      <trkpt lat="43.837372" lon="5.519804">
        <ele>439.7</ele>
      </trkpt>
      <trkpt lat="43.837596" lon="5.519916">
        <ele>430.3</ele>
      </trkpt>
      <trkpt lat="43.837755" lon="5.519954">
        <ele>428.1</ele>
      </trkpt>
      <trkpt lat="43.837929" lon="5.519857">
        <ele>425.7</ele>
      </trkpt>
      <trkpt lat="43.838076" lon="5.519686">
        <ele>424.4</ele>
      </trkpt>
      <trkpt lat="43.838792" lon="5.519605">
        <ele>411.7</ele>
      </trkpt>
      <trkpt lat="43.839480" lon="5.519525">
        <ele>406.3</ele>
      </trkpt>
      <trkpt lat="43.839709" lon="5.519434">
        <ele>406.5</ele>
      </trkpt>
      <trkpt lat="43.839921" lon="5.519359">
        <ele>406.9</ele>
      </trkpt>
      <trkpt lat="43.839949" lon="5.519267">
        <ele>407.3</ele>
      </trkpt>
      <trkpt lat="43.840014" lon="5.519004">
        <ele>408.3</ele>
      </trkpt>
      <trkpt lat="43.840080" lon="5.518827">
        <ele>408.3</ele>
      </trkpt>
      <trkpt lat="43.840188" lon="5.518683">
        <ele>408.2</ele>
      </trkpt>
      <trkpt lat="43.840316" lon="5.518607">
        <ele>408.5</ele>
      </trkpt>
      <trkpt lat="43.840440" lon="5.518591">
        <ele>409</ele>
      </trkpt>
      <trkpt lat="43.840506" lon="5.518591">
        <ele>409.3</ele>
      </trkpt>
      <trkpt lat="43.840633" lon="5.518334">
        <ele>410.2</ele>
      </trkpt>
      <trkpt lat="43.840927" lon="5.517685">
        <ele>410.4</ele>
      </trkpt>
      <trkpt lat="43.841044" lon="5.517277">
        <ele>408.6</ele>
      </trkpt>
      <trkpt lat="43.841167" lon="5.517073">
        <ele>408.2</ele>
      </trkpt>
      <trkpt lat="43.841326" lon="5.516832">
        <ele>408.2</ele>
      </trkpt>
      <trkpt lat="43.841434" lon="5.516569">
        <ele>406.6</ele>
      </trkpt>
      <trkpt lat="43.841635" lon="5.516344">
        <ele>406.3</ele>
      </trkpt>
      <trkpt lat="43.841794" lon="5.516263">
        <ele>406.1</ele>
      </trkpt>
      <trkpt lat="43.841976" lon="5.516102">
        <ele>405.7</ele>
      </trkpt>
      <trkpt lat="43.842049" lon="5.515968">
        <ele>405.6</ele>
      </trkpt>
      <trkpt lat="43.842131" lon="5.515732">
        <ele>403.1</ele>
      </trkpt>
      <trkpt lat="43.842587" lon="5.515389">
        <ele>401.9</ele>
      </trkpt>
      <trkpt lat="43.842959" lon="5.515131">
        <ele>401.3</ele>
      </trkpt>
      <trkpt lat="43.843168" lon="5.514981">
        <ele>399.1</ele>
      </trkpt>
      <trkpt lat="43.843280" lon="5.514911">
        <ele>399.6</ele>
      </trkpt>
      <trkpt lat="43.843369" lon="5.514901">
        <ele>400.3</ele>
      </trkpt>
      <trkpt lat="43.843783" lon="5.514788">
        <ele>399.5</ele>
      </trkpt>
      <trkpt lat="43.843930" lon="5.514729">
        <ele>399.5</ele>
      </trkpt>
      <trkpt lat="43.844027" lon="5.514659">
        <ele>399.4</ele>
      </trkpt>
      <trkpt lat="43.844092" lon="5.514584">
        <ele>399.2</ele>
      </trkpt>
      <trkpt lat="43.844139" lon="5.514536">
        <ele>399.1</ele>
      </trkpt>
      <trkpt lat="43.844181" lon="5.514466">
        <ele>397.6</ele>
      </trkpt>
      <trkpt lat="43.844189" lon="5.514396">
        <ele>397.5</ele>
      </trkpt>
      <trkpt lat="43.844263" lon="5.514343">
        <ele>397.4</ele>
      </trkpt>
      <trkpt lat="43.844522" lon="5.514214">
        <ele>396.4</ele>
      </trkpt>
      <trkpt lat="43.844591" lon="5.514230">
        <ele>396.1</ele>
      </trkpt>
      <trkpt lat="43.844851" lon="5.514016">
        <ele>392.1</ele>
      </trkpt>
      <trkpt lat="43.844909" lon="5.513940">
        <ele>392</ele>
      </trkpt>
      <trkpt lat="43.845172" lon="5.513742">
        <ele>387</ele>
      </trkpt>
      <trkpt lat="43.845559" lon="5.513366">
        <ele>384</ele>
      </trkpt>
      <trkpt lat="43.845721" lon="5.513141">
        <ele>382.7</ele>
      </trkpt>
      <trkpt lat="43.845845" lon="5.512937">
        <ele>377</ele>
      </trkpt>
      <trkpt lat="43.845938" lon="5.512819">
        <ele>376.8</ele>
      </trkpt>
      <trkpt lat="43.845953" lon="5.512696">
        <ele>377</ele>
      </trkpt>
      <trkpt lat="43.846019" lon="5.512685">
        <ele>376.8</ele>
      </trkpt>
      <trkpt lat="43.846305" lon="5.512937">
        <ele>375.2</ele>
      </trkpt>
      <trkpt lat="43.846537" lon="5.512969">
        <ele>374.2</ele>
      </trkpt>
      <trkpt lat="43.846766" lon="5.513366">
        <ele>368.4</ele>
      </trkpt>
      <trkpt lat="43.846955" lon="5.513592">
        <ele>364.8</ele>
      </trkpt>
      <trkpt lat="43.847052" lon="5.513645">
        <ele>363.8</ele>
      </trkpt>
      <trkpt lat="43.847261" lon="5.513629">
        <ele>362.2</ele>
      </trkpt>
      <trkpt lat="43.847385" lon="5.513662">
        <ele>361.5</ele>
      </trkpt>
      <trkpt lat="43.847574" lon="5.513796">
        <ele>353.6</ele>
      </trkpt>
      <trkpt lat="43.847640" lon="5.514069">
        <ele>352.8</ele>
      </trkpt>
      <trkpt lat="43.847741" lon="5.514343">
        <ele>348.9</ele>
      </trkpt>
      <trkpt lat="43.847814" lon="5.514552">
        <ele>347.6</ele>
      </trkpt>
      <trkpt lat="43.848186" lon="5.514842">
        <ele>343.7</ele>
      </trkpt>
      <trkpt lat="43.848333" lon="5.514863">
        <ele>342.4</ele>
      </trkpt>
      <trkpt lat="43.848472" lon="5.514842">
        <ele>338.5</ele>
      </trkpt>
      <trkpt lat="43.848580" lon="5.514858">
        <ele>338</ele>
      </trkpt>
      <trkpt lat="43.848456" lon="5.515003">
        <ele>337.1</ele>
      </trkpt>
      <trkpt lat="43.848360" lon="5.515196">
        <ele>336.4</ele>
      </trkpt>
      <trkpt lat="43.848317" lon="5.515383">
        <ele>340.2</ele>
      </trkpt>
      <trkpt lat="43.848290" lon="5.515593">
        <ele>339.2</ele>
      </trkpt>
      <trkpt lat="43.848313" lon="5.515797">
        <ele>336.1</ele>
      </trkpt>
      <trkpt lat="43.848449" lon="5.516328">
        <ele>332.1</ele>
      </trkpt>
      <trkpt lat="43.848483" lon="5.516596">
        <ele>331.8</ele>
      </trkpt>
      <trkpt lat="43.848464" lon="5.516757">
        <ele>329</ele>
      </trkpt>
      <trkpt lat="43.848348" lon="5.516886">
        <ele>328.3</ele>
      </trkpt>
      <trkpt lat="43.848189" lon="5.517025">
        <ele>333.5</ele>
      </trkpt>
      <trkpt lat="43.848035" lon="5.517266">
        <ele>333.4</ele>
      </trkpt>
      <trkpt lat="43.847992" lon="5.517465">
        <ele>333.2</ele>
      </trkpt>
      <trkpt lat="43.847996" lon="5.517679">
        <ele>330.6</ele>
      </trkpt>
      <trkpt lat="43.848214" lon="5.519278">
        <ele>330.2</ele>
      </trkpt>
      <trkpt lat="43.848228" lon="5.519380">
        <ele>332.2</ele>
      </trkpt>
      <trkpt lat="43.848263" lon="5.519637">
        <ele>334.7</ele>
      </trkpt>
      <trkpt lat="43.848325" lon="5.519723">
        <ele>334.3</ele>
      </trkpt>
      <trkpt lat="43.848402" lon="5.519777">
        <ele>323.3</ele>
      </trkpt>
      <trkpt lat="43.848522" lon="5.519793">
        <ele>322.5</ele>
      </trkpt>
      <trkpt lat="43.848603" lon="5.519766">
        <ele>321.4</ele>
      </trkpt>
      <trkpt lat="43.848600" lon="5.520104">
        <ele>326.1</ele>
      </trkpt>
      <trkpt lat="43.848658" lon="5.520474">
        <ele>326.7</ele>
      </trkpt>
      <trkpt lat="43.848824" lon="5.521231">
        <ele>328.5</ele>
      </trkpt>
      <trkpt lat="43.848897" lon="5.521654">
        <ele>326.5</ele>
      </trkpt>
      <trkpt lat="43.848886" lon="5.521874">
        <ele>325.8</ele>
      </trkpt>
      <trkpt lat="43.848770" lon="5.522261">
        <ele>326.7</ele>
      </trkpt>
      <trkpt lat="43.848712" lon="5.522427">
        <ele>327.4</ele>
      </trkpt>
      <trkpt lat="43.848681" lon="5.523655">
        <ele>321.8</ele>
      </trkpt>
      <trkpt lat="43.848638" lon="5.523795">
        <ele>321.9</ele>
      </trkpt>
      <trkpt lat="43.848545" lon="5.523929">
        <ele>322.6</ele>
      </trkpt>
      <trkpt lat="43.848371" lon="5.524063">
        <ele>324.4</ele>
      </trkpt>
      <trkpt lat="43.848247" lon="5.524246">
        <ele>328.3</ele>
      </trkpt>
      <trkpt lat="43.848255" lon="5.524406">
        <ele>329.6</ele>
      </trkpt>
      <trkpt lat="43.848278" lon="5.524498">
        <ele>329.9</ele>
      </trkpt>
      <trkpt lat="43.848410" lon="5.524701">
        <ele>322.8</ele>
      </trkpt>
      <trkpt lat="43.848468" lon="5.524879">
        <ele>323.3</ele>
      </trkpt>
      <trkpt lat="43.848480" lon="5.524991">
        <ele>323.7</ele>
      </trkpt>
      <trkpt lat="43.848429" lon="5.525222">
        <ele>324.6</ele>
      </trkpt>
      <trkpt lat="43.848375" lon="5.525308">
        <ele>324.6</ele>
      </trkpt>
      <trkpt lat="43.848100" lon="5.525571">
        <ele>330.6</ele>
      </trkpt>
      <trkpt lat="43.847857" lon="5.525737">
        <ele>331.6</ele>
      </trkpt>
      <trkpt lat="43.847578" lon="5.525823">
        <ele>332.7</ele>
      </trkpt>
      <trkpt lat="43.847412" lon="5.525849">
        <ele>333</ele>
      </trkpt>
      <trkpt lat="43.847269" lon="5.525941">
        <ele>333.1</ele>
      </trkpt>
      <trkpt lat="43.847129" lon="5.526059">
        <ele>333.1</ele>
      </trkpt>
      <trkpt lat="43.846605" lon="5.527048">
        <ele>334</ele>
      </trkpt>
      <trkpt lat="43.846605" lon="5.527048">
        <ele>334</ele>
      </trkpt>
      <trkpt lat="43.846127" lon="5.527951">
        <ele>338.9</ele>
      </trkpt>
      <trkpt lat="43.846104" lon="5.527995">
        <ele>339</ele>
      </trkpt>
      <trkpt lat="43.846077" lon="5.528194">
        <ele>339.3</ele>
      </trkpt>
      <trkpt lat="43.846096" lon="5.528741">
        <ele>342</ele>
      </trkpt>
      <trkpt lat="43.846069" lon="5.529009">
        <ele>342.1</ele>
      </trkpt>
      <trkpt lat="43.846019" lon="5.529197">
        <ele>342.2</ele>
      </trkpt>
      <trkpt lat="43.845211" lon="5.530955">
        <ele>346.5</ele>
      </trkpt>
      <trkpt lat="43.845211" lon="5.530956">
        <ele>346.5</ele>
      </trkpt>
      <trkpt lat="43.845029" lon="5.531353">
        <ele>347</ele>
      </trkpt>
      <trkpt lat="43.844882" lon="5.531632">
        <ele>347.9</ele>
      </trkpt>
      <trkpt lat="43.844708" lon="5.532013">
        <ele>347.1</ele>
      </trkpt>
      <trkpt lat="43.844665" lon="5.532115">
        <ele>347</ele>
      </trkpt>
      <trkpt lat="43.844677" lon="5.532196">
        <ele>346.9</ele>
      </trkpt>
      <trkpt lat="43.844738" lon="5.532351">
        <ele>346.7</ele>
      </trkpt>
      <trkpt lat="43.844905" lon="5.532609">
        <ele>344.9</ele>
      </trkpt>
      <trkpt lat="43.845446" lon="5.533172">
        <ele>342.2</ele>
      </trkpt>
      <trkpt lat="43.845702" lon="5.533376">
        <ele>340.4</ele>
      </trkpt>
      <trkpt lat="43.845961" lon="5.533510">
        <ele>338.9</ele>
      </trkpt>
      <trkpt lat="43.846062" lon="5.533494">
        <ele>338.4</ele>
      </trkpt>
      <trkpt lat="43.846205" lon="5.533617">
        <ele>337.3</ele>
      </trkpt>
      <trkpt lat="43.846425" lon="5.533960">
        <ele>335.7</ele>
      </trkpt>
      <trkpt lat="43.846654" lon="5.534234">
        <ele>332.7</ele>
      </trkpt>
      <trkpt lat="43.846773" lon="5.534422">
        <ele>331.2</ele>
      </trkpt>
      <trkpt lat="43.846839" lon="5.534572">
        <ele>330.5</ele>
      </trkpt>
      <trkpt lat="43.846859" lon="5.534674">
        <ele>330.2</ele>
      </trkpt>
      <trkpt lat="43.846793" lon="5.534760">
        <ele>329.8</ele>
      </trkpt>
      <trkpt lat="43.846696" lon="5.534781">
        <ele>329.6</ele>
      </trkpt>
      <trkpt lat="43.846584" lon="5.534829">
        <ele>330.2</ele>
      </trkpt>
      <trkpt lat="43.846526" lon="5.534948">
        <ele>329.8</ele>
      </trkpt>
      <trkpt lat="43.846514" lon="5.535130">
        <ele>329.2</ele>
      </trkpt>
      <trkpt lat="43.846596" lon="5.535361">
        <ele>329.5</ele>
      </trkpt>
      <trkpt lat="43.846820" lon="5.535586">
        <ele>327.2</ele>
      </trkpt>
      <trkpt lat="43.846944" lon="5.535618">
        <ele>327</ele>
      </trkpt>
      <trkpt lat="43.847238" lon="5.535672">
        <ele>326</ele>
      </trkpt>
      <trkpt lat="43.847358" lon="5.535768">
        <ele>325</ele>
      </trkpt>
      <trkpt lat="43.847377" lon="5.535902">
        <ele>324.3</ele>
      </trkpt>
      <trkpt lat="43.847377" lon="5.536047">
        <ele>324.8</ele>
      </trkpt>
      <trkpt lat="43.847489" lon="5.536149">
        <ele>324.9</ele>
      </trkpt>
      <trkpt lat="43.848023" lon="5.536535">
        <ele>320.9</ele>
      </trkpt>
      <trkpt lat="43.848348" lon="5.536621">
        <ele>318.9</ele>
      </trkpt>
      <trkpt lat="43.848371" lon="5.536729">
        <ele>318.9</ele>
      </trkpt>
      <trkpt lat="43.848387" lon="5.536906">
        <ele>318.9</ele>
      </trkpt>
      <trkpt lat="43.848360" lon="5.537163">
        <ele>319.1</ele>
      </trkpt>
      <trkpt lat="43.848194" lon="5.538364">
        <ele>321</ele>
      </trkpt>
      <trkpt lat="43.848193" lon="5.538370">
        <ele>321</ele>
      </trkpt>
      <trkpt lat="43.848120" lon="5.538606">
        <ele>320.9</ele>
      </trkpt>
      <trkpt lat="43.847996" lon="5.538788">
        <ele>320.8</ele>
      </trkpt>
      <trkpt lat="43.847884" lon="5.538976">
        <ele>320.8</ele>
      </trkpt>
      <trkpt lat="43.847837" lon="5.539089">
        <ele>320.9</ele>
      </trkpt>
      <trkpt lat="43.847764" lon="5.539588">
        <ele>321.2</ele>
      </trkpt>
      <trkpt lat="43.847184" lon="5.541208">
        <ele>329.1</ele>
      </trkpt>
      <trkpt lat="43.846990" lon="5.541927">
        <ele>330.5</ele>
      </trkpt>
      <trkpt lat="43.846553" lon="5.543437">
        <ele>332.1</ele>
      </trkpt>
      <trkpt lat="43.846553" lon="5.543437">
        <ele>332.1</ele>
      </trkpt>
      <trkpt lat="43.846410" lon="5.543933">
        <ele>333.4</ele>
      </trkpt>
      <trkpt lat="43.846321" lon="5.544137">
        <ele>333.7</ele>
      </trkpt>
      <trkpt lat="43.845969" lon="5.544351">
        <ele>335.4</ele>
      </trkpt>
      <trkpt lat="43.845733" lon="5.544539">
        <ele>337.5</ele>
      </trkpt>
      <trkpt lat="43.845601" lon="5.544496">
        <ele>337.8</ele>
      </trkpt>
      <trkpt lat="43.845276" lon="5.544485">
        <ele>338.7</ele>
      </trkpt>
      <trkpt lat="43.845078" lon="5.544475">
        <ele>339.2</ele>
      </trkpt>
      <trkpt lat="43.844749" lon="5.544550">
        <ele>343.5</ele>
      </trkpt>
      <trkpt lat="43.844611" lon="5.544550">
        <ele>344.1</ele>
      </trkpt>
      <trkpt lat="43.844297" lon="5.544453">
        <ele>345.5</ele>
      </trkpt>
      <trkpt lat="43.844143" lon="5.544528">
        <ele>349.6</ele>
      </trkpt>
      <trkpt lat="43.844034" lon="5.544679">
        <ele>349.7</ele>
      </trkpt>
      <trkpt lat="43.843926" lon="5.544797">
        <ele>349.9</ele>
      </trkpt>
      <trkpt lat="43.843783" lon="5.545006">
        <ele>350.7</ele>
      </trkpt>
      <trkpt lat="43.843651" lon="5.545354">
        <ele>351.3</ele>
      </trkpt>
      <trkpt lat="43.843570" lon="5.545548">
        <ele>351.8</ele>
      </trkpt>
      <trkpt lat="43.843415" lon="5.545692">
        <ele>353.1</ele>
      </trkpt>
      <trkpt lat="43.843187" lon="5.545848">
        <ele>358.4</ele>
      </trkpt>
      <trkpt lat="43.843090" lon="5.545977">
        <ele>360.4</ele>
      </trkpt>
      <trkpt lat="43.842920" lon="5.546224">
        <ele>362.7</ele>
      </trkpt>
      <trkpt lat="43.842835" lon="5.546427">
        <ele>363.9</ele>
      </trkpt>
      <trkpt lat="43.842750" lon="5.546674">
        <ele>367.4</ele>
      </trkpt>
      <trkpt lat="43.842479" lon="5.547484">
        <ele>373.5</ele>
      </trkpt>
      <trkpt lat="43.842405" lon="5.547758">
        <ele>376.1</ele>
      </trkpt>
      <trkpt lat="43.842216" lon="5.548337">
        <ele>376.4</ele>
      </trkpt>
      <trkpt lat="43.842096" lon="5.548750">
        <ele>377.7</ele>
      </trkpt>
      <trkpt lat="43.841976" lon="5.549051">
        <ele>378.8</ele>
      </trkpt>
      <trkpt lat="43.841817" lon="5.549346">
        <ele>378.4</ele>
      </trkpt>
      <trkpt lat="43.841748" lon="5.549437">
        <ele>378</ele>
      </trkpt>
      <trkpt lat="43.841535" lon="5.549598">
        <ele>384.8</ele>
      </trkpt>
      <trkpt lat="43.841458" lon="5.549807">
        <ele>383.8</ele>
      </trkpt>
      <trkpt lat="43.841407" lon="5.549887">
        <ele>383.8</ele>
      </trkpt>
      <trkpt lat="43.841345" lon="5.549946">
        <ele>384.3</ele>
      </trkpt>
      <trkpt lat="43.841090" lon="5.550102">
        <ele>382.8</ele>
      </trkpt>
      <trkpt lat="43.841040" lon="5.550193">
        <ele>382.8</ele>
      </trkpt>
      <trkpt lat="43.840978" lon="5.550376">
        <ele>381.9</ele>
      </trkpt>
      <trkpt lat="43.840908" lon="5.550488">
        <ele>381.5</ele>
      </trkpt>
      <trkpt lat="43.840819" lon="5.550526">
        <ele>385.6</ele>
      </trkpt>
      <trkpt lat="43.840633" lon="5.550499">
        <ele>386.3</ele>
      </trkpt>
      <trkpt lat="43.840409" lon="5.550697">
        <ele>386.3</ele>
      </trkpt>
      <trkpt lat="43.840003" lon="5.550928">
        <ele>384.9</ele>
      </trkpt>
      <trkpt lat="43.839949" lon="5.551019">
        <ele>389.2</ele>
      </trkpt>
      <trkpt lat="43.839689" lon="5.551674">
        <ele>389.8</ele>
      </trkpt>
      <trkpt lat="43.839573" lon="5.551915">
        <ele>390.8</ele>
      </trkpt>
      <trkpt lat="43.839507" lon="5.552087">
        <ele>391</ele>
      </trkpt>
      <trkpt lat="43.839233" lon="5.552693">
        <ele>392.4</ele>
      </trkpt>
      <trkpt lat="43.839113" lon="5.553160">
        <ele>401.9</ele>
      </trkpt>
      <trkpt lat="43.839043" lon="5.553610">
        <ele>406</ele>
      </trkpt>
      <trkpt lat="43.838997" lon="5.553889">
        <ele>407.7</ele>
      </trkpt>
      <trkpt lat="43.838966" lon="5.554297">
        <ele>409.1</ele>
      </trkpt>
      <trkpt lat="43.838946" lon="5.554587">
        <ele>410.8</ele>
      </trkpt>
      <trkpt lat="43.838899" lon="5.554731">
        <ele>411.2</ele>
      </trkpt>
      <trkpt lat="43.838776" lon="5.554898">
        <ele>412.1</ele>
      </trkpt>
      <trkpt lat="43.838629" lon="5.555043">
        <ele>413.2</ele>
      </trkpt>
      <trkpt lat="43.837983" lon="5.555343">
        <ele>418.5</ele>
      </trkpt>
      <trkpt lat="43.837569" lon="5.555579">
        <ele>418.5</ele>
      </trkpt>
      <trkpt lat="43.837283" lon="5.555799">
        <ele>422.5</ele>
      </trkpt>
      <trkpt lat="43.837209" lon="5.555906">
        <ele>421</ele>
      </trkpt>
      <trkpt lat="43.837093" lon="5.556228">
        <ele>422</ele>
      </trkpt>
      <trkpt lat="43.836958" lon="5.556346">
        <ele>422.8</ele>
      </trkpt>
      <trkpt lat="43.836772" lon="5.556475">
        <ele>424.3</ele>
      </trkpt>
      <trkpt lat="43.836702" lon="5.556630">
        <ele>426.1</ele>
      </trkpt>
      <trkpt lat="43.836424" lon="5.557065">
        <ele>431.8</ele>
      </trkpt>
      <trkpt lat="43.836362" lon="5.557247">
        <ele>431.8</ele>
      </trkpt>
      <trkpt lat="43.836238" lon="5.557703">
        <ele>430.3</ele>
      </trkpt>
      <trkpt lat="43.836385" lon="5.557757">
        <ele>429</ele>
      </trkpt>
      <trkpt lat="43.836509" lon="5.557816">
        <ele>428.2</ele>
      </trkpt>
      <trkpt lat="43.836617" lon="5.557832">
        <ele>427.8</ele>
      </trkpt>
      <trkpt lat="43.836958" lon="5.557827">
        <ele>419.4</ele>
      </trkpt>
      <trkpt lat="43.837364" lon="5.557902">
        <ele>416.9</ele>
      </trkpt>
      <trkpt lat="43.837991" lon="5.558186">
        <ele>409.4</ele>
      </trkpt>
      <trkpt lat="43.838215" lon="5.558336">
        <ele>407</ele>
      </trkpt>
      <trkpt lat="43.838362" lon="5.558385">
        <ele>405.2</ele>
      </trkpt>
      <trkpt lat="43.839113" lon="5.558862">
        <ele>401.1</ele>
      </trkpt>
      <trkpt lat="43.839221" lon="5.558916">
        <ele>398</ele>
      </trkpt>
      <trkpt lat="43.839287" lon="5.559168">
        <ele>396.3</ele>
      </trkpt>
      <trkpt lat="43.839329" lon="5.559329">
        <ele>395.2</ele>
      </trkpt>
      <trkpt lat="43.839635" lon="5.559962">
        <ele>392.7</ele>
      </trkpt>
      <trkpt lat="43.839883" lon="5.560375">
        <ele>388.9</ele>
      </trkpt>
      <trkpt lat="43.840061" lon="5.560563">
        <ele>385</ele>
      </trkpt>
      <trkpt lat="43.840115" lon="5.560670">
        <ele>384.7</ele>
      </trkpt>
      <trkpt lat="43.840452" lon="5.560943">
        <ele>383.5</ele>
      </trkpt>
      <trkpt lat="43.840556" lon="5.560992">
        <ele>383.1</ele>
      </trkpt>
      <trkpt lat="43.840885" lon="5.561045">
        <ele>378</ele>
      </trkpt>
      <trkpt lat="43.840989" lon="5.561008">
        <ele>377.5</ele>
      </trkpt>
      <trkpt lat="43.841214" lon="5.560836">
        <ele>375.8</ele>
      </trkpt>
      <trkpt lat="43.841430" lon="5.560799">
        <ele>371.9</ele>
      </trkpt>
      <trkpt lat="43.841635" lon="5.560809">
        <ele>368.9</ele>
      </trkpt>
      <trkpt lat="43.841906" lon="5.560906">
        <ele>368.2</ele>
      </trkpt>
      <trkpt lat="43.842537" lon="5.560933">
        <ele>364.6</ele>
      </trkpt>
      <trkpt lat="43.842847" lon="5.560884">
        <ele>363.6</ele>
      </trkpt>
      <trkpt lat="43.843315" lon="5.561083">
        <ele>362.3</ele>
      </trkpt>
      <trkpt lat="43.844362" lon="5.561356">
        <ele>355.6</ele>
      </trkpt>
      <trkpt lat="43.844793" lon="5.561469">
        <ele>354.3</ele>
      </trkpt>
      <trkpt lat="43.845292" lon="5.561603">
        <ele>352.1</ele>
      </trkpt>
      <trkpt lat="43.846104" lon="5.561786">
        <ele>350</ele>
      </trkpt>
      <trkpt lat="43.846309" lon="5.561931">
        <ele>349.5</ele>
      </trkpt>
      <trkpt lat="43.846379" lon="5.561904">
        <ele>349.4</ele>
      </trkpt>
      <trkpt lat="43.846553" lon="5.562011">
        <ele>349.1</ele>
      </trkpt>
      <trkpt lat="43.847516" lon="5.562243">
        <ele>342.7</ele>
      </trkpt>
      <trkpt lat="43.847516" lon="5.562243">
        <ele>342.7</ele>
      </trkpt>
      <trkpt lat="43.848267" lon="5.562424">
        <ele>340.7</ele>
      </trkpt>
      <trkpt lat="43.848619" lon="5.562494">
        <ele>339.8</ele>
      </trkpt>
      <trkpt lat="43.848770" lon="5.562596">
        <ele>340.3</ele>
      </trkpt>
      <trkpt lat="43.848855" lon="5.562708">
        <ele>340.4</ele>
      </trkpt>
      <trkpt lat="43.848952" lon="5.562837">
        <ele>340.6</ele>
      </trkpt>
      <trkpt lat="43.849144" lon="5.563041">
        <ele>341.3</ele>
      </trkpt>
      <trkpt lat="43.849381" lon="5.563207">
        <ele>342.5</ele>
      </trkpt>
      <trkpt lat="43.849625" lon="5.563320">
        <ele>342.8</ele>
      </trkpt>
      <trkpt lat="43.849721" lon="5.563331">
        <ele>343.1</ele>
      </trkpt>
      <trkpt lat="43.849988" lon="5.563213">
        <ele>343.9</ele>
      </trkpt>
      <trkpt lat="43.849961" lon="5.563395">
        <ele>345.4</ele>
      </trkpt>
      <trkpt lat="43.849822" lon="5.563722">
        <ele>346.7</ele>
      </trkpt>
      <trkpt lat="43.849675" lon="5.563980">
        <ele>347.3</ele>
      </trkpt>
      <trkpt lat="43.849605" lon="5.564087">
        <ele>347.4</ele>
      </trkpt>
      <trkpt lat="43.849598" lon="5.564184">
        <ele>350.3</ele>
      </trkpt>
      <trkpt lat="43.849644" lon="5.564269">
        <ele>350.4</ele>
      </trkpt>
      <trkpt lat="43.850015" lon="5.564468">
        <ele>350.8</ele>
      </trkpt>
      <trkpt lat="43.850862" lon="5.564816">
        <ele>350.3</ele>
      </trkpt>
      <trkpt lat="43.850862" lon="5.564816">
        <ele>350.3</ele>
      </trkpt>
      <trkpt lat="43.851087" lon="5.564908">
        <ele>350.2</ele>
      </trkpt>
      <trkpt lat="43.851265" lon="5.565149">
        <ele>351.2</ele>
      </trkpt>
      <trkpt lat="43.851513" lon="5.565460">
        <ele>351.2</ele>
      </trkpt>
      <trkpt lat="43.852019" lon="5.566158">
        <ele>352.1</ele>
      </trkpt>
      <trkpt lat="43.852186" lon="5.566485">
        <ele>352.5</ele>
      </trkpt>
      <trkpt lat="43.852232" lon="5.566694">
        <ele>353.7</ele>
      </trkpt>
      <trkpt lat="43.852499" lon="5.567617">
        <ele>356.3</ele>
      </trkpt>
      <trkpt lat="43.853149" lon="5.569250">
        <ele>366.6</ele>
      </trkpt>
      <trkpt lat="43.853377" lon="5.569822">
        <ele>372.7</ele>
      </trkpt>
      <trkpt lat="43.853443" lon="5.570084">
        <ele>377.7</ele>
      </trkpt>
      <trkpt lat="43.853497" lon="5.570374">
        <ele>381.6</ele>
      </trkpt>
      <trkpt lat="43.853543" lon="5.570514">
        <ele>382.9</ele>
      </trkpt>
      <trkpt lat="43.853358" lon="5.570658">
        <ele>384.1</ele>
      </trkpt>
      <trkpt lat="43.853211" lon="5.570814">
        <ele>383.3</ele>
      </trkpt>
      <trkpt lat="43.853153" lon="5.570937">
        <ele>388</ele>
      </trkpt>
      <trkpt lat="43.853207" lon="5.571114">
        <ele>389.1</ele>
      </trkpt>
      <trkpt lat="43.853323" lon="5.571302">
        <ele>390.9</ele>
      </trkpt>
      <trkpt lat="43.853563" lon="5.571560">
        <ele>395.5</ele>
      </trkpt>
      <trkpt lat="43.853710" lon="5.571699">
        <ele>403.6</ele>
      </trkpt>
      <trkpt lat="43.853822" lon="5.571844">
        <ele>404.7</ele>
      </trkpt>
      <trkpt lat="43.854097" lon="5.572128">
        <ele>408</ele>
      </trkpt>
      <trkpt lat="43.854182" lon="5.572182">
        <ele>412.2</ele>
      </trkpt>
      <trkpt lat="43.854306" lon="5.572187">
        <ele>412.3</ele>
      </trkpt>
      <trkpt lat="43.854797" lon="5.572364">
        <ele>415.3</ele>
      </trkpt>
      <trkpt lat="43.855025" lon="5.572520">
        <ele>421.1</ele>
      </trkpt>
      <trkpt lat="43.855176" lon="5.572606">
        <ele>421.3</ele>
      </trkpt>
      <trkpt lat="43.855218" lon="5.572724">
        <ele>421.6</ele>
      </trkpt>
      <trkpt lat="43.855234" lon="5.572815">
        <ele>422.1</ele>
      </trkpt>
      <trkpt lat="43.855242" lon="5.573040">
        <ele>423.9</ele>
      </trkpt>
      <trkpt lat="43.855211" lon="5.573405">
        <ele>430.6</ele>
      </trkpt>
      <trkpt lat="43.855215" lon="5.573593">
        <ele>430.4</ele>
      </trkpt>
      <trkpt lat="43.855249" lon="5.573990">
        <ele>431.2</ele>
      </trkpt>
      <trkpt lat="43.855253" lon="5.574135">
        <ele>431.5</ele>
      </trkpt>
      <trkpt lat="43.855230" lon="5.574338">
        <ele>435.5</ele>
      </trkpt>
      <trkpt lat="43.855184" lon="5.574569">
        <ele>436.6</ele>
      </trkpt>
      <trkpt lat="43.855083" lon="5.574811">
        <ele>438</ele>
      </trkpt>
      <trkpt lat="43.854878" lon="5.575143">
        <ele>440.5</ele>
      </trkpt>
      <trkpt lat="43.854774" lon="5.575288">
        <ele>440.8</ele>
      </trkpt>
      <trkpt lat="43.854685" lon="5.575433">
        <ele>441</ele>
      </trkpt>
      <trkpt lat="43.854607" lon="5.575647">
        <ele>441.2</ele>
      </trkpt>
      <trkpt lat="43.854572" lon="5.575792">
        <ele>441.1</ele>
      </trkpt>
      <trkpt lat="43.854584" lon="5.575926">
        <ele>441.8</ele>
      </trkpt>
      <trkpt lat="43.854747" lon="5.576066">
        <ele>442.4</ele>
      </trkpt>
      <trkpt lat="43.854959" lon="5.576168">
        <ele>442.6</ele>
      </trkpt>
      <trkpt lat="43.855145" lon="5.576243">
        <ele>444.2</ele>
      </trkpt>
      <trkpt lat="43.855307" lon="5.576436">
        <ele>444</ele>
      </trkpt>
      <trkpt lat="43.855509" lon="5.576854">
        <ele>443.3</ele>
      </trkpt>
      <trkpt lat="43.855762" lon="5.577495">
        <ele>443.1</ele>
      </trkpt>
      <trkpt lat="43.855823" lon="5.577777">
        <ele>442.9</ele>
      </trkpt>
      <trkpt lat="43.855841" lon="5.578075">
        <ele>441.7</ele>
      </trkpt>
      <trkpt lat="43.855851" lon="5.578402">
        <ele>440.4</ele>
      </trkpt>
      <trkpt lat="43.855949" lon="5.579338">
        <ele>436.2</ele>
      </trkpt>
      <trkpt lat="43.855982" lon="5.579630">
        <ele>435.1</ele>
      </trkpt>
      <trkpt lat="43.856108" lon="5.580588">
        <ele>430.4</ele>
      </trkpt>
      <trkpt lat="43.856253" lon="5.581793">
        <ele>423.8</ele>
      </trkpt>
      <trkpt lat="43.856321" lon="5.582358">
        <ele>422.6</ele>
      </trkpt>
      <trkpt lat="43.856383" lon="5.582830">
        <ele>419.9</ele>
      </trkpt>
      <trkpt lat="43.856406" lon="5.583050">
        <ele>419.3</ele>
      </trkpt>
      <trkpt lat="43.856329" lon="5.583104">
        <ele>419.4</ele>
      </trkpt>
      <trkpt lat="43.856135" lon="5.583243">
        <ele>419.9</ele>
      </trkpt>
      <trkpt lat="43.856008" lon="5.583158">
        <ele>420.3</ele>
      </trkpt>
      <trkpt lat="43.855389" lon="5.582889">
        <ele>426.4</ele>
      </trkpt>
      <trkpt lat="43.855300" lon="5.582911">
        <ele>426.8</ele>
      </trkpt>
      <trkpt lat="43.855265" lon="5.582981">
        <ele>427</ele>
      </trkpt>
      <trkpt lat="43.855211" lon="5.583238">
        <ele>427.5</ele>
      </trkpt>
      <trkpt lat="43.855195" lon="5.583377">
        <ele>426.1</ele>
      </trkpt>
      <trkpt lat="43.855129" lon="5.583495">
        <ele>426</ele>
      </trkpt>
      <trkpt lat="43.854894" lon="5.583839">
        <ele>428.6</ele>
      </trkpt>
      <trkpt lat="43.854565" lon="5.584247">
        <ele>427</ele>
      </trkpt>
      <trkpt lat="43.854600" lon="5.584365">
        <ele>426.5</ele>
      </trkpt>
      <trkpt lat="43.854460" lon="5.584316">
        <ele>427.8</ele>
      </trkpt>
      <trkpt lat="43.854244" lon="5.584327">
        <ele>429.7</ele>
      </trkpt>
      <trkpt lat="43.854081" lon="5.584322">
        <ele>435.6</ele>
      </trkpt>
      <trkpt lat="43.853957" lon="5.584252">
        <ele>436.4</ele>
      </trkpt>
      <trkpt lat="43.853764" lon="5.584306">
        <ele>438.4</ele>
      </trkpt>
      <trkpt lat="43.853520" lon="5.584381">
        <ele>440.4</ele>
      </trkpt>
      <trkpt lat="43.853323" lon="5.584327">
        <ele>446.6</ele>
      </trkpt>
      <trkpt lat="43.853079" lon="5.584273">
        <ele>448.1</ele>
      </trkpt>
      <trkpt lat="43.852855" lon="5.584289">
        <ele>450</ele>
      </trkpt>
      <trkpt lat="43.852692" lon="5.584354">
        <ele>451</ele>
      </trkpt>
      <trkpt lat="43.852569" lon="5.584424">
        <ele>451.5</ele>
      </trkpt>
      <trkpt lat="43.852499" lon="5.584515">
        <ele>459.3</ele>
      </trkpt>
      <trkpt lat="43.852418" lon="5.584584">
        <ele>460</ele>
      </trkpt>
      <trkpt lat="43.852309" lon="5.584579">
        <ele>460.6</ele>
      </trkpt>
      <trkpt lat="43.852089" lon="5.584257">
        <ele>461.9</ele>
      </trkpt>
      <trkpt lat="43.851961" lon="5.584123">
        <ele>463.9</ele>
      </trkpt>
      <trkpt lat="43.851830" lon="5.584032">
        <ele>465.3</ele>
      </trkpt>
      <trkpt lat="43.851536" lon="5.583978">
        <ele>470.7</ele>
      </trkpt>
      <trkpt lat="43.851188" lon="5.583866">
        <ele>472.3</ele>
      </trkpt>
      <trkpt lat="43.850921" lon="5.583737">
        <ele>472.8</ele>
      </trkpt>
      <trkpt lat="43.850921" lon="5.583833">
        <ele>473.3</ele>
      </trkpt>
      <trkpt lat="43.850944" lon="5.583903">
        <ele>473.7</ele>
      </trkpt>
      <trkpt lat="43.851072" lon="5.584161">
        <ele>474</ele>
      </trkpt>
      <trkpt lat="43.851052" lon="5.584375">
        <ele>476.7</ele>
      </trkpt>
      <trkpt lat="43.851010" lon="5.584697">
        <ele>478.3</ele>
      </trkpt>
      <trkpt lat="43.850975" lon="5.584853">
        <ele>480.3</ele>
      </trkpt>
      <trkpt lat="43.850928" lon="5.585175">
        <ele>482.7</ele>
      </trkpt>
      <trkpt lat="43.850727" lon="5.585378">
        <ele>482.7</ele>
      </trkpt>
      <trkpt lat="43.850352" lon="5.585797">
        <ele>481.7</ele>
      </trkpt>
      <trkpt lat="43.850259" lon="5.586188">
        <ele>487.8</ele>
      </trkpt>
      <trkpt lat="43.850170" lon="5.586430">
        <ele>489.6</ele>
      </trkpt>
      <trkpt lat="43.850162" lon="5.586532">
        <ele>490.3</ele>
      </trkpt>
      <trkpt lat="43.850205" lon="5.586720">
        <ele>497</ele>
      </trkpt>
      <trkpt lat="43.850333" lon="5.586886">
        <ele>498.8</ele>
      </trkpt>
      <trkpt lat="43.850441" lon="5.587015">
        <ele>499.9</ele>
      </trkpt>
      <trkpt lat="43.850487" lon="5.587202">
        <ele>501.5</ele>
      </trkpt>
      <trkpt lat="43.850530" lon="5.587395">
        <ele>503</ele>
      </trkpt>
      <trkpt lat="43.850522" lon="5.587524">
        <ele>511.4</ele>
      </trkpt>
      <trkpt lat="43.850460" lon="5.587674">
        <ele>512.3</ele>
      </trkpt>
      <trkpt lat="43.850236" lon="5.588281">
        <ele>517.3</ele>
      </trkpt>
      <trkpt lat="43.849949" lon="5.589278">
        <ele>525.3</ele>
      </trkpt>
      <trkpt lat="43.849872" lon="5.589584">
        <ele>521.6</ele>
      </trkpt>
      <trkpt lat="43.849834" lon="5.589804">
        <ele>522.7</ele>
      </trkpt>
      <trkpt lat="43.849807" lon="5.590040">
        <ele>524.1</ele>
      </trkpt>
      <trkpt lat="43.849876" lon="5.590083">
        <ele>525.4</ele>
      </trkpt>
      <trkpt lat="43.849973" lon="5.590126">
        <ele>526.2</ele>
      </trkpt>
      <trkpt lat="43.849967" lon="5.590209">
        <ele>524.4</ele>
      </trkpt>
      <trkpt lat="43.849963" lon="5.590319">
        <ele>523</ele>
      </trkpt>
      <trkpt lat="43.849930" lon="5.590434">
        <ele>522</ele>
      </trkpt>
      <trkpt lat="43.849944" lon="5.590560">
        <ele>522</ele>
      </trkpt>
      <trkpt lat="43.849911" lon="5.590882">
        <ele>522.7</ele>
      </trkpt>
      <trkpt lat="43.849884" lon="5.591035">
        <ele>521.1</ele>
      </trkpt>
      <trkpt lat="43.849837" lon="5.591542">
        <ele>521.2</ele>
      </trkpt>
      <trkpt lat="43.849868" lon="5.591775">
        <ele>521.1</ele>
      </trkpt>
      <trkpt lat="43.850015" lon="5.592068">
        <ele>520.1</ele>
      </trkpt>
      <trkpt lat="43.850092" lon="5.592170">
        <ele>519.8</ele>
      </trkpt>
      <trkpt lat="43.850181" lon="5.592234">
        <ele>519.5</ele>
      </trkpt>
      <trkpt lat="43.850249" lon="5.592317">
        <ele>519.2</ele>
      </trkpt>
      <trkpt lat="43.850290" lon="5.592403">
        <ele>519</ele>
      </trkpt>
      <trkpt lat="43.850301" lon="5.592494">
        <ele>519</ele>
      </trkpt>
      <trkpt lat="43.850311" lon="5.592701">
        <ele>516.7</ele>
      </trkpt>
      <trkpt lat="43.850365" lon="5.592827">
        <ele>515.9</ele>
      </trkpt>
      <trkpt lat="43.850392" lon="5.592878">
        <ele>515.5</ele>
      </trkpt>
      <trkpt lat="43.850390" lon="5.592950">
        <ele>515.3</ele>
      </trkpt>
      <trkpt lat="43.850375" lon="5.593229">
        <ele>514.7</ele>
      </trkpt>
      <trkpt lat="43.850460" lon="5.593468">
        <ele>509.2</ele>
      </trkpt>
      <trkpt lat="43.850504" lon="5.593750">
        <ele>507.9</ele>
      </trkpt>
      <trkpt lat="43.850568" lon="5.594037">
        <ele>506.2</ele>
      </trkpt>
      <trkpt lat="43.850624" lon="5.594211">
        <ele>500.3</ele>
      </trkpt>
      <trkpt lat="43.850642" lon="5.594356">
        <ele>499.6</ele>
      </trkpt>
      <trkpt lat="43.850626" lon="5.594592">
        <ele>497.9</ele>
      </trkpt>
      <trkpt lat="43.850671" lon="5.594750">
        <ele>496.5</ele>
      </trkpt>
      <trkpt lat="43.850667" lon="5.594916">
        <ele>495.1</ele>
      </trkpt>
      <trkpt lat="43.850721" lon="5.595104">
        <ele>489.6</ele>
      </trkpt>
      <trkpt lat="43.850758" lon="5.595273">
        <ele>488</ele>
      </trkpt>
      <trkpt lat="43.850766" lon="5.595423">
        <ele>486.6</ele>
      </trkpt>
      <trkpt lat="43.850748" lon="5.595482">
        <ele>486.1</ele>
      </trkpt>
      <trkpt lat="43.850768" lon="5.595638">
        <ele>484.6</ele>
      </trkpt>
      <trkpt lat="43.850868" lon="5.595737">
        <ele>479.7</ele>
      </trkpt>
      <trkpt lat="43.850924" lon="5.595877">
        <ele>476</ele>
      </trkpt>
      <trkpt lat="43.850942" lon="5.596040">
        <ele>471.1</ele>
      </trkpt>
      <trkpt lat="43.851003" lon="5.596239">
        <ele>466.9</ele>
      </trkpt>
      <trkpt lat="43.851061" lon="5.596488">
        <ele>464.5</ele>
      </trkpt>
      <trkpt lat="43.851050" lon="5.596622">
        <ele>464.1</ele>
      </trkpt>
      <trkpt lat="43.851073" lon="5.596759">
        <ele>455.1</ele>
      </trkpt>
      <trkpt lat="43.851154" lon="5.596984">
        <ele>451.2</ele>
      </trkpt>
      <trkpt lat="43.851176" lon="5.597202">
        <ele>448.5</ele>
      </trkpt>
      <trkpt lat="43.851266" lon="5.597395">
        <ele>446.5</ele>
      </trkpt>
      <trkpt lat="43.851330" lon="5.597424">
        <ele>446</ele>
      </trkpt>
      <trkpt lat="43.851379" lon="5.597411">
        <ele>445.7</ele>
      </trkpt>
      <trkpt lat="43.851425" lon="5.597357">
        <ele>445.7</ele>
      </trkpt>
      <trkpt lat="43.851731" lon="5.596858">
        <ele>441</ele>
      </trkpt>
      <trkpt lat="43.851804" lon="5.596815">
        <ele>440.6</ele>
      </trkpt>
      <trkpt lat="43.852065" lon="5.596386">
        <ele>439.6</ele>
      </trkpt>
      <trkpt lat="43.852487" lon="5.595697">
        <ele>435.4</ele>
      </trkpt>
      <trkpt lat="43.852655" lon="5.595437">
        <ele>421.4</ele>
      </trkpt>
      <trkpt lat="43.852816" lon="5.595083">
        <ele>421.2</ele>
      </trkpt>
      <trkpt lat="43.853031" lon="5.594696">
        <ele>421.3</ele>
      </trkpt>
      <trkpt lat="43.853232" lon="5.594388">
        <ele>419.3</ele>
      </trkpt>
      <trkpt lat="43.853361" lon="5.594273">
        <ele>410.7</ele>
      </trkpt>
      <trkpt lat="43.853427" lon="5.594270">
        <ele>410</ele>
      </trkpt>
      <trkpt lat="43.853773" lon="5.594337">
        <ele>405.1</ele>
      </trkpt>
      <trkpt lat="43.854044" lon="5.594423">
        <ele>402.9</ele>
      </trkpt>
      <trkpt lat="43.854077" lon="5.594420">
        <ele>402.7</ele>
      </trkpt>
      <trkpt lat="43.854125" lon="5.594294">
        <ele>401.9</ele>
      </trkpt>
      <trkpt lat="43.854164" lon="5.594265">
        <ele>401.5</ele>
      </trkpt>
      <trkpt lat="43.854210" lon="5.594246">
        <ele>398.5</ele>
      </trkpt>
      <trkpt lat="43.854468" lon="5.593457">
        <ele>399.2</ele>
      </trkpt>
      <trkpt lat="43.854754" lon="5.592706">
        <ele>398.8</ele>
      </trkpt>
      <trkpt lat="43.854942" lon="5.592320">
        <ele>398.8</ele>
      </trkpt>
      <trkpt lat="43.855150" lon="5.591944">
        <ele>393.6</ele>
      </trkpt>
      <trkpt lat="43.855386" lon="5.591692">
        <ele>392.5</ele>
      </trkpt>
      <trkpt lat="43.855694" lon="5.591346">
        <ele>392.6</ele>
      </trkpt>
      <trkpt lat="43.856127" lon="5.591824">
        <ele>385</ele>
      </trkpt>
      <trkpt lat="43.856547" lon="5.592269">
        <ele>383.3</ele>
      </trkpt>
      <trkpt lat="43.856920" lon="5.593076">
        <ele>378.5</ele>
      </trkpt>
      <trkpt lat="43.857198" lon="5.592940">
        <ele>376.6</ele>
      </trkpt>
    </trkseg>
  </trk>
</gpx>