<?xml version="1.0" ?>
<gpx xmlns="http://www.topografix.com/GPX/1/1" xmlns:xsi="http://www.w3.org/2001/XMLSchema-instance" xsi:schemaLocation="http://www.topografix.com/GPX/1/1 http://www.topografix.com/GPX/1/1/gpx.xsd" version="1.1" creator="EditGPX">
  <trk>
    <name>NewTrack</name>
    <trkseg>
      <trkpt lat="43.758579" lon="5.507372">
        <ele>330.4</ele>
      </trkpt>
      <trkpt lat="43.758476" lon="5.507415">
        <ele>330.9</ele>
      </trkpt>
      <trkpt lat="43.758526" lon="5.507616">
        <ele>330.7</ele>
      </trkpt>
      <trkpt lat="43.758876" lon="5.508893">
        <ele>330.3</ele>
      </trkpt>
      <trkpt lat="43.759096" lon="5.509365">
        <ele>329.6</ele>
      </trkpt>
      <trkpt lat="43.760132" lon="5.510682">
        <ele>335.4</ele>
      </trkpt>
      <trkpt lat="43.760434" lon="5.510977">
        <ele>334.1</ele>
      </trkpt>
      <trkpt lat="43.760599" lon="5.511081">
        <ele>334.2</ele>
      </trkpt>
      <trkpt lat="43.761301" lon="5.511510">
        <ele>338.1</ele>
      </trkpt>
      <trkpt lat="43.761169" lon="5.512025">
        <ele>335.4</ele>
      </trkpt>
      <trkpt lat="43.761128" lon="5.512154">
        <ele>334.9</ele>
      </trkpt>
      <trkpt lat="43.761093" lon="5.512382">
        <ele>334.1</ele>
      </trkpt>
      <trkpt lat="43.761107" lon="5.512546">
        <ele>332.7</ele>
      </trkpt>
      <trkpt lat="43.761332" lon="5.512999">
        <ele>333.9</ele>
      </trkpt>
      <trkpt lat="43.761630" lon="5.513793">
        <ele>332.3</ele>
      </trkpt>
      <trkpt lat="43.762100" lon="5.515122">
        <ele>332.4</ele>
      </trkpt>
      <trkpt lat="43.762110" lon="5.515150">
        <ele>332.4</ele>
      </trkpt>
      <trkpt lat="43.762651" lon="5.516674">
        <ele>335.3</ele>
      </trkpt>
      <trkpt lat="43.762941" lon="5.517545">
        <ele>334.7</ele>
      </trkpt>
      <trkpt lat="43.763182" lon="5.518412">
        <ele>335.1</ele>
      </trkpt>
      <trkpt lat="43.763470" lon="5.519409">
        <ele>336.7</ele>
      </trkpt>
      <trkpt lat="43.763898" lon="5.520582">
        <ele>335.8</ele>
      </trkpt>
      <trkpt lat="43.764040" lon="5.520957">
        <ele>335.9</ele>
      </trkpt>
      <trkpt lat="43.764366" lon="5.522281">
        <ele>338.1</ele>
      </trkpt>
      <trkpt lat="43.764627" lon="5.523340">
        <ele>336.2</ele>
      </trkpt>
      <trkpt lat="43.764887" lon="5.524398">
        <ele>336.3</ele>
      </trkpt>
      <trkpt lat="43.764912" lon="5.524498">
        <ele>336.4</ele>
      </trkpt>
      <trkpt lat="43.764923" lon="5.524659">
        <ele>336.7</ele>
      </trkpt>
      <trkpt lat="43.764890" lon="5.524911">
        <ele>338</ele>
      </trkpt>
      <trkpt lat="43.764950" lon="5.525782">
        <ele>339.9</ele>
      </trkpt>
      <trkpt lat="43.765012" lon="5.526123">
        <ele>344.6</ele>
      </trkpt>
      <trkpt lat="43.765140" lon="5.526456">
        <ele>345.2</ele>
      </trkpt>
      <trkpt lat="43.765463" lon="5.526968">
        <ele>344.2</ele>
      </trkpt>
      <trkpt lat="43.765810" lon="5.527638">
        <ele>339.7</ele>
      </trkpt>
      <trkpt lat="43.765849" lon="5.527716">
        <ele>341</ele>
      </trkpt>
      <trkpt lat="43.765907" lon="5.527765">
        <ele>340.9</ele>
      </trkpt>
      <trkpt lat="43.766037" lon="5.527689">
        <ele>341.2</ele>
      </trkpt>
      <trkpt lat="43.766136" lon="5.527620">
        <ele>341.4</ele>
      </trkpt>
      <trkpt lat="43.766597" lon="5.527365">
        <ele>345.8</ele>
      </trkpt>
      <trkpt lat="43.767042" lon="5.527164">
        <ele>348.3</ele>
      </trkpt>
      <trkpt lat="43.767643" lon="5.526850">
        <ele>349.4</ele>
      </trkpt>
      <trkpt lat="43.767914" lon="5.526737">
        <ele>348.6</ele>
      </trkpt>
      <trkpt lat="43.768268" lon="5.526614">
        <ele>351.3</ele>
      </trkpt>
      <trkpt lat="43.768634" lon="5.526418">
        <ele>351.7</ele>
      </trkpt>
      <trkpt lat="43.769109" lon="5.525882">
        <ele>351.4</ele>
      </trkpt>
      <trkpt lat="43.769343" lon="5.525571">
        <ele>354.9</ele>
      </trkpt>
      <trkpt lat="43.769659" lon="5.525286">
        <ele>355.9</ele>
      </trkpt>
      <trkpt lat="43.770364" lon="5.524857">
        <ele>358.6</ele>
      </trkpt>
      <trkpt lat="43.770594" lon="5.524664">
        <ele>359.1</ele>
      </trkpt>
      <trkpt lat="43.770755" lon="5.524503">
        <ele>359.8</ele>
      </trkpt>
      <trkpt lat="43.771106" lon="5.524181">
        <ele>357.8</ele>
      </trkpt>
      <trkpt lat="43.771284" lon="5.524055">
        <ele>361.4</ele>
      </trkpt>
      <trkpt lat="43.771621" lon="5.523891">
        <ele>360.5</ele>
      </trkpt>
      <trkpt lat="43.771830" lon="5.523776">
        <ele>359.2</ele>
      </trkpt>
      <trkpt lat="43.771960" lon="5.523682">
        <ele>359.6</ele>
      </trkpt>
      <trkpt lat="43.772655" lon="5.523084">
        <ele>362.4</ele>
      </trkpt>
      <trkpt lat="43.772963" lon="5.522859">
        <ele>363.4</ele>
      </trkpt>
      <trkpt lat="43.772967" lon="5.522977">
        <ele>363.2</ele>
      </trkpt>
      <trkpt lat="43.772994" lon="5.523342">
        <ele>361.1</ele>
      </trkpt>
      <trkpt lat="43.773083" lon="5.523460">
        <ele>361.3</ele>
      </trkpt>
      <trkpt lat="43.773114" lon="5.523360">
        <ele>361.5</ele>
      </trkpt>
      <trkpt lat="43.773470" lon="5.522776">
        <ele>364.3</ele>
      </trkpt>
      <trkpt lat="43.773583" lon="5.522591">
        <ele>364.5</ele>
      </trkpt>
      <trkpt lat="43.773606" lon="5.522521">
        <ele>364.5</ele>
      </trkpt>
      <trkpt lat="43.773620" lon="5.522355">
        <ele>367.3</ele>
      </trkpt>
      <trkpt lat="43.773620" lon="5.522242">
        <ele>367.7</ele>
      </trkpt>
      <trkpt lat="43.773590" lon="5.522046">
        <ele>368.6</ele>
      </trkpt>
      <trkpt lat="43.773587" lon="5.522003">
        <ele>368.8</ele>
      </trkpt>
      <trkpt lat="43.774065" lon="5.521746">
        <ele>368.8</ele>
      </trkpt>
      <trkpt lat="43.774092" lon="5.521646">
        <ele>370.7</ele>
      </trkpt>
      <trkpt lat="43.774243" lon="5.521469">
        <ele>371</ele>
      </trkpt>
      <trkpt lat="43.774414" lon="5.521258">
        <ele>372.3</ele>
      </trkpt>
      <trkpt lat="43.774793" lon="5.520976">
        <ele>372.3</ele>
      </trkpt>
      <trkpt lat="43.775065" lon="5.520743">
        <ele>373</ele>
      </trkpt>
      <trkpt lat="43.775256" lon="5.520504">
        <ele>374.5</ele>
      </trkpt>
      <trkpt lat="43.775386" lon="5.520308">
        <ele>375.1</ele>
      </trkpt>
      <trkpt lat="43.775479" lon="5.520115">
        <ele>375.5</ele>
      </trkpt>
      <trkpt lat="43.775572" lon="5.519957">
        <ele>380.3</ele>
      </trkpt>
      <trkpt lat="43.776701" lon="5.519361">
        <ele>378.7</ele>
      </trkpt>
      <trkpt lat="43.776961" lon="5.519224">
        <ele>378.5</ele>
      </trkpt>
      <trkpt lat="43.777836" lon="5.518742">
        <ele>384.3</ele>
      </trkpt>
      <trkpt lat="43.777933" lon="5.518691">
        <ele>384.5</ele>
      </trkpt>
      <trkpt lat="43.777979" lon="5.518589">
        <ele>384.8</ele>
      </trkpt>
      <trkpt lat="43.778291" lon="5.518001">
        <ele>387.1</ele>
      </trkpt>
      <trkpt lat="43.778460" lon="5.517696">
        <ele>386.4</ele>
      </trkpt>
      <trkpt lat="43.778491" lon="5.517594">
        <ele>386.5</ele>
      </trkpt>
      <trkpt lat="43.778477" lon="5.517519">
        <ele>386.6</ele>
      </trkpt>
      <trkpt lat="43.778101" lon="5.516542">
        <ele>395.7</ele>
      </trkpt>
      <trkpt lat="43.778074" lon="5.516454">
        <ele>396.3</ele>
      </trkpt>
      <trkpt lat="43.778063" lon="5.516389">
        <ele>396.7</ele>
      </trkpt>
      <trkpt lat="43.778095" lon="5.516328">
        <ele>397.1</ele>
      </trkpt>
      <trkpt lat="43.778310" lon="5.516180">
        <ele>398.3</ele>
      </trkpt>
      <trkpt lat="43.778508" lon="5.516006">
        <ele>398.8</ele>
      </trkpt>
      <trkpt lat="43.779002" lon="5.515464">
        <ele>404.3</ele>
      </trkpt>
      <trkpt lat="43.779802" lon="5.514587">
        <ele>408.4</ele>
      </trkpt>
      <trkpt lat="43.780385" lon="5.513994">
        <ele>412.1</ele>
      </trkpt>
      <trkpt lat="43.780812" lon="5.513356">
        <ele>414.8</ele>
      </trkpt>
      <trkpt lat="43.781308" lon="5.512589">
        <ele>414.6</ele>
      </trkpt>
      <trkpt lat="43.781845" lon="5.511449">
        <ele>418.9</ele>
      </trkpt>
      <trkpt lat="43.782023" lon="5.510987">
        <ele>419.5</ele>
      </trkpt>
      <trkpt lat="43.782176" lon="5.510424">
        <ele>420.6</ele>
      </trkpt>
      <trkpt lat="43.782242" lon="5.510175">
        <ele>420.7</ele>
      </trkpt>
      <trkpt lat="43.782398" lon="5.509815">
        <ele>420.2</ele>
      </trkpt>
      <trkpt lat="43.782439" lon="5.509544">
        <ele>419.6</ele>
      </trkpt>
      <trkpt lat="43.782460" lon="5.509249">
        <ele>419.1</ele>
      </trkpt>
      <trkpt lat="43.782457" lon="5.509083">
        <ele>419.1</ele>
      </trkpt>
      <trkpt lat="43.782404" lon="5.508807">
        <ele>419.5</ele>
      </trkpt>
      <trkpt lat="43.782642" lon="5.508844">
        <ele>419.5</ele>
      </trkpt>
      <trkpt lat="43.783489" lon="5.509035">
        <ele>419.2</ele>
      </trkpt>
      <trkpt lat="43.784232" lon="5.509112">
        <ele>422</ele>
      </trkpt>
      <trkpt lat="43.784612" lon="5.509236">
        <ele>423.1</ele>
      </trkpt>
      <trkpt lat="43.785067" lon="5.509373">
        <ele>424.7</ele>
      </trkpt>
      <trkpt lat="43.785526" lon="5.509437">
        <ele>425.4</ele>
      </trkpt>
      <trkpt lat="43.785714" lon="5.509480">
        <ele>425.6</ele>
      </trkpt>
      <trkpt lat="43.785911" lon="5.509563">
        <ele>428.1</ele>
      </trkpt>
      <trkpt lat="43.786221" lon="5.509794">
        <ele>429</ele>
      </trkpt>
      <trkpt lat="43.786337" lon="5.509837">
        <ele>429.5</ele>
      </trkpt>
      <trkpt lat="43.786968" lon="5.509976">
        <ele>434.4</ele>
      </trkpt>
      <trkpt lat="43.787327" lon="5.509998">
        <ele>437.3</ele>
      </trkpt>
      <trkpt lat="43.787758" lon="5.509933">
        <ele>439.4</ele>
      </trkpt>
      <trkpt lat="43.787776" lon="5.509778">
        <ele>439.1</ele>
      </trkpt>
      <trkpt lat="43.787758" lon="5.509458">
        <ele>438.2</ele>
      </trkpt>
      <trkpt lat="43.787652" lon="5.509268">
        <ele>437.4</ele>
      </trkpt>
      <trkpt lat="43.787629" lon="5.509163">
        <ele>435.5</ele>
      </trkpt>
      <trkpt lat="43.787671" lon="5.508139">
        <ele>432.3</ele>
      </trkpt>
      <trkpt lat="43.787669" lon="5.508045">
        <ele>432.4</ele>
      </trkpt>
      <trkpt lat="43.787631" lon="5.507868">
        <ele>432.4</ele>
      </trkpt>
      <trkpt lat="43.787592" lon="5.507627">
        <ele>431.9</ele>
      </trkpt>
      <trkpt lat="43.787600" lon="5.507318">
        <ele>430</ele>
      </trkpt>
      <trkpt lat="43.787636" lon="5.507141">
        <ele>429.2</ele>
      </trkpt>
      <trkpt lat="43.787755" lon="5.506937">
        <ele>428.3</ele>
      </trkpt>
      <trkpt lat="43.787900" lon="5.506908">
        <ele>428.5</ele>
      </trkpt>
      <trkpt lat="43.788031" lon="5.506884">
        <ele>428.5</ele>
      </trkpt>
      <trkpt lat="43.788126" lon="5.506851">
        <ele>428.2</ele>
      </trkpt>
      <trkpt lat="43.788190" lon="5.506808">
        <ele>427.9</ele>
      </trkpt>
      <trkpt lat="43.788248" lon="5.506712">
        <ele>427.1</ele>
      </trkpt>
      <trkpt lat="43.788279" lon="5.506562">
        <ele>426.4</ele>
      </trkpt>
      <trkpt lat="43.788252" lon="5.506347">
        <ele>427</ele>
      </trkpt>
      <trkpt lat="43.788095" lon="5.506122">
        <ele>427.5</ele>
      </trkpt>
      <trkpt lat="43.787532" lon="5.505623">
        <ele>430.6</ele>
      </trkpt>
      <trkpt lat="43.787269" lon="5.505416">
        <ele>430.9</ele>
      </trkpt>
      <trkpt lat="43.786947" lon="5.505038">
        <ele>432.3</ele>
      </trkpt>
      <trkpt lat="43.786870" lon="5.504899">
        <ele>436.3</ele>
      </trkpt>
      <trkpt lat="43.786802" lon="5.504700">
        <ele>436.9</ele>
      </trkpt>
      <trkpt lat="43.786790" lon="5.504180">
        <ele>438.2</ele>
      </trkpt>
      <trkpt lat="43.786776" lon="5.503928">
        <ele>440.2</ele>
      </trkpt>
      <trkpt lat="43.786699" lon="5.503504">
        <ele>440.1</ele>
      </trkpt>
      <trkpt lat="43.786699" lon="5.503166">
        <ele>440.6</ele>
      </trkpt>
      <trkpt lat="43.786792" lon="5.502614">
        <ele>441.6</ele>
      </trkpt>
      <trkpt lat="43.786846" lon="5.502346">
        <ele>440.8</ele>
      </trkpt>
      <trkpt lat="43.786877" lon="5.501959">
        <ele>439.9</ele>
      </trkpt>
      <trkpt lat="43.786885" lon="5.501812">
        <ele>439.6</ele>
      </trkpt>
      <trkpt lat="43.786856" lon="5.501672">
        <ele>439.2</ele>
      </trkpt>
      <trkpt lat="43.786761" lon="5.501578">
        <ele>436</ele>
      </trkpt>
      <trkpt lat="43.786598" lon="5.501509">
        <ele>434.6</ele>
      </trkpt>
      <trkpt lat="43.786438" lon="5.501490">
        <ele>433.5</ele>
      </trkpt>
      <trkpt lat="43.786349" lon="5.501474">
        <ele>432.9</ele>
      </trkpt>
      <trkpt lat="43.786132" lon="5.501208">
        <ele>431.1</ele>
      </trkpt>
      <trkpt lat="43.785882" lon="5.501058">
        <ele>429.7</ele>
      </trkpt>
      <trkpt lat="43.785578" lon="5.500975">
        <ele>430</ele>
      </trkpt>
      <trkpt lat="43.785270" lon="5.500972">
        <ele>431</ele>
      </trkpt>
      <trkpt lat="43.785181" lon="5.500940">
        <ele>431.2</ele>
      </trkpt>
      <trkpt lat="43.785259" lon="5.500913">
        <ele>431</ele>
      </trkpt>
      <trkpt lat="43.785371" lon="5.500851">
        <ele>430.6</ele>
      </trkpt>
      <trkpt lat="43.785505" lon="5.500784">
        <ele>428.4</ele>
      </trkpt>
      <trkpt lat="43.785628" lon="5.500672">
        <ele>427.9</ele>
      </trkpt>
      <trkpt lat="43.785791" lon="5.500454">
        <ele>427</ele>
      </trkpt>
      <trkpt lat="43.785884" lon="5.500312">
        <ele>421.8</ele>
      </trkpt>
      <trkpt lat="43.785956" lon="5.500065">
        <ele>420.9</ele>
      </trkpt>
      <trkpt lat="43.785987" lon="5.499894">
        <ele>416.6</ele>
      </trkpt>
      <trkpt lat="43.785998" lon="5.499781">
        <ele>415.3</ele>
      </trkpt>
      <trkpt lat="43.786000" lon="5.499596">
        <ele>413.9</ele>
      </trkpt>
      <trkpt lat="43.786002" lon="5.499459">
        <ele>413.1</ele>
      </trkpt>
      <trkpt lat="43.785985" lon="5.499266">
        <ele>412.4</ele>
      </trkpt>
      <trkpt lat="43.785950" lon="5.499030">
        <ele>409.2</ele>
      </trkpt>
      <trkpt lat="43.785886" lon="5.498856">
        <ele>407.8</ele>
      </trkpt>
      <trkpt lat="43.785787" lon="5.498700">
        <ele>408.8</ele>
      </trkpt>
      <trkpt lat="43.785638" lon="5.498571">
        <ele>408</ele>
      </trkpt>
      <trkpt lat="43.785441" lon="5.498518">
        <ele>408.5</ele>
      </trkpt>
      <trkpt lat="43.785324" lon="5.498502">
        <ele>408.5</ele>
      </trkpt>
      <trkpt lat="43.785131" lon="5.498502">
        <ele>407.9</ele>
      </trkpt>
      <trkpt lat="43.784964" lon="5.498531">
        <ele>407.9</ele>
      </trkpt>
      <trkpt lat="43.784846" lon="5.498577">
        <ele>408.7</ele>
      </trkpt>
      <trkpt lat="43.784766" lon="5.498602">
        <ele>409</ele>
      </trkpt>
      <trkpt lat="43.784792" lon="5.498521">
        <ele>408.2</ele>
      </trkpt>
      <trkpt lat="43.784814" lon="5.498139">
        <ele>405.7</ele>
      </trkpt>
      <trkpt lat="43.784797" lon="5.498013">
        <ele>406.3</ele>
      </trkpt>
      <trkpt lat="43.784749" lon="5.497949">
        <ele>406.5</ele>
      </trkpt>
      <trkpt lat="43.784622" lon="5.497855">
        <ele>406.8</ele>
      </trkpt>
      <trkpt lat="43.784594" lon="5.497828">
        <ele>406.9</ele>
      </trkpt>
      <trkpt lat="43.784604" lon="5.497769">
        <ele>407.1</ele>
      </trkpt>
      <trkpt lat="43.784641" lon="5.497667">
        <ele>407.6</ele>
      </trkpt>
      <trkpt lat="43.784850" lon="5.497474">
        <ele>412</ele>
      </trkpt>
      <trkpt lat="43.784889" lon="5.497389">
        <ele>412.2</ele>
      </trkpt>
      <trkpt lat="43.785030" lon="5.497253">
        <ele>413.4</ele>
      </trkpt>
      <trkpt lat="43.784989" lon="5.497195">
        <ele>413.4</ele>
      </trkpt>
      <trkpt lat="43.784951" lon="5.497171">
        <ele>413.6</ele>
      </trkpt>
      <trkpt lat="43.784834" lon="5.497238">
        <ele>413</ele>
      </trkpt>
      <trkpt lat="43.784708" lon="5.497219">
        <ele>413</ele>
      </trkpt>
      <trkpt lat="43.784909" lon="5.497064">
        <ele>414.3</ele>
      </trkpt>
      <trkpt lat="43.784930" lon="5.497027">
        <ele>414.7</ele>
      </trkpt>
      <trkpt lat="43.784943" lon="5.496925">
        <ele>415.8</ele>
      </trkpt>
      <trkpt lat="43.785005" lon="5.496713">
        <ele>419.9</ele>
      </trkpt>
      <trkpt lat="43.785058" lon="5.496622">
        <ele>421.8</ele>
      </trkpt>
      <trkpt lat="43.785101" lon="5.496570">
        <ele>422.4</ele>
      </trkpt>
      <trkpt lat="43.785177" lon="5.496487">
        <ele>423.1</ele>
      </trkpt>
      <trkpt lat="43.785171" lon="5.496450">
        <ele>423.3</ele>
      </trkpt>
      <trkpt lat="43.785255" lon="5.496184">
        <ele>424.6</ele>
      </trkpt>
      <trkpt lat="43.785320" lon="5.496113">
        <ele>425</ele>
      </trkpt>
      <trkpt lat="43.785345" lon="5.496089">
        <ele>425.2</ele>
      </trkpt>
      <trkpt lat="43.785347" lon="5.496088">
        <ele>425.2</ele>
      </trkpt>
      <trkpt lat="43.785374" lon="5.496061">
        <ele>425.4</ele>
      </trkpt>
      <trkpt lat="43.785405" lon="5.496028">
        <ele>425.7</ele>
      </trkpt>
      <trkpt lat="43.785433" lon="5.496001">
        <ele>426</ele>
      </trkpt>
      <trkpt lat="43.785462" lon="5.495971">
        <ele>426.3</ele>
      </trkpt>
      <trkpt lat="43.785487" lon="5.495953">
        <ele>426.6</ele>
      </trkpt>
      <trkpt lat="43.785506" lon="5.495930">
        <ele>426.9</ele>
      </trkpt>
      <trkpt lat="43.785532" lon="5.495898">
        <ele>427.3</ele>
      </trkpt>
      <trkpt lat="43.785567" lon="5.495862">
        <ele>427.8</ele>
      </trkpt>
      <trkpt lat="43.785612" lon="5.495809">
        <ele>431.7</ele>
      </trkpt>
      <trkpt lat="43.785651" lon="5.495779">
        <ele>432</ele>
      </trkpt>
      <trkpt lat="43.785695" lon="5.495745">
        <ele>432.3</ele>
      </trkpt>
      <trkpt lat="43.785731" lon="5.495717">
        <ele>432.4</ele>
      </trkpt>
      <trkpt lat="43.785760" lon="5.495683">
        <ele>432.5</ele>
      </trkpt>
      <trkpt lat="43.785874" lon="5.495613">
        <ele>433.1</ele>
      </trkpt>
      <trkpt lat="43.786004" lon="5.495500">
        <ele>432.9</ele>
      </trkpt>
      <trkpt lat="43.786043" lon="5.495452">
        <ele>433</ele>
      </trkpt>
      <trkpt lat="43.786264" lon="5.495079">
        <ele>433.8</ele>
      </trkpt>
      <trkpt lat="43.786294" lon="5.495040">
        <ele>433.9</ele>
      </trkpt>
      <trkpt lat="43.786325" lon="5.495011">
        <ele>433.9</ele>
      </trkpt>
      <trkpt lat="43.786356" lon="5.494980">
        <ele>438</ele>
      </trkpt>
      <trkpt lat="43.786386" lon="5.494953">
        <ele>438</ele>
      </trkpt>
      <trkpt lat="43.786423" lon="5.494921">
        <ele>437.9</ele>
      </trkpt>
      <trkpt lat="43.786451" lon="5.494902">
        <ele>437.9</ele>
      </trkpt>
      <trkpt lat="43.786492" lon="5.494878">
        <ele>437.8</ele>
      </trkpt>
      <trkpt lat="43.786528" lon="5.494842">
        <ele>437.9</ele>
      </trkpt>
      <trkpt lat="43.786561" lon="5.494801">
        <ele>438</ele>
      </trkpt>
      <trkpt lat="43.786583" lon="5.494758">
        <ele>438.2</ele>
      </trkpt>
      <trkpt lat="43.786607" lon="5.494714">
        <ele>438.4</ele>
      </trkpt>
      <trkpt lat="43.786632" lon="5.494663">
        <ele>438.7</ele>
      </trkpt>
      <trkpt lat="43.786651" lon="5.494612">
        <ele>439</ele>
      </trkpt>
      <trkpt lat="43.786662" lon="5.494569">
        <ele>439.3</ele>
      </trkpt>
      <trkpt lat="43.786670" lon="5.494531">
        <ele>434.8</ele>
      </trkpt>
      <trkpt lat="43.786679" lon="5.494483">
        <ele>435.3</ele>
      </trkpt>
      <trkpt lat="43.786689" lon="5.494434">
        <ele>435.8</ele>
      </trkpt>
      <trkpt lat="43.786707" lon="5.494384">
        <ele>436.5</ele>
      </trkpt>
      <trkpt lat="43.786722" lon="5.494327">
        <ele>437.5</ele>
      </trkpt>
      <trkpt lat="43.786739" lon="5.494269">
        <ele>438.5</ele>
      </trkpt>
      <trkpt lat="43.786778" lon="5.494187">
        <ele>438.8</ele>
      </trkpt>
      <trkpt lat="43.786807" lon="5.494122">
        <ele>441.5</ele>
      </trkpt>
      <trkpt lat="43.786860" lon="5.493984">
        <ele>440.9</ele>
      </trkpt>
      <trkpt lat="43.786884" lon="5.493907">
        <ele>440.8</ele>
      </trkpt>
      <trkpt lat="43.786893" lon="5.493882">
        <ele>440.8</ele>
      </trkpt>
      <trkpt lat="43.786920" lon="5.493790">
        <ele>440.9</ele>
      </trkpt>
      <trkpt lat="43.786961" lon="5.493624">
        <ele>441.4</ele>
      </trkpt>
      <trkpt lat="43.786979" lon="5.493549">
        <ele>441.6</ele>
      </trkpt>
      <trkpt lat="43.787023" lon="5.493432">
        <ele>441.8</ele>
      </trkpt>
      <trkpt lat="43.787104" lon="5.493264">
        <ele>446.1</ele>
      </trkpt>
      <trkpt lat="43.787141" lon="5.493198">
        <ele>446.1</ele>
      </trkpt>
      <trkpt lat="43.787162" lon="5.493099">
        <ele>446.4</ele>
      </trkpt>
      <trkpt lat="43.787180" lon="5.492977">
        <ele>447</ele>
      </trkpt>
      <trkpt lat="43.787214" lon="5.492906">
        <ele>447.3</ele>
      </trkpt>
      <trkpt lat="43.787253" lon="5.492673">
        <ele>448.8</ele>
      </trkpt>
      <trkpt lat="43.787306" lon="5.492482">
        <ele>451.8</ele>
      </trkpt>
      <trkpt lat="43.787375" lon="5.492260">
        <ele>451.9</ele>
      </trkpt>
      <trkpt lat="43.787446" lon="5.492039">
        <ele>452.2</ele>
      </trkpt>
      <trkpt lat="43.787528" lon="5.491790">
        <ele>450.7</ele>
      </trkpt>
      <trkpt lat="43.787588" lon="5.491622">
        <ele>452.2</ele>
      </trkpt>
      <trkpt lat="43.787656" lon="5.491435">
        <ele>449.5</ele>
      </trkpt>
      <trkpt lat="43.787699" lon="5.491254">
        <ele>448.7</ele>
      </trkpt>
      <trkpt lat="43.787732" lon="5.491138">
        <ele>448.6</ele>
      </trkpt>
      <trkpt lat="43.787791" lon="5.490990">
        <ele>448.6</ele>
      </trkpt>
      <trkpt lat="43.787861" lon="5.490852">
        <ele>448.2</ele>
      </trkpt>
      <trkpt lat="43.787907" lon="5.490740">
        <ele>450.2</ele>
      </trkpt>
      <trkpt lat="43.787942" lon="5.490641">
        <ele>450.2</ele>
      </trkpt>
      <trkpt lat="43.787968" lon="5.490556">
        <ele>450.3</ele>
      </trkpt>
      <trkpt lat="43.787991" lon="5.490474">
        <ele>450.5</ele>
      </trkpt>
      <trkpt lat="43.788016" lon="5.490395">
        <ele>450.7</ele>
      </trkpt>
      <trkpt lat="43.788028" lon="5.490357">
        <ele>450.8</ele>
      </trkpt>
      <trkpt lat="43.788047" lon="5.490297">
        <ele>451</ele>
      </trkpt>
      <trkpt lat="43.788074" lon="5.490242">
        <ele>451.2</ele>
      </trkpt>
      <trkpt lat="43.788122" lon="5.490185">
        <ele>451.5</ele>
      </trkpt>
      <trkpt lat="43.788187" lon="5.490147">
        <ele>451.9</ele>
      </trkpt>
      <trkpt lat="43.788271" lon="5.490114">
        <ele>452.5</ele>
      </trkpt>
      <trkpt lat="43.788389" lon="5.490050">
        <ele>452.5</ele>
      </trkpt>
      <trkpt lat="43.788512" lon="5.489982">
        <ele>455.3</ele>
      </trkpt>
      <trkpt lat="43.788620" lon="5.489909">
        <ele>455.7</ele>
      </trkpt>
      <trkpt lat="43.788744" lon="5.489852">
        <ele>456.1</ele>
      </trkpt>
      <trkpt lat="43.788882" lon="5.489764">
        <ele>456.4</ele>
      </trkpt>
      <trkpt lat="43.789015" lon="5.489657">
        <ele>456.9</ele>
      </trkpt>
      <trkpt lat="43.789162" lon="5.489544">
        <ele>457.7</ele>
      </trkpt>
      <trkpt lat="43.789177" lon="5.489530">
        <ele>460.4</ele>
      </trkpt>
      <trkpt lat="43.789354" lon="5.489409">
        <ele>461.2</ele>
      </trkpt>
      <trkpt lat="43.789498" lon="5.489297">
        <ele>462</ele>
      </trkpt>
      <trkpt lat="43.789643" lon="5.489189">
        <ele>463.1</ele>
      </trkpt>
      <trkpt lat="43.789765" lon="5.489093">
        <ele>466.9</ele>
      </trkpt>
      <trkpt lat="43.789810" lon="5.489067">
        <ele>467.1</ele>
      </trkpt>
      <trkpt lat="43.789815" lon="5.489063">
        <ele>467.1</ele>
      </trkpt>
      <trkpt lat="43.789865" lon="5.489033">
        <ele>467.3</ele>
      </trkpt>
      <trkpt lat="43.789936" lon="5.488996">
        <ele>467.5</ele>
      </trkpt>
      <trkpt lat="43.789995" lon="5.488978">
        <ele>467.5</ele>
      </trkpt>
      <trkpt lat="43.790002" lon="5.488975">
        <ele>469.4</ele>
      </trkpt>
      <trkpt lat="43.790090" lon="5.488958">
        <ele>469.4</ele>
      </trkpt>
      <trkpt lat="43.790182" lon="5.488955">
        <ele>469.6</ele>
      </trkpt>
      <trkpt lat="43.790263" lon="5.488950">
        <ele>469.7</ele>
      </trkpt>
      <trkpt lat="43.790381" lon="5.488948">
        <ele>469.9</ele>
      </trkpt>
      <trkpt lat="43.790518" lon="5.488951">
        <ele>470.3</ele>
      </trkpt>
      <trkpt lat="43.790543" lon="5.488952">
        <ele>470.4</ele>
      </trkpt>
      <trkpt lat="43.790669" lon="5.488963">
        <ele>470.8</ele>
      </trkpt>
      <trkpt lat="43.790716" lon="5.488967">
        <ele>471</ele>
      </trkpt>
      <trkpt lat="43.790825" lon="5.488973">
        <ele>471.2</ele>
      </trkpt>
      <trkpt lat="43.790963" lon="5.488982">
        <ele>474</ele>
      </trkpt>
      <trkpt lat="43.791194" lon="5.488995">
        <ele>475</ele>
      </trkpt>
      <trkpt lat="43.791366" lon="5.488999">
        <ele>476.1</ele>
      </trkpt>
      <trkpt lat="43.791494" lon="5.489010">
        <ele>477.2</ele>
      </trkpt>
      <trkpt lat="43.791663" lon="5.489032">
        <ele>478.5</ele>
      </trkpt>
      <trkpt lat="43.791721" lon="5.489040">
        <ele>481.5</ele>
      </trkpt>
      <trkpt lat="43.791829" lon="5.489055">
        <ele>481.8</ele>
      </trkpt>
      <trkpt lat="43.791952" lon="5.489064">
        <ele>482.3</ele>
      </trkpt>
      <trkpt lat="43.791974" lon="5.489067">
        <ele>482.4</ele>
      </trkpt>
      <trkpt lat="43.792107" lon="5.489082">
        <ele>483.1</ele>
      </trkpt>
      <trkpt lat="43.792247" lon="5.489101">
        <ele>484.1</ele>
      </trkpt>
      <trkpt lat="43.792380" lon="5.489117">
        <ele>485.2</ele>
      </trkpt>
      <trkpt lat="43.792529" lon="5.489125">
        <ele>487.7</ele>
      </trkpt>
      <trkpt lat="43.792673" lon="5.489131">
        <ele>489</ele>
      </trkpt>
      <trkpt lat="43.792825" lon="5.489137">
        <ele>490.2</ele>
      </trkpt>
      <trkpt lat="43.792958" lon="5.489140">
        <ele>491.1</ele>
      </trkpt>
      <trkpt lat="43.793100" lon="5.489141">
        <ele>492.3</ele>
      </trkpt>
      <trkpt lat="43.793212" lon="5.489130">
        <ele>493.3</ele>
      </trkpt>
      <trkpt lat="43.793274" lon="5.489125">
        <ele>493.9</ele>
      </trkpt>
      <trkpt lat="43.793324" lon="5.489121">
        <ele>494.3</ele>
      </trkpt>
      <trkpt lat="43.793393" lon="5.489109">
        <ele>496.1</ele>
      </trkpt>
      <trkpt lat="43.793449" lon="5.489100">
        <ele>496.7</ele>
      </trkpt>
      <trkpt lat="43.793508" lon="5.489097">
        <ele>497.2</ele>
      </trkpt>
      <trkpt lat="43.793564" lon="5.489095">
        <ele>497.7</ele>
      </trkpt>
      <trkpt lat="43.793615" lon="5.489099">
        <ele>498</ele>
      </trkpt>
      <trkpt lat="43.793634" lon="5.489104">
        <ele>498.2</ele>
      </trkpt>
      <trkpt lat="43.793676" lon="5.489117">
        <ele>498.5</ele>
      </trkpt>
      <trkpt lat="43.793742" lon="5.489148">
        <ele>498.9</ele>
      </trkpt>
      <trkpt lat="43.793805" lon="5.489186">
        <ele>499.2</ele>
      </trkpt>
      <trkpt lat="43.793888" lon="5.489240">
        <ele>499.8</ele>
      </trkpt>
      <trkpt lat="43.793970" lon="5.489300">
        <ele>500.3</ele>
      </trkpt>
      <trkpt lat="43.794057" lon="5.489366">
        <ele>500.5</ele>
      </trkpt>
      <trkpt lat="43.794103" lon="5.489399">
        <ele>500.5</ele>
      </trkpt>
      <trkpt lat="43.794256" lon="5.489397">
        <ele>505.2</ele>
      </trkpt>
      <trkpt lat="43.794354" lon="5.489417">
        <ele>505.7</ele>
      </trkpt>
      <trkpt lat="43.794361" lon="5.489419">
        <ele>505.7</ele>
      </trkpt>
      <trkpt lat="43.794498" lon="5.489464">
        <ele>506.5</ele>
      </trkpt>
      <trkpt lat="43.794629" lon="5.489496">
        <ele>507.2</ele>
      </trkpt>
      <trkpt lat="43.794630" lon="5.489497">
        <ele>507.2</ele>
      </trkpt>
      <trkpt lat="43.794792" lon="5.489540">
        <ele>507.9</ele>
      </trkpt>
      <trkpt lat="43.794831" lon="5.489553">
        <ele>508</ele>
      </trkpt>
      <trkpt lat="43.794907" lon="5.489585">
        <ele>508.1</ele>
      </trkpt>
      <trkpt lat="43.795107" lon="5.489646">
        <ele>513.4</ele>
      </trkpt>
      <trkpt lat="43.795277" lon="5.489698">
        <ele>513.9</ele>
      </trkpt>
      <trkpt lat="43.795410" lon="5.489746">
        <ele>514.6</ele>
      </trkpt>
      <trkpt lat="43.795460" lon="5.489782">
        <ele>514.8</ele>
      </trkpt>
      <trkpt lat="43.795508" lon="5.489779">
        <ele>515.1</ele>
      </trkpt>
      <trkpt lat="43.795605" lon="5.489804">
        <ele>515.7</ele>
      </trkpt>
      <trkpt lat="43.795640" lon="5.489818">
        <ele>515.9</ele>
      </trkpt>
      <trkpt lat="43.795710" lon="5.489845">
        <ele>516.3</ele>
      </trkpt>
      <trkpt lat="43.795800" lon="5.489880">
        <ele>516.9</ele>
      </trkpt>
      <trkpt lat="43.795904" lon="5.489910">
        <ele>517.9</ele>
      </trkpt>
      <trkpt lat="43.795950" lon="5.489918">
        <ele>517.9</ele>
      </trkpt>
      <trkpt lat="43.796036" lon="5.489951">
        <ele>517.9</ele>
      </trkpt>
      <trkpt lat="43.796120" lon="5.489986">
        <ele>517.9</ele>
      </trkpt>
      <trkpt lat="43.796175" lon="5.490011">
        <ele>515.9</ele>
      </trkpt>
      <trkpt lat="43.796346" lon="5.490076">
        <ele>516.4</ele>
      </trkpt>
      <trkpt lat="43.796496" lon="5.490141">
        <ele>517.3</ele>
      </trkpt>
      <trkpt lat="43.796649" lon="5.490205">
        <ele>517.5</ele>
      </trkpt>
      <trkpt lat="43.796778" lon="5.490273">
        <ele>521.4</ele>
      </trkpt>
      <trkpt lat="43.796864" lon="5.490317">
        <ele>521.5</ele>
      </trkpt>
      <trkpt lat="43.796955" lon="5.490396">
        <ele>521.6</ele>
      </trkpt>
      <trkpt lat="43.797036" lon="5.490483">
        <ele>521.9</ele>
      </trkpt>
      <trkpt lat="43.797135" lon="5.490601">
        <ele>522.6</ele>
      </trkpt>
      <trkpt lat="43.797241" lon="5.490740">
        <ele>524.1</ele>
      </trkpt>
      <trkpt lat="43.797348" lon="5.490841">
        <ele>524</ele>
      </trkpt>
      <trkpt lat="43.797453" lon="5.490945">
        <ele>525</ele>
      </trkpt>
      <trkpt lat="43.797577" lon="5.491085">
        <ele>532.2</ele>
      </trkpt>
      <trkpt lat="43.797678" lon="5.491202">
        <ele>532.7</ele>
      </trkpt>
      <trkpt lat="43.797776" lon="5.491336">
        <ele>533</ele>
      </trkpt>
      <trkpt lat="43.797859" lon="5.491474">
        <ele>533.6</ele>
      </trkpt>
      <trkpt lat="43.797925" lon="5.491602">
        <ele>534.5</ele>
      </trkpt>
      <trkpt lat="43.797982" lon="5.491700">
        <ele>530.7</ele>
      </trkpt>
      <trkpt lat="43.798045" lon="5.491792">
        <ele>531.4</ele>
      </trkpt>
      <trkpt lat="43.798115" lon="5.491873">
        <ele>531.8</ele>
      </trkpt>
      <trkpt lat="43.798193" lon="5.491953">
        <ele>531.6</ele>
      </trkpt>
      <trkpt lat="43.798269" lon="5.492047">
        <ele>530.8</ele>
      </trkpt>
      <trkpt lat="43.798336" lon="5.492137">
        <ele>543.5</ele>
      </trkpt>
      <trkpt lat="43.798377" lon="5.492245">
        <ele>541.6</ele>
      </trkpt>
      <trkpt lat="43.798412" lon="5.492344">
        <ele>539.3</ele>
      </trkpt>
      <trkpt lat="43.798446" lon="5.492421">
        <ele>538</ele>
      </trkpt>
      <trkpt lat="43.798476" lon="5.492486">
        <ele>538.2</ele>
      </trkpt>
      <trkpt lat="43.798523" lon="5.492545">
        <ele>532.5</ele>
      </trkpt>
      <trkpt lat="43.798583" lon="5.492599">
        <ele>533.3</ele>
      </trkpt>
      <trkpt lat="43.798657" lon="5.492646">
        <ele>534.2</ele>
      </trkpt>
      <trkpt lat="43.798755" lon="5.492694">
        <ele>535.5</ele>
      </trkpt>
      <trkpt lat="43.798856" lon="5.492733">
        <ele>536.9</ele>
      </trkpt>
      <trkpt lat="43.798956" lon="5.492758">
        <ele>538.3</ele>
      </trkpt>
      <trkpt lat="43.799061" lon="5.492781">
        <ele>539.4</ele>
      </trkpt>
      <trkpt lat="43.799166" lon="5.492798">
        <ele>539.9</ele>
      </trkpt>
      <trkpt lat="43.799273" lon="5.492816">
        <ele>552.4</ele>
      </trkpt>
      <trkpt lat="43.799382" lon="5.492843">
        <ele>552.9</ele>
      </trkpt>
      <trkpt lat="43.799401" lon="5.492854">
        <ele>553</ele>
      </trkpt>
      <trkpt lat="43.799482" lon="5.492897">
        <ele>553.3</ele>
      </trkpt>
      <trkpt lat="43.799582" lon="5.492967">
        <ele>553.6</ele>
      </trkpt>
      <trkpt lat="43.799685" lon="5.493035">
        <ele>554.1</ele>
      </trkpt>
      <trkpt lat="43.799767" lon="5.493084">
        <ele>554.4</ele>
      </trkpt>
      <trkpt lat="43.799828" lon="5.493138">
        <ele>554.4</ele>
      </trkpt>
      <trkpt lat="43.799900" lon="5.493179">
        <ele>554.4</ele>
      </trkpt>
      <trkpt lat="43.799967" lon="5.493190">
        <ele>554.6</ele>
      </trkpt>
      <trkpt lat="43.800054" lon="5.493188">
        <ele>562.3</ele>
      </trkpt>
      <trkpt lat="43.800143" lon="5.493184">
        <ele>564.1</ele>
      </trkpt>
      <trkpt lat="43.800200" lon="5.493182">
        <ele>565.3</ele>
      </trkpt>
      <trkpt lat="43.800250" lon="5.493180">
        <ele>566.4</ele>
      </trkpt>
      <trkpt lat="43.800329" lon="5.493173">
        <ele>567.8</ele>
      </trkpt>
      <trkpt lat="43.800428" lon="5.493171">
        <ele>569.1</ele>
      </trkpt>
      <trkpt lat="43.800535" lon="5.493171">
        <ele>570</ele>
      </trkpt>
      <trkpt lat="43.800555" lon="5.493175">
        <ele>570.1</ele>
      </trkpt>
      <trkpt lat="43.800642" lon="5.493181">
        <ele>570.3</ele>
      </trkpt>
      <trkpt lat="43.800753" lon="5.493188">
        <ele>570.2</ele>
      </trkpt>
      <trkpt lat="43.800794" lon="5.493188">
        <ele>570.2</ele>
      </trkpt>
      <trkpt lat="43.800869" lon="5.493200">
        <ele>575.4</ele>
      </trkpt>
      <trkpt lat="43.800939" lon="5.493209">
        <ele>576.3</ele>
      </trkpt>
      <trkpt lat="43.801014" lon="5.493225">
        <ele>577.8</ele>
      </trkpt>
      <trkpt lat="43.801102" lon="5.493245">
        <ele>579.4</ele>
      </trkpt>
      <trkpt lat="43.801191" lon="5.493267">
        <ele>580.8</ele>
      </trkpt>
      <trkpt lat="43.801280" lon="5.493305">
        <ele>581.6</ele>
      </trkpt>
      <trkpt lat="43.801374" lon="5.493352">
        <ele>576.4</ele>
      </trkpt>
      <trkpt lat="43.801434" lon="5.493392">
        <ele>577</ele>
      </trkpt>
      <trkpt lat="43.801508" lon="5.493424">
        <ele>577.8</ele>
      </trkpt>
      <trkpt lat="43.801587" lon="5.493441">
        <ele>578.6</ele>
      </trkpt>
      <trkpt lat="43.801656" lon="5.493447">
        <ele>578.9</ele>
      </trkpt>
      <trkpt lat="43.801726" lon="5.493445">
        <ele>582.9</ele>
      </trkpt>
      <trkpt lat="43.801786" lon="5.493437">
        <ele>583.3</ele>
      </trkpt>
      <trkpt lat="43.801855" lon="5.493433">
        <ele>583.9</ele>
      </trkpt>
      <trkpt lat="43.801920" lon="5.493430">
        <ele>584.6</ele>
      </trkpt>
      <trkpt lat="43.801980" lon="5.493437">
        <ele>585.2</ele>
      </trkpt>
      <trkpt lat="43.802051" lon="5.493474">
        <ele>585.8</ele>
      </trkpt>
      <trkpt lat="43.802100" lon="5.493512">
        <ele>586.2</ele>
      </trkpt>
      <trkpt lat="43.802141" lon="5.493542">
        <ele>586.5</ele>
      </trkpt>
      <trkpt lat="43.802251" lon="5.493638">
        <ele>587.1</ele>
      </trkpt>
      <trkpt lat="43.802353" lon="5.493706">
        <ele>587.4</ele>
      </trkpt>
      <trkpt lat="43.802408" lon="5.493748">
        <ele>587.5</ele>
      </trkpt>
      <trkpt lat="43.802524" lon="5.493849">
        <ele>587.2</ele>
      </trkpt>
      <trkpt lat="43.802639" lon="5.493953">
        <ele>586.9</ele>
      </trkpt>
      <trkpt lat="43.802725" lon="5.493978">
        <ele>586.4</ele>
      </trkpt>
      <trkpt lat="43.802793" lon="5.493965">
        <ele>586</ele>
      </trkpt>
      <trkpt lat="43.802862" lon="5.493943">
        <ele>585.5</ele>
      </trkpt>
      <trkpt lat="43.802931" lon="5.493903">
        <ele>585</ele>
      </trkpt>
      <trkpt lat="43.802995" lon="5.493867">
        <ele>584.6</ele>
      </trkpt>
      <trkpt lat="43.803077" lon="5.493773">
        <ele>584.2</ele>
      </trkpt>
      <trkpt lat="43.803117" lon="5.493690">
        <ele>583.9</ele>
      </trkpt>
      <trkpt lat="43.803148" lon="5.493586">
        <ele>583.5</ele>
      </trkpt>
      <trkpt lat="43.803164" lon="5.493492">
        <ele>582.9</ele>
      </trkpt>
      <trkpt lat="43.803187" lon="5.493356">
        <ele>582</ele>
      </trkpt>
      <trkpt lat="43.803200" lon="5.493210">
        <ele>585</ele>
      </trkpt>
      <trkpt lat="43.803204" lon="5.493028">
        <ele>587.4</ele>
      </trkpt>
      <trkpt lat="43.803207" lon="5.492879">
        <ele>588.4</ele>
      </trkpt>
      <trkpt lat="43.803208" lon="5.492700">
        <ele>588.5</ele>
      </trkpt>
      <trkpt lat="43.803207" lon="5.492567">
        <ele>587.9</ele>
      </trkpt>
      <trkpt lat="43.803203" lon="5.492447">
        <ele>591.2</ele>
      </trkpt>
      <trkpt lat="43.803203" lon="5.492314">
        <ele>593.4</ele>
      </trkpt>
      <trkpt lat="43.803213" lon="5.492203">
        <ele>594.7</ele>
      </trkpt>
      <trkpt lat="43.803238" lon="5.492083">
        <ele>595.4</ele>
      </trkpt>
      <trkpt lat="43.803267" lon="5.491953">
        <ele>595.1</ele>
      </trkpt>
      <trkpt lat="43.803288" lon="5.491838">
        <ele>593.9</ele>
      </trkpt>
      <trkpt lat="43.803315" lon="5.491717">
        <ele>591</ele>
      </trkpt>
      <trkpt lat="43.803345" lon="5.491607">
        <ele>588.2</ele>
      </trkpt>
      <trkpt lat="43.803382" lon="5.491487">
        <ele>587.2</ele>
      </trkpt>
      <trkpt lat="43.803417" lon="5.491376">
        <ele>586.9</ele>
      </trkpt>
      <trkpt lat="43.803459" lon="5.491278">
        <ele>586.8</ele>
      </trkpt>
      <trkpt lat="43.803488" lon="5.491157">
        <ele>587.1</ele>
      </trkpt>
      <trkpt lat="43.803496" lon="5.491079">
        <ele>587.5</ele>
      </trkpt>
      <trkpt lat="43.803497" lon="5.491006">
        <ele>587.9</ele>
      </trkpt>
      <trkpt lat="43.803499" lon="5.490976">
        <ele>588.1</ele>
      </trkpt>
      <trkpt lat="43.803504" lon="5.490886">
        <ele>588.6</ele>
      </trkpt>
      <trkpt lat="43.803505" lon="5.490811">
        <ele>587.8</ele>
      </trkpt>
      <trkpt lat="43.803520" lon="5.490717">
        <ele>587</ele>
      </trkpt>
      <trkpt lat="43.803550" lon="5.490674">
        <ele>586.4</ele>
      </trkpt>
      <trkpt lat="43.803600" lon="5.490646">
        <ele>585.7</ele>
      </trkpt>
      <trkpt lat="43.803669" lon="5.490600">
        <ele>585</ele>
      </trkpt>
      <trkpt lat="43.803722" lon="5.490554">
        <ele>584.5</ele>
      </trkpt>
      <trkpt lat="43.803789" lon="5.490495">
        <ele>583.9</ele>
      </trkpt>
      <trkpt lat="43.803861" lon="5.490437">
        <ele>583.5</ele>
      </trkpt>
      <trkpt lat="43.803952" lon="5.490377">
        <ele>583</ele>
      </trkpt>
      <trkpt lat="43.804055" lon="5.490303">
        <ele>582.3</ele>
      </trkpt>
      <trkpt lat="43.804140" lon="5.490244">
        <ele>581.8</ele>
      </trkpt>
      <trkpt lat="43.804208" lon="5.490227">
        <ele>580</ele>
      </trkpt>
      <trkpt lat="43.804303" lon="5.490206">
        <ele>580</ele>
      </trkpt>
      <trkpt lat="43.804400" lon="5.490179">
        <ele>580</ele>
      </trkpt>
      <trkpt lat="43.804484" lon="5.490164">
        <ele>580.1</ele>
      </trkpt>
      <trkpt lat="43.804551" lon="5.490143">
        <ele>580.1</ele>
      </trkpt>
      <trkpt lat="43.804575" lon="5.490137">
        <ele>580.2</ele>
      </trkpt>
      <trkpt lat="43.804653" lon="5.490102">
        <ele>580.2</ele>
      </trkpt>
      <trkpt lat="43.804711" lon="5.490050">
        <ele>580.3</ele>
      </trkpt>
      <trkpt lat="43.804772" lon="5.489974">
        <ele>579.8</ele>
      </trkpt>
      <trkpt lat="43.804842" lon="5.489888">
        <ele>580</ele>
      </trkpt>
      <trkpt lat="43.804923" lon="5.489797">
        <ele>580</ele>
      </trkpt>
      <trkpt lat="43.804996" lon="5.489731">
        <ele>580</ele>
      </trkpt>
      <trkpt lat="43.805073" lon="5.489685">
        <ele>583.4</ele>
      </trkpt>
      <trkpt lat="43.805124" lon="5.489660">
        <ele>583.6</ele>
      </trkpt>
      <trkpt lat="43.805157" lon="5.489645">
        <ele>583.7</ele>
      </trkpt>
      <trkpt lat="43.805251" lon="5.489601">
        <ele>584</ele>
      </trkpt>
      <trkpt lat="43.805345" lon="5.489564">
        <ele>584.3</ele>
      </trkpt>
      <trkpt lat="43.805429" lon="5.489523">
        <ele>584.5</ele>
      </trkpt>
      <trkpt lat="43.805511" lon="5.489475">
        <ele>584.7</ele>
      </trkpt>
      <trkpt lat="43.805592" lon="5.489399">
        <ele>584.8</ele>
      </trkpt>
      <trkpt lat="43.805648" lon="5.489342">
        <ele>584.8</ele>
      </trkpt>
      <trkpt lat="43.805709" lon="5.489274">
        <ele>584.9</ele>
      </trkpt>
      <trkpt lat="43.805770" lon="5.489205">
        <ele>584.9</ele>
      </trkpt>
      <trkpt lat="43.805819" lon="5.489142">
        <ele>584.8</ele>
      </trkpt>
      <trkpt lat="43.805866" lon="5.489089">
        <ele>586.3</ele>
      </trkpt>
      <trkpt lat="43.805910" lon="5.489068">
        <ele>586.8</ele>
      </trkpt>
      <trkpt lat="43.805940" lon="5.489082">
        <ele>587</ele>
      </trkpt>
      <trkpt lat="43.805957" lon="5.489111">
        <ele>587</ele>
      </trkpt>
      <trkpt lat="43.805972" lon="5.489151">
        <ele>587.1</ele>
      </trkpt>
      <trkpt lat="43.805977" lon="5.489164">
        <ele>587.1</ele>
      </trkpt>
      <trkpt lat="43.805991" lon="5.489199">
        <ele>587.8</ele>
      </trkpt>
      <trkpt lat="43.806005" lon="5.489223">
        <ele>588.1</ele>
      </trkpt>
      <trkpt lat="43.806007" lon="5.489229">
        <ele>588.1</ele>
      </trkpt>
      <trkpt lat="43.806065" lon="5.489339">
        <ele>589.1</ele>
      </trkpt>
      <trkpt lat="43.806119" lon="5.489438">
        <ele>589.8</ele>
      </trkpt>
      <trkpt lat="43.806191" lon="5.489539">
        <ele>590.4</ele>
      </trkpt>
      <trkpt lat="43.806276" lon="5.489668">
        <ele>591</ele>
      </trkpt>
      <trkpt lat="43.806355" lon="5.489793">
        <ele>591.6</ele>
      </trkpt>
      <trkpt lat="43.806450" lon="5.489951">
        <ele>592.5</ele>
      </trkpt>
      <trkpt lat="43.806558" lon="5.490089">
        <ele>593.6</ele>
      </trkpt>
      <trkpt lat="43.806677" lon="5.490263">
        <ele>597.4</ele>
      </trkpt>
      <trkpt lat="43.806804" lon="5.490415">
        <ele>598</ele>
      </trkpt>
      <trkpt lat="43.806900" lon="5.490529">
        <ele>598.3</ele>
      </trkpt>
      <trkpt lat="43.807000" lon="5.490656">
        <ele>598.7</ele>
      </trkpt>
      <trkpt lat="43.807062" lon="5.490715">
        <ele>599</ele>
      </trkpt>
      <trkpt lat="43.807116" lon="5.490768">
        <ele>599.4</ele>
      </trkpt>
      <trkpt lat="43.807229" lon="5.490897">
        <ele>600</ele>
      </trkpt>
      <trkpt lat="43.807347" lon="5.491028">
        <ele>600.5</ele>
      </trkpt>
      <trkpt lat="43.807392" lon="5.491078">
        <ele>600.6</ele>
      </trkpt>
      <trkpt lat="43.807474" lon="5.491162">
        <ele>600.6</ele>
      </trkpt>
      <trkpt lat="43.807603" lon="5.491292">
        <ele>607.4</ele>
      </trkpt>
      <trkpt lat="43.807698" lon="5.491396">
        <ele>607.7</ele>
      </trkpt>
      <trkpt lat="43.807790" lon="5.491516">
        <ele>608.3</ele>
      </trkpt>
      <trkpt lat="43.807875" lon="5.491614">
        <ele>609.2</ele>
      </trkpt>
      <trkpt lat="43.807948" lon="5.491706">
        <ele>611.7</ele>
      </trkpt>
      <trkpt lat="43.808006" lon="5.491794">
        <ele>612.4</ele>
      </trkpt>
      <trkpt lat="43.808067" lon="5.491875">
        <ele>613</ele>
      </trkpt>
      <trkpt lat="43.808109" lon="5.491934">
        <ele>613.3</ele>
      </trkpt>
      <trkpt lat="43.808136" lon="5.491976">
        <ele>613.5</ele>
      </trkpt>
      <trkpt lat="43.808140" lon="5.491988">
        <ele>613.6</ele>
      </trkpt>
      <trkpt lat="43.808159" lon="5.492041">
        <ele>613.8</ele>
      </trkpt>
      <trkpt lat="43.808167" lon="5.492093">
        <ele>613.9</ele>
      </trkpt>
      <trkpt lat="43.808157" lon="5.492141">
        <ele>614.1</ele>
      </trkpt>
      <trkpt lat="43.808130" lon="5.492199">
        <ele>614.2</ele>
      </trkpt>
      <trkpt lat="43.808079" lon="5.492265">
        <ele>614.1</ele>
      </trkpt>
      <trkpt lat="43.808022" lon="5.492335">
        <ele>613.7</ele>
      </trkpt>
      <trkpt lat="43.807963" lon="5.492398">
        <ele>613.2</ele>
      </trkpt>
      <trkpt lat="43.807885" lon="5.492475">
        <ele>612.3</ele>
      </trkpt>
      <trkpt lat="43.807822" lon="5.492527">
        <ele>613.7</ele>
      </trkpt>
      <trkpt lat="43.807775" lon="5.492574">
        <ele>613.1</ele>
      </trkpt>
      <trkpt lat="43.807737" lon="5.492633">
        <ele>612.9</ele>
      </trkpt>
      <trkpt lat="43.807712" lon="5.492694">
        <ele>612.9</ele>
      </trkpt>
      <trkpt lat="43.807696" lon="5.492753">
        <ele>613.1</ele>
      </trkpt>
      <trkpt lat="43.807688" lon="5.492823">
        <ele>613.4</ele>
      </trkpt>
      <trkpt lat="43.807684" lon="5.492888">
        <ele>613.6</ele>
      </trkpt>
      <trkpt lat="43.807686" lon="5.492951">
        <ele>613.8</ele>
      </trkpt>
      <trkpt lat="43.807696" lon="5.492981">
        <ele>613.9</ele>
      </trkpt>
      <trkpt lat="43.807798" lon="5.493250">
        <ele>614.6</ele>
      </trkpt>
      <trkpt lat="43.807894" lon="5.493440">
        <ele>616.4</ele>
      </trkpt>
      <trkpt lat="43.807969" lon="5.493617">
        <ele>617.1</ele>
      </trkpt>
      <trkpt lat="43.808051" lon="5.493812">
        <ele>617.7</ele>
      </trkpt>
      <trkpt lat="43.808127" lon="5.493986">
        <ele>618.8</ele>
      </trkpt>
      <trkpt lat="43.808223" lon="5.494167">
        <ele>620.8</ele>
      </trkpt>
      <trkpt lat="43.808283" lon="5.494340">
        <ele>619.7</ele>
      </trkpt>
      <trkpt lat="43.808376" lon="5.494619">
        <ele>626.8</ele>
      </trkpt>
      <trkpt lat="43.808415" lon="5.494696">
        <ele>626.6</ele>
      </trkpt>
      <trkpt lat="43.808450" lon="5.494869">
        <ele>625.2</ele>
      </trkpt>
      <trkpt lat="43.808467" lon="5.494925">
        <ele>624.9</ele>
      </trkpt>
      <trkpt lat="43.808532" lon="5.495155">
        <ele>623.9</ele>
      </trkpt>
      <trkpt lat="43.808678" lon="5.495583">
        <ele>624.2</ele>
      </trkpt>
      <trkpt lat="43.808858" lon="5.496030">
        <ele>622.3</ele>
      </trkpt>
      <trkpt lat="43.809007" lon="5.496334">
        <ele>622.3</ele>
      </trkpt>
      <trkpt lat="43.809120" lon="5.496554">
        <ele>623.4</ele>
      </trkpt>
      <trkpt lat="43.809239" lon="5.496788">
        <ele>628.4</ele>
      </trkpt>
      <trkpt lat="43.809338" lon="5.497015">
        <ele>630.7</ele>
      </trkpt>
      <trkpt lat="43.809473" lon="5.497303">
        <ele>631.5</ele>
      </trkpt>
      <trkpt lat="43.809529" lon="5.497460">
        <ele>632</ele>
      </trkpt>
      <trkpt lat="43.809604" lon="5.497690">
        <ele>632.9</ele>
      </trkpt>
      <trkpt lat="43.809605" lon="5.497691">
        <ele>633</ele>
      </trkpt>
      <trkpt lat="43.809679" lon="5.497865">
        <ele>633.6</ele>
      </trkpt>
      <trkpt lat="43.809771" lon="5.498122">
        <ele>634.8</ele>
      </trkpt>
      <trkpt lat="43.809861" lon="5.498368">
        <ele>636.6</ele>
      </trkpt>
      <trkpt lat="43.809942" lon="5.498585">
        <ele>635.6</ele>
      </trkpt>
      <trkpt lat="43.809984" lon="5.498743">
        <ele>635.1</ele>
      </trkpt>
      <trkpt lat="43.810016" lon="5.498904">
        <ele>643.7</ele>
      </trkpt>
      <trkpt lat="43.810063" lon="5.499064">
        <ele>642.1</ele>
      </trkpt>
      <trkpt lat="43.810138" lon="5.499409">
        <ele>643.1</ele>
      </trkpt>
      <trkpt lat="43.810172" lon="5.499623">
        <ele>643.3</ele>
      </trkpt>
      <trkpt lat="43.810200" lon="5.499780">
        <ele>642.6</ele>
      </trkpt>
      <trkpt lat="43.810217" lon="5.499937">
        <ele>641.7</ele>
      </trkpt>
      <trkpt lat="43.810235" lon="5.500086">
        <ele>641.7</ele>
      </trkpt>
      <trkpt lat="43.810241" lon="5.500160">
        <ele>642.2</ele>
      </trkpt>
      <trkpt lat="43.810246" lon="5.500237">
        <ele>642.6</ele>
      </trkpt>
      <trkpt lat="43.810247" lon="5.500367">
        <ele>643</ele>
      </trkpt>
      <trkpt lat="43.810240" lon="5.500480">
        <ele>642.9</ele>
      </trkpt>
      <trkpt lat="43.810231" lon="5.500571">
        <ele>642.6</ele>
      </trkpt>
      <trkpt lat="43.810225" lon="5.500615">
        <ele>642.3</ele>
      </trkpt>
      <trkpt lat="43.810219" lon="5.500686">
        <ele>641.9</ele>
      </trkpt>
      <trkpt lat="43.810198" lon="5.500835">
        <ele>643.2</ele>
      </trkpt>
      <trkpt lat="43.810179" lon="5.500965">
        <ele>643.9</ele>
      </trkpt>
      <trkpt lat="43.810153" lon="5.501073">
        <ele>645</ele>
      </trkpt>
      <trkpt lat="43.810127" lon="5.501167">
        <ele>645.9</ele>
      </trkpt>
      <trkpt lat="43.810083" lon="5.501266">
        <ele>646.4</ele>
      </trkpt>
      <trkpt lat="43.810026" lon="5.501331">
        <ele>646.3</ele>
      </trkpt>
      <trkpt lat="43.809937" lon="5.501381">
        <ele>635.7</ele>
      </trkpt>
      <trkpt lat="43.809858" lon="5.501435">
        <ele>635.8</ele>
      </trkpt>
      <trkpt lat="43.809781" lon="5.501475">
        <ele>635.3</ele>
      </trkpt>
      <trkpt lat="43.809713" lon="5.501543">
        <ele>634.9</ele>
      </trkpt>
      <trkpt lat="43.809646" lon="5.501620">
        <ele>634.3</ele>
      </trkpt>
      <trkpt lat="43.809587" lon="5.501711">
        <ele>638.1</ele>
      </trkpt>
      <trkpt lat="43.809535" lon="5.501793">
        <ele>637.7</ele>
      </trkpt>
      <trkpt lat="43.809488" lon="5.501904">
        <ele>637.5</ele>
      </trkpt>
      <trkpt lat="43.809473" lon="5.501934">
        <ele>637.5</ele>
      </trkpt>
      <trkpt lat="43.809420" lon="5.502075">
        <ele>637.7</ele>
      </trkpt>
      <trkpt lat="43.809366" lon="5.502249">
        <ele>637.5</ele>
      </trkpt>
      <trkpt lat="43.809343" lon="5.502336">
        <ele>637</ele>
      </trkpt>
      <trkpt lat="43.809326" lon="5.502402">
        <ele>636.6</ele>
      </trkpt>
      <trkpt lat="43.809280" lon="5.502568">
        <ele>636.4</ele>
      </trkpt>
      <trkpt lat="43.809251" lon="5.502750">
        <ele>637.8</ele>
      </trkpt>
      <trkpt lat="43.809236" lon="5.502904">
        <ele>638.1</ele>
      </trkpt>
      <trkpt lat="43.809236" lon="5.503040">
        <ele>637.6</ele>
      </trkpt>
      <trkpt lat="43.809248" lon="5.503142">
        <ele>636.7</ele>
      </trkpt>
      <trkpt lat="43.809253" lon="5.503170">
        <ele>636.5</ele>
      </trkpt>
      <trkpt lat="43.809270" lon="5.503244">
        <ele>635.7</ele>
      </trkpt>
      <trkpt lat="43.809306" lon="5.503318">
        <ele>635.9</ele>
      </trkpt>
      <trkpt lat="43.809368" lon="5.503379">
        <ele>630.6</ele>
      </trkpt>
      <trkpt lat="43.809449" lon="5.503424">
        <ele>630.6</ele>
      </trkpt>
      <trkpt lat="43.809529" lon="5.503469">
        <ele>630.9</ele>
      </trkpt>
      <trkpt lat="43.809645" lon="5.503529">
        <ele>631.6</ele>
      </trkpt>
      <trkpt lat="43.809739" lon="5.503563">
        <ele>632.4</ele>
      </trkpt>
      <trkpt lat="43.809809" lon="5.503588">
        <ele>632.9</ele>
      </trkpt>
      <trkpt lat="43.809896" lon="5.503622">
        <ele>633</ele>
      </trkpt>
      <trkpt lat="43.809974" lon="5.503665">
        <ele>632.4</ele>
      </trkpt>
      <trkpt lat="43.810046" lon="5.503716">
        <ele>640.5</ele>
      </trkpt>
      <trkpt lat="43.810117" lon="5.503772">
        <ele>639.7</ele>
      </trkpt>
      <trkpt lat="43.810190" lon="5.503862">
        <ele>638.4</ele>
      </trkpt>
      <trkpt lat="43.810252" lon="5.503957">
        <ele>637.4</ele>
      </trkpt>
      <trkpt lat="43.810305" lon="5.504053">
        <ele>637</ele>
      </trkpt>
      <trkpt lat="43.810353" lon="5.504158">
        <ele>637.2</ele>
      </trkpt>
      <trkpt lat="43.810387" lon="5.504246">
        <ele>627.4</ele>
      </trkpt>
      <trkpt lat="43.810437" lon="5.504332">
        <ele>627.8</ele>
      </trkpt>
      <trkpt lat="43.810487" lon="5.504391">
        <ele>628.2</ele>
      </trkpt>
      <trkpt lat="43.810545" lon="5.504441">
        <ele>628.6</ele>
      </trkpt>
      <trkpt lat="43.810622" lon="5.504487">
        <ele>629</ele>
      </trkpt>
      <trkpt lat="43.810685" lon="5.504538">
        <ele>629.1</ele>
      </trkpt>
      <trkpt lat="43.810755" lon="5.504602">
        <ele>628.9</ele>
      </trkpt>
      <trkpt lat="43.810806" lon="5.504669">
        <ele>628.6</ele>
      </trkpt>
      <trkpt lat="43.810845" lon="5.504741">
        <ele>636.9</ele>
      </trkpt>
      <trkpt lat="43.810881" lon="5.504840">
        <ele>635.1</ele>
      </trkpt>
      <trkpt lat="43.810899" lon="5.504931">
        <ele>633.1</ele>
      </trkpt>
      <trkpt lat="43.810897" lon="5.505023">
        <ele>631.7</ele>
      </trkpt>
      <trkpt lat="43.810884" lon="5.505101">
        <ele>633.1</ele>
      </trkpt>
      <trkpt lat="43.810866" lon="5.505172">
        <ele>634.5</ele>
      </trkpt>
      <trkpt lat="43.810830" lon="5.505279">
        <ele>627.2</ele>
      </trkpt>
      <trkpt lat="43.810794" lon="5.505358">
        <ele>627.3</ele>
      </trkpt>
      <trkpt lat="43.810732" lon="5.505455">
        <ele>627.5</ele>
      </trkpt>
      <trkpt lat="43.810676" lon="5.505550">
        <ele>627.9</ele>
      </trkpt>
      <trkpt lat="43.810644" lon="5.505629">
        <ele>628.3</ele>
      </trkpt>
      <trkpt lat="43.810615" lon="5.505676">
        <ele>628.3</ele>
      </trkpt>
      <trkpt lat="43.810560" lon="5.505681">
        <ele>627.7</ele>
      </trkpt>
      <trkpt lat="43.810480" lon="5.505697">
        <ele>626.8</ele>
      </trkpt>
      <trkpt lat="43.810402" lon="5.505734">
        <ele>626</ele>
      </trkpt>
      <trkpt lat="43.810341" lon="5.505784">
        <ele>625.4</ele>
      </trkpt>
      <trkpt lat="43.810271" lon="5.505873">
        <ele>629.7</ele>
      </trkpt>
      <trkpt lat="43.810224" lon="5.505937">
        <ele>629.3</ele>
      </trkpt>
      <trkpt lat="43.810169" lon="5.506028">
        <ele>629.4</ele>
      </trkpt>
      <trkpt lat="43.810119" lon="5.506127">
        <ele>630.2</ele>
      </trkpt>
      <trkpt lat="43.810081" lon="5.506223">
        <ele>631.1</ele>
      </trkpt>
      <trkpt lat="43.810049" lon="5.506309">
        <ele>631.6</ele>
      </trkpt>
      <trkpt lat="43.810011" lon="5.506382">
        <ele>632</ele>
      </trkpt>
      <trkpt lat="43.809973" lon="5.506418">
        <ele>626.9</ele>
      </trkpt>
      <trkpt lat="43.809935" lon="5.506435">
        <ele>627</ele>
      </trkpt>
      <trkpt lat="43.809874" lon="5.506432">
        <ele>626.7</ele>
      </trkpt>
      <trkpt lat="43.809828" lon="5.506424">
        <ele>626.3</ele>
      </trkpt>
      <trkpt lat="43.809806" lon="5.506419">
        <ele>626.2</ele>
      </trkpt>
      <trkpt lat="43.809738" lon="5.506408">
        <ele>625.7</ele>
      </trkpt>
      <trkpt lat="43.809683" lon="5.506408">
        <ele>625.4</ele>
      </trkpt>
      <trkpt lat="43.809608" lon="5.506408">
        <ele>625.2</ele>
      </trkpt>
      <trkpt lat="43.809551" lon="5.506408">
        <ele>625</ele>
      </trkpt>
      <trkpt lat="43.809458" lon="5.506407">
        <ele>624.8</ele>
      </trkpt>
      <trkpt lat="43.809358" lon="5.506401">
        <ele>624.8</ele>
      </trkpt>
      <trkpt lat="43.809286" lon="5.506395">
        <ele>624.8</ele>
      </trkpt>
      <trkpt lat="43.809241" lon="5.506389">
        <ele>624.7</ele>
      </trkpt>
      <trkpt lat="43.809154" lon="5.506379">
        <ele>621.3</ele>
      </trkpt>
      <trkpt lat="43.809085" lon="5.506371">
        <ele>620.9</ele>
      </trkpt>
      <trkpt lat="43.809027" lon="5.506371">
        <ele>620.6</ele>
      </trkpt>
      <trkpt lat="43.808969" lon="5.506352">
        <ele>620</ele>
      </trkpt>
      <trkpt lat="43.808898" lon="5.506295">
        <ele>619</ele>
      </trkpt>
      <trkpt lat="43.808825" lon="5.506256">
        <ele>618.3</ele>
      </trkpt>
      <trkpt lat="43.808737" lon="5.506213">
        <ele>617.6</ele>
      </trkpt>
      <trkpt lat="43.808657" lon="5.506170">
        <ele>617</ele>
      </trkpt>
      <trkpt lat="43.808576" lon="5.506120">
        <ele>616.2</ele>
      </trkpt>
      <trkpt lat="43.808507" lon="5.506076">
        <ele>615.3</ele>
      </trkpt>
      <trkpt lat="43.808444" lon="5.506049">
        <ele>614.6</ele>
      </trkpt>
      <trkpt lat="43.808440" lon="5.506049">
        <ele>614.6</ele>
      </trkpt>
      <trkpt lat="43.808392" lon="5.506041">
        <ele>614.2</ele>
      </trkpt>
      <trkpt lat="43.808327" lon="5.506041">
        <ele>611.2</ele>
      </trkpt>
      <trkpt lat="43.808259" lon="5.506059">
        <ele>611.4</ele>
      </trkpt>
      <trkpt lat="43.808184" lon="5.506134">
        <ele>612</ele>
      </trkpt>
      <trkpt lat="43.808116" lon="5.506224">
        <ele>612.6</ele>
      </trkpt>
      <trkpt lat="43.808028" lon="5.506358">
        <ele>613.2</ele>
      </trkpt>
      <trkpt lat="43.807950" lon="5.506485">
        <ele>613.4</ele>
      </trkpt>
      <trkpt lat="43.807863" lon="5.506625">
        <ele>613.2</ele>
      </trkpt>
      <trkpt lat="43.807787" lon="5.506751">
        <ele>617.3</ele>
      </trkpt>
      <trkpt lat="43.807718" lon="5.506903">
        <ele>617.4</ele>
      </trkpt>
      <trkpt lat="43.807655" lon="5.507042">
        <ele>617.9</ele>
      </trkpt>
      <trkpt lat="43.807603" lon="5.507183">
        <ele>618.3</ele>
      </trkpt>
      <trkpt lat="43.807552" lon="5.507315">
        <ele>618.2</ele>
      </trkpt>
      <trkpt lat="43.807489" lon="5.507433">
        <ele>615</ele>
      </trkpt>
      <trkpt lat="43.807428" lon="5.507542">
        <ele>616.1</ele>
      </trkpt>
      <trkpt lat="43.807368" lon="5.507665">
        <ele>615.3</ele>
      </trkpt>
      <trkpt lat="43.807308" lon="5.507795">
        <ele>614.9</ele>
      </trkpt>
      <trkpt lat="43.807241" lon="5.507922">
        <ele>614.8</ele>
      </trkpt>
      <trkpt lat="43.807181" lon="5.508018">
        <ele>614.7</ele>
      </trkpt>
      <trkpt lat="43.806940" lon="5.508477">
        <ele>614.8</ele>
      </trkpt>
      <trkpt lat="43.806841" lon="5.508439">
        <ele>613.4</ele>
      </trkpt>
      <trkpt lat="43.806841" lon="5.508439">
        <ele>613.4</ele>
      </trkpt>
      <trkpt lat="43.806706" lon="5.508501">
        <ele>612.6</ele>
      </trkpt>
      <trkpt lat="43.806652" lon="5.508555">
        <ele>606.5</ele>
      </trkpt>
      <trkpt lat="43.806479" lon="5.508618">
        <ele>605.5</ele>
      </trkpt>
      <trkpt lat="43.806214" lon="5.508719">
        <ele>603.7</ele>
      </trkpt>
      <trkpt lat="43.806025" lon="5.508778">
        <ele>602.5</ele>
      </trkpt>
      <trkpt lat="43.805954" lon="5.508822">
        <ele>602.2</ele>
      </trkpt>
      <trkpt lat="43.805954" lon="5.508822">
        <ele>602.2</ele>
      </trkpt>
      <trkpt lat="43.805882" lon="5.508819">
        <ele>601.9</ele>
      </trkpt>
      <trkpt lat="43.805768" lon="5.508768">
        <ele>594.5</ele>
      </trkpt>
      <trkpt lat="43.805670" lon="5.508763">
        <ele>594</ele>
      </trkpt>
      <trkpt lat="43.805670" lon="5.508763">
        <ele>594</ele>
      </trkpt>
      <trkpt lat="43.805606" lon="5.508767">
        <ele>593.7</ele>
      </trkpt>
      <trkpt lat="43.805566" lon="5.508730">
        <ele>593.4</ele>
      </trkpt>
      <trkpt lat="43.805527" lon="5.508666">
        <ele>593.1</ele>
      </trkpt>
      <trkpt lat="43.805472" lon="5.508619">
        <ele>592.7</ele>
      </trkpt>
      <trkpt lat="43.805400" lon="5.508586">
        <ele>592.2</ele>
      </trkpt>
      <trkpt lat="43.805277" lon="5.508541">
        <ele>591.1</ele>
      </trkpt>
      <trkpt lat="43.805110" lon="5.508484">
        <ele>589.4</ele>
      </trkpt>
      <trkpt lat="43.804955" lon="5.508451">
        <ele>583.8</ele>
      </trkpt>
      <trkpt lat="43.804902" lon="5.508475">
        <ele>583.2</ele>
      </trkpt>
      <trkpt lat="43.804840" lon="5.508534">
        <ele>582.4</ele>
      </trkpt>
      <trkpt lat="43.804760" lon="5.508604">
        <ele>581.6</ele>
      </trkpt>
      <trkpt lat="43.804695" lon="5.508652">
        <ele>581.1</ele>
      </trkpt>
      <trkpt lat="43.804648" lon="5.508693">
        <ele>580.7</ele>
      </trkpt>
      <trkpt lat="43.804640" lon="5.508701">
        <ele>580.7</ele>
      </trkpt>
      <trkpt lat="43.804550" lon="5.508718">
        <ele>580</ele>
      </trkpt>
      <trkpt lat="43.804456" lon="5.508732">
        <ele>579.2</ele>
      </trkpt>
      <trkpt lat="43.804356" lon="5.508746">
        <ele>578.5</ele>
      </trkpt>
      <trkpt lat="43.804253" lon="5.508754">
        <ele>578</ele>
      </trkpt>
      <trkpt lat="43.804121" lon="5.508761">
        <ele>572.9</ele>
      </trkpt>
      <trkpt lat="43.804029" lon="5.508763">
        <ele>572.8</ele>
      </trkpt>
      <trkpt lat="43.803983" lon="5.508773">
        <ele>572.8</ele>
      </trkpt>
      <trkpt lat="43.803983" lon="5.508773">
        <ele>572.8</ele>
      </trkpt>
      <trkpt lat="43.803962" lon="5.508693">
        <ele>572.6</ele>
      </trkpt>
      <trkpt lat="43.803917" lon="5.508569">
        <ele>572.3</ele>
      </trkpt>
      <trkpt lat="43.803897" lon="5.508519">
        <ele>572.1</ele>
      </trkpt>
      <trkpt lat="43.803877" lon="5.508467">
        <ele>572</ele>
      </trkpt>
      <trkpt lat="43.803829" lon="5.508417">
        <ele>571.7</ele>
      </trkpt>
      <trkpt lat="43.803773" lon="5.508389">
        <ele>571.4</ele>
      </trkpt>
      <trkpt lat="43.803711" lon="5.508378">
        <ele>571</ele>
      </trkpt>
      <trkpt lat="43.803711" lon="5.508378">
        <ele>571</ele>
      </trkpt>
      <trkpt lat="43.803645" lon="5.508389">
        <ele>570.5</ele>
      </trkpt>
      <trkpt lat="43.803584" lon="5.508398">
        <ele>570</ele>
      </trkpt>
      <trkpt lat="43.803528" lon="5.508402">
        <ele>569.4</ele>
      </trkpt>
      <trkpt lat="43.803528" lon="5.508402">
        <ele>569.4</ele>
      </trkpt>
      <trkpt lat="43.803445" lon="5.508375">
        <ele>568</ele>
      </trkpt>
      <trkpt lat="43.803359" lon="5.508296">
        <ele>566.3</ele>
      </trkpt>
      <trkpt lat="43.803249" lon="5.508208">
        <ele>566.3</ele>
      </trkpt>
      <trkpt lat="43.803141" lon="5.508113">
        <ele>567</ele>
      </trkpt>
      <trkpt lat="43.803101" lon="5.508017">
        <ele>567.3</ele>
      </trkpt>
      <trkpt lat="43.803059" lon="5.507885">
        <ele>567.5</ele>
      </trkpt>
      <trkpt lat="43.802988" lon="5.507749">
        <ele>567.3</ele>
      </trkpt>
      <trkpt lat="43.802839" lon="5.507585">
        <ele>565.7</ele>
      </trkpt>
      <trkpt lat="43.802740" lon="5.507475">
        <ele>568</ele>
      </trkpt>
      <trkpt lat="43.802642" lon="5.507383">
        <ele>566.7</ele>
      </trkpt>
      <trkpt lat="43.802540" lon="5.507309">
        <ele>567</ele>
      </trkpt>
      <trkpt lat="43.802456" lon="5.507240">
        <ele>562.1</ele>
      </trkpt>
      <trkpt lat="43.802388" lon="5.507167">
        <ele>563.1</ele>
      </trkpt>
      <trkpt lat="43.802324" lon="5.507093">
        <ele>564.1</ele>
      </trkpt>
      <trkpt lat="43.802250" lon="5.507040">
        <ele>564.4</ele>
      </trkpt>
      <trkpt lat="43.802171" lon="5.506979">
        <ele>564.6</ele>
      </trkpt>
      <trkpt lat="43.802111" lon="5.506927">
        <ele>564.7</ele>
      </trkpt>
      <trkpt lat="43.802082" lon="5.506914">
        <ele>564.5</ele>
      </trkpt>
      <trkpt lat="43.802035" lon="5.506898">
        <ele>564.3</ele>
      </trkpt>
      <trkpt lat="43.802035" lon="5.506898">
        <ele>564.3</ele>
      </trkpt>
      <trkpt lat="43.801957" lon="5.506909">
        <ele>563.6</ele>
      </trkpt>
      <trkpt lat="43.801888" lon="5.506917">
        <ele>563.2</ele>
      </trkpt>
      <trkpt lat="43.801888" lon="5.506917">
        <ele>563.2</ele>
      </trkpt>
      <trkpt lat="43.801839" lon="5.506916">
        <ele>563</ele>
      </trkpt>
      <trkpt lat="43.801770" lon="5.506903">
        <ele>563.1</ele>
      </trkpt>
      <trkpt lat="43.801700" lon="5.506890">
        <ele>563.1</ele>
      </trkpt>
      <trkpt lat="43.801623" lon="5.506870">
        <ele>555.7</ele>
      </trkpt>
      <trkpt lat="43.801551" lon="5.506846">
        <ele>555.4</ele>
      </trkpt>
      <trkpt lat="43.801467" lon="5.506808">
        <ele>554.4</ele>
      </trkpt>
      <trkpt lat="43.801388" lon="5.506760">
        <ele>553.2</ele>
      </trkpt>
      <trkpt lat="43.801305" lon="5.506690">
        <ele>551.8</ele>
      </trkpt>
      <trkpt lat="43.801254" lon="5.506617">
        <ele>558</ele>
      </trkpt>
      <trkpt lat="43.801207" lon="5.506532">
        <ele>557.4</ele>
      </trkpt>
      <trkpt lat="43.801163" lon="5.506444">
        <ele>557</ele>
      </trkpt>
      <trkpt lat="43.801114" lon="5.506364">
        <ele>556.7</ele>
      </trkpt>
      <trkpt lat="43.801064" lon="5.506300">
        <ele>556.5</ele>
      </trkpt>
      <trkpt lat="43.801029" lon="5.506233">
        <ele>556.3</ele>
      </trkpt>
      <trkpt lat="43.800989" lon="5.506177">
        <ele>556</ele>
      </trkpt>
      <trkpt lat="43.800952" lon="5.506117">
        <ele>555.6</ele>
      </trkpt>
      <trkpt lat="43.800905" lon="5.506067">
        <ele>555</ele>
      </trkpt>
      <trkpt lat="43.800856" lon="5.506038">
        <ele>554.4</ele>
      </trkpt>
      <trkpt lat="43.800805" lon="5.506032">
        <ele>552.3</ele>
      </trkpt>
      <trkpt lat="43.800732" lon="5.506040">
        <ele>552.7</ele>
      </trkpt>
      <trkpt lat="43.800694" lon="5.506061">
        <ele>553</ele>
      </trkpt>
      <trkpt lat="43.800657" lon="5.506107">
        <ele>553.2</ele>
      </trkpt>
      <trkpt lat="43.800637" lon="5.506141">
        <ele>553.3</ele>
      </trkpt>
      <trkpt lat="43.800622" lon="5.506168">
        <ele>553.3</ele>
      </trkpt>
      <trkpt lat="43.800582" lon="5.506250">
        <ele>553.3</ele>
      </trkpt>
      <trkpt lat="43.800552" lon="5.506335">
        <ele>553</ele>
      </trkpt>
      <trkpt lat="43.800515" lon="5.506427">
        <ele>552.7</ele>
      </trkpt>
      <trkpt lat="43.800480" lon="5.506490">
        <ele>552.6</ele>
      </trkpt>
      <trkpt lat="43.800433" lon="5.506567">
        <ele>552.6</ele>
      </trkpt>
      <trkpt lat="43.800376" lon="5.506646">
        <ele>552.7</ele>
      </trkpt>
      <trkpt lat="43.800315" lon="5.506711">
        <ele>544</ele>
      </trkpt>
      <trkpt lat="43.800244" lon="5.506780">
        <ele>544.2</ele>
      </trkpt>
      <trkpt lat="43.800173" lon="5.506850">
        <ele>544.1</ele>
      </trkpt>
      <trkpt lat="43.800105" lon="5.506923">
        <ele>543.2</ele>
      </trkpt>
      <trkpt lat="43.800017" lon="5.507007">
        <ele>541.7</ele>
      </trkpt>
      <trkpt lat="43.799935" lon="5.507087">
        <ele>541.4</ele>
      </trkpt>
      <trkpt lat="43.799854" lon="5.507165">
        <ele>540</ele>
      </trkpt>
      <trkpt lat="43.799808" lon="5.507209">
        <ele>539.3</ele>
      </trkpt>
      <trkpt lat="43.799769" lon="5.507249">
        <ele>538.8</ele>
      </trkpt>
      <trkpt lat="43.799683" lon="5.507324">
        <ele>538.3</ele>
      </trkpt>
      <trkpt lat="43.799606" lon="5.507378">
        <ele>537.9</ele>
      </trkpt>
      <trkpt lat="43.799528" lon="5.507433">
        <ele>537.4</ele>
      </trkpt>
      <trkpt lat="43.799455" lon="5.507480">
        <ele>536.6</ele>
      </trkpt>
      <trkpt lat="43.799432" lon="5.507488">
        <ele>536.4</ele>
      </trkpt>
      <trkpt lat="43.799352" lon="5.507518">
        <ele>529.5</ele>
      </trkpt>
      <trkpt lat="43.799274" lon="5.507529">
        <ele>529.3</ele>
      </trkpt>
      <trkpt lat="43.799202" lon="5.507513">
        <ele>529.1</ele>
      </trkpt>
      <trkpt lat="43.799130" lon="5.507467">
        <ele>531.6</ele>
      </trkpt>
      <trkpt lat="43.799066" lon="5.507390">
        <ele>535.5</ele>
      </trkpt>
      <trkpt lat="43.798996" lon="5.507368">
        <ele>537.2</ele>
      </trkpt>
      <trkpt lat="43.798898" lon="5.507377">
        <ele>538.2</ele>
      </trkpt>
      <trkpt lat="43.798811" lon="5.507420">
        <ele>538.4</ele>
      </trkpt>
      <trkpt lat="43.798729" lon="5.507486">
        <ele>538.1</ele>
      </trkpt>
      <trkpt lat="43.798655" lon="5.507575">
        <ele>528.4</ele>
      </trkpt>
      <trkpt lat="43.798578" lon="5.507669">
        <ele>528.2</ele>
      </trkpt>
      <trkpt lat="43.798504" lon="5.507709">
        <ele>528.2</ele>
      </trkpt>
      <trkpt lat="43.798425" lon="5.507714">
        <ele>528.2</ele>
      </trkpt>
      <trkpt lat="43.798335" lon="5.507705">
        <ele>528.3</ele>
      </trkpt>
      <trkpt lat="43.798272" lon="5.507706">
        <ele>526.2</ele>
      </trkpt>
      <trkpt lat="43.798173" lon="5.507726">
        <ele>525.6</ele>
      </trkpt>
      <trkpt lat="43.798066" lon="5.507789">
        <ele>524.7</ele>
      </trkpt>
      <trkpt lat="43.797950" lon="5.507875">
        <ele>523.7</ele>
      </trkpt>
      <trkpt lat="43.797851" lon="5.507929">
        <ele>522.9</ele>
      </trkpt>
      <trkpt lat="43.797743" lon="5.507973">
        <ele>522</ele>
      </trkpt>
      <trkpt lat="43.797623" lon="5.508033">
        <ele>520.5</ele>
      </trkpt>
      <trkpt lat="43.797474" lon="5.508087">
        <ele>515.1</ele>
      </trkpt>
      <trkpt lat="43.797341" lon="5.508110">
        <ele>514.8</ele>
      </trkpt>
      <trkpt lat="43.797235" lon="5.508133">
        <ele>514.6</ele>
      </trkpt>
      <trkpt lat="43.797139" lon="5.508152">
        <ele>514.3</ele>
      </trkpt>
      <trkpt lat="43.797074" lon="5.508168">
        <ele>513.8</ele>
      </trkpt>
      <trkpt lat="43.797035" lon="5.508192">
        <ele>513.4</ele>
      </trkpt>
      <trkpt lat="43.797009" lon="5.508257">
        <ele>512.7</ele>
      </trkpt>
      <trkpt lat="43.796985" lon="5.508317">
        <ele>512.1</ele>
      </trkpt>
      <trkpt lat="43.796952" lon="5.508358">
        <ele>506.4</ele>
      </trkpt>
      <trkpt lat="43.796876" lon="5.508380">
        <ele>505.9</ele>
      </trkpt>
      <trkpt lat="43.796781" lon="5.508390">
        <ele>505.2</ele>
      </trkpt>
      <trkpt lat="43.796781" lon="5.508390">
        <ele>505.2</ele>
      </trkpt>
      <trkpt lat="43.796705" lon="5.508375">
        <ele>504.6</ele>
      </trkpt>
      <trkpt lat="43.796623" lon="5.508328">
        <ele>504.2</ele>
      </trkpt>
      <trkpt lat="43.796543" lon="5.508279">
        <ele>504.4</ele>
      </trkpt>
      <trkpt lat="43.796475" lon="5.508238">
        <ele>504.4</ele>
      </trkpt>
      <trkpt lat="43.796388" lon="5.508200">
        <ele>504.1</ele>
      </trkpt>
      <trkpt lat="43.796306" lon="5.508190">
        <ele>503.6</ele>
      </trkpt>
      <trkpt lat="43.796148" lon="5.508167">
        <ele>502.1</ele>
      </trkpt>
      <trkpt lat="43.795964" lon="5.508148">
        <ele>500</ele>
      </trkpt>
      <trkpt lat="43.795801" lon="5.508118">
        <ele>494.8</ele>
      </trkpt>
      <trkpt lat="43.795633" lon="5.508071">
        <ele>495.1</ele>
      </trkpt>
      <trkpt lat="43.795386" lon="5.507946">
        <ele>495.1</ele>
      </trkpt>
      <trkpt lat="43.795333" lon="5.507926">
        <ele>495</ele>
      </trkpt>
      <trkpt lat="43.795283" lon="5.507943">
        <ele>494.8</ele>
      </trkpt>
      <trkpt lat="43.795214" lon="5.507998">
        <ele>494.6</ele>
      </trkpt>
      <trkpt lat="43.795072" lon="5.508121">
        <ele>494.4</ele>
      </trkpt>
      <trkpt lat="43.794900" lon="5.508318">
        <ele>493.3</ele>
      </trkpt>
      <trkpt lat="43.794756" lon="5.508479">
        <ele>489.8</ele>
      </trkpt>
      <trkpt lat="43.794637" lon="5.508579">
        <ele>488.8</ele>
      </trkpt>
      <trkpt lat="43.794458" lon="5.508724">
        <ele>487.9</ele>
      </trkpt>
      <trkpt lat="43.794251" lon="5.508863">
        <ele>486.7</ele>
      </trkpt>
      <trkpt lat="43.794241" lon="5.508871">
        <ele>486.7</ele>
      </trkpt>
      <trkpt lat="43.794105" lon="5.508972">
        <ele>484.3</ele>
      </trkpt>
      <trkpt lat="43.793952" lon="5.509061">
        <ele>483.9</ele>
      </trkpt>
      <trkpt lat="43.793873" lon="5.509098">
        <ele>483.8</ele>
      </trkpt>
      <trkpt lat="43.793750" lon="5.509156">
        <ele>483.3</ele>
      </trkpt>
      <trkpt lat="43.793658" lon="5.509172">
        <ele>477.7</ele>
      </trkpt>
      <trkpt lat="43.793479" lon="5.509209">
        <ele>477.8</ele>
      </trkpt>
      <trkpt lat="43.793332" lon="5.509271">
        <ele>476.1</ele>
      </trkpt>
      <trkpt lat="43.793150" lon="5.509392">
        <ele>473.1</ele>
      </trkpt>
      <trkpt lat="43.792950" lon="5.509597">
        <ele>470.9</ele>
      </trkpt>
      <trkpt lat="43.792766" lon="5.509752">
        <ele>469.6</ele>
      </trkpt>
      <trkpt lat="43.792712" lon="5.509803">
        <ele>469.1</ele>
      </trkpt>
      <trkpt lat="43.792629" lon="5.509884">
        <ele>468.2</ele>
      </trkpt>
      <trkpt lat="43.792505" lon="5.509993">
        <ele>466.2</ele>
      </trkpt>
      <trkpt lat="43.792378" lon="5.510086">
        <ele>463.1</ele>
      </trkpt>
      <trkpt lat="43.792349" lon="5.510107">
        <ele>462.6</ele>
      </trkpt>
      <trkpt lat="43.792097" lon="5.510308">
        <ele>460</ele>
      </trkpt>
      <trkpt lat="43.792079" lon="5.510318">
        <ele>459.9</ele>
      </trkpt>
      <trkpt lat="43.792023" lon="5.510357">
        <ele>459.6</ele>
      </trkpt>
      <trkpt lat="43.791952" lon="5.510382">
        <ele>459.3</ele>
      </trkpt>
      <trkpt lat="43.791804" lon="5.510428">
        <ele>458.8</ele>
      </trkpt>
      <trkpt lat="43.791641" lon="5.510451">
        <ele>454.1</ele>
      </trkpt>
      <trkpt lat="43.791427" lon="5.510503">
        <ele>453.5</ele>
      </trkpt>
      <trkpt lat="43.791352" lon="5.510515">
        <ele>453.1</ele>
      </trkpt>
      <trkpt lat="43.791316" lon="5.510518">
        <ele>453</ele>
      </trkpt>
      <trkpt lat="43.791274" lon="5.510519">
        <ele>452.8</ele>
      </trkpt>
      <trkpt lat="43.791049" lon="5.510397">
        <ele>451.9</ele>
      </trkpt>
      <trkpt lat="43.790923" lon="5.510378">
        <ele>451.5</ele>
      </trkpt>
      <trkpt lat="43.790636" lon="5.510354">
        <ele>447.6</ele>
      </trkpt>
      <trkpt lat="43.790260" lon="5.510299">
        <ele>446.8</ele>
      </trkpt>
      <trkpt lat="43.789970" lon="5.510253">
        <ele>444.9</ele>
      </trkpt>
      <trkpt lat="43.789950" lon="5.510249">
        <ele>444.9</ele>
      </trkpt>
      <trkpt lat="43.789736" lon="5.510240">
        <ele>444.6</ele>
      </trkpt>
      <trkpt lat="43.789650" lon="5.510236">
        <ele>444.5</ele>
      </trkpt>
      <trkpt lat="43.789293" lon="5.510193">
        <ele>444.1</ele>
      </trkpt>
      <trkpt lat="43.789052" lon="5.510166">
        <ele>442.9</ele>
      </trkpt>
      <trkpt lat="43.789011" lon="5.510161">
        <ele>442.9</ele>
      </trkpt>
      <trkpt lat="43.788665" lon="5.510118">
        <ele>442.2</ele>
      </trkpt>
      <trkpt lat="43.788408" lon="5.510097">
        <ele>442</ele>
      </trkpt>
      <trkpt lat="43.788236" lon="5.510031">
        <ele>441.2</ele>
      </trkpt>
      <trkpt lat="43.788058" lon="5.509970">
        <ele>439.9</ele>
      </trkpt>
      <trkpt lat="43.787930" lon="5.509944">
        <ele>439.6</ele>
      </trkpt>
      <trkpt lat="43.787756" lon="5.509930">
        <ele>439.4</ele>
      </trkpt>
      <trkpt lat="43.787327" lon="5.509998">
        <ele>437.3</ele>
      </trkpt>
      <trkpt lat="43.786968" lon="5.509976">
        <ele>434.4</ele>
      </trkpt>
      <trkpt lat="43.786337" lon="5.509837">
        <ele>429.5</ele>
      </trkpt>
      <trkpt lat="43.786221" lon="5.509794">
        <ele>429</ele>
      </trkpt>
      <trkpt lat="43.785911" lon="5.509563">
        <ele>428.1</ele>
      </trkpt>
      <trkpt lat="43.785714" lon="5.509480">
        <ele>425.6</ele>
      </trkpt>
      <trkpt lat="43.785526" lon="5.509437">
        <ele>425.4</ele>
      </trkpt>
      <trkpt lat="43.785067" lon="5.509373">
        <ele>424.7</ele>
      </trkpt>
      <trkpt lat="43.784612" lon="5.509236">
        <ele>423.1</ele>
      </trkpt>
      <trkpt lat="43.784232" lon="5.509112">
        <ele>422</ele>
      </trkpt>
      <trkpt lat="43.783489" lon="5.509035">
        <ele>419.2</ele>
      </trkpt>
      <trkpt lat="43.782701" lon="5.508866">
        <ele>419.4</ele>
      </trkpt>
      <trkpt lat="43.782642" lon="5.508844">
        <ele>419.5</ele>
      </trkpt>
      <trkpt lat="43.781746" lon="5.508678">
        <ele>418.9</ele>
      </trkpt>
      <trkpt lat="43.781134" lon="5.508434">
        <ele>413.8</ele>
      </trkpt>
      <trkpt lat="43.780948" lon="5.508410">
        <ele>412.1</ele>
      </trkpt>
      <trkpt lat="43.780247" lon="5.508474">
        <ele>407.2</ele>
      </trkpt>
      <trkpt lat="43.779532" lon="5.508479">
        <ele>403</ele>
      </trkpt>
      <trkpt lat="43.778905" lon="5.508391">
        <ele>400.2</ele>
      </trkpt>
      <trkpt lat="43.778076" lon="5.508192">
        <ele>397</ele>
      </trkpt>
      <trkpt lat="43.777625" lon="5.508015">
        <ele>395.9</ele>
      </trkpt>
      <trkpt lat="43.777489" lon="5.507932">
        <ele>394.7</ele>
      </trkpt>
      <trkpt lat="43.777437" lon="5.507905">
        <ele>394.7</ele>
      </trkpt>
      <trkpt lat="43.776614" lon="5.507927">
        <ele>392.9</ele>
      </trkpt>
      <trkpt lat="43.776027" lon="5.508032">
        <ele>391.7</ele>
      </trkpt>
      <trkpt lat="43.775174" lon="5.508363">
        <ele>386.2</ele>
      </trkpt>
      <trkpt lat="43.774394" lon="5.508666">
        <ele>383.2</ele>
      </trkpt>
      <trkpt lat="43.773860" lon="5.508874">
        <ele>380.5</ele>
      </trkpt>
      <trkpt lat="43.773244" lon="5.509053">
        <ele>377.5</ele>
      </trkpt>
      <trkpt lat="43.772400" lon="5.509413">
        <ele>374.1</ele>
      </trkpt>
      <trkpt lat="43.771308" lon="5.510001">
        <ele>369.5</ele>
      </trkpt>
      <trkpt lat="43.771160" lon="5.510081">
        <ele>369.3</ele>
      </trkpt>
      <trkpt lat="43.770720" lon="5.510287">
        <ele>369.5</ele>
      </trkpt>
      <trkpt lat="43.770660" lon="5.510279">
        <ele>369.5</ele>
      </trkpt>
      <trkpt lat="43.770625" lon="5.510295">
        <ele>369.5</ele>
      </trkpt>
      <trkpt lat="43.770259" lon="5.510569">
        <ele>369.1</ele>
      </trkpt>
      <trkpt lat="43.770199" lon="5.510636">
        <ele>368.8</ele>
      </trkpt>
      <trkpt lat="43.770157" lon="5.510714">
        <ele>368.4</ele>
      </trkpt>
      <trkpt lat="43.769889" lon="5.510869">
        <ele>366.3</ele>
      </trkpt>
      <trkpt lat="43.769334" lon="5.511041">
        <ele>365.6</ele>
      </trkpt>
      <trkpt lat="43.768799" lon="5.511143">
        <ele>363.4</ele>
      </trkpt>
      <trkpt lat="43.768226" lon="5.511062">
        <ele>360.3</ele>
      </trkpt>
      <trkpt lat="43.767710" lon="5.511213">
        <ele>358.1</ele>
      </trkpt>
      <trkpt lat="43.766959" lon="5.511497">
        <ele>353.8</ele>
      </trkpt>
      <trkpt lat="43.766835" lon="5.511618">
        <ele>353.2</ele>
      </trkpt>
      <trkpt lat="43.766552" lon="5.511969">
        <ele>352.4</ele>
      </trkpt>
      <trkpt lat="43.766517" lon="5.512004">
        <ele>352.4</ele>
      </trkpt>
      <trkpt lat="43.766200" lon="5.511851">
        <ele>351.8</ele>
      </trkpt>
      <trkpt lat="43.765992" lon="5.511779">
        <ele>351.2</ele>
      </trkpt>
      <trkpt lat="43.765926" lon="5.511768">
        <ele>350.9</ele>
      </trkpt>
      <trkpt lat="43.765305" lon="5.511773">
        <ele>349.6</ele>
      </trkpt>
      <trkpt lat="43.764865" lon="5.511752">
        <ele>348</ele>
      </trkpt>
      <trkpt lat="43.764691" lon="5.511797">
        <ele>346.8</ele>
      </trkpt>
      <trkpt lat="43.764617" lon="5.511816">
        <ele>346.4</ele>
      </trkpt>
      <trkpt lat="43.764304" lon="5.511988">
        <ele>345.3</ele>
      </trkpt>
      <trkpt lat="43.764067" lon="5.512052">
        <ele>343.9</ele>
      </trkpt>
      <trkpt lat="43.763695" lon="5.512052">
        <ele>344.1</ele>
      </trkpt>
      <trkpt lat="43.763610" lon="5.512095">
        <ele>344.1</ele>
      </trkpt>
      <trkpt lat="43.763529" lon="5.512245">
        <ele>343.8</ele>
      </trkpt>
      <trkpt lat="43.763412" lon="5.512481">
        <ele>343.3</ele>
      </trkpt>
      <trkpt lat="43.763343" lon="5.512530">
        <ele>342.8</ele>
      </trkpt>
      <trkpt lat="43.762944" lon="5.512299">
        <ele>342.8</ele>
      </trkpt>
      <trkpt lat="43.762858" lon="5.512283">
        <ele>342.6</ele>
      </trkpt>
      <trkpt lat="43.762796" lon="5.512326">
        <ele>342.3</ele>
      </trkpt>
      <trkpt lat="43.762523" lon="5.512189">
        <ele>342.2</ele>
      </trkpt>
      <trkpt lat="43.761485" lon="5.511588">
        <ele>339.5</ele>
      </trkpt>
      <trkpt lat="43.761324" lon="5.511494">
        <ele>338.2</ele>
      </trkpt>
      <trkpt lat="43.760743" lon="5.511140">
        <ele>334.3</ele>
      </trkpt>
      <trkpt lat="43.760444" lon="5.510942">
        <ele>334.2</ele>
      </trkpt>
      <trkpt lat="43.760140" lon="5.510655">
        <ele>335.4</ele>
      </trkpt>
      <trkpt lat="43.759475" lon="5.509809">
        <ele>331.1</ele>
      </trkpt>
      <trkpt lat="43.759123" lon="5.509362">
        <ele>329.7</ele>
      </trkpt>
      <trkpt lat="43.758903" lon="5.508887">
        <ele>330.3</ele>
      </trkpt>
      <trkpt lat="43.758569" lon="5.507616">
        <ele>330.5</ele>
      </trkpt>
    </trkseg>
  </trk>
</gpx>