<?xml version="1.0" ?>
<gpx xmlns="http://www.topografix.com/GPX/1/1" xmlns:xsi="http://www.w3.org/2001/XMLSchema-instance" xsi:schemaLocation="http://www.topografix.com/GPX/1/1 http://www.topografix.com/GPX/1/1/gpx.xsd" version="1.1" creator="EditGPX">
  <trk>
    <name>NewTrack</name>
    <trkseg>
      <trkpt lat="43.842340" lon="5.777510">
        <ele>421.9</ele>
      </trkpt>
      <trkpt lat="43.842463" lon="5.777586">
        <ele>422.6</ele>
      </trkpt>
      <trkpt lat="43.842862" lon="5.777371">
        <ele>425.8</ele>
      </trkpt>
      <trkpt lat="43.843155" lon="5.777250">
        <ele>425.9</ele>
      </trkpt>
      <trkpt lat="43.843218" lon="5.777103">
        <ele>426.8</ele>
      </trkpt>
      <trkpt lat="43.843249" lon="5.776947">
        <ele>428.1</ele>
      </trkpt>
      <trkpt lat="43.843222" lon="5.776405">
        <ele>434.1</ele>
      </trkpt>
      <trkpt lat="43.843161" lon="5.775579">
        <ele>443.2</ele>
      </trkpt>
      <trkpt lat="43.843175" lon="5.775121">
        <ele>446.7</ele>
      </trkpt>
      <trkpt lat="43.843262" lon="5.774753">
        <ele>452.7</ele>
      </trkpt>
      <trkpt lat="43.843319" lon="5.774506">
        <ele>455.3</ele>
      </trkpt>
      <trkpt lat="43.843369" lon="5.774099">
        <ele>464.4</ele>
      </trkpt>
      <trkpt lat="43.843377" lon="5.774024">
        <ele>464.7</ele>
      </trkpt>
      <trkpt lat="43.843659" lon="5.774002">
        <ele>464.8</ele>
      </trkpt>
      <trkpt lat="43.843880" lon="5.773847">
        <ele>465</ele>
      </trkpt>
      <trkpt lat="43.844092" lon="5.773219">
        <ele>471.5</ele>
      </trkpt>
      <trkpt lat="43.844297" lon="5.772902">
        <ele>475.6</ele>
      </trkpt>
      <trkpt lat="43.844384" lon="5.772758">
        <ele>476.6</ele>
      </trkpt>
      <trkpt lat="43.844763" lon="5.772546">
        <ele>479.9</ele>
      </trkpt>
      <trkpt lat="43.845050" lon="5.772454">
        <ele>489.1</ele>
      </trkpt>
      <trkpt lat="43.845191" lon="5.772487">
        <ele>493</ele>
      </trkpt>
      <trkpt lat="43.845297" lon="5.772560">
        <ele>486.6</ele>
      </trkpt>
      <trkpt lat="43.845540" lon="5.772677">
        <ele>488.7</ele>
      </trkpt>
      <trkpt lat="43.845809" lon="5.772860">
        <ele>488.4</ele>
      </trkpt>
      <trkpt lat="43.846159" lon="5.772983">
        <ele>497.2</ele>
      </trkpt>
      <trkpt lat="43.846445" lon="5.773187">
        <ele>496.8</ele>
      </trkpt>
      <trkpt lat="43.846933" lon="5.773165">
        <ele>499.1</ele>
      </trkpt>
      <trkpt lat="43.847149" lon="5.773036">
        <ele>499.9</ele>
      </trkpt>
      <trkpt lat="43.847258" lon="5.772521">
        <ele>505.2</ele>
      </trkpt>
      <trkpt lat="43.847474" lon="5.772114">
        <ele>521.5</ele>
      </trkpt>
      <trkpt lat="43.847629" lon="5.771985">
        <ele>521</ele>
      </trkpt>
      <trkpt lat="43.847830" lon="5.772007">
        <ele>520</ele>
      </trkpt>
      <trkpt lat="43.848148" lon="5.772039">
        <ele>519.5</ele>
      </trkpt>
      <trkpt lat="43.848326" lon="5.771910">
        <ele>521.6</ele>
      </trkpt>
      <trkpt lat="43.848612" lon="5.770773">
        <ele>543</ele>
      </trkpt>
      <trkpt lat="43.848762" lon="5.770376">
        <ele>545.1</ele>
      </trkpt>
      <trkpt lat="43.848774" lon="5.770134">
        <ele>547.1</ele>
      </trkpt>
      <trkpt lat="43.848789" lon="5.769979">
        <ele>558.2</ele>
      </trkpt>
      <trkpt lat="43.848921" lon="5.769748">
        <ele>558.4</ele>
      </trkpt>
      <trkpt lat="43.849010" lon="5.769684">
        <ele>558.5</ele>
      </trkpt>
      <trkpt lat="43.849857" lon="5.769694">
        <ele>554.3</ele>
      </trkpt>
      <trkpt lat="43.849988" lon="5.769748">
        <ele>553.5</ele>
      </trkpt>
      <trkpt lat="43.850128" lon="5.769534">
        <ele>547.9</ele>
      </trkpt>
      <trkpt lat="43.850255" lon="5.769088">
        <ele>556.8</ele>
      </trkpt>
      <trkpt lat="43.850302" lon="5.768584">
        <ele>558.8</ele>
      </trkpt>
      <trkpt lat="43.850344" lon="5.768412">
        <ele>559.2</ele>
      </trkpt>
      <trkpt lat="43.850425" lon="5.767871">
        <ele>565.9</ele>
      </trkpt>
      <trkpt lat="43.850580" lon="5.767452">
        <ele>566.7</ele>
      </trkpt>
      <trkpt lat="43.850623" lon="5.767152">
        <ele>567.9</ele>
      </trkpt>
      <trkpt lat="43.850720" lon="5.766819">
        <ele>565</ele>
      </trkpt>
      <trkpt lat="43.850785" lon="5.766411">
        <ele>565.6</ele>
      </trkpt>
      <trkpt lat="43.851021" lon="5.765891">
        <ele>558.4</ele>
      </trkpt>
      <trkpt lat="43.851149" lon="5.765795">
        <ele>558.3</ele>
      </trkpt>
      <trkpt lat="43.851458" lon="5.765650">
        <ele>557.6</ele>
      </trkpt>
      <trkpt lat="43.851876" lon="5.765086">
        <ele>563.5</ele>
      </trkpt>
      <trkpt lat="43.851961" lon="5.764888">
        <ele>567.9</ele>
      </trkpt>
      <trkpt lat="43.852073" lon="5.764132">
        <ele>573.7</ele>
      </trkpt>
      <trkpt lat="43.852193" lon="5.763413">
        <ele>577.2</ele>
      </trkpt>
      <trkpt lat="43.852414" lon="5.762270">
        <ele>583.3</ele>
      </trkpt>
      <trkpt lat="43.852569" lon="5.762013">
        <ele>602.6</ele>
      </trkpt>
      <trkpt lat="43.852843" lon="5.761503">
        <ele>608.3</ele>
      </trkpt>
      <trkpt lat="43.852870" lon="5.761245">
        <ele>610.2</ele>
      </trkpt>
      <trkpt lat="43.852841" lon="5.761170">
        <ele>609.9</ele>
      </trkpt>
      <trkpt lat="43.852627" lon="5.760875">
        <ele>604.7</ele>
      </trkpt>
      <trkpt lat="43.852553" lon="5.760704">
        <ele>607.1</ele>
      </trkpt>
      <trkpt lat="43.852642" lon="5.759470">
        <ele>617.3</ele>
      </trkpt>
      <trkpt lat="43.852720" lon="5.758976">
        <ele>618.7</ele>
      </trkpt>
      <trkpt lat="43.852709" lon="5.758893">
        <ele>619</ele>
      </trkpt>
      <trkpt lat="43.852671" lon="5.758223">
        <ele>617.4</ele>
      </trkpt>
      <trkpt lat="43.852684" lon="5.757839">
        <ele>619.7</ele>
      </trkpt>
      <trkpt lat="43.852684" lon="5.757327">
        <ele>619.5</ele>
      </trkpt>
      <trkpt lat="43.852694" lon="5.756994">
        <ele>620.8</ele>
      </trkpt>
      <trkpt lat="43.852698" lon="5.756691">
        <ele>618.7</ele>
      </trkpt>
      <trkpt lat="43.852675" lon="5.756302">
        <ele>618.1</ele>
      </trkpt>
      <trkpt lat="43.852611" lon="5.755557">
        <ele>611.1</ele>
      </trkpt>
      <trkpt lat="43.852570" lon="5.755173">
        <ele>608.4</ele>
      </trkpt>
      <trkpt lat="43.852545" lon="5.755004">
        <ele>605.4</ele>
      </trkpt>
      <trkpt lat="43.852518" lon="5.754891">
        <ele>602.5</ele>
      </trkpt>
      <trkpt lat="43.852530" lon="5.754634">
        <ele>599.4</ele>
      </trkpt>
      <trkpt lat="43.852632" lon="5.754374">
        <ele>595.8</ele>
      </trkpt>
      <trkpt lat="43.852791" lon="5.754151">
        <ele>584.6</ele>
      </trkpt>
      <trkpt lat="43.852976" lon="5.754097">
        <ele>585.3</ele>
      </trkpt>
      <trkpt lat="43.853027" lon="5.754079">
        <ele>585.8</ele>
      </trkpt>
      <trkpt lat="43.853129" lon="5.753926">
        <ele>585.1</ele>
      </trkpt>
      <trkpt lat="43.853135" lon="5.753856">
        <ele>583.9</ele>
      </trkpt>
      <trkpt lat="43.853183" lon="5.753703">
        <ele>581.7</ele>
      </trkpt>
      <trkpt lat="43.853268" lon="5.753652">
        <ele>581.1</ele>
      </trkpt>
      <trkpt lat="43.853309" lon="5.753564">
        <ele>579.8</ele>
      </trkpt>
      <trkpt lat="43.853197" lon="5.753491">
        <ele>578.8</ele>
      </trkpt>
      <trkpt lat="43.853094" lon="5.753408">
        <ele>578.2</ele>
      </trkpt>
      <trkpt lat="43.852905" lon="5.753360">
        <ele>576.8</ele>
      </trkpt>
      <trkpt lat="43.852762" lon="5.753306">
        <ele>567</ele>
      </trkpt>
      <trkpt lat="43.852570" lon="5.753344">
        <ele>568.2</ele>
      </trkpt>
      <trkpt lat="43.852197" lon="5.753628">
        <ele>563.2</ele>
      </trkpt>
      <trkpt lat="43.851990" lon="5.753813">
        <ele>562.3</ele>
      </trkpt>
      <trkpt lat="43.851841" lon="5.753998">
        <ele>561.7</ele>
      </trkpt>
      <trkpt lat="43.851636" lon="5.754089">
        <ele>552.6</ele>
      </trkpt>
      <trkpt lat="43.851462" lon="5.754261">
        <ele>552.5</ele>
      </trkpt>
      <trkpt lat="43.851365" lon="5.754360">
        <ele>550.3</ele>
      </trkpt>
      <trkpt lat="43.851168" lon="5.754556">
        <ele>547.3</ele>
      </trkpt>
      <trkpt lat="43.851083" lon="5.754792">
        <ele>546.4</ele>
      </trkpt>
      <trkpt lat="43.850986" lon="5.754953">
        <ele>543.1</ele>
      </trkpt>
      <trkpt lat="43.850882" lon="5.755130">
        <ele>545.2</ele>
      </trkpt>
      <trkpt lat="43.850740" lon="5.755527">
        <ele>532</ele>
      </trkpt>
      <trkpt lat="43.850763" lon="5.755752">
        <ele>538.3</ele>
      </trkpt>
      <trkpt lat="43.850701" lon="5.755975">
        <ele>537.2</ele>
      </trkpt>
      <trkpt lat="43.850638" lon="5.756122">
        <ele>534.4</ele>
      </trkpt>
      <trkpt lat="43.850582" lon="5.756192">
        <ele>533.3</ele>
      </trkpt>
      <trkpt lat="43.850553" lon="5.756061">
        <ele>533.2</ele>
      </trkpt>
      <trkpt lat="43.850528" lon="5.755921">
        <ele>533.2</ele>
      </trkpt>
      <trkpt lat="43.850458" lon="5.755911">
        <ele>531.4</ele>
      </trkpt>
      <trkpt lat="43.850354" lon="5.755908">
        <ele>528.7</ele>
      </trkpt>
      <trkpt lat="43.850268" lon="5.755779">
        <ele>523.4</ele>
      </trkpt>
      <trkpt lat="43.850226" lon="5.755677">
        <ele>522.7</ele>
      </trkpt>
      <trkpt lat="43.850255" lon="5.755599">
        <ele>523.4</ele>
      </trkpt>
      <trkpt lat="43.850307" lon="5.755471">
        <ele>524</ele>
      </trkpt>
      <trkpt lat="43.850311" lon="5.755385">
        <ele>523.7</ele>
      </trkpt>
      <trkpt lat="43.850267" lon="5.755334">
        <ele>522.5</ele>
      </trkpt>
      <trkpt lat="43.850212" lon="5.755248">
        <ele>520.5</ele>
      </trkpt>
      <trkpt lat="43.850133" lon="5.754746">
        <ele>512.8</ele>
      </trkpt>
      <trkpt lat="43.850110" lon="5.754441">
        <ele>510.4</ele>
      </trkpt>
      <trkpt lat="43.850236" lon="5.754207">
        <ele>510</ele>
      </trkpt>
      <trkpt lat="43.850363" lon="5.753947">
        <ele>510.1</ele>
      </trkpt>
      <trkpt lat="43.850419" lon="5.753800">
        <ele>510.9</ele>
      </trkpt>
      <trkpt lat="43.850435" lon="5.753590">
        <ele>510.6</ele>
      </trkpt>
      <trkpt lat="43.850446" lon="5.753440">
        <ele>510.5</ele>
      </trkpt>
      <trkpt lat="43.850396" lon="5.753421">
        <ele>509.6</ele>
      </trkpt>
      <trkpt lat="43.850290" lon="5.753397">
        <ele>507.6</ele>
      </trkpt>
      <trkpt lat="43.850243" lon="5.753330">
        <ele>507.5</ele>
      </trkpt>
      <trkpt lat="43.850201" lon="5.753226">
        <ele>507.1</ele>
      </trkpt>
      <trkpt lat="43.850185" lon="5.753121">
        <ele>508</ele>
      </trkpt>
      <trkpt lat="43.850205" lon="5.753046">
        <ele>509</ele>
      </trkpt>
      <trkpt lat="43.850297" lon="5.753054">
        <ele>510.2</ele>
      </trkpt>
      <trkpt lat="43.850334" lon="5.753041">
        <ele>510.8</ele>
      </trkpt>
      <trkpt lat="43.850344" lon="5.752957">
        <ele>511.4</ele>
      </trkpt>
      <trkpt lat="43.850311" lon="5.752770">
        <ele>511.6</ele>
      </trkpt>
      <trkpt lat="43.850284" lon="5.752719">
        <ele>511.2</ele>
      </trkpt>
      <trkpt lat="43.850280" lon="5.752496">
        <ele>516.1</ele>
      </trkpt>
      <trkpt lat="43.850253" lon="5.752408">
        <ele>515.8</ele>
      </trkpt>
      <trkpt lat="43.850218" lon="5.752370">
        <ele>515.3</ele>
      </trkpt>
      <trkpt lat="43.850193" lon="5.752265">
        <ele>516.1</ele>
      </trkpt>
      <trkpt lat="43.850282" lon="5.751836">
        <ele>519.7</ele>
      </trkpt>
      <trkpt lat="43.850326" lon="5.751434">
        <ele>525.6</ele>
      </trkpt>
      <trkpt lat="43.850381" lon="5.751201">
        <ele>527.5</ele>
      </trkpt>
      <trkpt lat="43.850410" lon="5.750962">
        <ele>528.3</ele>
      </trkpt>
      <trkpt lat="43.850446" lon="5.750661">
        <ele>532.6</ele>
      </trkpt>
      <trkpt lat="43.850532" lon="5.750560">
        <ele>534.3</ele>
      </trkpt>
      <trkpt lat="43.850638" lon="5.750206">
        <ele>537.3</ele>
      </trkpt>
      <trkpt lat="43.850771" lon="5.749975">
        <ele>544.8</ele>
      </trkpt>
      <trkpt lat="43.850899" lon="5.749567">
        <ele>555.9</ele>
      </trkpt>
      <trkpt lat="43.850965" lon="5.749412">
        <ele>556.2</ele>
      </trkpt>
      <trkpt lat="43.851164" lon="5.749227">
        <ele>558.3</ele>
      </trkpt>
      <trkpt lat="43.851346" lon="5.749197">
        <ele>561.2</ele>
      </trkpt>
      <trkpt lat="43.851402" lon="5.749162">
        <ele>563.8</ele>
      </trkpt>
      <trkpt lat="43.851462" lon="5.749036">
        <ele>564.4</ele>
      </trkpt>
      <trkpt lat="43.851481" lon="5.748889">
        <ele>564.4</ele>
      </trkpt>
      <trkpt lat="43.851452" lon="5.748730">
        <ele>564.4</ele>
      </trkpt>
      <trkpt lat="43.851346" lon="5.748575">
        <ele>564.4</ele>
      </trkpt>
      <trkpt lat="43.851274" lon="5.748422">
        <ele>564.3</ele>
      </trkpt>
      <trkpt lat="43.851232" lon="5.748256">
        <ele>570</ele>
      </trkpt>
      <trkpt lat="43.851307" lon="5.747995">
        <ele>571.7</ele>
      </trkpt>
      <trkpt lat="43.851373" lon="5.747679">
        <ele>574.1</ele>
      </trkpt>
      <trkpt lat="43.851305" lon="5.747547">
        <ele>574.3</ele>
      </trkpt>
      <trkpt lat="43.851071" lon="5.747555">
        <ele>573.6</ele>
      </trkpt>
      <trkpt lat="43.850955" lon="5.747633">
        <ele>573.4</ele>
      </trkpt>
      <trkpt lat="43.850798" lon="5.747711">
        <ele>568.6</ele>
      </trkpt>
      <trkpt lat="43.850669" lon="5.747601">
        <ele>569</ele>
      </trkpt>
      <trkpt lat="43.850539" lon="5.747360">
        <ele>575.7</ele>
      </trkpt>
      <trkpt lat="43.850239" lon="5.747175">
        <ele>574.7</ele>
      </trkpt>
      <trkpt lat="43.850232" lon="5.747065">
        <ele>575.8</ele>
      </trkpt>
      <trkpt lat="43.850673" lon="5.747137">
        <ele>578.2</ele>
      </trkpt>
      <trkpt lat="43.851002" lon="5.747086">
        <ele>585.1</ele>
      </trkpt>
      <trkpt lat="43.851458" lon="5.746829">
        <ele>589.4</ele>
      </trkpt>
      <trkpt lat="43.851607" lon="5.746775">
        <ele>592</ele>
      </trkpt>
      <trkpt lat="43.851903" lon="5.746735">
        <ele>591.3</ele>
      </trkpt>
      <trkpt lat="43.852591" lon="5.746306">
        <ele>599.9</ele>
      </trkpt>
      <trkpt lat="43.852756" lon="5.746118">
        <ele>601.9</ele>
      </trkpt>
      <trkpt lat="43.853073" lon="5.745839">
        <ele>603.2</ele>
      </trkpt>
      <trkpt lat="43.853419" lon="5.745710">
        <ele>607.3</ele>
      </trkpt>
      <trkpt lat="43.853646" lon="5.745705">
        <ele>608</ele>
      </trkpt>
      <trkpt lat="43.853870" lon="5.745734">
        <ele>608.3</ele>
      </trkpt>
      <trkpt lat="43.854044" lon="5.745839">
        <ele>606.9</ele>
      </trkpt>
      <trkpt lat="43.854178" lon="5.746080">
        <ele>613.9</ele>
      </trkpt>
      <trkpt lat="43.854208" lon="5.746225">
        <ele>615.1</ele>
      </trkpt>
      <trkpt lat="43.854187" lon="5.746373">
        <ele>615</ele>
      </trkpt>
      <trkpt lat="43.854230" lon="5.746491">
        <ele>614.4</ele>
      </trkpt>
      <trkpt lat="43.854231" lon="5.746574">
        <ele>613.3</ele>
      </trkpt>
      <trkpt lat="43.854162" lon="5.746928">
        <ele>607.2</ele>
      </trkpt>
      <trkpt lat="43.854034" lon="5.747368">
        <ele>610.3</ele>
      </trkpt>
      <trkpt lat="43.853930" lon="5.747867">
        <ele>611.2</ele>
      </trkpt>
      <trkpt lat="43.853943" lon="5.749127">
        <ele>621.5</ele>
      </trkpt>
      <trkpt lat="43.853943" lon="5.749127">
        <ele>621.5</ele>
      </trkpt>
      <trkpt lat="43.853949" lon="5.749728">
        <ele>621.9</ele>
      </trkpt>
      <trkpt lat="43.854069" lon="5.750484">
        <ele>619.4</ele>
      </trkpt>
      <trkpt lat="43.854343" lon="5.750962">
        <ele>622.1</ele>
      </trkpt>
      <trkpt lat="43.854800" lon="5.751423">
        <ele>621.9</ele>
      </trkpt>
      <trkpt lat="43.854916" lon="5.751525">
        <ele>621.6</ele>
      </trkpt>
      <trkpt lat="43.854974" lon="5.751670">
        <ele>620.1</ele>
      </trkpt>
      <trkpt lat="43.855044" lon="5.751710">
        <ele>619.9</ele>
      </trkpt>
      <trkpt lat="43.855133" lon="5.751630">
        <ele>621.3</ele>
      </trkpt>
      <trkpt lat="43.855307" lon="5.751257">
        <ele>623.1</ele>
      </trkpt>
      <trkpt lat="43.855562" lon="5.750919">
        <ele>623.5</ele>
      </trkpt>
      <trkpt lat="43.856142" lon="5.749907">
        <ele>633.5</ele>
      </trkpt>
      <trkpt lat="43.856162" lon="5.749873">
        <ele>633.2</ele>
      </trkpt>
      <trkpt lat="43.856223" lon="5.749505">
        <ele>634.6</ele>
      </trkpt>
      <trkpt lat="43.856390" lon="5.748891">
        <ele>645.2</ele>
      </trkpt>
      <trkpt lat="43.856483" lon="5.748804">
        <ele>645.2</ele>
      </trkpt>
      <trkpt lat="43.856997" lon="5.748205">
        <ele>644.8</ele>
      </trkpt>
      <trkpt lat="43.857426" lon="5.747165">
        <ele>650.7</ele>
      </trkpt>
      <trkpt lat="43.857426" lon="5.747165">
        <ele>650.7</ele>
      </trkpt>
      <trkpt lat="43.857488" lon="5.747014">
        <ele>651.1</ele>
      </trkpt>
      <trkpt lat="43.857648" lon="5.746434">
        <ele>639.7</ele>
      </trkpt>
      <trkpt lat="43.858348" lon="5.745834">
        <ele>628.9</ele>
      </trkpt>
      <trkpt lat="43.858800" lon="5.745474">
        <ele>632.8</ele>
      </trkpt>
      <trkpt lat="43.859504" lon="5.744991">
        <ele>635.7</ele>
      </trkpt>
      <trkpt lat="43.859792" lon="5.744841">
        <ele>630.9</ele>
      </trkpt>
      <trkpt lat="43.859943" lon="5.744777">
        <ele>629.6</ele>
      </trkpt>
      <trkpt lat="43.860192" lon="5.744458">
        <ele>616.4</ele>
      </trkpt>
      <trkpt lat="43.860314" lon="5.743833">
        <ele>617.7</ele>
      </trkpt>
      <trkpt lat="43.860336" lon="5.743078">
        <ele>622.4</ele>
      </trkpt>
      <trkpt lat="43.860428" lon="5.742947">
        <ele>621.4</ele>
      </trkpt>
      <trkpt lat="43.860763" lon="5.742666">
        <ele>617</ele>
      </trkpt>
      <trkpt lat="43.861043" lon="5.742542">
        <ele>603.3</ele>
      </trkpt>
      <trkpt lat="43.861683" lon="5.742121">
        <ele>596.5</ele>
      </trkpt>
      <trkpt lat="43.861954" lon="5.742025">
        <ele>596.4</ele>
      </trkpt>
      <trkpt lat="43.862294" lon="5.742108">
        <ele>593</ele>
      </trkpt>
      <trkpt lat="43.862695" lon="5.742089">
        <ele>586.4</ele>
      </trkpt>
      <trkpt lat="43.862788" lon="5.742052">
        <ele>586.5</ele>
      </trkpt>
      <trkpt lat="43.863214" lon="5.741688">
        <ele>588.6</ele>
      </trkpt>
      <trkpt lat="43.863907" lon="5.740879">
        <ele>589.9</ele>
      </trkpt>
      <trkpt lat="43.864435" lon="5.740536">
        <ele>594.1</ele>
      </trkpt>
      <trkpt lat="43.864696" lon="5.740665">
        <ele>591.5</ele>
      </trkpt>
      <trkpt lat="43.864942" lon="5.740643">
        <ele>589.3</ele>
      </trkpt>
      <trkpt lat="43.865102" lon="5.740609">
        <ele>588</ele>
      </trkpt>
      <trkpt lat="43.865363" lon="5.740445">
        <ele>590.4</ele>
      </trkpt>
      <trkpt lat="43.865501" lon="5.740281">
        <ele>592.3</ele>
      </trkpt>
      <trkpt lat="43.865930" lon="5.739402">
        <ele>599.8</ele>
      </trkpt>
      <trkpt lat="43.866118" lon="5.739123">
        <ele>598.7</ele>
      </trkpt>
      <trkpt lat="43.866282" lon="5.738881">
        <ele>598.9</ele>
      </trkpt>
      <trkpt lat="43.866224" lon="5.738750">
        <ele>597.8</ele>
      </trkpt>
      <trkpt lat="43.866237" lon="5.738557">
        <ele>596.9</ele>
      </trkpt>
      <trkpt lat="43.866427" lon="5.738248">
        <ele>592.4</ele>
      </trkpt>
      <trkpt lat="43.866641" lon="5.737980">
        <ele>590.3</ele>
      </trkpt>
      <trkpt lat="43.867003" lon="5.737513">
        <ele>592.3</ele>
      </trkpt>
      <trkpt lat="43.867098" lon="5.737449">
        <ele>581.9</ele>
      </trkpt>
      <trkpt lat="43.867274" lon="5.737438">
        <ele>584.5</ele>
      </trkpt>
      <trkpt lat="43.867365" lon="5.737307">
        <ele>584</ele>
      </trkpt>
      <trkpt lat="43.867672" lon="5.737090">
        <ele>581.6</ele>
      </trkpt>
      <trkpt lat="43.867645" lon="5.736639">
        <ele>565.3</ele>
      </trkpt>
      <trkpt lat="43.867556" lon="5.736478">
        <ele>563.9</ele>
      </trkpt>
      <trkpt lat="43.867802" lon="5.736132">
        <ele>558.5</ele>
      </trkpt>
      <trkpt lat="43.868051" lon="5.736068">
        <ele>556.9</ele>
      </trkpt>
      <trkpt lat="43.868171" lon="5.735998">
        <ele>554.5</ele>
      </trkpt>
      <trkpt lat="43.868227" lon="5.735719">
        <ele>548.2</ele>
      </trkpt>
      <trkpt lat="43.868453" lon="5.735609">
        <ele>543.6</ele>
      </trkpt>
      <trkpt lat="43.868566" lon="5.735394">
        <ele>542.3</ele>
      </trkpt>
      <trkpt lat="43.868792" lon="5.735268">
        <ele>540.9</ele>
      </trkpt>
      <trkpt lat="43.868956" lon="5.735046">
        <ele>537.9</ele>
      </trkpt>
      <trkpt lat="43.869066" lon="5.734810">
        <ele>536.7</ele>
      </trkpt>
      <trkpt lat="43.869204" lon="5.734689">
        <ele>531</ele>
      </trkpt>
      <trkpt lat="43.869266" lon="5.734517">
        <ele>530.8</ele>
      </trkpt>
      <trkpt lat="43.869354" lon="5.734324">
        <ele>530.6</ele>
      </trkpt>
      <trkpt lat="43.869478" lon="5.734295">
        <ele>530</ele>
      </trkpt>
      <trkpt lat="43.869534" lon="5.734405">
        <ele>529.9</ele>
      </trkpt>
      <trkpt lat="43.869757" lon="5.734831">
        <ele>531.2</ele>
      </trkpt>
      <trkpt lat="43.869853" lon="5.734869">
        <ele>531.7</ele>
      </trkpt>
      <trkpt lat="43.869919" lon="5.734826">
        <ele>531.7</ele>
      </trkpt>
      <trkpt lat="43.870000" lon="5.734767">
        <ele>531.2</ele>
      </trkpt>
      <trkpt lat="43.870174" lon="5.734464">
        <ele>534.9</ele>
      </trkpt>
      <trkpt lat="43.870395" lon="5.734166">
        <ele>529.9</ele>
      </trkpt>
      <trkpt lat="43.870762" lon="5.733780">
        <ele>531.3</ele>
      </trkpt>
      <trkpt lat="43.871025" lon="5.733216">
        <ele>529.1</ele>
      </trkpt>
      <trkpt lat="43.871215" lon="5.733007">
        <ele>529.5</ele>
      </trkpt>
      <trkpt lat="43.871478" lon="5.732852">
        <ele>530</ele>
      </trkpt>
      <trkpt lat="43.871802" lon="5.732846">
        <ele>538.5</ele>
      </trkpt>
      <trkpt lat="43.872197" lon="5.733082">
        <ele>544</ele>
      </trkpt>
      <trkpt lat="43.872572" lon="5.733082">
        <ele>548.3</ele>
      </trkpt>
      <trkpt lat="43.872932" lon="5.733179">
        <ele>548</ele>
      </trkpt>
      <trkpt lat="43.873345" lon="5.733200">
        <ele>551.2</ele>
      </trkpt>
      <trkpt lat="43.873759" lon="5.732970">
        <ele>549.5</ele>
      </trkpt>
      <trkpt lat="43.873995" lon="5.732583">
        <ele>549.3</ele>
      </trkpt>
      <trkpt lat="43.874138" lon="5.732616">
        <ele>549.6</ele>
      </trkpt>
      <trkpt lat="43.874285" lon="5.732884">
        <ele>550.1</ele>
      </trkpt>
      <trkpt lat="43.874084" lon="5.733377">
        <ele>553.3</ele>
      </trkpt>
      <trkpt lat="43.873751" lon="5.734080">
        <ele>557.8</ele>
      </trkpt>
      <trkpt lat="43.873566" lon="5.734600">
        <ele>563</ele>
      </trkpt>
      <trkpt lat="43.873477" lon="5.735153">
        <ele>566.8</ele>
      </trkpt>
      <trkpt lat="43.873458" lon="5.735480">
        <ele>568.3</ele>
      </trkpt>
      <trkpt lat="43.873686" lon="5.735657">
        <ele>569</ele>
      </trkpt>
      <trkpt lat="43.873539" lon="5.735754">
        <ele>569.2</ele>
      </trkpt>
      <trkpt lat="43.873334" lon="5.735770">
        <ele>569.6</ele>
      </trkpt>
      <trkpt lat="43.873001" lon="5.735866">
        <ele>580.5</ele>
      </trkpt>
      <trkpt lat="43.872843" lon="5.735705">
        <ele>579.7</ele>
      </trkpt>
      <trkpt lat="43.872715" lon="5.735196">
        <ele>580.1</ele>
      </trkpt>
      <trkpt lat="43.872676" lon="5.734531">
        <ele>575.1</ele>
      </trkpt>
      <trkpt lat="43.872549" lon="5.734279">
        <ele>576.3</ele>
      </trkpt>
      <trkpt lat="43.872162" lon="5.734102">
        <ele>570.3</ele>
      </trkpt>
      <trkpt lat="43.871802" lon="5.734118">
        <ele>572.4</ele>
      </trkpt>
      <trkpt lat="43.871686" lon="5.734295">
        <ele>579.1</ele>
      </trkpt>
      <trkpt lat="43.871659" lon="5.734633">
        <ele>572.5</ele>
      </trkpt>
      <trkpt lat="43.871772" lon="5.735303">
        <ele>588</ele>
      </trkpt>
      <trkpt lat="43.871826" lon="5.736092">
        <ele>592.2</ele>
      </trkpt>
      <trkpt lat="43.871818" lon="5.736693">
        <ele>597.6</ele>
      </trkpt>
      <trkpt lat="43.871764" lon="5.737261">
        <ele>600.8</ele>
      </trkpt>
      <trkpt lat="43.871551" lon="5.737969">
        <ele>600.3</ele>
      </trkpt>
      <trkpt lat="43.871214" lon="5.739058">
        <ele>607.3</ele>
      </trkpt>
      <trkpt lat="43.871157" lon="5.739241">
        <ele>609.8</ele>
      </trkpt>
      <trkpt lat="43.870894" lon="5.739766">
        <ele>609.8</ele>
      </trkpt>
      <trkpt lat="43.870855" lon="5.739906">
        <ele>609.5</ele>
      </trkpt>
      <trkpt lat="43.870928" lon="5.739974">
        <ele>609.7</ele>
      </trkpt>
      <trkpt lat="43.871037" lon="5.739958">
        <ele>610.3</ele>
      </trkpt>
      <trkpt lat="43.871157" lon="5.739953">
        <ele>611</ele>
      </trkpt>
      <trkpt lat="43.871230" lon="5.739953">
        <ele>611.4</ele>
      </trkpt>
      <trkpt lat="43.871354" lon="5.739937">
        <ele>612.2</ele>
      </trkpt>
      <trkpt lat="43.871454" lon="5.739905">
        <ele>612.8</ele>
      </trkpt>
      <trkpt lat="43.871574" lon="5.739915">
        <ele>613.7</ele>
      </trkpt>
      <trkpt lat="43.871671" lon="5.739926">
        <ele>615.3</ele>
      </trkpt>
      <trkpt lat="43.871748" lon="5.739953">
        <ele>615.4</ele>
      </trkpt>
      <trkpt lat="43.871841" lon="5.739991">
        <ele>615.5</ele>
      </trkpt>
      <trkpt lat="43.871934" lon="5.740012">
        <ele>609.7</ele>
      </trkpt>
      <trkpt lat="43.872019" lon="5.740023">
        <ele>609.1</ele>
      </trkpt>
      <trkpt lat="43.872127" lon="5.739969">
        <ele>615.6</ele>
      </trkpt>
      <trkpt lat="43.872209" lon="5.739915">
        <ele>615.5</ele>
      </trkpt>
      <trkpt lat="43.872301" lon="5.739878">
        <ele>615.4</ele>
      </trkpt>
      <trkpt lat="43.872410" lon="5.739851">
        <ele>615.2</ele>
      </trkpt>
      <trkpt lat="43.872963" lon="5.739797">
        <ele>616.6</ele>
      </trkpt>
      <trkpt lat="43.873067" lon="5.739814">
        <ele>616.9</ele>
      </trkpt>
      <trkpt lat="43.873195" lon="5.739824">
        <ele>617.3</ele>
      </trkpt>
      <trkpt lat="43.873345" lon="5.739846">
        <ele>619</ele>
      </trkpt>
      <trkpt lat="43.873481" lon="5.739862">
        <ele>619.2</ele>
      </trkpt>
      <trkpt lat="43.873635" lon="5.739889">
        <ele>619.6</ele>
      </trkpt>
      <trkpt lat="43.873775" lon="5.739899">
        <ele>620.1</ele>
      </trkpt>
      <trkpt lat="43.873778" lon="5.739900">
        <ele>620.1</ele>
      </trkpt>
      <trkpt lat="43.873925" lon="5.739915">
        <ele>620.9</ele>
      </trkpt>
      <trkpt lat="43.874069" lon="5.739915">
        <ele>622.1</ele>
      </trkpt>
      <trkpt lat="43.874250" lon="5.739867">
        <ele>624.3</ele>
      </trkpt>
      <trkpt lat="43.874405" lon="5.739856">
        <ele>624.7</ele>
      </trkpt>
      <trkpt lat="43.874517" lon="5.739867">
        <ele>625.2</ele>
      </trkpt>
      <trkpt lat="43.874610" lon="5.739899">
        <ele>625.6</ele>
      </trkpt>
      <trkpt lat="43.874761" lon="5.739985">
        <ele>626.6</ele>
      </trkpt>
      <trkpt lat="43.874888" lon="5.740066">
        <ele>624.9</ele>
      </trkpt>
      <trkpt lat="43.875004" lon="5.740152">
        <ele>625.8</ele>
      </trkpt>
      <trkpt lat="43.875140" lon="5.740211">
        <ele>624.5</ele>
      </trkpt>
      <trkpt lat="43.875314" lon="5.740253">
        <ele>623.8</ele>
      </trkpt>
      <trkpt lat="43.875449" lon="5.740296">
        <ele>623.7</ele>
      </trkpt>
      <trkpt lat="43.875542" lon="5.740339">
        <ele>623.5</ele>
      </trkpt>
      <trkpt lat="43.875670" lon="5.740388">
        <ele>623.2</ele>
      </trkpt>
      <trkpt lat="43.875782" lon="5.740452">
        <ele>622.3</ele>
      </trkpt>
      <trkpt lat="43.875913" lon="5.740484">
        <ele>621.1</ele>
      </trkpt>
      <trkpt lat="43.876010" lon="5.740479">
        <ele>621.1</ele>
      </trkpt>
      <trkpt lat="43.876122" lon="5.740468">
        <ele>621</ele>
      </trkpt>
      <trkpt lat="43.876203" lon="5.740425">
        <ele>621.3</ele>
      </trkpt>
      <trkpt lat="43.876315" lon="5.740345">
        <ele>621.8</ele>
      </trkpt>
      <trkpt lat="43.876412" lon="5.740270">
        <ele>622.4</ele>
      </trkpt>
      <trkpt lat="43.876520" lon="5.740130">
        <ele>624</ele>
      </trkpt>
      <trkpt lat="43.876594" lon="5.740039">
        <ele>625.5</ele>
      </trkpt>
      <trkpt lat="43.876683" lon="5.739921">
        <ele>626.9</ele>
      </trkpt>
      <trkpt lat="43.876744" lon="5.739824">
        <ele>627</ele>
      </trkpt>
      <trkpt lat="43.876818" lon="5.739755">
        <ele>627</ele>
      </trkpt>
      <trkpt lat="43.876915" lon="5.739706">
        <ele>626.8</ele>
      </trkpt>
      <trkpt lat="43.876992" lon="5.739701">
        <ele>626.5</ele>
      </trkpt>
      <trkpt lat="43.877050" lon="5.739706">
        <ele>626.2</ele>
      </trkpt>
      <trkpt lat="43.877457" lon="5.740169">
        <ele>618.3</ele>
      </trkpt>
      <trkpt lat="43.877642" lon="5.740770">
        <ele>612.5</ele>
      </trkpt>
      <trkpt lat="43.877878" lon="5.741708">
        <ele>604.1</ele>
      </trkpt>
      <trkpt lat="43.878176" lon="5.742647">
        <ele>605.2</ele>
      </trkpt>
      <trkpt lat="43.878665" lon="5.743588">
        <ele>607.1</ele>
      </trkpt>
      <trkpt lat="43.878913" lon="5.744064">
        <ele>607.4</ele>
      </trkpt>
      <trkpt lat="43.879471" lon="5.744514">
        <ele>610</ele>
      </trkpt>
      <trkpt lat="43.879819" lon="5.744755">
        <ele>612</ele>
      </trkpt>
      <trkpt lat="43.880078" lon="5.745007">
        <ele>618.9</ele>
      </trkpt>
      <trkpt lat="43.880283" lon="5.745319">
        <ele>621.1</ele>
      </trkpt>
      <trkpt lat="43.880402" lon="5.745442">
        <ele>621.6</ele>
      </trkpt>
      <trkpt lat="43.880500" lon="5.745490">
        <ele>621.7</ele>
      </trkpt>
      <trkpt lat="43.880674" lon="5.745715">
        <ele>622.7</ele>
      </trkpt>
      <trkpt lat="43.880825" lon="5.745823">
        <ele>623.9</ele>
      </trkpt>
      <trkpt lat="43.880987" lon="5.745893">
        <ele>624.5</ele>
      </trkpt>
      <trkpt lat="43.881474" lon="5.746418">
        <ele>625.9</ele>
      </trkpt>
      <trkpt lat="43.881536" lon="5.746552">
        <ele>626.6</ele>
      </trkpt>
      <trkpt lat="43.881579" lon="5.746708">
        <ele>628.4</ele>
      </trkpt>
      <trkpt lat="43.881745" lon="5.747405">
        <ele>628.9</ele>
      </trkpt>
      <trkpt lat="43.881973" lon="5.747883">
        <ele>628.9</ele>
      </trkpt>
      <trkpt lat="43.882120" lon="5.748398">
        <ele>631.2</ele>
      </trkpt>
      <trkpt lat="43.882429" lon="5.748891">
        <ele>629.8</ele>
      </trkpt>
      <trkpt lat="43.882963" lon="5.749889">
        <ele>616.8</ele>
      </trkpt>
      <trkpt lat="43.882963" lon="5.749889">
        <ele>616.8</ele>
      </trkpt>
      <trkpt lat="43.883199" lon="5.750329">
        <ele>615.3</ele>
      </trkpt>
      <trkpt lat="43.883543" lon="5.751037">
        <ele>600.2</ele>
      </trkpt>
      <trkpt lat="43.883775" lon="5.751659">
        <ele>596.6</ele>
      </trkpt>
      <trkpt lat="43.883759" lon="5.751954">
        <ele>594.6</ele>
      </trkpt>
      <trkpt lat="43.883821" lon="5.752083">
        <ele>593.7</ele>
      </trkpt>
      <trkpt lat="43.883891" lon="5.752260">
        <ele>592.6</ele>
      </trkpt>
      <trkpt lat="43.883895" lon="5.752475">
        <ele>591.8</ele>
      </trkpt>
      <trkpt lat="43.883895" lon="5.752673">
        <ele>588.5</ele>
      </trkpt>
      <trkpt lat="43.883860" lon="5.753016">
        <ele>587.8</ele>
      </trkpt>
      <trkpt lat="43.883883" lon="5.753199">
        <ele>587.4</ele>
      </trkpt>
      <trkpt lat="43.883964" lon="5.753403">
        <ele>583.1</ele>
      </trkpt>
      <trkpt lat="43.884227" lon="5.753789">
        <ele>581.5</ele>
      </trkpt>
      <trkpt lat="43.884386" lon="5.754143">
        <ele>580.8</ele>
      </trkpt>
      <trkpt lat="43.884536" lon="5.754637">
        <ele>577.4</ele>
      </trkpt>
      <trkpt lat="43.884602" lon="5.754953">
        <ele>576.8</ele>
      </trkpt>
      <trkpt lat="43.884591" lon="5.755307">
        <ele>574.6</ele>
      </trkpt>
      <trkpt lat="43.884610" lon="5.755543">
        <ele>574.4</ele>
      </trkpt>
      <trkpt lat="43.884614" lon="5.755785">
        <ele>574.2</ele>
      </trkpt>
      <trkpt lat="43.884502" lon="5.755940">
        <ele>575.8</ele>
      </trkpt>
      <trkpt lat="43.884157" lon="5.756734">
        <ele>576.4</ele>
      </trkpt>
      <trkpt lat="43.884045" lon="5.756970">
        <ele>571.4</ele>
      </trkpt>
      <trkpt lat="43.883910" lon="5.757287">
        <ele>569.9</ele>
      </trkpt>
      <trkpt lat="43.884011" lon="5.757898">
        <ele>562.2</ele>
      </trkpt>
      <trkpt lat="43.884212" lon="5.758172">
        <ele>571.3</ele>
      </trkpt>
      <trkpt lat="43.884297" lon="5.758370">
        <ele>567.5</ele>
      </trkpt>
      <trkpt lat="43.884335" lon="5.758799">
        <ele>569.4</ele>
      </trkpt>
      <trkpt lat="43.884181" lon="5.759384">
        <ele>564.3</ele>
      </trkpt>
      <trkpt lat="43.884107" lon="5.759684">
        <ele>549.8</ele>
      </trkpt>
      <trkpt lat="43.884007" lon="5.759926">
        <ele>551.8</ele>
      </trkpt>
      <trkpt lat="43.883709" lon="5.760199">
        <ele>548.6</ele>
      </trkpt>
      <trkpt lat="43.883349" lon="5.760291">
        <ele>545.1</ele>
      </trkpt>
      <trkpt lat="43.883260" lon="5.760409">
        <ele>533.3</ele>
      </trkpt>
      <trkpt lat="43.883218" lon="5.760747">
        <ele>535.5</ele>
      </trkpt>
      <trkpt lat="43.883133" lon="5.760967">
        <ele>533.6</ele>
      </trkpt>
      <trkpt lat="43.883021" lon="5.761117">
        <ele>531.5</ele>
      </trkpt>
      <trkpt lat="43.882893" lon="5.761267">
        <ele>530</ele>
      </trkpt>
      <trkpt lat="43.882739" lon="5.761364">
        <ele>528.5</ele>
      </trkpt>
      <trkpt lat="43.882537" lon="5.761417">
        <ele>526.8</ele>
      </trkpt>
      <trkpt lat="43.882421" lon="5.761567">
        <ele>517</ele>
      </trkpt>
      <trkpt lat="43.882317" lon="5.761723">
        <ele>516.4</ele>
      </trkpt>
      <trkpt lat="43.882197" lon="5.761889">
        <ele>513.2</ele>
      </trkpt>
      <trkpt lat="43.881841" lon="5.762093">
        <ele>508.5</ele>
      </trkpt>
      <trkpt lat="43.881938" lon="5.762549">
        <ele>505.7</ele>
      </trkpt>
      <trkpt lat="43.882019" lon="5.762946">
        <ele>503.9</ele>
      </trkpt>
      <trkpt lat="43.881996" lon="5.763198">
        <ele>501</ele>
      </trkpt>
      <trkpt lat="43.881884" lon="5.763338">
        <ele>490.8</ele>
      </trkpt>
      <trkpt lat="43.881822" lon="5.763541">
        <ele>490.4</ele>
      </trkpt>
      <trkpt lat="43.881861" lon="5.763874">
        <ele>489.7</ele>
      </trkpt>
      <trkpt lat="43.881950" lon="5.764191">
        <ele>479</ele>
      </trkpt>
      <trkpt lat="43.882128" lon="5.764250">
        <ele>479</ele>
      </trkpt>
      <trkpt lat="43.882286" lon="5.764126">
        <ele>491</ele>
      </trkpt>
      <trkpt lat="43.882549" lon="5.763858">
        <ele>497.9</ele>
      </trkpt>
      <trkpt lat="43.882711" lon="5.763777">
        <ele>499.5</ele>
      </trkpt>
      <trkpt lat="43.883025" lon="5.763842">
        <ele>499.3</ele>
      </trkpt>
      <trkpt lat="43.883164" lon="5.763804">
        <ele>499.8</ele>
      </trkpt>
      <trkpt lat="43.883318" lon="5.763751">
        <ele>500.9</ele>
      </trkpt>
      <trkpt lat="43.883404" lon="5.763724">
        <ele>508.2</ele>
      </trkpt>
      <trkpt lat="43.883578" lon="5.763735">
        <ele>509.2</ele>
      </trkpt>
      <trkpt lat="43.883643" lon="5.763874">
        <ele>508.2</ele>
      </trkpt>
      <trkpt lat="43.883589" lon="5.764153">
        <ele>503.9</ele>
      </trkpt>
      <trkpt lat="43.883438" lon="5.764625">
        <ele>495.3</ele>
      </trkpt>
      <trkpt lat="43.883326" lon="5.764872">
        <ele>481.2</ele>
      </trkpt>
      <trkpt lat="43.883330" lon="5.765129">
        <ele>478.1</ele>
      </trkpt>
      <trkpt lat="43.883369" lon="5.765414">
        <ele>492</ele>
      </trkpt>
      <trkpt lat="43.883516" lon="5.765746">
        <ele>492</ele>
      </trkpt>
      <trkpt lat="43.883543" lon="5.765886">
        <ele>494.5</ele>
      </trkpt>
      <trkpt lat="43.883338" lon="5.766009">
        <ele>492.7</ele>
      </trkpt>
      <trkpt lat="43.883137" lon="5.766068">
        <ele>480.2</ele>
      </trkpt>
      <trkpt lat="43.882870" lon="5.766186">
        <ele>476.7</ele>
      </trkpt>
      <trkpt lat="43.882607" lon="5.766293">
        <ele>473.9</ele>
      </trkpt>
      <trkpt lat="43.882530" lon="5.766336">
        <ele>473.5</ele>
      </trkpt>
      <trkpt lat="43.882568" lon="5.766194">
        <ele>472.8</ele>
      </trkpt>
      <trkpt lat="43.882612" lon="5.766065">
        <ele>471.4</ele>
      </trkpt>
      <trkpt lat="43.882497" lon="5.766132">
        <ele>457.1</ele>
      </trkpt>
      <trkpt lat="43.882396" lon="5.766200">
        <ele>456.5</ele>
      </trkpt>
      <trkpt lat="43.882265" lon="5.766269">
        <ele>455.4</ele>
      </trkpt>
      <trkpt lat="43.882156" lon="5.766411">
        <ele>454.3</ele>
      </trkpt>
      <trkpt lat="43.882121" lon="5.766476">
        <ele>453.8</ele>
      </trkpt>
      <trkpt lat="43.882042" lon="5.766478">
        <ele>452</ele>
      </trkpt>
      <trkpt lat="43.881913" lon="5.766465">
        <ele>449.4</ele>
      </trkpt>
      <trkpt lat="43.881814" lon="5.766444">
        <ele>447.7</ele>
      </trkpt>
      <trkpt lat="43.881725" lon="5.766444">
        <ele>446.5</ele>
      </trkpt>
      <trkpt lat="43.881522" lon="5.766371">
        <ele>434.8</ele>
      </trkpt>
      <trkpt lat="43.881364" lon="5.766288">
        <ele>433.7</ele>
      </trkpt>
      <trkpt lat="43.881308" lon="5.766312">
        <ele>433.1</ele>
      </trkpt>
      <trkpt lat="43.881184" lon="5.766095">
        <ele>432.5</ele>
      </trkpt>
      <trkpt lat="43.880979" lon="5.765736">
        <ele>434.2</ele>
      </trkpt>
      <trkpt lat="43.880813" lon="5.765580">
        <ele>430.2</ele>
      </trkpt>
      <trkpt lat="43.880569" lon="5.765070">
        <ele>432.5</ele>
      </trkpt>
      <trkpt lat="43.880241" lon="5.764952">
        <ele>433.1</ele>
      </trkpt>
      <trkpt lat="43.879951" lon="5.764620">
        <ele>432.8</ele>
      </trkpt>
      <trkpt lat="43.879688" lon="5.764309">
        <ele>433.7</ele>
      </trkpt>
      <trkpt lat="43.879452" lon="5.764137">
        <ele>434.5</ele>
      </trkpt>
      <trkpt lat="43.878744" lon="5.763901">
        <ele>436.3</ele>
      </trkpt>
      <trkpt lat="43.878222" lon="5.763901">
        <ele>440.9</ele>
      </trkpt>
      <trkpt lat="43.878118" lon="5.764030">
        <ele>441.2</ele>
      </trkpt>
      <trkpt lat="43.877952" lon="5.764416">
        <ele>444.9</ele>
      </trkpt>
      <trkpt lat="43.877820" lon="5.764706">
        <ele>445.7</ele>
      </trkpt>
      <trkpt lat="43.877669" lon="5.764866">
        <ele>445.5</ele>
      </trkpt>
      <trkpt lat="43.877569" lon="5.764909">
        <ele>445.3</ele>
      </trkpt>
      <trkpt lat="43.877476" lon="5.764754">
        <ele>448.4</ele>
      </trkpt>
      <trkpt lat="43.877430" lon="5.764470">
        <ele>448.1</ele>
      </trkpt>
      <trkpt lat="43.877387" lon="5.764303">
        <ele>446.7</ele>
      </trkpt>
      <trkpt lat="43.877279" lon="5.764153">
        <ele>446.7</ele>
      </trkpt>
      <trkpt lat="43.877174" lon="5.764164">
        <ele>448.2</ele>
      </trkpt>
      <trkpt lat="43.877101" lon="5.764368">
        <ele>450.7</ele>
      </trkpt>
      <trkpt lat="43.877058" lon="5.764829">
        <ele>452.5</ele>
      </trkpt>
      <trkpt lat="43.876977" lon="5.765103">
        <ele>456.5</ele>
      </trkpt>
      <trkpt lat="43.876834" lon="5.765832">
        <ele>458.4</ele>
      </trkpt>
      <trkpt lat="43.876691" lon="5.766063">
        <ele>460.7</ele>
      </trkpt>
      <trkpt lat="43.876355" lon="5.766304">
        <ele>470</ele>
      </trkpt>
      <trkpt lat="43.876065" lon="5.766588">
        <ele>472.5</ele>
      </trkpt>
      <trkpt lat="43.875794" lon="5.766959">
        <ele>476.9</ele>
      </trkpt>
      <trkpt lat="43.875635" lon="5.767297">
        <ele>476.2</ele>
      </trkpt>
      <trkpt lat="43.875414" lon="5.767447">
        <ele>477.6</ele>
      </trkpt>
      <trkpt lat="43.875187" lon="5.767527">
        <ele>479.7</ele>
      </trkpt>
      <trkpt lat="43.874754" lon="5.767506">
        <ele>482.5</ele>
      </trkpt>
      <trkpt lat="43.874413" lon="5.767538">
        <ele>484.9</ele>
      </trkpt>
      <trkpt lat="43.874274" lon="5.767618">
        <ele>485.8</ele>
      </trkpt>
      <trkpt lat="43.874123" lon="5.767946">
        <ele>490.5</ele>
      </trkpt>
      <trkpt lat="43.874030" lon="5.768120">
        <ele>489.8</ele>
      </trkpt>
      <trkpt lat="43.873949" lon="5.768056">
        <ele>491</ele>
      </trkpt>
      <trkpt lat="43.873906" lon="5.767900">
        <ele>492</ele>
      </trkpt>
      <trkpt lat="43.873887" lon="5.767471">
        <ele>495.2</ele>
      </trkpt>
      <trkpt lat="43.873937" lon="5.767262">
        <ele>495.8</ele>
      </trkpt>
      <trkpt lat="43.874072" lon="5.766886">
        <ele>497.3</ele>
      </trkpt>
      <trkpt lat="43.874123" lon="5.766758">
        <ele>497.3</ele>
      </trkpt>
      <trkpt lat="43.874054" lon="5.766674">
        <ele>497.5</ele>
      </trkpt>
      <trkpt lat="43.873911" lon="5.766647">
        <ele>502.5</ele>
      </trkpt>
      <trkpt lat="43.873810" lon="5.766712">
        <ele>498.9</ele>
      </trkpt>
      <trkpt lat="43.873737" lon="5.766873">
        <ele>499.1</ele>
      </trkpt>
      <trkpt lat="43.873609" lon="5.767061">
        <ele>499.3</ele>
      </trkpt>
      <trkpt lat="43.873350" lon="5.767629">
        <ele>498.6</ele>
      </trkpt>
      <trkpt lat="43.873126" lon="5.768241">
        <ele>505</ele>
      </trkpt>
      <trkpt lat="43.872987" lon="5.768664">
        <ele>506.1</ele>
      </trkpt>
      <trkpt lat="43.872944" lon="5.769061">
        <ele>505.9</ele>
      </trkpt>
      <trkpt lat="43.872828" lon="5.769228">
        <ele>505.7</ele>
      </trkpt>
      <trkpt lat="43.872619" lon="5.769432">
        <ele>507.3</ele>
      </trkpt>
      <trkpt lat="43.872499" lon="5.769442">
        <ele>518.8</ele>
      </trkpt>
      <trkpt lat="43.872453" lon="5.769233">
        <ele>516.5</ele>
      </trkpt>
      <trkpt lat="43.872422" lon="5.768831">
        <ele>520.9</ele>
      </trkpt>
      <trkpt lat="43.872294" lon="5.768369">
        <ele>521.3</ele>
      </trkpt>
      <trkpt lat="43.872225" lon="5.767822">
        <ele>522.2</ele>
      </trkpt>
      <trkpt lat="43.872225" lon="5.767339">
        <ele>519.9</ele>
      </trkpt>
      <trkpt lat="43.872182" lon="5.767162">
        <ele>520.2</ele>
      </trkpt>
      <trkpt lat="43.872031" lon="5.767122">
        <ele>520.8</ele>
      </trkpt>
      <trkpt lat="43.871833" lon="5.767302">
        <ele>523.2</ele>
      </trkpt>
      <trkpt lat="43.871111" lon="5.767913">
        <ele>529.9</ele>
      </trkpt>
      <trkpt lat="43.870790" lon="5.768214">
        <ele>533</ele>
      </trkpt>
      <trkpt lat="43.870631" lon="5.768402">
        <ele>536.2</ele>
      </trkpt>
      <trkpt lat="43.870229" lon="5.769131">
        <ele>537.6</ele>
      </trkpt>
      <trkpt lat="43.869912" lon="5.769839">
        <ele>542.6</ele>
      </trkpt>
      <trkpt lat="43.869603" lon="5.770499">
        <ele>551.5</ele>
      </trkpt>
      <trkpt lat="43.869444" lon="5.770816">
        <ele>553.7</ele>
      </trkpt>
      <trkpt lat="43.869344" lon="5.770977">
        <ele>559.2</ele>
      </trkpt>
      <trkpt lat="43.869220" lon="5.771116">
        <ele>559.9</ele>
      </trkpt>
      <trkpt lat="43.869061" lon="5.771202">
        <ele>565.2</ele>
      </trkpt>
      <trkpt lat="43.868907" lon="5.771143">
        <ele>565.5</ele>
      </trkpt>
      <trkpt lat="43.868752" lon="5.770757">
        <ele>556.1</ele>
      </trkpt>
      <trkpt lat="43.868651" lon="5.770504">
        <ele>554.7</ele>
      </trkpt>
      <trkpt lat="43.868481" lon="5.770435">
        <ele>554.5</ele>
      </trkpt>
      <trkpt lat="43.868342" lon="5.770542">
        <ele>556.2</ele>
      </trkpt>
      <trkpt lat="43.868183" lon="5.770682">
        <ele>552.2</ele>
      </trkpt>
      <trkpt lat="43.868005" lon="5.770676">
        <ele>548.1</ele>
      </trkpt>
      <trkpt lat="43.867777" lon="5.770671">
        <ele>544.5</ele>
      </trkpt>
      <trkpt lat="43.867588" lon="5.770928">
        <ele>551.1</ele>
      </trkpt>
      <trkpt lat="43.867394" lon="5.771400">
        <ele>544.5</ele>
      </trkpt>
      <trkpt lat="43.867290" lon="5.771872">
        <ele>552.2</ele>
      </trkpt>
      <trkpt lat="43.867213" lon="5.772720">
        <ele>557.5</ele>
      </trkpt>
      <trkpt lat="43.867139" lon="5.773702">
        <ele>561.5</ele>
      </trkpt>
      <trkpt lat="43.867039" lon="5.774292">
        <ele>565.3</ele>
      </trkpt>
      <trkpt lat="43.866926" lon="5.775231">
        <ele>571.7</ele>
      </trkpt>
      <trkpt lat="43.866861" lon="5.775477">
        <ele>572.5</ele>
      </trkpt>
      <trkpt lat="43.866675" lon="5.775724">
        <ele>568.5</ele>
      </trkpt>
      <trkpt lat="43.866598" lon="5.776105">
        <ele>562.1</ele>
      </trkpt>
      <trkpt lat="43.866563" lon="5.776534">
        <ele>566.4</ele>
      </trkpt>
      <trkpt lat="43.866459" lon="5.776722">
        <ele>568.8</ele>
      </trkpt>
      <trkpt lat="43.866219" lon="5.776867">
        <ele>565.7</ele>
      </trkpt>
      <trkpt lat="43.866087" lon="5.777028">
        <ele>565.3</ele>
      </trkpt>
      <trkpt lat="43.865983" lon="5.777226">
        <ele>566</ele>
      </trkpt>
      <trkpt lat="43.865847" lon="5.777408">
        <ele>566.7</ele>
      </trkpt>
      <trkpt lat="43.865739" lon="5.777602">
        <ele>572.4</ele>
      </trkpt>
      <trkpt lat="43.865774" lon="5.777854">
        <ele>575.6</ele>
      </trkpt>
      <trkpt lat="43.865797" lon="5.778025">
        <ele>575.7</ele>
      </trkpt>
      <trkpt lat="43.865793" lon="5.778122">
        <ele>574.9</ele>
      </trkpt>
      <trkpt lat="43.865751" lon="5.778143">
        <ele>575.1</ele>
      </trkpt>
      <trkpt lat="43.865607" lon="5.777870">
        <ele>577.4</ele>
      </trkpt>
      <trkpt lat="43.865507" lon="5.777720">
        <ele>578</ele>
      </trkpt>
      <trkpt lat="43.865329" lon="5.777489">
        <ele>573.1</ele>
      </trkpt>
      <trkpt lat="43.865101" lon="5.777317">
        <ele>575.9</ele>
      </trkpt>
      <trkpt lat="43.864765" lon="5.777199">
        <ele>579.4</ele>
      </trkpt>
      <trkpt lat="43.864525" lon="5.777199">
        <ele>579.7</ele>
      </trkpt>
      <trkpt lat="43.864401" lon="5.777307">
        <ele>581.2</ele>
      </trkpt>
      <trkpt lat="43.864134" lon="5.777591">
        <ele>591.3</ele>
      </trkpt>
      <trkpt lat="43.863812" lon="5.778036">
        <ele>600.2</ele>
      </trkpt>
      <trkpt lat="43.863712" lon="5.778358">
        <ele>605.2</ele>
      </trkpt>
      <trkpt lat="43.863461" lon="5.779098">
        <ele>602.9</ele>
      </trkpt>
      <trkpt lat="43.863530" lon="5.779269">
        <ele>602.9</ele>
      </trkpt>
      <trkpt lat="43.863938" lon="5.780070">
        <ele>604.6</ele>
      </trkpt>
      <trkpt lat="43.864256" lon="5.781060">
        <ele>603.4</ele>
      </trkpt>
      <trkpt lat="43.864324" lon="5.781881">
        <ele>607.8</ele>
      </trkpt>
      <trkpt lat="43.864280" lon="5.782952">
        <ele>617.7</ele>
      </trkpt>
      <trkpt lat="43.864381" lon="5.783170">
        <ele>619.7</ele>
      </trkpt>
      <trkpt lat="43.864540" lon="5.783358">
        <ele>627.9</ele>
      </trkpt>
      <trkpt lat="43.865113" lon="5.783712">
        <ele>617.4</ele>
      </trkpt>
      <trkpt lat="43.865372" lon="5.783819">
        <ele>617.6</ele>
      </trkpt>
      <trkpt lat="43.865720" lon="5.783749">
        <ele>614.9</ele>
      </trkpt>
      <trkpt lat="43.865886" lon="5.783819">
        <ele>605.2</ele>
      </trkpt>
      <trkpt lat="43.865987" lon="5.783958">
        <ele>606.9</ele>
      </trkpt>
      <trkpt lat="43.865994" lon="5.784307">
        <ele>615.2</ele>
      </trkpt>
      <trkpt lat="43.866134" lon="5.784758">
        <ele>615.1</ele>
      </trkpt>
      <trkpt lat="43.866385" lon="5.785192">
        <ele>620.3</ele>
      </trkpt>
      <trkpt lat="43.866694" lon="5.785514">
        <ele>604.2</ele>
      </trkpt>
      <trkpt lat="43.867027" lon="5.786222">
        <ele>615.3</ele>
      </trkpt>
      <trkpt lat="43.867181" lon="5.786533">
        <ele>616</ele>
      </trkpt>
      <trkpt lat="43.867406" lon="5.786780">
        <ele>622.7</ele>
      </trkpt>
      <trkpt lat="43.867607" lon="5.786887">
        <ele>613.2</ele>
      </trkpt>
      <trkpt lat="43.867801" lon="5.786925">
        <ele>611.9</ele>
      </trkpt>
      <trkpt lat="43.867986" lon="5.787102">
        <ele>610.9</ele>
      </trkpt>
      <trkpt lat="43.868025" lon="5.787290">
        <ele>611.4</ele>
      </trkpt>
      <trkpt lat="43.868013" lon="5.787622">
        <ele>620.2</ele>
      </trkpt>
      <trkpt lat="43.868122" lon="5.788416">
        <ele>626.3</ele>
      </trkpt>
      <trkpt lat="43.868129" lon="5.788545">
        <ele>628.4</ele>
      </trkpt>
      <trkpt lat="43.868354" lon="5.789146">
        <ele>623.1</ele>
      </trkpt>
      <trkpt lat="43.868439" lon="5.789317">
        <ele>628</ele>
      </trkpt>
      <trkpt lat="43.868504" lon="5.789387">
        <ele>629</ele>
      </trkpt>
      <trkpt lat="43.868613" lon="5.789387">
        <ele>628.6</ele>
      </trkpt>
      <trkpt lat="43.868883" lon="5.789548">
        <ele>628.4</ele>
      </trkpt>
      <trkpt lat="43.868984" lon="5.789575">
        <ele>628</ele>
      </trkpt>
      <trkpt lat="43.869177" lon="5.789425">
        <ele>615.3</ele>
      </trkpt>
      <trkpt lat="43.869278" lon="5.789436">
        <ele>615.4</ele>
      </trkpt>
      <trkpt lat="43.869440" lon="5.789677">
        <ele>618.7</ele>
      </trkpt>
      <trkpt lat="43.869773" lon="5.789843">
        <ele>618.6</ele>
      </trkpt>
      <trkpt lat="43.869947" lon="5.789913">
        <ele>620</ele>
      </trkpt>
      <trkpt lat="43.870202" lon="5.789827">
        <ele>612.8</ele>
      </trkpt>
      <trkpt lat="43.871142" lon="5.789688">
        <ele>605.7</ele>
      </trkpt>
      <trkpt lat="43.871355" lon="5.789682">
        <ele>605.1</ele>
      </trkpt>
      <trkpt lat="43.871629" lon="5.789575">
        <ele>603.1</ele>
      </trkpt>
      <trkpt lat="43.871853" lon="5.789511">
        <ele>596.8</ele>
      </trkpt>
      <trkpt lat="43.872039" lon="5.789629">
        <ele>597.5</ele>
      </trkpt>
      <trkpt lat="43.872484" lon="5.790026">
        <ele>603.8</ele>
      </trkpt>
      <trkpt lat="43.872619" lon="5.790133">
        <ele>602.1</ele>
      </trkpt>
      <trkpt lat="43.873219" lon="5.790412">
        <ele>598.8</ele>
      </trkpt>
      <trkpt lat="43.873342" lon="5.790508">
        <ele>585.8</ele>
      </trkpt>
      <trkpt lat="43.873485" lon="5.790852">
        <ele>597.9</ele>
      </trkpt>
      <trkpt lat="43.873679" lon="5.791683">
        <ele>613.7</ele>
      </trkpt>
      <trkpt lat="43.873826" lon="5.791694">
        <ele>611.4</ele>
      </trkpt>
      <trkpt lat="43.874042" lon="5.791909">
        <ele>610.6</ele>
      </trkpt>
      <trkpt lat="43.874796" lon="5.792080">
        <ele>608.6</ele>
      </trkpt>
      <trkpt lat="43.875113" lon="5.792177">
        <ele>605.2</ele>
      </trkpt>
      <trkpt lat="43.875195" lon="5.792268">
        <ele>606.4</ele>
      </trkpt>
      <trkpt lat="43.875291" lon="5.792405">
        <ele>606.8</ele>
      </trkpt>
      <trkpt lat="43.875341" lon="5.792641">
        <ele>615.2</ele>
      </trkpt>
      <trkpt lat="43.875275" lon="5.792984">
        <ele>617.5</ele>
      </trkpt>
      <trkpt lat="43.875109" lon="5.793848">
        <ele>622.9</ele>
      </trkpt>
      <trkpt lat="43.875020" lon="5.794368">
        <ele>623.2</ele>
      </trkpt>
      <trkpt lat="43.874923" lon="5.794932">
        <ele>636.8</ele>
      </trkpt>
      <trkpt lat="43.874873" lon="5.795704">
        <ele>637.6</ele>
      </trkpt>
      <trkpt lat="43.874741" lon="5.796294">
        <ele>640.3</ele>
      </trkpt>
      <trkpt lat="43.874521" lon="5.796723">
        <ele>640.1</ele>
      </trkpt>
      <trkpt lat="43.874188" lon="5.797110">
        <ele>642.6</ele>
      </trkpt>
      <trkpt lat="43.874061" lon="5.797276">
        <ele>655</ele>
      </trkpt>
      <trkpt lat="43.874030" lon="5.797533">
        <ele>648.7</ele>
      </trkpt>
      <trkpt lat="43.873956" lon="5.797721">
        <ele>648.8</ele>
      </trkpt>
      <trkpt lat="43.873802" lon="5.797861">
        <ele>649.3</ele>
      </trkpt>
      <trkpt lat="43.873509" lon="5.797978">
        <ele>651.4</ele>
      </trkpt>
      <trkpt lat="43.873508" lon="5.797979">
        <ele>651.4</ele>
      </trkpt>
      <trkpt lat="43.873253" lon="5.798113">
        <ele>656.8</ele>
      </trkpt>
      <trkpt lat="43.872956" lon="5.798708">
        <ele>657.6</ele>
      </trkpt>
      <trkpt lat="43.873056" lon="5.799234">
        <ele>658.2</ele>
      </trkpt>
      <trkpt lat="43.873056" lon="5.799332">
        <ele>658.3</ele>
      </trkpt>
      <trkpt lat="43.873037" lon="5.799415">
        <ele>658.4</ele>
      </trkpt>
      <trkpt lat="43.873040" lon="5.799543">
        <ele>658.6</ele>
      </trkpt>
      <trkpt lat="43.873025" lon="5.799627">
        <ele>658.8</ele>
      </trkpt>
      <trkpt lat="43.873021" lon="5.799658">
        <ele>658.8</ele>
      </trkpt>
      <trkpt lat="43.873022" lon="5.799673">
        <ele>658.9</ele>
      </trkpt>
      <trkpt lat="43.873020" lon="5.799688">
        <ele>658.9</ele>
      </trkpt>
      <trkpt lat="43.873030" lon="5.799789">
        <ele>659.1</ele>
      </trkpt>
      <trkpt lat="43.873134" lon="5.800331">
        <ele>660.5</ele>
      </trkpt>
      <trkpt lat="43.873130" lon="5.800642">
        <ele>661.3</ele>
      </trkpt>
      <trkpt lat="43.873168" lon="5.801157">
        <ele>662.4</ele>
      </trkpt>
      <trkpt lat="43.873137" lon="5.801570">
        <ele>663.7</ele>
      </trkpt>
      <trkpt lat="43.873037" lon="5.801779">
        <ele>664.7</ele>
      </trkpt>
      <trkpt lat="43.872774" lon="5.801956">
        <ele>662.8</ele>
      </trkpt>
      <trkpt lat="43.872545" lon="5.802074">
        <ele>662</ele>
      </trkpt>
      <trkpt lat="43.872348" lon="5.802240">
        <ele>655.8</ele>
      </trkpt>
      <trkpt lat="43.872082" lon="5.802637">
        <ele>656.2</ele>
      </trkpt>
      <trkpt lat="43.871783" lon="5.802962">
        <ele>654.9</ele>
      </trkpt>
      <trkpt lat="43.871542" lon="5.802876">
        <ele>652</ele>
      </trkpt>
      <trkpt lat="43.870764" lon="5.802200">
        <ele>643.6</ele>
      </trkpt>
      <trkpt lat="43.870320" lon="5.801707">
        <ele>639.8</ele>
      </trkpt>
      <trkpt lat="43.869390" lon="5.800990">
        <ele>624.1</ele>
      </trkpt>
      <trkpt lat="43.869200" lon="5.801020">
        <ele>622.8</ele>
      </trkpt>
      <trkpt lat="43.869018" lon="5.801224">
        <ele>623.2</ele>
      </trkpt>
      <trkpt lat="43.868398" lon="5.801342">
        <ele>623</ele>
      </trkpt>
      <trkpt lat="43.867937" lon="5.801744">
        <ele>625.6</ele>
      </trkpt>
      <trkpt lat="43.867466" lon="5.802031">
        <ele>616.8</ele>
      </trkpt>
      <trkpt lat="43.867183" lon="5.802474">
        <ele>620.8</ele>
      </trkpt>
      <trkpt lat="43.866990" lon="5.802334">
        <ele>618.8</ele>
      </trkpt>
      <trkpt lat="43.866739" lon="5.802436">
        <ele>621.5</ele>
      </trkpt>
      <trkpt lat="43.866367" lon="5.802361">
        <ele>621.6</ele>
      </trkpt>
      <trkpt lat="43.866037" lon="5.802393">
        <ele>625.9</ele>
      </trkpt>
      <trkpt lat="43.865793" lon="5.802187">
        <ele>632.7</ele>
      </trkpt>
      <trkpt lat="43.865681" lon="5.801988">
        <ele>630.4</ele>
      </trkpt>
      <trkpt lat="43.865547" lon="5.801586">
        <ele>617.3</ele>
      </trkpt>
      <trkpt lat="43.865416" lon="5.801516">
        <ele>617.9</ele>
      </trkpt>
      <trkpt lat="43.865348" lon="5.801551">
        <ele>619</ele>
      </trkpt>
      <trkpt lat="43.865571" lon="5.802018">
        <ele>631.8</ele>
      </trkpt>
      <trkpt lat="43.865719" lon="5.802310">
        <ele>634.1</ele>
      </trkpt>
      <trkpt lat="43.865764" lon="5.802519">
        <ele>639.8</ele>
      </trkpt>
      <trkpt lat="43.865826" lon="5.802635">
        <ele>643</ele>
      </trkpt>
      <trkpt lat="43.866251" lon="5.802991">
        <ele>640.4</ele>
      </trkpt>
      <trkpt lat="43.866340" lon="5.803249">
        <ele>642.1</ele>
      </trkpt>
      <trkpt lat="43.866448" lon="5.803421">
        <ele>651.7</ele>
      </trkpt>
      <trkpt lat="43.866541" lon="5.803520">
        <ele>651.5</ele>
      </trkpt>
      <trkpt lat="43.866601" lon="5.803702">
        <ele>654.2</ele>
      </trkpt>
      <trkpt lat="43.866619" lon="5.803954">
        <ele>656.7</ele>
      </trkpt>
      <trkpt lat="43.866661" lon="5.804070">
        <ele>657</ele>
      </trkpt>
      <trkpt lat="43.866737" lon="5.804110">
        <ele>655.4</ele>
      </trkpt>
      <trkpt lat="43.867040" lon="5.804000">
        <ele>653.4</ele>
      </trkpt>
      <trkpt lat="43.867205" lon="5.803952">
        <ele>653.5</ele>
      </trkpt>
      <trkpt lat="43.867336" lon="5.804011">
        <ele>654.8</ele>
      </trkpt>
      <trkpt lat="43.867458" lon="5.804088">
        <ele>656.8</ele>
      </trkpt>
      <trkpt lat="43.867669" lon="5.804327">
        <ele>662.7</ele>
      </trkpt>
      <trkpt lat="43.867460" lon="5.804424">
        <ele>658.1</ele>
      </trkpt>
      <trkpt lat="43.867135" lon="5.804354">
        <ele>657.9</ele>
      </trkpt>
      <trkpt lat="43.867007" lon="5.804464">
        <ele>657.7</ele>
      </trkpt>
      <trkpt lat="43.866839" lon="5.804872">
        <ele>657.8</ele>
      </trkpt>
      <trkpt lat="43.866489" lon="5.805446">
        <ele>664.9</ele>
      </trkpt>
      <trkpt lat="43.866334" lon="5.805802">
        <ele>665.7</ele>
      </trkpt>
      <trkpt lat="43.866247" lon="5.806170">
        <ele>662.7</ele>
      </trkpt>
      <trkpt lat="43.866234" lon="5.806481">
        <ele>661.4</ele>
      </trkpt>
      <trkpt lat="43.865724" lon="5.807208">
        <ele>669.3</ele>
      </trkpt>
      <trkpt lat="43.865221" lon="5.807980">
        <ele>663.1</ele>
      </trkpt>
      <trkpt lat="43.865028" lon="5.808345">
        <ele>667.6</ele>
      </trkpt>
      <trkpt lat="43.864722" lon="5.808704">
        <ele>668.3</ele>
      </trkpt>
      <trkpt lat="43.864498" lon="5.808737">
        <ele>669.5</ele>
      </trkpt>
      <trkpt lat="43.864231" lon="5.808431">
        <ele>677.7</ele>
      </trkpt>
      <trkpt lat="43.863941" lon="5.808152">
        <ele>681.1</ele>
      </trkpt>
      <trkpt lat="43.863651" lon="5.807433">
        <ele>689.5</ele>
      </trkpt>
      <trkpt lat="43.863500" lon="5.806323">
        <ele>697</ele>
      </trkpt>
      <trkpt lat="43.863554" lon="5.806060">
        <ele>698.6</ele>
      </trkpt>
      <trkpt lat="43.863569" lon="5.805448">
        <ele>705.5</ele>
      </trkpt>
      <trkpt lat="43.863461" lon="5.804805">
        <ele>708.9</ele>
      </trkpt>
      <trkpt lat="43.863801" lon="5.804611">
        <ele>712</ele>
      </trkpt>
      <trkpt lat="43.863976" lon="5.804644">
        <ele>712.9</ele>
      </trkpt>
      <trkpt lat="43.864095" lon="5.804488">
        <ele>713.1</ele>
      </trkpt>
      <trkpt lat="43.864049" lon="5.804359">
        <ele>713</ele>
      </trkpt>
      <trkpt lat="43.863853" lon="5.804166">
        <ele>709.9</ele>
      </trkpt>
      <trkpt lat="43.863606" lon="5.804118">
        <ele>709.5</ele>
      </trkpt>
      <trkpt lat="43.863316" lon="5.803683">
        <ele>707.5</ele>
      </trkpt>
      <trkpt lat="43.863169" lon="5.803675">
        <ele>707</ele>
      </trkpt>
      <trkpt lat="43.863107" lon="5.803616">
        <ele>706.9</ele>
      </trkpt>
      <trkpt lat="43.862923" lon="5.803088">
        <ele>706.8</ele>
      </trkpt>
      <trkpt lat="43.862722" lon="5.802696">
        <ele>706.9</ele>
      </trkpt>
      <trkpt lat="43.862372" lon="5.802514">
        <ele>708.2</ele>
      </trkpt>
      <trkpt lat="43.862231" lon="5.802514">
        <ele>707</ele>
      </trkpt>
      <trkpt lat="43.861993" lon="5.802366">
        <ele>702.5</ele>
      </trkpt>
      <trkpt lat="43.861869" lon="5.802468">
        <ele>703.6</ele>
      </trkpt>
      <trkpt lat="43.861680" lon="5.802474">
        <ele>706.2</ele>
      </trkpt>
      <trkpt lat="43.861538" lon="5.802420">
        <ele>700.5</ele>
      </trkpt>
      <trkpt lat="43.861272" lon="5.802184">
        <ele>693.8</ele>
      </trkpt>
      <trkpt lat="43.861227" lon="5.802071">
        <ele>692.8</ele>
      </trkpt>
      <trkpt lat="43.861173" lon="5.802023">
        <ele>692.1</ele>
      </trkpt>
      <trkpt lat="43.861049" lon="5.802002">
        <ele>691.1</ele>
      </trkpt>
      <trkpt lat="43.860804" lon="5.802047">
        <ele>681.8</ele>
      </trkpt>
      <trkpt lat="43.860711" lon="5.802037">
        <ele>681.3</ele>
      </trkpt>
      <trkpt lat="43.860730" lon="5.801865">
        <ele>681.6</ele>
      </trkpt>
      <trkpt lat="43.860821" lon="5.801717">
        <ele>683.2</ele>
      </trkpt>
      <trkpt lat="43.860935" lon="5.801693">
        <ele>686.9</ele>
      </trkpt>
      <trkpt lat="43.860989" lon="5.801551">
        <ele>680.1</ele>
      </trkpt>
      <trkpt lat="43.861159" lon="5.801404">
        <ele>678</ele>
      </trkpt>
      <trkpt lat="43.861154" lon="5.801167">
        <ele>674.9</ele>
      </trkpt>
      <trkpt lat="43.861397" lon="5.801055">
        <ele>673.6</ele>
      </trkpt>
      <trkpt lat="43.861519" lon="5.800956">
        <ele>671.1</ele>
      </trkpt>
      <trkpt lat="43.861625" lon="5.800787">
        <ele>662.4</ele>
      </trkpt>
      <trkpt lat="43.861523" lon="5.800636">
        <ele>657.6</ele>
      </trkpt>
      <trkpt lat="43.861610" lon="5.800438">
        <ele>653.9</ele>
      </trkpt>
      <trkpt lat="43.861546" lon="5.800352">
        <ele>652.3</ele>
      </trkpt>
      <trkpt lat="43.861573" lon="5.800239">
        <ele>649.9</ele>
      </trkpt>
      <trkpt lat="43.861685" lon="5.800068">
        <ele>644.6</ele>
      </trkpt>
      <trkpt lat="43.862012" lon="5.800054">
        <ele>648.1</ele>
      </trkpt>
      <trkpt lat="43.862457" lon="5.799936">
        <ele>636</ele>
      </trkpt>
      <trkpt lat="43.862826" lon="5.800111">
        <ele>640.8</ele>
      </trkpt>
      <trkpt lat="43.863260" lon="5.800132">
        <ele>633.9</ele>
      </trkpt>
      <trkpt lat="43.863699" lon="5.800323">
        <ele>627.4</ele>
      </trkpt>
      <trkpt lat="43.863877" lon="5.800234">
        <ele>624.3</ele>
      </trkpt>
      <trkpt lat="43.864051" lon="5.800390">
        <ele>625</ele>
      </trkpt>
      <trkpt lat="43.864174" lon="5.800400">
        <ele>613.5</ele>
      </trkpt>
      <trkpt lat="43.863884" lon="5.799861">
        <ele>608.4</ele>
      </trkpt>
      <trkpt lat="43.863822" lon="5.799711">
        <ele>607.2</ele>
      </trkpt>
      <trkpt lat="43.863819" lon="5.799671">
        <ele>606.7</ele>
      </trkpt>
      <trkpt lat="43.864217" lon="5.799652">
        <ele>591.7</ele>
      </trkpt>
      <trkpt lat="43.863801" lon="5.799231">
        <ele>601.1</ele>
      </trkpt>
      <trkpt lat="43.863565" lon="5.798850">
        <ele>585.3</ele>
      </trkpt>
      <trkpt lat="43.863306" lon="5.798515">
        <ele>587</ele>
      </trkpt>
      <trkpt lat="43.863176" lon="5.798458">
        <ele>587.3</ele>
      </trkpt>
      <trkpt lat="43.862759" lon="5.797922">
        <ele>569.5</ele>
      </trkpt>
      <trkpt lat="43.863654" lon="5.798088">
        <ele>558.5</ele>
      </trkpt>
      <trkpt lat="43.864062" lon="5.798228">
        <ele>556</ele>
      </trkpt>
      <trkpt lat="43.864252" lon="5.798204">
        <ele>547.7</ele>
      </trkpt>
      <trkpt lat="43.864070" lon="5.797686">
        <ele>545.6</ele>
      </trkpt>
      <trkpt lat="43.864155" lon="5.797614">
        <ele>541.4</ele>
      </trkpt>
      <trkpt lat="43.864555" lon="5.797809">
        <ele>536</ele>
      </trkpt>
      <trkpt lat="43.864536" lon="5.797665">
        <ele>534.8</ele>
      </trkpt>
      <trkpt lat="43.864225" lon="5.796954">
        <ele>520.3</ele>
      </trkpt>
      <trkpt lat="43.864582" lon="5.797123">
        <ele>520.8</ele>
      </trkpt>
      <trkpt lat="43.864196" lon="5.796055">
        <ele>508.3</ele>
      </trkpt>
      <trkpt lat="43.864285" lon="5.795943">
        <ele>507.5</ele>
      </trkpt>
      <trkpt lat="43.864565" lon="5.795929">
        <ele>508.7</ele>
      </trkpt>
      <trkpt lat="43.864689" lon="5.795497">
        <ele>506.4</ele>
      </trkpt>
      <trkpt lat="43.864754" lon="5.795336">
        <ele>506.7</ele>
      </trkpt>
      <trkpt lat="43.864689" lon="5.795178">
        <ele>506.7</ele>
      </trkpt>
      <trkpt lat="43.864586" lon="5.795068">
        <ele>506.3</ele>
      </trkpt>
      <trkpt lat="43.864343" lon="5.794993">
        <ele>510</ele>
      </trkpt>
      <trkpt lat="43.863925" lon="5.795063">
        <ele>502.2</ele>
      </trkpt>
      <trkpt lat="43.863395" lon="5.794982">
        <ele>498.7</ele>
      </trkpt>
      <trkpt lat="43.863194" lon="5.794703">
        <ele>498.2</ele>
      </trkpt>
      <trkpt lat="43.862982" lon="5.794049">
        <ele>505</ele>
      </trkpt>
      <trkpt lat="43.862823" lon="5.793818">
        <ele>504.6</ele>
      </trkpt>
      <trkpt lat="43.862386" lon="5.793271">
        <ele>502.7</ele>
      </trkpt>
      <trkpt lat="43.861372" lon="5.792619">
        <ele>489</ele>
      </trkpt>
      <trkpt lat="43.860637" lon="5.792147">
        <ele>478</ele>
      </trkpt>
      <trkpt lat="43.860637" lon="5.792147">
        <ele>478</ele>
      </trkpt>
      <trkpt lat="43.860568" lon="5.792102">
        <ele>477.7</ele>
      </trkpt>
      <trkpt lat="43.860429" lon="5.791951">
        <ele>477.2</ele>
      </trkpt>
      <trkpt lat="43.860355" lon="5.791705">
        <ele>477.1</ele>
      </trkpt>
      <trkpt lat="43.859891" lon="5.791377">
        <ele>473.8</ele>
      </trkpt>
      <trkpt lat="43.859749" lon="5.791356">
        <ele>473.6</ele>
      </trkpt>
      <trkpt lat="43.859692" lon="5.791265">
        <ele>474</ele>
      </trkpt>
      <trkpt lat="43.859097" lon="5.790578">
        <ele>480.2</ele>
      </trkpt>
      <trkpt lat="43.858959" lon="5.790530">
        <ele>481.4</ele>
      </trkpt>
      <trkpt lat="43.858823" lon="5.790656">
        <ele>480.5</ele>
      </trkpt>
      <trkpt lat="43.858651" lon="5.790718">
        <ele>480</ele>
      </trkpt>
      <trkpt lat="43.858460" lon="5.790661">
        <ele>479.4</ele>
      </trkpt>
      <trkpt lat="43.858251" lon="5.790546">
        <ele>479.6</ele>
      </trkpt>
      <trkpt lat="43.858065" lon="5.790299">
        <ele>482.7</ele>
      </trkpt>
      <trkpt lat="43.857628" lon="5.789224">
        <ele>495.9</ele>
      </trkpt>
      <trkpt lat="43.857597" lon="5.789028">
        <ele>502.1</ele>
      </trkpt>
      <trkpt lat="43.857582" lon="5.788921">
        <ele>504.1</ele>
      </trkpt>
      <trkpt lat="43.857493" lon="5.788727">
        <ele>504.7</ele>
      </trkpt>
      <trkpt lat="43.857363" lon="5.788733">
        <ele>505</ele>
      </trkpt>
      <trkpt lat="43.857214" lon="5.788942">
        <ele>504</ele>
      </trkpt>
      <trkpt lat="43.856992" lon="5.788971">
        <ele>505.7</ele>
      </trkpt>
      <trkpt lat="43.856849" lon="5.789355">
        <ele>499.3</ele>
      </trkpt>
      <trkpt lat="43.856750" lon="5.789497">
        <ele>498.4</ele>
      </trkpt>
      <trkpt lat="43.856605" lon="5.789773">
        <ele>499</ele>
      </trkpt>
      <trkpt lat="43.856580" lon="5.789784">
        <ele>499</ele>
      </trkpt>
      <trkpt lat="43.856500" lon="5.789757">
        <ele>499.3</ele>
      </trkpt>
      <trkpt lat="43.856344" lon="5.789698">
        <ele>499.9</ele>
      </trkpt>
      <trkpt lat="43.856309" lon="5.789661">
        <ele>500.2</ele>
      </trkpt>
      <trkpt lat="43.856286" lon="5.789621">
        <ele>500.5</ele>
      </trkpt>
      <trkpt lat="43.856315" lon="5.789540">
        <ele>501.1</ele>
      </trkpt>
      <trkpt lat="43.856456" lon="5.789495">
        <ele>501.5</ele>
      </trkpt>
      <trkpt lat="43.856477" lon="5.789484">
        <ele>501.7</ele>
      </trkpt>
      <trkpt lat="43.856516" lon="5.789358">
        <ele>502.8</ele>
      </trkpt>
      <trkpt lat="43.856475" lon="5.788953">
        <ele>511.8</ele>
      </trkpt>
      <trkpt lat="43.856460" lon="5.788639">
        <ele>514.9</ele>
      </trkpt>
      <trkpt lat="43.856489" lon="5.788430">
        <ele>516.4</ele>
      </trkpt>
      <trkpt lat="43.856537" lon="5.788215">
        <ele>523.8</ele>
      </trkpt>
      <trkpt lat="43.856580" lon="5.788051">
        <ele>526.3</ele>
      </trkpt>
      <trkpt lat="43.856657" lon="5.787958">
        <ele>527.6</ele>
      </trkpt>
      <trkpt lat="43.856914" lon="5.787931">
        <ele>522</ele>
      </trkpt>
      <trkpt lat="43.857054" lon="5.787571">
        <ele>524.5</ele>
      </trkpt>
      <trkpt lat="43.857224" lon="5.787448">
        <ele>535.5</ele>
      </trkpt>
      <trkpt lat="43.857396" lon="5.787338">
        <ele>534.2</ele>
      </trkpt>
      <trkpt lat="43.857551" lon="5.787335">
        <ele>533.7</ele>
      </trkpt>
      <trkpt lat="43.857949" lon="5.787282">
        <ele>538.9</ele>
      </trkpt>
      <trkpt lat="43.858119" lon="5.787268">
        <ele>539.6</ele>
      </trkpt>
      <trkpt lat="43.858351" lon="5.787354">
        <ele>542.5</ele>
      </trkpt>
      <trkpt lat="43.858465" lon="5.787609">
        <ele>534.7</ele>
      </trkpt>
      <trkpt lat="43.858506" lon="5.787655">
        <ele>534.4</ele>
      </trkpt>
      <trkpt lat="43.858585" lon="5.787638">
        <ele>534.6</ele>
      </trkpt>
      <trkpt lat="43.858581" lon="5.787303">
        <ele>546.6</ele>
      </trkpt>
      <trkpt lat="43.858570" lon="5.787008">
        <ele>550.6</ele>
      </trkpt>
      <trkpt lat="43.858367" lon="5.786700">
        <ele>552.7</ele>
      </trkpt>
      <trkpt lat="43.858162" lon="5.786539">
        <ele>558.6</ele>
      </trkpt>
      <trkpt lat="43.857901" lon="5.786509">
        <ele>559.6</ele>
      </trkpt>
      <trkpt lat="43.857098" lon="5.786088">
        <ele>565.3</ele>
      </trkpt>
      <trkpt lat="43.856473" lon="5.786024">
        <ele>569.1</ele>
      </trkpt>
      <trkpt lat="43.856112" lon="5.786008">
        <ele>568.8</ele>
      </trkpt>
      <trkpt lat="43.855961" lon="5.785919">
        <ele>571.4</ele>
      </trkpt>
      <trkpt lat="43.855605" lon="5.785208">
        <ele>582</ele>
      </trkpt>
      <trkpt lat="43.855709" lon="5.785281">
        <ele>581.9</ele>
      </trkpt>
      <trkpt lat="43.855982" lon="5.785584">
        <ele>582.5</ele>
      </trkpt>
      <trkpt lat="43.856087" lon="5.785546">
        <ele>583.4</ele>
      </trkpt>
      <trkpt lat="43.856276" lon="5.785450">
        <ele>584.7</ele>
      </trkpt>
      <trkpt lat="43.856535" lon="5.785385">
        <ele>585.6</ele>
      </trkpt>
      <trkpt lat="43.856665" lon="5.785249">
        <ele>588.2</ele>
      </trkpt>
      <trkpt lat="43.856864" lon="5.785179">
        <ele>587.6</ele>
      </trkpt>
      <trkpt lat="43.857059" lon="5.785131">
        <ele>586.6</ele>
      </trkpt>
      <trkpt lat="43.857245" lon="5.785152">
        <ele>586.4</ele>
      </trkpt>
      <trkpt lat="43.857357" lon="5.785165">
        <ele>586.7</ele>
      </trkpt>
      <trkpt lat="43.857618" lon="5.785093">
        <ele>588.4</ele>
      </trkpt>
      <trkpt lat="43.857734" lon="5.785066">
        <ele>588.1</ele>
      </trkpt>
      <trkpt lat="43.857947" lon="5.785090">
        <ele>588.6</ele>
      </trkpt>
      <trkpt lat="43.858235" lon="5.785157">
        <ele>591.5</ele>
      </trkpt>
      <trkpt lat="43.858485" lon="5.785308">
        <ele>597.2</ele>
      </trkpt>
      <trkpt lat="43.858670" lon="5.785321">
        <ele>598.7</ele>
      </trkpt>
      <trkpt lat="43.858835" lon="5.785428">
        <ele>599.4</ele>
      </trkpt>
      <trkpt lat="43.859303" lon="5.785914">
        <ele>593.5</ele>
      </trkpt>
      <trkpt lat="43.859651" lon="5.786048">
        <ele>591.5</ele>
      </trkpt>
      <trkpt lat="43.859831" lon="5.786064">
        <ele>593.1</ele>
      </trkpt>
      <trkpt lat="43.860123" lon="5.786043">
        <ele>593.5</ele>
      </trkpt>
      <trkpt lat="43.860260" lon="5.785957">
        <ele>592.8</ele>
      </trkpt>
      <trkpt lat="43.860446" lon="5.785777">
        <ele>602.7</ele>
      </trkpt>
      <trkpt lat="43.860765" lon="5.785179">
        <ele>604</ele>
      </trkpt>
      <trkpt lat="43.860941" lon="5.784876">
        <ele>603.5</ele>
      </trkpt>
      <trkpt lat="43.861194" lon="5.784701">
        <ele>604</ele>
      </trkpt>
      <trkpt lat="43.861308" lon="5.784672">
        <ele>604.1</ele>
      </trkpt>
      <trkpt lat="43.861434" lon="5.784685">
        <ele>604</ele>
      </trkpt>
      <trkpt lat="43.861458" lon="5.784624">
        <ele>604.2</ele>
      </trkpt>
      <trkpt lat="43.861458" lon="5.784345">
        <ele>605.1</ele>
      </trkpt>
      <trkpt lat="43.861473" lon="5.783969">
        <ele>605</ele>
      </trkpt>
      <trkpt lat="43.861477" lon="5.783685">
        <ele>604.2</ele>
      </trkpt>
      <trkpt lat="43.861438" lon="5.783299">
        <ele>600.5</ele>
      </trkpt>
      <trkpt lat="43.861450" lon="5.782902">
        <ele>598.5</ele>
      </trkpt>
      <trkpt lat="43.861384" lon="5.782553">
        <ele>597.3</ele>
      </trkpt>
      <trkpt lat="43.861373" lon="5.782317">
        <ele>590.5</ele>
      </trkpt>
      <trkpt lat="43.861373" lon="5.781995">
        <ele>588.3</ele>
      </trkpt>
      <trkpt lat="43.861334" lon="5.781721">
        <ele>586.9</ele>
      </trkpt>
      <trkpt lat="43.861268" lon="5.781512">
        <ele>580.3</ele>
      </trkpt>
      <trkpt lat="43.861152" lon="5.781072">
        <ele>577.6</ele>
      </trkpt>
      <trkpt lat="43.861171" lon="5.780885">
        <ele>577.1</ele>
      </trkpt>
      <trkpt lat="43.861206" lon="5.780697">
        <ele>578.3</ele>
      </trkpt>
      <trkpt lat="43.860924" lon="5.780740">
        <ele>573.5</ele>
      </trkpt>
      <trkpt lat="43.860309" lon="5.780751">
        <ele>564.9</ele>
      </trkpt>
      <trkpt lat="43.860034" lon="5.780622">
        <ele>562.9</ele>
      </trkpt>
      <trkpt lat="43.859733" lon="5.780445">
        <ele>557.6</ele>
      </trkpt>
      <trkpt lat="43.859396" lon="5.780386">
        <ele>556</ele>
      </trkpt>
      <trkpt lat="43.859001" lon="5.780118">
        <ele>548.6</ele>
      </trkpt>
      <trkpt lat="43.858318" lon="5.780109">
        <ele>540.2</ele>
      </trkpt>
      <trkpt lat="43.858202" lon="5.780053">
        <ele>540.6</ele>
      </trkpt>
      <trkpt lat="43.857966" lon="5.779651">
        <ele>541.1</ele>
      </trkpt>
      <trkpt lat="43.857620" lon="5.778621">
        <ele>541.5</ele>
      </trkpt>
      <trkpt lat="43.857291" lon="5.778524">
        <ele>529.4</ele>
      </trkpt>
      <trkpt lat="43.857106" lon="5.778224">
        <ele>531.1</ele>
      </trkpt>
      <trkpt lat="43.856878" lon="5.778063">
        <ele>529.2</ele>
      </trkpt>
      <trkpt lat="43.856760" lon="5.778052">
        <ele>527.9</ele>
      </trkpt>
      <trkpt lat="43.856309" lon="5.777953">
        <ele>516.3</ele>
      </trkpt>
      <trkpt lat="43.855854" lon="5.777575">
        <ele>510.3</ele>
      </trkpt>
      <trkpt lat="43.855551" lon="5.777057">
        <ele>507.1</ele>
      </trkpt>
      <trkpt lat="43.855555" lon="5.776800">
        <ele>508.6</ele>
      </trkpt>
      <trkpt lat="43.855462" lon="5.776695">
        <ele>507.7</ele>
      </trkpt>
      <trkpt lat="43.855087" lon="5.776826">
        <ele>504</ele>
      </trkpt>
      <trkpt lat="43.854744" lon="5.776698">
        <ele>498.1</ele>
      </trkpt>
      <trkpt lat="43.854261" lon="5.776314">
        <ele>500.2</ele>
      </trkpt>
      <trkpt lat="43.853802" lon="5.776183">
        <ele>491.9</ele>
      </trkpt>
      <trkpt lat="43.853270" lon="5.775783">
        <ele>487.3</ele>
      </trkpt>
      <trkpt lat="43.852983" lon="5.775740">
        <ele>486.5</ele>
      </trkpt>
      <trkpt lat="43.852658" lon="5.775461">
        <ele>486</ele>
      </trkpt>
      <trkpt lat="43.852326" lon="5.775461">
        <ele>478.9</ele>
      </trkpt>
      <trkpt lat="43.851815" lon="5.775096">
        <ele>474</ele>
      </trkpt>
      <trkpt lat="43.850972" lon="5.774860">
        <ele>462.4</ele>
      </trkpt>
      <trkpt lat="43.850484" lon="5.774742">
        <ele>458.5</ele>
      </trkpt>
      <trkpt lat="43.849741" lon="5.774882">
        <ele>456.7</ele>
      </trkpt>
      <trkpt lat="43.849130" lon="5.774678">
        <ele>457.2</ele>
      </trkpt>
      <trkpt lat="43.847945" lon="5.774320">
        <ele>455</ele>
      </trkpt>
      <trkpt lat="43.847923" lon="5.774313">
        <ele>454.9</ele>
      </trkpt>
      <trkpt lat="43.847575" lon="5.774324">
        <ele>454.9</ele>
      </trkpt>
      <trkpt lat="43.847242" lon="5.774603">
        <ele>450.2</ele>
      </trkpt>
      <trkpt lat="43.847041" lon="5.774807">
        <ele>447.6</ele>
      </trkpt>
      <trkpt lat="43.846151" lon="5.775064">
        <ele>435.8</ele>
      </trkpt>
      <trkpt lat="43.845741" lon="5.775247">
        <ele>434</ele>
      </trkpt>
      <trkpt lat="43.845416" lon="5.775268">
        <ele>433.2</ele>
      </trkpt>
      <trkpt lat="43.845121" lon="5.775273">
        <ele>433.6</ele>
      </trkpt>
      <trkpt lat="43.844882" lon="5.775504">
        <ele>434</ele>
      </trkpt>
      <trkpt lat="43.844746" lon="5.775982">
        <ele>427</ele>
      </trkpt>
      <trkpt lat="43.844220" lon="5.776395">
        <ele>427.3</ele>
      </trkpt>
      <trkpt lat="43.844092" lon="5.776647">
        <ele>428.2</ele>
      </trkpt>
      <trkpt lat="43.843663" lon="5.776808">
        <ele>425.8</ele>
      </trkpt>
      <trkpt lat="43.843446" lon="5.776942">
        <ele>426.2</ele>
      </trkpt>
      <trkpt lat="43.843211" lon="5.777258">
        <ele>425.8</ele>
      </trkpt>
    </trkseg>
  </trk>
</gpx>