<?xml version="1.0" ?>
<gpx xmlns="http://www.topografix.com/GPX/1/1" xmlns:xsi="http://www.w3.org/2001/XMLSchema-instance" xsi:schemaLocation="http://www.topografix.com/GPX/1/1 http://www.topografix.com/GPX/1/1/gpx.xsd" version="1.1" creator="EditGPX">
  <trk>
    <name>NewTrack</name>
    <trkseg>
      <trkpt lat="43.863868" lon="5.663294">
        <ele>434.6</ele>
      </trkpt>
      <trkpt lat="43.863857" lon="5.663039">
        <ele>434.3</ele>
      </trkpt>
      <trkpt lat="43.863848" lon="5.662913">
        <ele>434.1</ele>
      </trkpt>
      <trkpt lat="43.863805" lon="5.662645">
        <ele>433.8</ele>
      </trkpt>
      <trkpt lat="43.863706" lon="5.662269">
        <ele>432.2</ele>
      </trkpt>
      <trkpt lat="43.863430" lon="5.661701">
        <ele>431.9</ele>
      </trkpt>
      <trkpt lat="43.863298" lon="5.661331">
        <ele>429.9</ele>
      </trkpt>
      <trkpt lat="43.863147" lon="5.660754">
        <ele>428.9</ele>
      </trkpt>
      <trkpt lat="43.863076" lon="5.660290">
        <ele>429</ele>
      </trkpt>
      <trkpt lat="43.863016" lon="5.659780">
        <ele>428.8</ele>
      </trkpt>
      <trkpt lat="43.862859" lon="5.658461">
        <ele>425.8</ele>
      </trkpt>
      <trkpt lat="43.863194" lon="5.658284">
        <ele>426.6</ele>
      </trkpt>
      <trkpt lat="43.863306" lon="5.658241">
        <ele>427</ele>
      </trkpt>
      <trkpt lat="43.863443" lon="5.658219">
        <ele>428.7</ele>
      </trkpt>
      <trkpt lat="43.863650" lon="5.658198">
        <ele>429.4</ele>
      </trkpt>
      <trkpt lat="43.863784" lon="5.658222">
        <ele>430</ele>
      </trkpt>
      <trkpt lat="43.864141" lon="5.658233">
        <ele>431.8</ele>
      </trkpt>
      <trkpt lat="43.864317" lon="5.658294">
        <ele>432.8</ele>
      </trkpt>
      <trkpt lat="43.864455" lon="5.658289">
        <ele>432.8</ele>
      </trkpt>
      <trkpt lat="43.865178" lon="5.658490">
        <ele>435.3</ele>
      </trkpt>
      <trkpt lat="43.865513" lon="5.658530">
        <ele>435.9</ele>
      </trkpt>
      <trkpt lat="43.865955" lon="5.658493">
        <ele>437.6</ele>
      </trkpt>
      <trkpt lat="43.866228" lon="5.658426">
        <ele>438.7</ele>
      </trkpt>
      <trkpt lat="43.866358" lon="5.658426">
        <ele>439.3</ele>
      </trkpt>
      <trkpt lat="43.867063" lon="5.658611">
        <ele>444.1</ele>
      </trkpt>
      <trkpt lat="43.867647" lon="5.658774">
        <ele>448.1</ele>
      </trkpt>
      <trkpt lat="43.868268" lon="5.659002">
        <ele>449.3</ele>
      </trkpt>
      <trkpt lat="43.869040" lon="5.659292">
        <ele>454.6</ele>
      </trkpt>
      <trkpt lat="43.869192" lon="5.659944">
        <ele>456.9</ele>
      </trkpt>
      <trkpt lat="43.869405" lon="5.660864">
        <ele>457.5</ele>
      </trkpt>
      <trkpt lat="43.869467" lon="5.661255">
        <ele>457.8</ele>
      </trkpt>
      <trkpt lat="43.869511" lon="5.661572">
        <ele>457.7</ele>
      </trkpt>
      <trkpt lat="43.869521" lon="5.661674">
        <ele>457.9</ele>
      </trkpt>
      <trkpt lat="43.869724" lon="5.661647">
        <ele>459.2</ele>
      </trkpt>
      <trkpt lat="43.869757" lon="5.662012">
        <ele>459.2</ele>
      </trkpt>
      <trkpt lat="43.869840" lon="5.663181">
        <ele>461.1</ele>
      </trkpt>
      <trkpt lat="43.869848" lon="5.663315">
        <ele>461.5</ele>
      </trkpt>
      <trkpt lat="43.869832" lon="5.663409">
        <ele>460.9</ele>
      </trkpt>
      <trkpt lat="43.869796" lon="5.663533">
        <ele>460.2</ele>
      </trkpt>
      <trkpt lat="43.869788" lon="5.663667">
        <ele>459.7</ele>
      </trkpt>
      <trkpt lat="43.869831" lon="5.663956">
        <ele>459.1</ele>
      </trkpt>
      <trkpt lat="43.869879" lon="5.664624">
        <ele>456.7</ele>
      </trkpt>
      <trkpt lat="43.869945" lon="5.665721">
        <ele>455.4</ele>
      </trkpt>
      <trkpt lat="43.869947" lon="5.665869">
        <ele>455.4</ele>
      </trkpt>
      <trkpt lat="43.869945" lon="5.665941">
        <ele>455.1</ele>
      </trkpt>
      <trkpt lat="43.869987" lon="5.665941">
        <ele>455.2</ele>
      </trkpt>
      <trkpt lat="43.870631" lon="5.665627">
        <ele>460.5</ele>
      </trkpt>
      <trkpt lat="43.871037" lon="5.665407">
        <ele>466.2</ele>
      </trkpt>
      <trkpt lat="43.871381" lon="5.665244">
        <ele>468.2</ele>
      </trkpt>
      <trkpt lat="43.871619" lon="5.665204">
        <ele>469.5</ele>
      </trkpt>
      <trkpt lat="43.872031" lon="5.665131">
        <ele>475.6</ele>
      </trkpt>
      <trkpt lat="43.872171" lon="5.665088">
        <ele>476.6</ele>
      </trkpt>
      <trkpt lat="43.872511" lon="5.664949">
        <ele>480</ele>
      </trkpt>
      <trkpt lat="43.872658" lon="5.664418">
        <ele>478.8</ele>
      </trkpt>
      <trkpt lat="43.872855" lon="5.664091">
        <ele>476.9</ele>
      </trkpt>
      <trkpt lat="43.873083" lon="5.663758">
        <ele>477</ele>
      </trkpt>
      <trkpt lat="43.873292" lon="5.663511">
        <ele>477</ele>
      </trkpt>
      <trkpt lat="43.873396" lon="5.663420">
        <ele>478.8</ele>
      </trkpt>
      <trkpt lat="43.873617" lon="5.663259">
        <ele>481.5</ele>
      </trkpt>
      <trkpt lat="43.873741" lon="5.663345">
        <ele>481.9</ele>
      </trkpt>
      <trkpt lat="43.873888" lon="5.663393">
        <ele>483.1</ele>
      </trkpt>
      <trkpt lat="43.874054" lon="5.663388">
        <ele>484.5</ele>
      </trkpt>
      <trkpt lat="43.874054" lon="5.663484">
        <ele>484</ele>
      </trkpt>
      <trkpt lat="43.874046" lon="5.663769">
        <ele>483.6</ele>
      </trkpt>
      <trkpt lat="43.873976" lon="5.663860">
        <ele>483.5</ele>
      </trkpt>
      <trkpt lat="43.873903" lon="5.663935">
        <ele>483.3</ele>
      </trkpt>
      <trkpt lat="43.873891" lon="5.664042">
        <ele>483.5</ele>
      </trkpt>
      <trkpt lat="43.873903" lon="5.664171">
        <ele>485.4</ele>
      </trkpt>
      <trkpt lat="43.873965" lon="5.664434">
        <ele>485.8</ele>
      </trkpt>
      <trkpt lat="43.874007" lon="5.664498">
        <ele>486</ele>
      </trkpt>
      <trkpt lat="43.874042" lon="5.664514">
        <ele>486.1</ele>
      </trkpt>
      <trkpt lat="43.874108" lon="5.664686">
        <ele>486.8</ele>
      </trkpt>
      <trkpt lat="43.874181" lon="5.664809">
        <ele>492.4</ele>
      </trkpt>
      <trkpt lat="43.874282" lon="5.665099">
        <ele>493.9</ele>
      </trkpt>
      <trkpt lat="43.874348" lon="5.665399">
        <ele>496.6</ele>
      </trkpt>
      <trkpt lat="43.874371" lon="5.665566">
        <ele>496.9</ele>
      </trkpt>
      <trkpt lat="43.874379" lon="5.665721">
        <ele>496.7</ele>
      </trkpt>
      <trkpt lat="43.874456" lon="5.665947">
        <ele>499.7</ele>
      </trkpt>
      <trkpt lat="43.874549" lon="5.666156">
        <ele>501.3</ele>
      </trkpt>
      <trkpt lat="43.874642" lon="5.666370">
        <ele>502.5</ele>
      </trkpt>
      <trkpt lat="43.874719" lon="5.666569">
        <ele>503.7</ele>
      </trkpt>
      <trkpt lat="43.874769" lon="5.666708">
        <ele>507</ele>
      </trkpt>
      <trkpt lat="43.874808" lon="5.666778">
        <ele>507.2</ele>
      </trkpt>
      <trkpt lat="43.875028" lon="5.666944">
        <ele>515.5</ele>
      </trkpt>
      <trkpt lat="43.875168" lon="5.667180">
        <ele>517.3</ele>
      </trkpt>
      <trkpt lat="43.875314" lon="5.667583">
        <ele>521</ele>
      </trkpt>
      <trkpt lat="43.875473" lon="5.667867">
        <ele>523.9</ele>
      </trkpt>
      <trkpt lat="43.875659" lon="5.668114">
        <ele>526.2</ele>
      </trkpt>
      <trkpt lat="43.875740" lon="5.668264">
        <ele>528.3</ele>
      </trkpt>
      <trkpt lat="43.875867" lon="5.668586">
        <ele>536.5</ele>
      </trkpt>
      <trkpt lat="43.875925" lon="5.668822">
        <ele>537.9</ele>
      </trkpt>
      <trkpt lat="43.875987" lon="5.668972">
        <ele>538</ele>
      </trkpt>
      <trkpt lat="43.876045" lon="5.669128">
        <ele>538.1</ele>
      </trkpt>
      <trkpt lat="43.876077" lon="5.669130">
        <ele>538.6</ele>
      </trkpt>
      <trkpt lat="43.876126" lon="5.668897">
        <ele>539.5</ele>
      </trkpt>
      <trkpt lat="43.876180" lon="5.668672">
        <ele>539.7</ele>
      </trkpt>
      <trkpt lat="43.876236" lon="5.668484">
        <ele>539.9</ele>
      </trkpt>
      <trkpt lat="43.876304" lon="5.668412">
        <ele>540.7</ele>
      </trkpt>
      <trkpt lat="43.876720" lon="5.668184">
        <ele>548.1</ele>
      </trkpt>
      <trkpt lat="43.876799" lon="5.668095">
        <ele>548.5</ele>
      </trkpt>
      <trkpt lat="43.877060" lon="5.667838">
        <ele>549</ele>
      </trkpt>
      <trkpt lat="43.877777" lon="5.666993">
        <ele>551.4</ele>
      </trkpt>
      <trkpt lat="43.877818" lon="5.667014">
        <ele>551.3</ele>
      </trkpt>
      <trkpt lat="43.877839" lon="5.667084">
        <ele>551.1</ele>
      </trkpt>
      <trkpt lat="43.877903" lon="5.667317">
        <ele>550.6</ele>
      </trkpt>
      <trkpt lat="43.877926" lon="5.667575">
        <ele>551</ele>
      </trkpt>
      <trkpt lat="43.877957" lon="5.668334">
        <ele>555.5</ele>
      </trkpt>
      <trkpt lat="43.877971" lon="5.668661">
        <ele>556.2</ele>
      </trkpt>
      <trkpt lat="43.877974" lon="5.668817">
        <ele>556.7</ele>
      </trkpt>
      <trkpt lat="43.877940" lon="5.668996">
        <ele>557.2</ele>
      </trkpt>
      <trkpt lat="43.877858" lon="5.669307">
        <ele>559.1</ele>
      </trkpt>
      <trkpt lat="43.877777" lon="5.669543">
        <ele>558.9</ele>
      </trkpt>
      <trkpt lat="43.877489" lon="5.670150">
        <ele>552.3</ele>
      </trkpt>
      <trkpt lat="43.877327" lon="5.670442">
        <ele>550.1</ele>
      </trkpt>
      <trkpt lat="43.877257" lon="5.670598">
        <ele>549.7</ele>
      </trkpt>
      <trkpt lat="43.877228" lon="5.670791">
        <ele>549.7</ele>
      </trkpt>
      <trkpt lat="43.877236" lon="5.671000">
        <ele>547.3</ele>
      </trkpt>
      <trkpt lat="43.877277" lon="5.671282">
        <ele>546.3</ele>
      </trkpt>
      <trkpt lat="43.877367" lon="5.671601">
        <ele>547.1</ele>
      </trkpt>
      <trkpt lat="43.877673" lon="5.672290">
        <ele>548.8</ele>
      </trkpt>
      <trkpt lat="43.877886" lon="5.672746">
        <ele>547.1</ele>
      </trkpt>
      <trkpt lat="43.878002" lon="5.673073">
        <ele>547.2</ele>
      </trkpt>
      <trkpt lat="43.878036" lon="5.673170">
        <ele>547.4</ele>
      </trkpt>
      <trkpt lat="43.878067" lon="5.673226">
        <ele>547.6</ele>
      </trkpt>
      <trkpt lat="43.878150" lon="5.673258">
        <ele>548.2</ele>
      </trkpt>
      <trkpt lat="43.878228" lon="5.673282">
        <ele>548.9</ele>
      </trkpt>
      <trkpt lat="43.878303" lon="5.673269">
        <ele>549.3</ele>
      </trkpt>
      <trkpt lat="43.878466" lon="5.673138">
        <ele>554</ele>
      </trkpt>
      <trkpt lat="43.878899" lon="5.672773">
        <ele>557.6</ele>
      </trkpt>
      <trkpt lat="43.879324" lon="5.672464">
        <ele>565.2</ele>
      </trkpt>
      <trkpt lat="43.879440" lon="5.672421">
        <ele>566.7</ele>
      </trkpt>
      <trkpt lat="43.879726" lon="5.672432">
        <ele>569.1</ele>
      </trkpt>
      <trkpt lat="43.880179" lon="5.672303">
        <ele>574.6</ele>
      </trkpt>
      <trkpt lat="43.880546" lon="5.672207">
        <ele>576.7</ele>
      </trkpt>
      <trkpt lat="43.880987" lon="5.672180">
        <ele>581.3</ele>
      </trkpt>
      <trkpt lat="43.881088" lon="5.672212">
        <ele>581.4</ele>
      </trkpt>
      <trkpt lat="43.881088" lon="5.672384">
        <ele>581.2</ele>
      </trkpt>
      <trkpt lat="43.880875" lon="5.673468">
        <ele>580.2</ele>
      </trkpt>
      <trkpt lat="43.880848" lon="5.673687">
        <ele>579.6</ele>
      </trkpt>
      <trkpt lat="43.880890" lon="5.673945">
        <ele>579.2</ele>
      </trkpt>
      <trkpt lat="43.881204" lon="5.674776">
        <ele>579.1</ele>
      </trkpt>
      <trkpt lat="43.881343" lon="5.675216">
        <ele>579.1</ele>
      </trkpt>
      <trkpt lat="43.881767" lon="5.675662">
        <ele>581.2</ele>
      </trkpt>
      <trkpt lat="43.882139" lon="5.676112">
        <ele>583</ele>
      </trkpt>
      <trkpt lat="43.882565" lon="5.676751">
        <ele>586.6</ele>
      </trkpt>
      <trkpt lat="43.882704" lon="5.677148">
        <ele>586.5</ele>
      </trkpt>
      <trkpt lat="43.882851" lon="5.677620">
        <ele>588.4</ele>
      </trkpt>
      <trkpt lat="43.883067" lon="5.678167">
        <ele>589.5</ele>
      </trkpt>
      <trkpt lat="43.883404" lon="5.679143">
        <ele>592.4</ele>
      </trkpt>
      <trkpt lat="43.883694" lon="5.680076">
        <ele>592.2</ele>
      </trkpt>
      <trkpt lat="43.883821" lon="5.680549">
        <ele>592.2</ele>
      </trkpt>
      <trkpt lat="43.883906" lon="5.681037">
        <ele>592.2</ele>
      </trkpt>
      <trkpt lat="43.883972" lon="5.681600">
        <ele>591</ele>
      </trkpt>
      <trkpt lat="43.884007" lon="5.681809">
        <ele>590.4</ele>
      </trkpt>
      <trkpt lat="43.884065" lon="5.682163">
        <ele>590.7</ele>
      </trkpt>
      <trkpt lat="43.884103" lon="5.682308">
        <ele>590.6</ele>
      </trkpt>
      <trkpt lat="43.884254" lon="5.682544">
        <ele>587.4</ele>
      </trkpt>
      <trkpt lat="43.884277" lon="5.682603">
        <ele>586.4</ele>
      </trkpt>
      <trkpt lat="43.884308" lon="5.682904">
        <ele>584.1</ele>
      </trkpt>
      <trkpt lat="43.884215" lon="5.682984">
        <ele>584.4</ele>
      </trkpt>
      <trkpt lat="43.884212" lon="5.683059">
        <ele>584.5</ele>
      </trkpt>
      <trkpt lat="43.884154" lon="5.683215">
        <ele>587.7</ele>
      </trkpt>
      <trkpt lat="43.884115" lon="5.683435">
        <ele>586.4</ele>
      </trkpt>
      <trkpt lat="43.884072" lon="5.683773">
        <ele>585.3</ele>
      </trkpt>
      <trkpt lat="43.884034" lon="5.683928">
        <ele>584.9</ele>
      </trkpt>
      <trkpt lat="43.884034" lon="5.684073">
        <ele>584.6</ele>
      </trkpt>
      <trkpt lat="43.884069" lon="5.684180">
        <ele>583.2</ele>
      </trkpt>
      <trkpt lat="43.884103" lon="5.684325">
        <ele>582.7</ele>
      </trkpt>
      <trkpt lat="43.884119" lon="5.684459">
        <ele>582.1</ele>
      </trkpt>
      <trkpt lat="43.884134" lon="5.684851">
        <ele>580.7</ele>
      </trkpt>
      <trkpt lat="43.884297" lon="5.685339">
        <ele>575.5</ele>
      </trkpt>
      <trkpt lat="43.884409" lon="5.685623">
        <ele>574.5</ele>
      </trkpt>
      <trkpt lat="43.884563" lon="5.685977">
        <ele>572.6</ele>
      </trkpt>
      <trkpt lat="43.884730" lon="5.686444">
        <ele>571.9</ele>
      </trkpt>
      <trkpt lat="43.884822" lon="5.686573">
        <ele>571.4</ele>
      </trkpt>
      <trkpt lat="43.885004" lon="5.686739">
        <ele>569.5</ele>
      </trkpt>
      <trkpt lat="43.885070" lon="5.686921">
        <ele>568.8</ele>
      </trkpt>
      <trkpt lat="43.885105" lon="5.687104">
        <ele>568.7</ele>
      </trkpt>
      <trkpt lat="43.885143" lon="5.687345">
        <ele>569.1</ele>
      </trkpt>
      <trkpt lat="43.885244" lon="5.687528">
        <ele>569</ele>
      </trkpt>
      <trkpt lat="43.885333" lon="5.687737">
        <ele>568.4</ele>
      </trkpt>
      <trkpt lat="43.885797" lon="5.688273">
        <ele>565.7</ele>
      </trkpt>
      <trkpt lat="43.886040" lon="5.688434">
        <ele>561.1</ele>
      </trkpt>
      <trkpt lat="43.886265" lon="5.688370">
        <ele>558.9</ele>
      </trkpt>
      <trkpt lat="43.886369" lon="5.688354">
        <ele>557.9</ele>
      </trkpt>
      <trkpt lat="43.886558" lon="5.688225">
        <ele>556.8</ele>
      </trkpt>
      <trkpt lat="43.886624" lon="5.688193">
        <ele>556.6</ele>
      </trkpt>
      <trkpt lat="43.886663" lon="5.688204">
        <ele>556.3</ele>
      </trkpt>
      <trkpt lat="43.886702" lon="5.687855">
        <ele>553.9</ele>
      </trkpt>
      <trkpt lat="43.886717" lon="5.687758">
        <ele>554.2</ele>
      </trkpt>
      <trkpt lat="43.886775" lon="5.687576">
        <ele>554.8</ele>
      </trkpt>
      <trkpt lat="43.886833" lon="5.687495">
        <ele>556</ele>
      </trkpt>
      <trkpt lat="43.886906" lon="5.687495">
        <ele>555.9</ele>
      </trkpt>
      <trkpt lat="43.886984" lon="5.687426">
        <ele>555.9</ele>
      </trkpt>
      <trkpt lat="43.887034" lon="5.687050">
        <ele>556.4</ele>
      </trkpt>
      <trkpt lat="43.887069" lon="5.686653">
        <ele>559.1</ele>
      </trkpt>
      <trkpt lat="43.887131" lon="5.686380">
        <ele>559.4</ele>
      </trkpt>
      <trkpt lat="43.887293" lon="5.685682">
        <ele>562.6</ele>
      </trkpt>
      <trkpt lat="43.887324" lon="5.685532">
        <ele>562.9</ele>
      </trkpt>
      <trkpt lat="43.887328" lon="5.685382">
        <ele>563.2</ele>
      </trkpt>
      <trkpt lat="43.887200" lon="5.684851">
        <ele>565.1</ele>
      </trkpt>
      <trkpt lat="43.887185" lon="5.684636">
        <ele>565.3</ele>
      </trkpt>
      <trkpt lat="43.887220" lon="5.684309">
        <ele>565.7</ele>
      </trkpt>
      <trkpt lat="43.887185" lon="5.684025">
        <ele>566.8</ele>
      </trkpt>
      <trkpt lat="43.887053" lon="5.683118">
        <ele>568.7</ele>
      </trkpt>
      <trkpt lat="43.886864" lon="5.682410">
        <ele>570.6</ele>
      </trkpt>
      <trkpt lat="43.886759" lon="5.682040">
        <ele>571.8</ele>
      </trkpt>
      <trkpt lat="43.886504" lon="5.681380">
        <ele>574.1</ele>
      </trkpt>
      <trkpt lat="43.886388" lon="5.681241">
        <ele>574.1</ele>
      </trkpt>
      <trkpt lat="43.886238" lon="5.681106">
        <ele>574.1</ele>
      </trkpt>
      <trkpt lat="43.886152" lon="5.680929">
        <ele>574.1</ele>
      </trkpt>
      <trkpt lat="43.886037" lon="5.680463">
        <ele>575</ele>
      </trkpt>
      <trkpt lat="43.885951" lon="5.680254">
        <ele>575.1</ele>
      </trkpt>
      <trkpt lat="43.885921" lon="5.680034">
        <ele>575.1</ele>
      </trkpt>
      <trkpt lat="43.885859" lon="5.679846">
        <ele>576.3</ele>
      </trkpt>
      <trkpt lat="43.885793" lon="5.679604">
        <ele>577.6</ele>
      </trkpt>
      <trkpt lat="43.885696" lon="5.679213">
        <ele>578.6</ele>
      </trkpt>
      <trkpt lat="43.885557" lon="5.678682">
        <ele>580.1</ele>
      </trkpt>
      <trkpt lat="43.885422" lon="5.678113">
        <ele>580.9</ele>
      </trkpt>
      <trkpt lat="43.885128" lon="5.677024">
        <ele>580.4</ele>
      </trkpt>
      <trkpt lat="43.885062" lon="5.676804">
        <ele>579.8</ele>
      </trkpt>
      <trkpt lat="43.885024" lon="5.676563">
        <ele>578.8</ele>
      </trkpt>
      <trkpt lat="43.885039" lon="5.676187">
        <ele>578</ele>
      </trkpt>
      <trkpt lat="43.884915" lon="5.675474">
        <ele>574.8</ele>
      </trkpt>
      <trkpt lat="43.884958" lon="5.675034">
        <ele>574.1</ele>
      </trkpt>
      <trkpt lat="43.884954" lon="5.674750">
        <ele>573.3</ele>
      </trkpt>
      <trkpt lat="43.884911" lon="5.674642">
        <ele>573.2</ele>
      </trkpt>
      <trkpt lat="43.884911" lon="5.674304">
        <ele>573.4</ele>
      </trkpt>
      <trkpt lat="43.884919" lon="5.674052">
        <ele>573.9</ele>
      </trkpt>
      <trkpt lat="43.885051" lon="5.673537">
        <ele>574.5</ele>
      </trkpt>
      <trkpt lat="43.885167" lon="5.673210">
        <ele>575.9</ele>
      </trkpt>
      <trkpt lat="43.885294" lon="5.672663">
        <ele>575.8</ele>
      </trkpt>
      <trkpt lat="43.885329" lon="5.672405">
        <ele>577.9</ele>
      </trkpt>
      <trkpt lat="43.885352" lon="5.672143">
        <ele>578.4</ele>
      </trkpt>
      <trkpt lat="43.885325" lon="5.671906">
        <ele>578.9</ele>
      </trkpt>
      <trkpt lat="43.885286" lon="5.671778">
        <ele>579.1</ele>
      </trkpt>
      <trkpt lat="43.885244" lon="5.671644">
        <ele>581.5</ele>
      </trkpt>
      <trkpt lat="43.885182" lon="5.671520">
        <ele>581.6</ele>
      </trkpt>
      <trkpt lat="43.884668" lon="5.670716">
        <ele>581.8</ele>
      </trkpt>
      <trkpt lat="43.884436" lon="5.670324">
        <ele>581.5</ele>
      </trkpt>
      <trkpt lat="43.884169" lon="5.669873">
        <ele>582</ele>
      </trkpt>
      <trkpt lat="43.884076" lon="5.669718">
        <ele>581.7</ele>
      </trkpt>
      <trkpt lat="43.883926" lon="5.669391">
        <ele>582.3</ele>
      </trkpt>
      <trkpt lat="43.883856" lon="5.669187">
        <ele>582.4</ele>
      </trkpt>
      <trkpt lat="43.883732" lon="5.668817">
        <ele>584.1</ele>
      </trkpt>
      <trkpt lat="43.883674" lon="5.668623">
        <ele>584.3</ele>
      </trkpt>
      <trkpt lat="43.883601" lon="5.668516">
        <ele>584.3</ele>
      </trkpt>
      <trkpt lat="43.883512" lon="5.668586">
        <ele>584.1</ele>
      </trkpt>
      <trkpt lat="43.883404" lon="5.668650">
        <ele>584</ele>
      </trkpt>
      <trkpt lat="43.883342" lon="5.668752">
        <ele>583.8</ele>
      </trkpt>
      <trkpt lat="43.883175" lon="5.669337">
        <ele>582.8</ele>
      </trkpt>
      <trkpt lat="43.882824" lon="5.669836">
        <ele>583</ele>
      </trkpt>
      <trkpt lat="43.882711" lon="5.670056">
        <ele>581.8</ele>
      </trkpt>
      <trkpt lat="43.882588" lon="5.670378">
        <ele>581.7</ele>
      </trkpt>
      <trkpt lat="43.882479" lon="5.670791">
        <ele>583.6</ele>
      </trkpt>
      <trkpt lat="43.882414" lon="5.670903">
        <ele>583.7</ele>
      </trkpt>
      <trkpt lat="43.882043" lon="5.671102">
        <ele>584.9</ele>
      </trkpt>
      <trkpt lat="43.881416" lon="5.671751">
        <ele>582.5</ele>
      </trkpt>
      <trkpt lat="43.881153" lon="5.672024">
        <ele>581.7</ele>
      </trkpt>
      <trkpt lat="43.881091" lon="5.672153">
        <ele>581.5</ele>
      </trkpt>
      <trkpt lat="43.881018" lon="5.672151">
        <ele>581.4</ele>
      </trkpt>
      <trkpt lat="43.880668" lon="5.672169">
        <ele>577.3</ele>
      </trkpt>
      <trkpt lat="43.880705" lon="5.672094">
        <ele>577.4</ele>
      </trkpt>
      <trkpt lat="43.880724" lon="5.672024">
        <ele>577.5</ele>
      </trkpt>
      <trkpt lat="43.880674" lon="5.671960">
        <ele>577.5</ele>
      </trkpt>
      <trkpt lat="43.880562" lon="5.671842">
        <ele>577.1</ele>
      </trkpt>
      <trkpt lat="43.880422" lon="5.671531">
        <ele>579.7</ele>
      </trkpt>
      <trkpt lat="43.880361" lon="5.671386">
        <ele>580</ele>
      </trkpt>
      <trkpt lat="43.880341" lon="5.671311">
        <ele>580.3</ele>
      </trkpt>
      <trkpt lat="43.880279" lon="5.671241">
        <ele>580.3</ele>
      </trkpt>
      <trkpt lat="43.880287" lon="5.671113">
        <ele>581</ele>
      </trkpt>
      <trkpt lat="43.880272" lon="5.671037">
        <ele>581.2</ele>
      </trkpt>
      <trkpt lat="43.880202" lon="5.670887">
        <ele>580.8</ele>
      </trkpt>
      <trkpt lat="43.880144" lon="5.670775">
        <ele>584.4</ele>
      </trkpt>
      <trkpt lat="43.880063" lon="5.670710">
        <ele>583.9</ele>
      </trkpt>
      <trkpt lat="43.879978" lon="5.670651">
        <ele>578.7</ele>
      </trkpt>
      <trkpt lat="43.879908" lon="5.670624">
        <ele>578.6</ele>
      </trkpt>
      <trkpt lat="43.879870" lon="5.670549">
        <ele>578.7</ele>
      </trkpt>
      <trkpt lat="43.879835" lon="5.670463">
        <ele>578.9</ele>
      </trkpt>
      <trkpt lat="43.879800" lon="5.670410">
        <ele>579</ele>
      </trkpt>
      <trkpt lat="43.879777" lon="5.670313">
        <ele>579.4</ele>
      </trkpt>
      <trkpt lat="43.879765" lon="5.670222">
        <ele>580</ele>
      </trkpt>
      <trkpt lat="43.879723" lon="5.670168">
        <ele>579.8</ele>
      </trkpt>
      <trkpt lat="43.879665" lon="5.670120">
        <ele>579.2</ele>
      </trkpt>
      <trkpt lat="43.879603" lon="5.670099">
        <ele>578.4</ele>
      </trkpt>
      <trkpt lat="43.879568" lon="5.670066">
        <ele>578</ele>
      </trkpt>
      <trkpt lat="43.879552" lon="5.669948">
        <ele>577.9</ele>
      </trkpt>
      <trkpt lat="43.879533" lon="5.669734">
        <ele>577.5</ele>
      </trkpt>
      <trkpt lat="43.879502" lon="5.669551">
        <ele>576.8</ele>
      </trkpt>
      <trkpt lat="43.879487" lon="5.669176">
        <ele>575.5</ele>
      </trkpt>
      <trkpt lat="43.879475" lon="5.668731">
        <ele>570.4</ele>
      </trkpt>
      <trkpt lat="43.879506" lon="5.668602">
        <ele>570</ele>
      </trkpt>
      <trkpt lat="43.879552" lon="5.668420">
        <ele>569.6</ele>
      </trkpt>
      <trkpt lat="43.879587" lon="5.668248">
        <ele>564.4</ele>
      </trkpt>
      <trkpt lat="43.879618" lon="5.667905">
        <ele>563.1</ele>
      </trkpt>
      <trkpt lat="43.879665" lon="5.666209">
        <ele>554.3</ele>
      </trkpt>
      <trkpt lat="43.879674" lon="5.666030">
        <ele>554.1</ele>
      </trkpt>
      <trkpt lat="43.879682" lon="5.665839">
        <ele>554</ele>
      </trkpt>
      <trkpt lat="43.879678" lon="5.665770">
        <ele>550.9</ele>
      </trkpt>
      <trkpt lat="43.879653" lon="5.665729">
        <ele>550.6</ele>
      </trkpt>
      <trkpt lat="43.879676" lon="5.665641">
        <ele>550.4</ele>
      </trkpt>
      <trkpt lat="43.879776" lon="5.665485">
        <ele>550.2</ele>
      </trkpt>
      <trkpt lat="43.879858" lon="5.665311">
        <ele>549.7</ele>
      </trkpt>
      <trkpt lat="43.879883" lon="5.665222">
        <ele>549.6</ele>
      </trkpt>
      <trkpt lat="43.879921" lon="5.665174">
        <ele>549.6</ele>
      </trkpt>
      <trkpt lat="43.879981" lon="5.665021">
        <ele>549.9</ele>
      </trkpt>
      <trkpt lat="43.880043" lon="5.664825">
        <ele>551</ele>
      </trkpt>
      <trkpt lat="43.880082" lon="5.664678">
        <ele>551.2</ele>
      </trkpt>
      <trkpt lat="43.880107" lon="5.664557">
        <ele>551</ele>
      </trkpt>
      <trkpt lat="43.880122" lon="5.664466">
        <ele>550.6</ele>
      </trkpt>
      <trkpt lat="43.880130" lon="5.664383">
        <ele>550.1</ele>
      </trkpt>
      <trkpt lat="43.880128" lon="5.664259">
        <ele>549.1</ele>
      </trkpt>
      <trkpt lat="43.880128" lon="5.664174">
        <ele>548.6</ele>
      </trkpt>
      <trkpt lat="43.880115" lon="5.664144">
        <ele>548.1</ele>
      </trkpt>
      <trkpt lat="43.880099" lon="5.664050">
        <ele>548.5</ele>
      </trkpt>
      <trkpt lat="43.880076" lon="5.663817">
        <ele>549.8</ele>
      </trkpt>
      <trkpt lat="43.880035" lon="5.663624">
        <ele>549.9</ele>
      </trkpt>
      <trkpt lat="43.880001" lon="5.663500">
        <ele>549.4</ele>
      </trkpt>
      <trkpt lat="43.879968" lon="5.663323">
        <ele>547.2</ele>
      </trkpt>
      <trkpt lat="43.879954" lon="5.663179">
        <ele>545.2</ele>
      </trkpt>
      <trkpt lat="43.879948" lon="5.662937">
        <ele>544</ele>
      </trkpt>
      <trkpt lat="43.879962" lon="5.662766">
        <ele>544.4</ele>
      </trkpt>
      <trkpt lat="43.879983" lon="5.662578">
        <ele>546.3</ele>
      </trkpt>
      <trkpt lat="43.880030" lon="5.662390">
        <ele>548.4</ele>
      </trkpt>
      <trkpt lat="43.880063" lon="5.662280">
        <ele>548.5</ele>
      </trkpt>
      <trkpt lat="43.880407" lon="5.661741">
        <ele>548.6</ele>
      </trkpt>
      <trkpt lat="43.880465" lon="5.661652">
        <ele>549</ele>
      </trkpt>
      <trkpt lat="43.880478" lon="5.661532">
        <ele>549.2</ele>
      </trkpt>
      <trkpt lat="43.880457" lon="5.661360">
        <ele>549.4</ele>
      </trkpt>
      <trkpt lat="43.880418" lon="5.661234">
        <ele>549.6</ele>
      </trkpt>
      <trkpt lat="43.880345" lon="5.661167">
        <ele>549.4</ele>
      </trkpt>
      <trkpt lat="43.880142" lon="5.661052">
        <ele>548.7</ele>
      </trkpt>
      <trkpt lat="43.880008" lon="5.660963">
        <ele>548.4</ele>
      </trkpt>
      <trkpt lat="43.879737" lon="5.660655">
        <ele>548.3</ele>
      </trkpt>
      <trkpt lat="43.879602" lon="5.660499">
        <ele>548.4</ele>
      </trkpt>
      <trkpt lat="43.879477" lon="5.660228">
        <ele>549.3</ele>
      </trkpt>
      <trkpt lat="43.879150" lon="5.659520">
        <ele>554</ele>
      </trkpt>
      <trkpt lat="43.879015" lon="5.659193">
        <ele>554.9</ele>
      </trkpt>
      <trkpt lat="43.878912" lon="5.658946">
        <ele>555.9</ele>
      </trkpt>
      <trkpt lat="43.878875" lon="5.658892">
        <ele>556</ele>
      </trkpt>
      <trkpt lat="43.878785" lon="5.658906">
        <ele>556.2</ele>
      </trkpt>
      <trkpt lat="43.878663" lon="5.658922">
        <ele>556.7</ele>
      </trkpt>
      <trkpt lat="43.878570" lon="5.658900">
        <ele>557</ele>
      </trkpt>
      <trkpt lat="43.878415" lon="5.658731">
        <ele>556.6</ele>
      </trkpt>
      <trkpt lat="43.878284" lon="5.658549">
        <ele>559.6</ele>
      </trkpt>
      <trkpt lat="43.878152" lon="5.658420">
        <ele>559.4</ele>
      </trkpt>
      <trkpt lat="43.878031" lon="5.658343">
        <ele>560.6</ele>
      </trkpt>
      <trkpt lat="43.877615" lon="5.658225">
        <ele>556.6</ele>
      </trkpt>
      <trkpt lat="43.877481" lon="5.658198">
        <ele>557.5</ele>
      </trkpt>
      <trkpt lat="43.877371" lon="5.658198">
        <ele>556.3</ele>
      </trkpt>
      <trkpt lat="43.877267" lon="5.658211">
        <ele>555.1</ele>
      </trkpt>
      <trkpt lat="43.877118" lon="5.658208">
        <ele>554</ele>
      </trkpt>
      <trkpt lat="43.876961" lon="5.658166">
        <ele>553.6</ele>
      </trkpt>
      <trkpt lat="43.876745" lon="5.658101">
        <ele>553.7</ele>
      </trkpt>
      <trkpt lat="43.876689" lon="5.658080">
        <ele>553.3</ele>
      </trkpt>
      <trkpt lat="43.876625" lon="5.658093">
        <ele>550.1</ele>
      </trkpt>
      <trkpt lat="43.876550" lon="5.658155">
        <ele>550.9</ele>
      </trkpt>
      <trkpt lat="43.876480" lon="5.658198">
        <ele>550.5</ele>
      </trkpt>
      <trkpt lat="43.876416" lon="5.658235">
        <ele>549.6</ele>
      </trkpt>
      <trkpt lat="43.876319" lon="5.658292">
        <ele>548</ele>
      </trkpt>
      <trkpt lat="43.876281" lon="5.658334">
        <ele>553</ele>
      </trkpt>
      <trkpt lat="43.876250" lon="5.658471">
        <ele>552.6</ele>
      </trkpt>
      <trkpt lat="43.876242" lon="5.658584">
        <ele>552.6</ele>
      </trkpt>
      <trkpt lat="43.876225" lon="5.658686">
        <ele>552.6</ele>
      </trkpt>
      <trkpt lat="43.876217" lon="5.658756">
        <ele>552.6</ele>
      </trkpt>
      <trkpt lat="43.876219" lon="5.658820">
        <ele>552.7</ele>
      </trkpt>
      <trkpt lat="43.876202" lon="5.658855">
        <ele>552.5</ele>
      </trkpt>
      <trkpt lat="43.876169" lon="5.658876">
        <ele>552</ele>
      </trkpt>
      <trkpt lat="43.875995" lon="5.658903">
        <ele>549.6</ele>
      </trkpt>
      <trkpt lat="43.875960" lon="5.658895">
        <ele>549.2</ele>
      </trkpt>
      <trkpt lat="43.875937" lon="5.658855">
        <ele>549.2</ele>
      </trkpt>
      <trkpt lat="43.875912" lon="5.658702">
        <ele>549.2</ele>
      </trkpt>
      <trkpt lat="43.875890" lon="5.658538">
        <ele>547.7</ele>
      </trkpt>
      <trkpt lat="43.875877" lon="5.658377">
        <ele>544.4</ele>
      </trkpt>
      <trkpt lat="43.875875" lon="5.658305">
        <ele>542.6</ele>
      </trkpt>
      <trkpt lat="43.875857" lon="5.658265">
        <ele>542.7</ele>
      </trkpt>
      <trkpt lat="43.875848" lon="5.658222">
        <ele>542.9</ele>
      </trkpt>
      <trkpt lat="43.875830" lon="5.658190">
        <ele>536.7</ele>
      </trkpt>
      <trkpt lat="43.875790" lon="5.658179">
        <ele>536.1</ele>
      </trkpt>
      <trkpt lat="43.875726" lon="5.658184">
        <ele>535.3</ele>
      </trkpt>
      <trkpt lat="43.875660" lon="5.658195">
        <ele>534.2</ele>
      </trkpt>
      <trkpt lat="43.875618" lon="5.658211">
        <ele>533.5</ele>
      </trkpt>
      <trkpt lat="43.875569" lon="5.658286">
        <ele>532.8</ele>
      </trkpt>
      <trkpt lat="43.875517" lon="5.658356">
        <ele>531.8</ele>
      </trkpt>
      <trkpt lat="43.875478" lon="5.658418">
        <ele>530.8</ele>
      </trkpt>
      <trkpt lat="43.875446" lon="5.658450">
        <ele>530.1</ele>
      </trkpt>
      <trkpt lat="43.875409" lon="5.658592">
        <ele>529.3</ele>
      </trkpt>
      <trkpt lat="43.875386" lon="5.658667">
        <ele>528.8</ele>
      </trkpt>
      <trkpt lat="43.875388" lon="5.658731">
        <ele>528.8</ele>
      </trkpt>
      <trkpt lat="43.875380" lon="5.658766">
        <ele>528.7</ele>
      </trkpt>
      <trkpt lat="43.875358" lon="5.658799">
        <ele>528.3</ele>
      </trkpt>
      <trkpt lat="43.875323" lon="5.658812">
        <ele>527.7</ele>
      </trkpt>
      <trkpt lat="43.875289" lon="5.658804">
        <ele>527.2</ele>
      </trkpt>
      <trkpt lat="43.875260" lon="5.658766">
        <ele>526.9</ele>
      </trkpt>
      <trkpt lat="43.875138" lon="5.658635">
        <ele>525.3</ele>
      </trkpt>
      <trkpt lat="43.874987" lon="5.658458">
        <ele>513.9</ele>
      </trkpt>
      <trkpt lat="43.874848" lon="5.658329">
        <ele>513.3</ele>
      </trkpt>
      <trkpt lat="43.874800" lon="5.658275">
        <ele>512</ele>
      </trkpt>
      <trkpt lat="43.874753" lon="5.658227">
        <ele>510.9</ele>
      </trkpt>
      <trkpt lat="43.874715" lon="5.658198">
        <ele>510.1</ele>
      </trkpt>
      <trkpt lat="43.874674" lon="5.658174">
        <ele>509.4</ele>
      </trkpt>
      <trkpt lat="43.874659" lon="5.658241">
        <ele>509.2</ele>
      </trkpt>
      <trkpt lat="43.874641" lon="5.658318">
        <ele>508.9</ele>
      </trkpt>
      <trkpt lat="43.874628" lon="5.658377">
        <ele>508.2</ele>
      </trkpt>
      <trkpt lat="43.874606" lon="5.658428">
        <ele>507.7</ele>
      </trkpt>
      <trkpt lat="43.874574" lon="5.658439">
        <ele>507.2</ele>
      </trkpt>
      <trkpt lat="43.874478" lon="5.657959">
        <ele>506.6</ele>
      </trkpt>
      <trkpt lat="43.874402" lon="5.657642">
        <ele>504.8</ele>
      </trkpt>
      <trkpt lat="43.874359" lon="5.657465">
        <ele>503</ele>
      </trkpt>
      <trkpt lat="43.874259" lon="5.657176">
        <ele>503.7</ele>
      </trkpt>
      <trkpt lat="43.874185" lon="5.657101">
        <ele>503.4</ele>
      </trkpt>
      <trkpt lat="43.874089" lon="5.657004">
        <ele>492</ele>
      </trkpt>
      <trkpt lat="43.874042" lon="5.656924">
        <ele>492</ele>
      </trkpt>
      <trkpt lat="43.873961" lon="5.656773">
        <ele>491.9</ele>
      </trkpt>
      <trkpt lat="43.873891" lon="5.656639">
        <ele>488.1</ele>
      </trkpt>
      <trkpt lat="43.873845" lon="5.656564">
        <ele>486.9</ele>
      </trkpt>
      <trkpt lat="43.873818" lon="5.656435">
        <ele>485.9</ele>
      </trkpt>
      <trkpt lat="43.873729" lon="5.656280">
        <ele>484.1</ele>
      </trkpt>
      <trkpt lat="43.873694" lon="5.656194">
        <ele>483.4</ele>
      </trkpt>
      <trkpt lat="43.873667" lon="5.656060">
        <ele>482.4</ele>
      </trkpt>
      <trkpt lat="43.873613" lon="5.655953">
        <ele>481</ele>
      </trkpt>
      <trkpt lat="43.873574" lon="5.655819">
        <ele>475.9</ele>
      </trkpt>
      <trkpt lat="43.873474" lon="5.655518">
        <ele>475.1</ele>
      </trkpt>
      <trkpt lat="43.873443" lon="5.655368">
        <ele>474.5</ele>
      </trkpt>
      <trkpt lat="43.873400" lon="5.655223">
        <ele>473.3</ele>
      </trkpt>
      <trkpt lat="43.873404" lon="5.655110">
        <ele>471.9</ele>
      </trkpt>
      <trkpt lat="43.873400" lon="5.654976">
        <ele>471.1</ele>
      </trkpt>
      <trkpt lat="43.873331" lon="5.654778">
        <ele>471.2</ele>
      </trkpt>
      <trkpt lat="43.873261" lon="5.654628">
        <ele>472.3</ele>
      </trkpt>
      <trkpt lat="43.873141" lon="5.654515">
        <ele>473</ele>
      </trkpt>
      <trkpt lat="43.872948" lon="5.654402">
        <ele>473.3</ele>
      </trkpt>
      <trkpt lat="43.872828" lon="5.654354">
        <ele>473.4</ele>
      </trkpt>
      <trkpt lat="43.872700" lon="5.654349">
        <ele>473.5</ele>
      </trkpt>
      <trkpt lat="43.872592" lon="5.654300">
        <ele>474.1</ele>
      </trkpt>
      <trkpt lat="43.872453" lon="5.654263">
        <ele>473.3</ele>
      </trkpt>
      <trkpt lat="43.872321" lon="5.654134">
        <ele>475.5</ele>
      </trkpt>
      <trkpt lat="43.872256" lon="5.653973">
        <ele>475.5</ele>
      </trkpt>
      <trkpt lat="43.872174" lon="5.653887">
        <ele>475.4</ele>
      </trkpt>
      <trkpt lat="43.872132" lon="5.653791">
        <ele>475.6</ele>
      </trkpt>
      <trkpt lat="43.872122" lon="5.653735">
        <ele>475.7</ele>
      </trkpt>
      <trkpt lat="43.872048" lon="5.653595">
        <ele>475.9</ele>
      </trkpt>
      <trkpt lat="43.871988" lon="5.653372">
        <ele>476.1</ele>
      </trkpt>
      <trkpt lat="43.871892" lon="5.653018">
        <ele>478.6</ele>
      </trkpt>
      <trkpt lat="43.871845" lon="5.652879">
        <ele>478.7</ele>
      </trkpt>
      <trkpt lat="43.871787" lon="5.652699">
        <ele>478.2</ele>
      </trkpt>
      <trkpt lat="43.871695" lon="5.652474">
        <ele>476.8</ele>
      </trkpt>
      <trkpt lat="43.871466" lon="5.652029">
        <ele>473.9</ele>
      </trkpt>
      <trkpt lat="43.871312" lon="5.651669">
        <ele>473.7</ele>
      </trkpt>
      <trkpt lat="43.871256" lon="5.651538">
        <ele>474.4</ele>
      </trkpt>
      <trkpt lat="43.871230" lon="5.651500">
        <ele>474.2</ele>
      </trkpt>
      <trkpt lat="43.871176" lon="5.651508">
        <ele>473.9</ele>
      </trkpt>
      <trkpt lat="43.871078" lon="5.651527">
        <ele>473.2</ele>
      </trkpt>
      <trkpt lat="43.870958" lon="5.651578">
        <ele>472.1</ele>
      </trkpt>
      <trkpt lat="43.870850" lon="5.651658">
        <ele>470.3</ele>
      </trkpt>
      <trkpt lat="43.870532" lon="5.651932">
        <ele>466.9</ele>
      </trkpt>
      <trkpt lat="43.870388" lon="5.652047">
        <ele>466.2</ele>
      </trkpt>
      <trkpt lat="43.870144" lon="5.652208">
        <ele>465.3</ele>
      </trkpt>
      <trkpt lat="43.869900" lon="5.652407">
        <ele>462.9</ele>
      </trkpt>
      <trkpt lat="43.869791" lon="5.652444">
        <ele>462.7</ele>
      </trkpt>
      <trkpt lat="43.869638" lon="5.652552">
        <ele>460.5</ele>
      </trkpt>
      <trkpt lat="43.869355" lon="5.652675">
        <ele>459.9</ele>
      </trkpt>
      <trkpt lat="43.869123" lon="5.652707">
        <ele>458.7</ele>
      </trkpt>
      <trkpt lat="43.868384" lon="5.652836">
        <ele>457.9</ele>
      </trkpt>
      <trkpt lat="43.868187" lon="5.652713">
        <ele>457.2</ele>
      </trkpt>
      <trkpt lat="43.867940" lon="5.652541">
        <ele>456.6</ele>
      </trkpt>
      <trkpt lat="43.867367" lon="5.652289">
        <ele>455.4</ele>
      </trkpt>
      <trkpt lat="43.867054" lon="5.652182">
        <ele>455</ele>
      </trkpt>
      <trkpt lat="43.866613" lon="5.651967">
        <ele>453.2</ele>
      </trkpt>
      <trkpt lat="43.866389" lon="5.651903">
        <ele>452.7</ele>
      </trkpt>
      <trkpt lat="43.866041" lon="5.651881">
        <ele>451.2</ele>
      </trkpt>
      <trkpt lat="43.865700" lon="5.651817">
        <ele>448.8</ele>
      </trkpt>
      <trkpt lat="43.864823" lon="5.651836">
        <ele>446.3</ele>
      </trkpt>
      <trkpt lat="43.864714" lon="5.651838">
        <ele>445.8</ele>
      </trkpt>
      <trkpt lat="43.864645" lon="5.651865">
        <ele>445.5</ele>
      </trkpt>
      <trkpt lat="43.864618" lon="5.651951">
        <ele>445.2</ele>
      </trkpt>
      <trkpt lat="43.864594" lon="5.652219">
        <ele>444.4</ele>
      </trkpt>
      <trkpt lat="43.864544" lon="5.652525">
        <ele>441.4</ele>
      </trkpt>
      <trkpt lat="43.864490" lon="5.652782">
        <ele>441</ele>
      </trkpt>
      <trkpt lat="43.864436" lon="5.652879">
        <ele>440.8</ele>
      </trkpt>
      <trkpt lat="43.864161" lon="5.653163">
        <ele>439.6</ele>
      </trkpt>
      <trkpt lat="43.864053" lon="5.653458">
        <ele>438.1</ele>
      </trkpt>
      <trkpt lat="43.864049" lon="5.653517">
        <ele>437.9</ele>
      </trkpt>
      <trkpt lat="43.864304" lon="5.653646">
        <ele>437.8</ele>
      </trkpt>
      <trkpt lat="43.864571" lon="5.653689">
        <ele>437.8</ele>
      </trkpt>
      <trkpt lat="43.865691" lon="5.653738">
        <ele>439.8</ele>
      </trkpt>
      <trkpt lat="43.865816" lon="5.653743">
        <ele>439.9</ele>
      </trkpt>
      <trkpt lat="43.866254" lon="5.653791">
        <ele>442.9</ele>
      </trkpt>
      <trkpt lat="43.866424" lon="5.653866">
        <ele>443.2</ele>
      </trkpt>
      <trkpt lat="43.866915" lon="5.654091">
        <ele>445.8</ele>
      </trkpt>
      <trkpt lat="43.867278" lon="5.654392">
        <ele>443.7</ele>
      </trkpt>
      <trkpt lat="43.867661" lon="5.654789">
        <ele>444.9</ele>
      </trkpt>
      <trkpt lat="43.867816" lon="5.655025">
        <ele>443.7</ele>
      </trkpt>
      <trkpt lat="43.868029" lon="5.655406">
        <ele>443.8</ele>
      </trkpt>
      <trkpt lat="43.868234" lon="5.655942">
        <ele>442.9</ele>
      </trkpt>
      <trkpt lat="43.868361" lon="5.656366">
        <ele>444.3</ele>
      </trkpt>
      <trkpt lat="43.868412" lon="5.656548">
        <ele>443.9</ele>
      </trkpt>
      <trkpt lat="43.868470" lon="5.656779">
        <ele>444.8</ele>
      </trkpt>
      <trkpt lat="43.868570" lon="5.657240">
        <ele>446.6</ele>
      </trkpt>
      <trkpt lat="43.868667" lon="5.657696">
        <ele>449.4</ele>
      </trkpt>
      <trkpt lat="43.868752" lon="5.658082">
        <ele>450.3</ele>
      </trkpt>
      <trkpt lat="43.868864" lon="5.658501">
        <ele>452.3</ele>
      </trkpt>
      <trkpt lat="43.869035" lon="5.659265">
        <ele>454.6</ele>
      </trkpt>
      <trkpt lat="43.867647" lon="5.658753">
        <ele>448.1</ele>
      </trkpt>
      <trkpt lat="43.867059" lon="5.658589">
        <ele>444</ele>
      </trkpt>
      <trkpt lat="43.866356" lon="5.658399">
        <ele>439.3</ele>
      </trkpt>
      <trkpt lat="43.866230" lon="5.658404">
        <ele>438.7</ele>
      </trkpt>
      <trkpt lat="43.865952" lon="5.658466">
        <ele>437.5</ele>
      </trkpt>
      <trkpt lat="43.865507" lon="5.658506">
        <ele>435.8</ele>
      </trkpt>
      <trkpt lat="43.865170" lon="5.658469">
        <ele>435.2</ele>
      </trkpt>
      <trkpt lat="43.864453" lon="5.658267">
        <ele>432.8</ele>
      </trkpt>
      <trkpt lat="43.864316" lon="5.658273">
        <ele>432.8</ele>
      </trkpt>
      <trkpt lat="43.864145" lon="5.658214">
        <ele>431.7</ele>
      </trkpt>
      <trkpt lat="43.863780" lon="5.658200">
        <ele>429.9</ele>
      </trkpt>
      <trkpt lat="43.863654" lon="5.658176">
        <ele>429.4</ele>
      </trkpt>
      <trkpt lat="43.863300" lon="5.658222">
        <ele>426.9</ele>
      </trkpt>
      <trkpt lat="43.863194" lon="5.658265">
        <ele>426.5</ele>
      </trkpt>
      <trkpt lat="43.862854" lon="5.658439">
        <ele>425.7</ele>
      </trkpt>
      <trkpt lat="43.862996" lon="5.659716">
        <ele>428.7</ele>
      </trkpt>
      <trkpt lat="43.863060" lon="5.660287">
        <ele>429</ele>
      </trkpt>
      <trkpt lat="43.863130" lon="5.660765">
        <ele>428.8</ele>
      </trkpt>
      <trkpt lat="43.863285" lon="5.661333">
        <ele>429.9</ele>
      </trkpt>
      <trkpt lat="43.863414" lon="5.661709">
        <ele>431.9</ele>
      </trkpt>
      <trkpt lat="43.863689" lon="5.662288">
        <ele>432.2</ele>
      </trkpt>
      <trkpt lat="43.863790" lon="5.662650">
        <ele>433.8</ele>
      </trkpt>
      <trkpt lat="43.863830" lon="5.662913">
        <ele>434.1</ele>
      </trkpt>
      <trkpt lat="43.863826" lon="5.663052">
        <ele>434.3</ele>
      </trkpt>
    </trkseg>
  </trk>
</gpx>