<?xml version="1.0" encoding="UTF-8"?>
<gpx xmlns="http://www.topografix.com/GPX/1/1" version="1.1" creator="MyGPSFiles" xsi:schemaLocation="http://www.topografix.com/GPX/1/1 http://www.topografix.com/GPX/1/1/gpx.xsd" xmlns:xsi="http://www.w3.org/2001/XMLSchema-instance">
  <trk>
    <name>Track from PFMLVTTcircuit10</name>
    <desc>Total: 7.2km</desc>
    <trkseg>
      <trkpt lat="44.062875" lon="5.836994"/>
      <trkpt lat="44.062932" lon="5.837187">
        <ele>720.6</ele>
      </trkpt>
      <trkpt lat="44.063022" lon="5.837245">
        <ele>721.5</ele>
      </trkpt>
      <trkpt lat="44.06305" lon="5.83729">
        <ele>721.8</ele>
      </trkpt>
      <trkpt lat="44.063071" lon="5.83743">
        <ele>721.9</ele>
      </trkpt>
      <trkpt lat="44.063084" lon="5.83758">
        <ele>721.8</ele>
      </trkpt>
      <trkpt lat="44.063085" lon="5.837725">
        <ele>721.3</ele>
      </trkpt>
      <trkpt lat="44.063088" lon="5.837854">
        <ele>720.9</ele>
      </trkpt>
      <trkpt lat="44.063097" lon="5.837988">
        <ele>720.6</ele>
      </trkpt>
      <trkpt lat="44.063111" lon="5.838149">
        <ele>720.2</ele>
      </trkpt>
      <trkpt lat="44.063123" lon="5.838321">
        <ele>719.8</ele>
      </trkpt>
      <trkpt lat="44.063129" lon="5.838478">
        <ele>719.6</ele>
      </trkpt>
      <trkpt lat="44.063131" lon="5.838572">
        <ele>719.5</ele>
      </trkpt>
      <trkpt lat="44.063145" lon="5.838735">
        <ele>719.4</ele>
      </trkpt>
      <trkpt lat="44.063163" lon="5.838894">
        <ele>719.4</ele>
      </trkpt>
      <trkpt lat="44.063175" lon="5.839045">
        <ele>719.3</ele>
      </trkpt>
      <trkpt lat="44.063182" lon="5.839185">
        <ele>719.2</ele>
      </trkpt>
      <trkpt lat="44.063178" lon="5.839312">
        <ele>719.6</ele>
      </trkpt>
      <trkpt lat="44.063165" lon="5.839477">
        <ele>719.9</ele>
      </trkpt>
      <trkpt lat="44.063158" lon="5.83961">
        <ele>720.2</ele>
      </trkpt>
      <trkpt lat="44.063148" lon="5.839746">
        <ele>720.5</ele>
      </trkpt>
      <trkpt lat="44.063138" lon="5.839882">
        <ele>720.8</ele>
      </trkpt>
      <trkpt lat="44.063127" lon="5.840013">
        <ele>721.1</ele>
      </trkpt>
      <trkpt lat="44.063115" lon="5.840148">
        <ele>721.5</ele>
      </trkpt>
      <trkpt lat="44.063103" lon="5.840287">
        <ele>721.9</ele>
      </trkpt>
      <trkpt lat="44.063087" lon="5.840428">
        <ele>722.4</ele>
      </trkpt>
      <trkpt lat="44.063071" lon="5.840582">
        <ele>722.8</ele>
      </trkpt>
      <trkpt lat="44.063053" lon="5.840745">
        <ele>723.3</ele>
      </trkpt>
      <trkpt lat="44.063036" lon="5.84091">
        <ele>723.5</ele>
      </trkpt>
      <trkpt lat="44.063018" lon="5.841069">
        <ele>723.5</ele>
      </trkpt>
      <trkpt lat="44.063" lon="5.841241">
        <ele>723.4</ele>
      </trkpt>
      <trkpt lat="44.062983" lon="5.841419">
        <ele>723.4</ele>
      </trkpt>
      <trkpt lat="44.062968" lon="5.841543">
        <ele>723.3</ele>
      </trkpt>
      <trkpt lat="44.062939" lon="5.84172">
        <ele>723.2</ele>
      </trkpt>
      <trkpt lat="44.062905" lon="5.841893">
        <ele>723.1</ele>
      </trkpt>
      <trkpt lat="44.062873" lon="5.842067">
        <ele>722.9</ele>
      </trkpt>
      <trkpt lat="44.062843" lon="5.842239">
        <ele>722.8</ele>
      </trkpt>
      <trkpt lat="44.062809" lon="5.842403">
        <ele>722.6</ele>
      </trkpt>
      <trkpt lat="44.062775" lon="5.842562">
        <ele>722.4</ele>
      </trkpt>
      <trkpt lat="44.062745" lon="5.842721">
        <ele>722.4</ele>
      </trkpt>
      <trkpt lat="44.062712" lon="5.842875">
        <ele>722.3</ele>
      </trkpt>
      <trkpt lat="44.062682" lon="5.843026">
        <ele>722.3</ele>
      </trkpt>
      <trkpt lat="44.062653" lon="5.843179">
        <ele>722.2</ele>
      </trkpt>
      <trkpt lat="44.062623" lon="5.843336">
        <ele>722.2</ele>
      </trkpt>
      <trkpt lat="44.062589" lon="5.843496">
        <ele>721.6</ele>
      </trkpt>
      <trkpt lat="44.062558" lon="5.843663">
        <ele>720.9</ele>
      </trkpt>
      <trkpt lat="44.062526" lon="5.843836">
        <ele>720.1</ele>
      </trkpt>
      <trkpt lat="44.0625" lon="5.844009">
        <ele>719.4</ele>
      </trkpt>
      <trkpt lat="44.062484" lon="5.84418">
        <ele>718.8</ele>
      </trkpt>
      <trkpt lat="44.062487" lon="5.844349">
        <ele>718.8</ele>
      </trkpt>
      <trkpt lat="44.06251" lon="5.844514">
        <ele>719.1</ele>
      </trkpt>
      <trkpt lat="44.062552" lon="5.844667">
        <ele>719.7</ele>
      </trkpt>
      <trkpt lat="44.062595" lon="5.844798">
        <ele>720.3</ele>
      </trkpt>
      <trkpt lat="44.062651" lon="5.844944">
        <ele>721.2</ele>
      </trkpt>
      <trkpt lat="44.062698" lon="5.845074">
        <ele>721.8</ele>
      </trkpt>
      <trkpt lat="44.06275" lon="5.845213">
        <ele>722.4</ele>
      </trkpt>
      <trkpt lat="44.06281" lon="5.845356">
        <ele>723</ele>
      </trkpt>
      <trkpt lat="44.062864" lon="5.845508">
        <ele>723.6</ele>
      </trkpt>
      <trkpt lat="44.062907" lon="5.845665">
        <ele>724.1</ele>
      </trkpt>
      <trkpt lat="44.062926" lon="5.84585">
        <ele>724.1</ele>
      </trkpt>
      <trkpt lat="44.06293" lon="5.845981">
        <ele>724</ele>
      </trkpt>
      <trkpt lat="44.06293" lon="5.846117">
        <ele>723.8</ele>
      </trkpt>
      <trkpt lat="44.062928" lon="5.846252">
        <ele>723.7</ele>
      </trkpt>
      <trkpt lat="44.062923" lon="5.846383">
        <ele>723.4</ele>
      </trkpt>
      <trkpt lat="44.062918" lon="5.846513">
        <ele>723.2</ele>
      </trkpt>
      <trkpt lat="44.062913" lon="5.846638">
        <ele>723</ele>
      </trkpt>
      <trkpt lat="44.062899" lon="5.846816">
        <ele>722.5</ele>
      </trkpt>
      <trkpt lat="44.06289" lon="5.846993">
        <ele>721.9</ele>
      </trkpt>
      <trkpt lat="44.062891" lon="5.847168">
        <ele>721.5</ele>
      </trkpt>
      <trkpt lat="44.062899" lon="5.847345">
        <ele>721.2</ele>
      </trkpt>
      <trkpt lat="44.062927" lon="5.847516">
        <ele>721.1</ele>
      </trkpt>
      <trkpt lat="44.062964" lon="5.847679">
        <ele>721.1</ele>
      </trkpt>
      <trkpt lat="44.063009" lon="5.847837">
        <ele>721.2</ele>
      </trkpt>
      <trkpt lat="44.063053" lon="5.847995">
        <ele>721.3</ele>
      </trkpt>
      <trkpt lat="44.063096" lon="5.848155">
        <ele>721.5</ele>
      </trkpt>
      <trkpt lat="44.063139" lon="5.848311">
        <ele>721.7</ele>
      </trkpt>
      <trkpt lat="44.063181" lon="5.84846">
        <ele>721.9</ele>
      </trkpt>
      <trkpt lat="44.063218" lon="5.848607">
        <ele>722.2</ele>
      </trkpt>
      <trkpt lat="44.063256" lon="5.848756">
        <ele>722.5</ele>
      </trkpt>
      <trkpt lat="44.063286" lon="5.848906">
        <ele>722.7</ele>
      </trkpt>
      <trkpt lat="44.063309" lon="5.849059">
        <ele>722.8</ele>
      </trkpt>
      <trkpt lat="44.063327" lon="5.849225">
        <ele>722.8</ele>
      </trkpt>
      <trkpt lat="44.063337" lon="5.84936">
        <ele>722.8</ele>
      </trkpt>
      <trkpt lat="44.063348" lon="5.849511">
        <ele>722.8</ele>
      </trkpt>
      <trkpt lat="44.063353" lon="5.84967">
        <ele>722.7</ele>
      </trkpt>
      <trkpt lat="44.06335" lon="5.849831">
        <ele>722.4</ele>
      </trkpt>
      <trkpt lat="44.063348" lon="5.850003">
        <ele>722.2</ele>
      </trkpt>
      <trkpt lat="44.063345" lon="5.850179">
        <ele>722.2</ele>
      </trkpt>
      <trkpt lat="44.063332" lon="5.850356">
        <ele>722</ele>
      </trkpt>
      <trkpt lat="44.0633" lon="5.850527">
        <ele>721.5</ele>
      </trkpt>
      <trkpt lat="44.063237" lon="5.850669">
        <ele>720.4</ele>
      </trkpt>
      <trkpt lat="44.063179" lon="5.850786">
        <ele>719.4</ele>
      </trkpt>
      <trkpt lat="44.063112" lon="5.850935">
        <ele>718.1</ele>
      </trkpt>
      <trkpt lat="44.063084" lon="5.851097">
        <ele>717.4</ele>
      </trkpt>
      <trkpt lat="44.063076" lon="5.851259">
        <ele>717</ele>
      </trkpt>
      <trkpt lat="44.063072" lon="5.851416">
        <ele>716.6</ele>
      </trkpt>
      <trkpt lat="44.063068" lon="5.851569">
        <ele>716.3</ele>
      </trkpt>
      <trkpt lat="44.063062" lon="5.851722">
        <ele>716</ele>
      </trkpt>
      <trkpt lat="44.063057" lon="5.851877">
        <ele>715.7</ele>
      </trkpt>
      <trkpt lat="44.063051" lon="5.852038">
        <ele>715.4</ele>
      </trkpt>
      <trkpt lat="44.063046" lon="5.852209">
        <ele>715</ele>
      </trkpt>
      <trkpt lat="44.06304" lon="5.85239">
        <ele>714.7</ele>
      </trkpt>
      <trkpt lat="44.063033" lon="5.852518">
        <ele>714.3</ele>
      </trkpt>
      <trkpt lat="44.063023" lon="5.85265">
        <ele>713.7</ele>
      </trkpt>
      <trkpt lat="44.063003" lon="5.852778">
        <ele>712.9</ele>
      </trkpt>
      <trkpt lat="44.062943" lon="5.852941">
        <ele>711.4</ele>
      </trkpt>
      <trkpt lat="44.062893" lon="5.853065">
        <ele>710.4</ele>
      </trkpt>
      <trkpt lat="44.062921" lon="5.853186">
        <ele>710.2</ele>
      </trkpt>
      <trkpt lat="44.062954" lon="5.853319">
        <ele>710</ele>
      </trkpt>
      <trkpt lat="44.06293" lon="5.853455">
        <ele>709.3</ele>
      </trkpt>
      <trkpt lat="44.062817" lon="5.853575">
        <ele>707.8</ele>
      </trkpt>
      <trkpt lat="44.062726" lon="5.853668">
        <ele>706.7</ele>
      </trkpt>
      <trkpt lat="44.062638" lon="5.853776">
        <ele>705.7</ele>
      </trkpt>
      <trkpt lat="44.06255" lon="5.853897">
        <ele>704.8</ele>
      </trkpt>
      <trkpt lat="44.062471" lon="5.854023">
        <ele>703.8</ele>
      </trkpt>
      <trkpt lat="44.062432" lon="5.854154">
        <ele>703.2</ele>
      </trkpt>
      <trkpt lat="44.062448" lon="5.854323">
        <ele>702.6</ele>
      </trkpt>
      <trkpt lat="44.062478" lon="5.854459">
        <ele>702.4</ele>
      </trkpt>
      <trkpt lat="44.062488" lon="5.854599">
        <ele>701.8</ele>
      </trkpt>
      <trkpt lat="44.062449" lon="5.854745">
        <ele>700.7</ele>
      </trkpt>
      <trkpt lat="44.062415" lon="5.85487">
        <ele>699.6</ele>
      </trkpt>
      <trkpt lat="44.062378" lon="5.854992">
        <ele>698.6</ele>
      </trkpt>
      <trkpt lat="44.062328" lon="5.855166">
        <ele>696.7</ele>
      </trkpt>
      <trkpt lat="44.06228" lon="5.855341">
        <ele>694.8</ele>
      </trkpt>
      <trkpt lat="44.062242" lon="5.855459">
        <ele>693.4</ele>
      </trkpt>
      <trkpt lat="44.062198" lon="5.855578">
        <ele>692.1</ele>
      </trkpt>
      <trkpt lat="44.062154" lon="5.855701">
        <ele>690.7</ele>
      </trkpt>
      <trkpt lat="44.062109" lon="5.855825">
        <ele>689.3</ele>
      </trkpt>
      <trkpt lat="44.062059" lon="5.855948">
        <ele>688.1</ele>
      </trkpt>
      <trkpt lat="44.062015" lon="5.856061">
        <ele>686.9</ele>
      </trkpt>
      <trkpt lat="44.061969" lon="5.856181">
        <ele>685.7</ele>
      </trkpt>
      <trkpt lat="44.061919" lon="5.856329">
        <ele>684.3</ele>
      </trkpt>
      <trkpt lat="44.061878" lon="5.856456">
        <ele>683.2</ele>
      </trkpt>
      <trkpt lat="44.06183" lon="5.856597">
        <ele>681.9</ele>
      </trkpt>
      <trkpt lat="44.061781" lon="5.856752">
        <ele>680.6</ele>
      </trkpt>
      <trkpt lat="44.061726" lon="5.856916">
        <ele>679.3</ele>
      </trkpt>
      <trkpt lat="44.061669" lon="5.85709">
        <ele>678</ele>
      </trkpt>
      <trkpt lat="44.061621" lon="5.857268">
        <ele>676.7</ele>
      </trkpt>
      <trkpt lat="44.061577" lon="5.857443">
        <ele>675.4</ele>
      </trkpt>
      <trkpt lat="44.061581" lon="5.857593">
        <ele>675</ele>
      </trkpt>
      <trkpt lat="44.061695" lon="5.857691">
        <ele>676.1</ele>
      </trkpt>
      <trkpt lat="44.061772" lon="5.857755">
        <ele>676.7</ele>
      </trkpt>
      <trkpt lat="44.061811" lon="5.857933">
        <ele>676.8</ele>
      </trkpt>
      <trkpt lat="44.061765" lon="5.858047">
        <ele>676.2</ele>
      </trkpt>
      <trkpt lat="44.061693" lon="5.858138">
        <ele>675.5</ele>
      </trkpt>
      <trkpt lat="44.061598" lon="5.858204">
        <ele>674.5</ele>
      </trkpt>
      <trkpt lat="44.061504" lon="5.858285">
        <ele>673.5</ele>
      </trkpt>
      <trkpt lat="44.061425" lon="5.858368">
        <ele>672.7</ele>
      </trkpt>
      <trkpt lat="44.061349" lon="5.858469">
        <ele>671.9</ele>
      </trkpt>
      <trkpt lat="44.061289" lon="5.858579">
        <ele>671.2</ele>
      </trkpt>
      <trkpt lat="44.061225" lon="5.858677">
        <ele>670.6</ele>
      </trkpt>
      <trkpt lat="44.061156" lon="5.858758">
        <ele>669.8</ele>
      </trkpt>
      <trkpt lat="44.061077" lon="5.858859">
        <ele>668.9</ele>
      </trkpt>
      <trkpt lat="44.061" lon="5.858973">
        <ele>668</ele>
      </trkpt>
      <trkpt lat="44.060923" lon="5.85906">
        <ele>667.1</ele>
      </trkpt>
      <trkpt lat="44.060829" lon="5.859143">
        <ele>666</ele>
      </trkpt>
      <trkpt lat="44.060727" lon="5.85922">
        <ele>665</ele>
      </trkpt>
      <trkpt lat="44.060628" lon="5.859307">
        <ele>664</ele>
      </trkpt>
      <trkpt lat="44.060531" lon="5.8594">
        <ele>662.9</ele>
      </trkpt>
      <trkpt lat="44.060432" lon="5.859491">
        <ele>661.9</ele>
      </trkpt>
      <trkpt lat="44.060335" lon="5.85958">
        <ele>660.8</ele>
      </trkpt>
      <trkpt lat="44.060236" lon="5.859671">
        <ele>659.8</ele>
      </trkpt>
      <trkpt lat="44.060144" lon="5.859767">
        <ele>658.8</ele>
      </trkpt>
      <trkpt lat="44.060059" lon="5.859853">
        <ele>657.9</ele>
      </trkpt>
      <trkpt lat="44.059966" lon="5.859919">
        <ele>657</ele>
      </trkpt>
      <trkpt lat="44.059864" lon="5.859961">
        <ele>656.1</ele>
      </trkpt>
      <trkpt lat="44.059758" lon="5.859995">
        <ele>655.3</ele>
      </trkpt>
      <trkpt lat="44.059654" lon="5.860044">
        <ele>654.4</ele>
      </trkpt>
      <trkpt lat="44.059552" lon="5.860116">
        <ele>653.5</ele>
      </trkpt>
      <trkpt lat="44.059451" lon="5.86021">
        <ele>652.6</ele>
      </trkpt>
      <trkpt lat="44.05935" lon="5.8603">
        <ele>651.6</ele>
      </trkpt>
      <trkpt lat="44.059262" lon="5.860343">
        <ele>650.9</ele>
      </trkpt>
      <trkpt lat="44.059166" lon="5.860384">
        <ele>650.1</ele>
      </trkpt>
      <trkpt lat="44.05917" lon="5.860517">
        <ele>649.8</ele>
      </trkpt>
      <trkpt lat="44.059233" lon="5.860629">
        <ele>650</ele>
      </trkpt>
      <trkpt lat="44.059304" lon="5.860711">
        <ele>650.3</ele>
      </trkpt>
      <trkpt lat="44.059381" lon="5.86078">
        <ele>650.7</ele>
      </trkpt>
      <trkpt lat="44.059463" lon="5.860851">
        <ele>651.1</ele>
      </trkpt>
      <trkpt lat="44.059547" lon="5.860926">
        <ele>651.4</ele>
      </trkpt>
      <trkpt lat="44.059631" lon="5.861004">
        <ele>651.6</ele>
      </trkpt>
      <trkpt lat="44.059718" lon="5.861096">
        <ele>651.8</ele>
      </trkpt>
      <trkpt lat="44.059807" lon="5.861189">
        <ele>652</ele>
      </trkpt>
      <trkpt lat="44.059896" lon="5.861276">
        <ele>652.2</ele>
      </trkpt>
      <trkpt lat="44.059988" lon="5.861342">
        <ele>652.5</ele>
      </trkpt>
      <trkpt lat="44.060081" lon="5.861391">
        <ele>653</ele>
      </trkpt>
      <trkpt lat="44.060175" lon="5.861429">
        <ele>653.5</ele>
      </trkpt>
      <trkpt lat="44.06027" lon="5.861452">
        <ele>654</ele>
      </trkpt>
      <trkpt lat="44.060387" lon="5.861467">
        <ele>654.8</ele>
      </trkpt>
      <trkpt lat="44.060501" lon="5.861477">
        <ele>655.5</ele>
      </trkpt>
      <trkpt lat="44.060615" lon="5.861477">
        <ele>656.4</ele>
      </trkpt>
      <trkpt lat="44.060731" lon="5.861487">
        <ele>657.1</ele>
      </trkpt>
      <trkpt lat="44.060845" lon="5.861478">
        <ele>658.1</ele>
      </trkpt>
      <trkpt lat="44.06096" lon="5.861482">
        <ele>659.1</ele>
      </trkpt>
      <trkpt lat="44.061075" lon="5.861505">
        <ele>660</ele>
      </trkpt>
      <trkpt lat="44.061191" lon="5.861517">
        <ele>661</ele>
      </trkpt>
      <trkpt lat="44.061303" lon="5.861524">
        <ele>662</ele>
      </trkpt>
      <trkpt lat="44.061414" lon="5.861532">
        <ele>663</ele>
      </trkpt>
      <trkpt lat="44.061526" lon="5.861536">
        <ele>664</ele>
      </trkpt>
      <trkpt lat="44.061641" lon="5.861545">
        <ele>665.1</ele>
      </trkpt>
      <trkpt lat="44.061754" lon="5.861567">
        <ele>666.4</ele>
      </trkpt>
      <trkpt lat="44.06186" lon="5.861624">
        <ele>667.7</ele>
      </trkpt>
      <trkpt lat="44.061949" lon="5.861719">
        <ele>668.7</ele>
      </trkpt>
      <trkpt lat="44.062022" lon="5.861845">
        <ele>669.7</ele>
      </trkpt>
      <trkpt lat="44.062095" lon="5.861974">
        <ele>670.7</ele>
      </trkpt>
      <trkpt lat="44.062153" lon="5.862076">
        <ele>671.4</ele>
      </trkpt>
      <trkpt lat="44.062209" lon="5.862183">
        <ele>672.2</ele>
      </trkpt>
      <trkpt lat="44.062265" lon="5.862292">
        <ele>672.9</ele>
      </trkpt>
      <trkpt lat="44.062313" lon="5.862398">
        <ele>673.6</ele>
      </trkpt>
      <trkpt lat="44.062371" lon="5.862534">
        <ele>674.2</ele>
      </trkpt>
      <trkpt lat="44.062423" lon="5.86267">
        <ele>673.8</ele>
      </trkpt>
      <trkpt lat="44.062472" lon="5.86281">
        <ele>673.5</ele>
      </trkpt>
      <trkpt lat="44.062526" lon="5.86295">
        <ele>673.1</ele>
      </trkpt>
      <trkpt lat="44.06258" lon="5.863096">
        <ele>672.8</ele>
      </trkpt>
      <trkpt lat="44.062642" lon="5.863234">
        <ele>672.5</ele>
      </trkpt>
      <trkpt lat="44.062725" lon="5.863342">
        <ele>672.7</ele>
      </trkpt>
      <trkpt lat="44.062833" lon="5.8634">
        <ele>673.9</ele>
      </trkpt>
      <trkpt lat="44.06295" lon="5.863426">
        <ele>675.3</ele>
      </trkpt>
      <trkpt lat="44.063067" lon="5.863429">
        <ele>676.7</ele>
      </trkpt>
      <trkpt lat="44.06318" lon="5.863431">
        <ele>678.1</ele>
      </trkpt>
      <trkpt lat="44.063292" lon="5.863442">
        <ele>679.5</ele>
      </trkpt>
      <trkpt lat="44.063403" lon="5.863451">
        <ele>681.3</ele>
      </trkpt>
      <trkpt lat="44.06351" lon="5.863443">
        <ele>683.3</ele>
      </trkpt>
      <trkpt lat="44.063619" lon="5.86344">
        <ele>685.2</ele>
      </trkpt>
      <trkpt lat="44.063733" lon="5.863447">
        <ele>687.3</ele>
      </trkpt>
      <trkpt lat="44.063843" lon="5.863481">
        <ele>689.4</ele>
      </trkpt>
      <trkpt lat="44.063927" lon="5.863589">
        <ele>691.1</ele>
      </trkpt>
      <trkpt lat="44.063958" lon="5.863749">
        <ele>692</ele>
      </trkpt>
      <trkpt lat="44.063946" lon="5.863876">
        <ele>692</ele>
      </trkpt>
      <trkpt lat="44.063903" lon="5.86403">
        <ele>691.4</ele>
      </trkpt>
      <trkpt lat="44.063858" lon="5.86414">
        <ele>690.7</ele>
      </trkpt>
      <trkpt lat="44.063813" lon="5.864251">
        <ele>690</ele>
      </trkpt>
      <trkpt lat="44.06376" lon="5.864399">
        <ele>689.4</ele>
      </trkpt>
      <trkpt lat="44.063709" lon="5.864546">
        <ele>689</ele>
      </trkpt>
      <trkpt lat="44.063661" lon="5.864692">
        <ele>688.7</ele>
      </trkpt>
      <trkpt lat="44.063613" lon="5.864835">
        <ele>688.6</ele>
      </trkpt>
      <trkpt lat="44.063564" lon="5.864978">
        <ele>688.6</ele>
      </trkpt>
      <trkpt lat="44.063521" lon="5.865109">
        <ele>688.5</ele>
      </trkpt>
      <trkpt lat="44.063495" lon="5.865254">
        <ele>688.5</ele>
      </trkpt>
      <trkpt lat="44.063488" lon="5.865413">
        <ele>688.8</ele>
      </trkpt>
      <trkpt lat="44.063505" lon="5.865576">
        <ele>689.3</ele>
      </trkpt>
      <trkpt lat="44.063537" lon="5.865695">
        <ele>689.9</ele>
      </trkpt>
      <trkpt lat="44.063582" lon="5.865804">
        <ele>690.6</ele>
      </trkpt>
      <trkpt lat="44.063635" lon="5.865906">
        <ele>691.3</ele>
      </trkpt>
      <trkpt lat="44.063709" lon="5.866035">
        <ele>692.2</ele>
      </trkpt>
      <trkpt lat="44.063779" lon="5.866154">
        <ele>693</ele>
      </trkpt>
      <trkpt lat="44.06385" lon="5.866266">
        <ele>694</ele>
      </trkpt>
      <trkpt lat="44.063934" lon="5.866378">
        <ele>695.3</ele>
      </trkpt>
      <trkpt lat="44.064005" lon="5.866456">
        <ele>696.3</ele>
      </trkpt>
      <trkpt lat="44.064082" lon="5.866533">
        <ele>697.5</ele>
      </trkpt>
      <trkpt lat="44.064162" lon="5.866614">
        <ele>698.8</ele>
      </trkpt>
      <trkpt lat="44.064242" lon="5.866703">
        <ele>700.1</ele>
      </trkpt>
      <trkpt lat="44.064317" lon="5.866805">
        <ele>701.2</ele>
      </trkpt>
      <trkpt lat="44.064372" lon="5.866925">
        <ele>701.8</ele>
      </trkpt>
      <trkpt lat="44.064414" lon="5.867054">
        <ele>702.3</ele>
      </trkpt>
      <trkpt lat="44.064446" lon="5.867185">
        <ele>702.6</ele>
      </trkpt>
      <trkpt lat="44.064473" lon="5.867315">
        <ele>702.7</ele>
      </trkpt>
      <trkpt lat="44.064502" lon="5.86744">
        <ele>702.9</ele>
      </trkpt>
      <trkpt lat="44.064529" lon="5.867565">
        <ele>703.3</ele>
      </trkpt>
      <trkpt lat="44.064553" lon="5.867693">
        <ele>703.6</ele>
      </trkpt>
      <trkpt lat="44.064567" lon="5.867827">
        <ele>703.8</ele>
      </trkpt>
      <trkpt lat="44.064571" lon="5.867965">
        <ele>703.8</ele>
      </trkpt>
      <trkpt lat="44.064567" lon="5.868103">
        <ele>703.8</ele>
      </trkpt>
      <trkpt lat="44.06456" lon="5.868238">
        <ele>703.7</ele>
      </trkpt>
      <trkpt lat="44.064551" lon="5.868376">
        <ele>703.7</ele>
      </trkpt>
      <trkpt lat="44.064542" lon="5.868513">
        <ele>704</ele>
      </trkpt>
      <trkpt lat="44.064537" lon="5.86865">
        <ele>704.4</ele>
      </trkpt>
      <trkpt lat="44.064535" lon="5.868787">
        <ele>704.8</ele>
      </trkpt>
      <trkpt lat="44.06454" lon="5.868923">
        <ele>705.3</ele>
      </trkpt>
      <trkpt lat="44.064548" lon="5.869066">
        <ele>705.8</ele>
      </trkpt>
      <trkpt lat="44.064564" lon="5.869214">
        <ele>706.4</ele>
      </trkpt>
      <trkpt lat="44.064584" lon="5.869363">
        <ele>706.9</ele>
      </trkpt>
      <trkpt lat="44.064603" lon="5.869511">
        <ele>707.3</ele>
      </trkpt>
      <trkpt lat="44.06462" lon="5.869656">
        <ele>707.8</ele>
      </trkpt>
      <trkpt lat="44.064638" lon="5.869798">
        <ele>708.3</ele>
      </trkpt>
      <trkpt lat="44.064658" lon="5.869937">
        <ele>708.8</ele>
      </trkpt>
      <trkpt lat="44.064677" lon="5.870076">
        <ele>709.2</ele>
      </trkpt>
      <trkpt lat="44.064699" lon="5.87021">
        <ele>709.6</ele>
      </trkpt>
      <trkpt lat="44.06472" lon="5.870345">
        <ele>709.9</ele>
      </trkpt>
      <trkpt lat="44.064746" lon="5.87048">
        <ele>710.3</ele>
      </trkpt>
      <trkpt lat="44.064786" lon="5.870608">
        <ele>710.8</ele>
      </trkpt>
      <trkpt lat="44.064844" lon="5.87072">
        <ele>711.4</ele>
      </trkpt>
      <trkpt lat="44.064917" lon="5.870812">
        <ele>712.2</ele>
      </trkpt>
      <trkpt lat="44.064993" lon="5.870896">
        <ele>713.1</ele>
      </trkpt>
      <trkpt lat="44.065072" lon="5.870975">
        <ele>714.2</ele>
      </trkpt>
      <trkpt lat="44.065138" lon="5.871071">
        <ele>715.1</ele>
      </trkpt>
      <trkpt lat="44.065179" lon="5.871194">
        <ele>715.8</ele>
      </trkpt>
      <trkpt lat="44.065198" lon="5.871321">
        <ele>716.3</ele>
      </trkpt>
      <trkpt lat="44.065201" lon="5.871451">
        <ele>716.5</ele>
      </trkpt>
      <trkpt lat="44.065204" lon="5.871583">
        <ele>716.8</ele>
      </trkpt>
      <trkpt lat="44.065211" lon="5.871712">
        <ele>717.1</ele>
      </trkpt>
      <trkpt lat="44.065223" lon="5.871842">
        <ele>717.7</ele>
      </trkpt>
      <trkpt lat="44.065244" lon="5.871969">
        <ele>718.3</ele>
      </trkpt>
      <trkpt lat="44.065271" lon="5.872091">
        <ele>719</ele>
      </trkpt>
      <trkpt lat="44.0653" lon="5.872211">
        <ele>719.6</ele>
      </trkpt>
      <trkpt lat="44.065327" lon="5.872334">
        <ele>720.4</ele>
      </trkpt>
      <trkpt lat="44.065349" lon="5.872458">
        <ele>721</ele>
      </trkpt>
      <trkpt lat="44.065372" lon="5.872579">
        <ele>721.5</ele>
      </trkpt>
      <trkpt lat="44.065393" lon="5.872702">
        <ele>721.8</ele>
      </trkpt>
      <trkpt lat="44.065408" lon="5.872826">
        <ele>722.1</ele>
      </trkpt>
      <trkpt lat="44.065424" lon="5.872971">
        <ele>722.4</ele>
      </trkpt>
      <trkpt lat="44.065458" lon="5.873103">
        <ele>722.9</ele>
      </trkpt>
      <trkpt lat="44.06549" lon="5.87324">
        <ele>723.4</ele>
      </trkpt>
      <trkpt lat="44.065537" lon="5.87338">
        <ele>724</ele>
      </trkpt>
      <trkpt lat="44.06559" lon="5.873497">
        <ele>724.6</ele>
      </trkpt>
      <trkpt lat="44.065652" lon="5.873616">
        <ele>725.3</ele>
      </trkpt>
      <trkpt lat="44.065724" lon="5.873723">
        <ele>726.1</ele>
      </trkpt>
      <trkpt lat="44.06579" lon="5.873844">
        <ele>726.8</ele>
      </trkpt>
      <trkpt lat="44.065851" lon="5.873976">
        <ele>727.5</ele>
      </trkpt>
      <trkpt lat="44.065904" lon="5.87412">
        <ele>728.2</ele>
      </trkpt>
      <trkpt lat="44.065933" lon="5.874279">
        <ele>728.8</ele>
      </trkpt>
      <trkpt lat="44.065951" lon="5.87443">
        <ele>729.1</ele>
      </trkpt>
      <trkpt lat="44.065967" lon="5.87458">
        <ele>729.4</ele>
      </trkpt>
      <trkpt lat="44.065981" lon="5.874732">
        <ele>729.7</ele>
      </trkpt>
      <trkpt lat="44.065995" lon="5.874884">
        <ele>729.9</ele>
      </trkpt>
      <trkpt lat="44.066029" lon="5.875024">
        <ele>730.1</ele>
      </trkpt>
      <trkpt lat="44.066105" lon="5.875129">
        <ele>730.2</ele>
      </trkpt>
      <trkpt lat="44.066198" lon="5.875204">
        <ele>730.8</ele>
      </trkpt>
      <trkpt lat="44.066299" lon="5.875275">
        <ele>731.5</ele>
      </trkpt>
      <trkpt lat="44.066403" lon="5.875351">
        <ele>732.2</ele>
      </trkpt>
      <trkpt lat="44.066506" lon="5.875427">
        <ele>733</ele>
      </trkpt>
      <trkpt lat="44.06661" lon="5.875496">
        <ele>733.7</ele>
      </trkpt>
      <trkpt lat="44.066712" lon="5.875563">
        <ele>734.6</ele>
      </trkpt>
      <trkpt lat="44.066811" lon="5.875636">
        <ele>735.7</ele>
      </trkpt>
      <trkpt lat="44.066901" lon="5.875707">
        <ele>736.5</ele>
      </trkpt>
      <trkpt lat="44.066992" lon="5.875752">
        <ele>737.6</ele>
      </trkpt>
      <trkpt lat="44.067082" lon="5.875715">
        <ele>739.2</ele>
      </trkpt>
      <trkpt lat="44.067069" lon="5.875578">
        <ele>739.9</ele>
      </trkpt>
      <trkpt lat="44.067" lon="5.875489">
        <ele>739.4</ele>
      </trkpt>
      <trkpt lat="44.066933" lon="5.875404">
        <ele>738.9</ele>
      </trkpt>
      <trkpt lat="44.066882" lon="5.875266">
        <ele>739.1</ele>
      </trkpt>
      <trkpt lat="44.066856" lon="5.875137">
        <ele>739.6</ele>
      </trkpt>
      <trkpt lat="44.066845" lon="5.874992">
        <ele>740.4</ele>
      </trkpt>
      <trkpt lat="44.066847" lon="5.874837">
        <ele>740.9</ele>
      </trkpt>
      <trkpt lat="44.066856" lon="5.874681">
        <ele>741.4</ele>
      </trkpt>
      <trkpt lat="44.066866" lon="5.874542">
        <ele>741.9</ele>
      </trkpt>
      <trkpt lat="44.066883" lon="5.874415">
        <ele>742.4</ele>
      </trkpt>
      <trkpt lat="44.066895" lon="5.874281">
        <ele>742.9</ele>
      </trkpt>
      <trkpt lat="44.066889" lon="5.874156">
        <ele>743.1</ele>
      </trkpt>
      <trkpt lat="44.066913" lon="5.873986">
        <ele>743</ele>
      </trkpt>
      <trkpt lat="44.066936" lon="5.873848">
        <ele>742.9</ele>
      </trkpt>
      <trkpt lat="44.066953" lon="5.873705">
        <ele>742.8</ele>
      </trkpt>
      <trkpt lat="44.066979" lon="5.873553">
        <ele>742.8</ele>
      </trkpt>
      <trkpt lat="44.067001" lon="5.873401">
        <ele>742.7</ele>
      </trkpt>
      <trkpt lat="44.067018" lon="5.873255">
        <ele>742.4</ele>
      </trkpt>
      <trkpt lat="44.067032" lon="5.873112">
        <ele>741.9</ele>
      </trkpt>
      <trkpt lat="44.067045" lon="5.872965">
        <ele>741.3</ele>
      </trkpt>
      <trkpt lat="44.067065" lon="5.872812">
        <ele>740.8</ele>
      </trkpt>
      <trkpt lat="44.067096" lon="5.87265">
        <ele>740.3</ele>
      </trkpt>
      <trkpt lat="44.067149" lon="5.872487">
        <ele>740.2</ele>
      </trkpt>
      <trkpt lat="44.067212" lon="5.872329">
        <ele>740.6</ele>
      </trkpt>
      <trkpt lat="44.067275" lon="5.872172">
        <ele>740.9</ele>
      </trkpt>
      <trkpt lat="44.067346" lon="5.872014">
        <ele>741.5</ele>
      </trkpt>
      <trkpt lat="44.067406" lon="5.871856">
        <ele>742</ele>
      </trkpt>
      <trkpt lat="44.067451" lon="5.871697">
        <ele>742.4</ele>
      </trkpt>
      <trkpt lat="44.067492" lon="5.871573">
        <ele>743</ele>
      </trkpt>
      <trkpt lat="44.06755" lon="5.871429">
        <ele>744.2</ele>
      </trkpt>
      <trkpt lat="44.067578" lon="5.871267">
        <ele>744.8</ele>
      </trkpt>
      <trkpt lat="44.067608" lon="5.871114">
        <ele>745.3</ele>
      </trkpt>
      <trkpt lat="44.067632" lon="5.870985">
        <ele>745.8</ele>
      </trkpt>
      <trkpt lat="44.067633" lon="5.87083">
        <ele>745.9</ele>
      </trkpt>
      <trkpt lat="44.067597" lon="5.870653">
        <ele>745.6</ele>
      </trkpt>
      <trkpt lat="44.067562" lon="5.870498">
        <ele>745.3</ele>
      </trkpt>
      <trkpt lat="44.067547" lon="5.8704">
        <ele>745.2</ele>
      </trkpt>
      <trkpt lat="44.067522" lon="5.870299">
        <ele>745</ele>
      </trkpt>
      <trkpt lat="44.067513" lon="5.870142">
        <ele>745</ele>
      </trkpt>
      <trkpt lat="44.067495" lon="5.86997">
        <ele>745.1</ele>
      </trkpt>
      <trkpt lat="44.067482" lon="5.869818">
        <ele>745.6</ele>
      </trkpt>
      <trkpt lat="44.067479" lon="5.869683">
        <ele>746.3</ele>
      </trkpt>
      <trkpt lat="44.067461" lon="5.869529">
        <ele>746.7</ele>
      </trkpt>
      <trkpt lat="44.067448" lon="5.869362">
        <ele>747.2</ele>
      </trkpt>
      <trkpt lat="44.067431" lon="5.869201">
        <ele>747.7</ele>
      </trkpt>
      <trkpt lat="44.067422" lon="5.86905">
        <ele>747.9</ele>
      </trkpt>
      <trkpt lat="44.067415" lon="5.868948">
        <ele>747.9</ele>
      </trkpt>
      <trkpt lat="44.067402" lon="5.868878">
        <ele>747.8</ele>
      </trkpt>
      <trkpt lat="44.0674" lon="5.868775">
        <ele>747.9</ele>
      </trkpt>
      <trkpt lat="44.067385" lon="5.868642">
        <ele>747.9</ele>
      </trkpt>
      <trkpt lat="44.067388" lon="5.86847">
        <ele>748.2</ele>
      </trkpt>
      <trkpt lat="44.067363" lon="5.868304">
        <ele>748</ele>
      </trkpt>
      <trkpt lat="44.067362" lon="5.86818">
        <ele>747.8</ele>
      </trkpt>
      <trkpt lat="44.06737" lon="5.868025">
        <ele>747.6</ele>
      </trkpt>
      <trkpt lat="44.067391" lon="5.867866">
        <ele>747.7</ele>
      </trkpt>
      <trkpt lat="44.067419" lon="5.867695">
        <ele>747.9</ele>
      </trkpt>
      <trkpt lat="44.067443" lon="5.867512">
        <ele>748.1</ele>
      </trkpt>
      <trkpt lat="44.067452" lon="5.867338">
        <ele>747.8</ele>
      </trkpt>
      <trkpt lat="44.067453" lon="5.867235">
        <ele>747.6</ele>
      </trkpt>
      <trkpt lat="44.06743" lon="5.867111">
        <ele>746.9</ele>
      </trkpt>
      <trkpt lat="44.067417" lon="5.866971">
        <ele>746.3</ele>
      </trkpt>
      <trkpt lat="44.067385" lon="5.866806">
        <ele>745.3</ele>
      </trkpt>
      <trkpt lat="44.067359" lon="5.866631">
        <ele>744.5</ele>
      </trkpt>
      <trkpt lat="44.067338" lon="5.866479">
        <ele>744.4</ele>
      </trkpt>
      <trkpt lat="44.067302" lon="5.866324">
        <ele>743.9</ele>
      </trkpt>
      <trkpt lat="44.06728" lon="5.866202">
        <ele>743.8</ele>
      </trkpt>
      <trkpt lat="44.067264" lon="5.866108">
        <ele>743.6</ele>
      </trkpt>
      <trkpt lat="44.067262" lon="5.865955">
        <ele>743.8</ele>
      </trkpt>
      <trkpt lat="44.06725" lon="5.865796">
        <ele>744</ele>
      </trkpt>
      <trkpt lat="44.067247" lon="5.865629">
        <ele>744.4</ele>
      </trkpt>
      <trkpt lat="44.067254" lon="5.865476">
        <ele>744.9</ele>
      </trkpt>
      <trkpt lat="44.067248" lon="5.865288">
        <ele>745.3</ele>
      </trkpt>
      <trkpt lat="44.06725" lon="5.865131">
        <ele>745.7</ele>
      </trkpt>
      <trkpt lat="44.067261" lon="5.865014">
        <ele>746.3</ele>
      </trkpt>
      <trkpt lat="44.067281" lon="5.864861">
        <ele>747</ele>
      </trkpt>
      <trkpt lat="44.067279" lon="5.864708">
        <ele>747.4</ele>
      </trkpt>
      <trkpt lat="44.067269" lon="5.864557">
        <ele>747.7</ele>
      </trkpt>
      <trkpt lat="44.067268" lon="5.864442">
        <ele>748</ele>
      </trkpt>
      <trkpt lat="44.067262" lon="5.86425">
        <ele>748.5</ele>
      </trkpt>
      <trkpt lat="44.067243" lon="5.864048">
        <ele>748.9</ele>
      </trkpt>
      <trkpt lat="44.06721" lon="5.863905">
        <ele>748.9</ele>
      </trkpt>
      <trkpt lat="44.067194" lon="5.863739">
        <ele>749.4</ele>
      </trkpt>
      <trkpt lat="44.067179" lon="5.863583">
        <ele>749.9</ele>
      </trkpt>
      <trkpt lat="44.067163" lon="5.863435">
        <ele>750.4</ele>
      </trkpt>
      <trkpt lat="44.067152" lon="5.863292">
        <ele>750.6</ele>
      </trkpt>
      <trkpt lat="44.067155" lon="5.863156">
        <ele>750.8</ele>
      </trkpt>
      <trkpt lat="44.067155" lon="5.863021">
        <ele>750.9</ele>
      </trkpt>
      <trkpt lat="44.067152" lon="5.862888">
        <ele>751</ele>
      </trkpt>
      <trkpt lat="44.067146" lon="5.862748">
        <ele>751.1</ele>
      </trkpt>
      <trkpt lat="44.067137" lon="5.862606">
        <ele>751.1</ele>
      </trkpt>
      <trkpt lat="44.067139" lon="5.862469">
        <ele>751.3</ele>
      </trkpt>
      <trkpt lat="44.067141" lon="5.862331">
        <ele>751.5</ele>
      </trkpt>
      <trkpt lat="44.067146" lon="5.862163">
        <ele>751.8</ele>
      </trkpt>
      <trkpt lat="44.067152" lon="5.861993">
        <ele>752</ele>
      </trkpt>
      <trkpt lat="44.067158" lon="5.861827">
        <ele>752.3</ele>
      </trkpt>
      <trkpt lat="44.067171" lon="5.861659">
        <ele>752.6</ele>
      </trkpt>
      <trkpt lat="44.067192" lon="5.861493">
        <ele>752.3</ele>
      </trkpt>
      <trkpt lat="44.067213" lon="5.861323">
        <ele>752</ele>
      </trkpt>
      <trkpt lat="44.067229" lon="5.861148">
        <ele>751.6</ele>
      </trkpt>
      <trkpt lat="44.06726" lon="5.860969">
        <ele>751.3</ele>
      </trkpt>
      <trkpt lat="44.067291" lon="5.86085">
        <ele>751.3</ele>
      </trkpt>
      <trkpt lat="44.067322" lon="5.860731">
        <ele>751.4</ele>
      </trkpt>
      <trkpt lat="44.067349" lon="5.86061">
        <ele>751.3</ele>
      </trkpt>
      <trkpt lat="44.067375" lon="5.86049">
        <ele>751.3</ele>
      </trkpt>
      <trkpt lat="44.067404" lon="5.86037">
        <ele>751.4</ele>
      </trkpt>
      <trkpt lat="44.067434" lon="5.860248">
        <ele>751.6</ele>
      </trkpt>
      <trkpt lat="44.067449" lon="5.860118">
        <ele>751.5</ele>
      </trkpt>
      <trkpt lat="44.06744" lon="5.859988">
        <ele>751</ele>
      </trkpt>
      <trkpt lat="44.067407" lon="5.85981">
        <ele>750.2</ele>
      </trkpt>
      <trkpt lat="44.067378" lon="5.859639">
        <ele>749.5</ele>
      </trkpt>
      <trkpt lat="44.06736" lon="5.85947">
        <ele>749</ele>
      </trkpt>
      <trkpt lat="44.067346" lon="5.859293">
        <ele>748.6</ele>
      </trkpt>
      <trkpt lat="44.067337" lon="5.859159">
        <ele>748.3</ele>
      </trkpt>
      <trkpt lat="44.067331" lon="5.859008">
        <ele>748.2</ele>
      </trkpt>
      <trkpt lat="44.067321" lon="5.85884">
        <ele>748</ele>
      </trkpt>
      <trkpt lat="44.067298" lon="5.858672">
        <ele>747.6</ele>
      </trkpt>
      <trkpt lat="44.067252" lon="5.85852">
        <ele>746.8</ele>
      </trkpt>
      <trkpt lat="44.067201" lon="5.858372">
        <ele>746</ele>
      </trkpt>
      <trkpt lat="44.067164" lon="5.858214">
        <ele>745.3</ele>
      </trkpt>
      <trkpt lat="44.067131" lon="5.858034">
        <ele>744.6</ele>
      </trkpt>
      <trkpt lat="44.067106" lon="5.857838">
        <ele>744.1</ele>
      </trkpt>
      <trkpt lat="44.067102" lon="5.857635">
        <ele>743.9</ele>
      </trkpt>
      <trkpt lat="44.06712" lon="5.857438">
        <ele>744</ele>
      </trkpt>
      <trkpt lat="44.067155" lon="5.857256">
        <ele>744.4</ele>
      </trkpt>
      <trkpt lat="44.067189" lon="5.85709">
        <ele>744.8</ele>
      </trkpt>
      <trkpt lat="44.067205" lon="5.856933">
        <ele>744.9</ele>
      </trkpt>
      <trkpt lat="44.067204" lon="5.8568">
        <ele>744.8</ele>
      </trkpt>
      <trkpt lat="44.067194" lon="5.856624">
        <ele>744.6</ele>
      </trkpt>
      <trkpt lat="44.067193" lon="5.856454">
        <ele>745.1</ele>
      </trkpt>
      <trkpt lat="44.067175" lon="5.856293">
        <ele>745.1</ele>
      </trkpt>
      <trkpt lat="44.06713" lon="5.856153">
        <ele>744.8</ele>
      </trkpt>
      <trkpt lat="44.067068" lon="5.856042">
        <ele>744.2</ele>
      </trkpt>
      <trkpt lat="44.067003" lon="5.855952">
        <ele>743.5</ele>
      </trkpt>
      <trkpt lat="44.066937" lon="5.855829">
        <ele>743</ele>
      </trkpt>
      <trkpt lat="44.0669" lon="5.855688">
        <ele>743.3</ele>
      </trkpt>
      <trkpt lat="44.066869" lon="5.855537">
        <ele>743.6</ele>
      </trkpt>
      <trkpt lat="44.066849" lon="5.855375">
        <ele>744.3</ele>
      </trkpt>
      <trkpt lat="44.066834" lon="5.855214">
        <ele>745</ele>
      </trkpt>
      <trkpt lat="44.066834" lon="5.855062">
        <ele>745.9</ele>
      </trkpt>
      <trkpt lat="44.066829" lon="5.854919">
        <ele>746.5</ele>
      </trkpt>
      <trkpt lat="44.066807" lon="5.854761">
        <ele>746.7</ele>
      </trkpt>
      <trkpt lat="44.066785" lon="5.854597">
        <ele>747</ele>
      </trkpt>
      <trkpt lat="44.066772" lon="5.854431">
        <ele>747.5</ele>
      </trkpt>
      <trkpt lat="44.06676" lon="5.854301">
        <ele>747.8</ele>
      </trkpt>
      <trkpt lat="44.066749" lon="5.854167">
        <ele>748.1</ele>
      </trkpt>
      <trkpt lat="44.066735" lon="5.854024">
        <ele>748.8</ele>
      </trkpt>
      <trkpt lat="44.066722" lon="5.853879">
        <ele>749.4</ele>
      </trkpt>
      <trkpt lat="44.066708" lon="5.853735">
        <ele>750.1</ele>
      </trkpt>
      <trkpt lat="44.066688" lon="5.853592">
        <ele>750.7</ele>
      </trkpt>
      <trkpt lat="44.066695" lon="5.85346">
        <ele>751.7</ele>
      </trkpt>
      <trkpt lat="44.066663" lon="5.853359">
        <ele>751.8</ele>
      </trkpt>
      <trkpt lat="44.06661" lon="5.853258">
        <ele>751.7</ele>
      </trkpt>
      <trkpt lat="44.066535" lon="5.853101">
        <ele>751.6</ele>
      </trkpt>
      <trkpt lat="44.066442" lon="5.85298">
        <ele>751.1</ele>
      </trkpt>
      <trkpt lat="44.066346" lon="5.852831">
        <ele>750.6</ele>
      </trkpt>
      <trkpt lat="44.066249" lon="5.852688">
        <ele>750.1</ele>
      </trkpt>
      <trkpt lat="44.066174" lon="5.852546">
        <ele>749.9</ele>
      </trkpt>
      <trkpt lat="44.066097" lon="5.852363">
        <ele>749.9</ele>
      </trkpt>
      <trkpt lat="44.066051" lon="5.852214">
        <ele>750</ele>
      </trkpt>
      <trkpt lat="44.065953" lon="5.852077">
        <ele>749.5</ele>
      </trkpt>
      <trkpt lat="44.065871" lon="5.851974">
        <ele>749</ele>
      </trkpt>
      <trkpt lat="44.065787" lon="5.851855">
        <ele>748.5</ele>
      </trkpt>
      <trkpt lat="44.065707" lon="5.851721">
        <ele>748.1</ele>
      </trkpt>
      <trkpt lat="44.06563" lon="5.851582">
        <ele>747.7</ele>
      </trkpt>
      <trkpt lat="44.065553" lon="5.851443">
        <ele>747.1</ele>
      </trkpt>
      <trkpt lat="44.065477" lon="5.851303">
        <ele>746.6</ele>
      </trkpt>
      <trkpt lat="44.065404" lon="5.851166">
        <ele>746.2</ele>
      </trkpt>
      <trkpt lat="44.065336" lon="5.851033">
        <ele>745.8</ele>
      </trkpt>
      <trkpt lat="44.065275" lon="5.850902">
        <ele>745.4</ele>
      </trkpt>
      <trkpt lat="44.065222" lon="5.850774">
        <ele>745.2</ele>
      </trkpt>
      <trkpt lat="44.065177" lon="5.850648">
        <ele>745.3</ele>
      </trkpt>
      <trkpt lat="44.06514" lon="5.850527">
        <ele>745.3</ele>
      </trkpt>
      <trkpt lat="44.06511" lon="5.850409">
        <ele>745.5</ele>
      </trkpt>
      <trkpt lat="44.065082" lon="5.850282">
        <ele>745.7</ele>
      </trkpt>
      <trkpt lat="44.065052" lon="5.850146">
        <ele>745.9</ele>
      </trkpt>
      <trkpt lat="44.065019" lon="5.850016">
        <ele>746.2</ele>
      </trkpt>
      <trkpt lat="44.064985" lon="5.849886">
        <ele>746</ele>
      </trkpt>
      <trkpt lat="44.064945" lon="5.849763">
        <ele>745.5</ele>
      </trkpt>
      <trkpt lat="44.064905" lon="5.849637">
        <ele>745.1</ele>
      </trkpt>
      <trkpt lat="44.064867" lon="5.849507">
        <ele>744.8</ele>
      </trkpt>
      <trkpt lat="44.064832" lon="5.849374">
        <ele>744.5</ele>
      </trkpt>
      <trkpt lat="44.064797" lon="5.849241">
        <ele>744.2</ele>
      </trkpt>
      <trkpt lat="44.064768" lon="5.849105">
        <ele>743.8</ele>
      </trkpt>
      <trkpt lat="44.064755" lon="5.848965">
        <ele>743.3</ele>
      </trkpt>
      <trkpt lat="44.064757" lon="5.848822">
        <ele>743</ele>
      </trkpt>
      <trkpt lat="44.064769" lon="5.848678">
        <ele>742.8</ele>
      </trkpt>
      <trkpt lat="44.06478" lon="5.848522">
        <ele>742.6</ele>
      </trkpt>
      <trkpt lat="44.064764" lon="5.848348">
        <ele>741.9</ele>
      </trkpt>
      <trkpt lat="44.064736" lon="5.848169">
        <ele>741.8</ele>
      </trkpt>
      <trkpt lat="44.0647" lon="5.848002">
        <ele>741.6</ele>
      </trkpt>
      <trkpt lat="44.064659" lon="5.847848">
        <ele>741.2</ele>
      </trkpt>
      <trkpt lat="44.064619" lon="5.8477">
        <ele>740.8</ele>
      </trkpt>
      <trkpt lat="44.064578" lon="5.847556">
        <ele>740.4</ele>
      </trkpt>
      <trkpt lat="44.064536" lon="5.847414">
        <ele>740</ele>
      </trkpt>
      <trkpt lat="44.064491" lon="5.847274">
        <ele>739.7</ele>
      </trkpt>
      <trkpt lat="44.064443" lon="5.847138">
        <ele>739.3</ele>
      </trkpt>
      <trkpt lat="44.06439" lon="5.847008">
        <ele>739</ele>
      </trkpt>
      <trkpt lat="44.064331" lon="5.846881">
        <ele>738.5</ele>
      </trkpt>
      <trkpt lat="44.064271" lon="5.846743">
        <ele>738.1</ele>
      </trkpt>
      <trkpt lat="44.064205" lon="5.846588">
        <ele>737.8</ele>
      </trkpt>
      <trkpt lat="44.064136" lon="5.846437">
        <ele>737.5</ele>
      </trkpt>
      <trkpt lat="44.06411" lon="5.846358">
        <ele>737.5</ele>
      </trkpt>
      <trkpt lat="44.064066" lon="5.846204">
        <ele>737.5</ele>
      </trkpt>
      <trkpt lat="44.06402" lon="5.846047">
        <ele>737.5</ele>
      </trkpt>
      <trkpt lat="44.06398" lon="5.845884">
        <ele>737.6</ele>
      </trkpt>
      <trkpt lat="44.063943" lon="5.845722">
        <ele>737.4</ele>
      </trkpt>
      <trkpt lat="44.063908" lon="5.845563">
        <ele>737</ele>
      </trkpt>
      <trkpt lat="44.06388" lon="5.845405">
        <ele>736.7</ele>
      </trkpt>
      <trkpt lat="44.063856" lon="5.845252">
        <ele>736.5</ele>
      </trkpt>
      <trkpt lat="44.063838" lon="5.845104">
        <ele>736.4</ele>
      </trkpt>
      <trkpt lat="44.063823" lon="5.844963">
        <ele>736.3</ele>
      </trkpt>
      <trkpt lat="44.063805" lon="5.844824">
        <ele>736.1</ele>
      </trkpt>
      <trkpt lat="44.063782" lon="5.844691">
        <ele>735.9</ele>
      </trkpt>
      <trkpt lat="44.06376" lon="5.84456">
        <ele>735.6</ele>
      </trkpt>
      <trkpt lat="44.06374" lon="5.844423">
        <ele>735.4</ele>
      </trkpt>
      <trkpt lat="44.063721" lon="5.844274">
        <ele>735.1</ele>
      </trkpt>
      <trkpt lat="44.063704" lon="5.844118">
        <ele>734.9</ele>
      </trkpt>
      <trkpt lat="44.063688" lon="5.843963">
        <ele>734.6</ele>
      </trkpt>
      <trkpt lat="44.063671" lon="5.843805">
        <ele>734.4</ele>
      </trkpt>
      <trkpt lat="44.063651" lon="5.84365">
        <ele>734.1</ele>
      </trkpt>
      <trkpt lat="44.063623" lon="5.843507">
        <ele>733.6</ele>
      </trkpt>
      <trkpt lat="44.063594" lon="5.843371">
        <ele>733.1</ele>
      </trkpt>
      <trkpt lat="44.063567" lon="5.843231">
        <ele>732.4</ele>
      </trkpt>
      <trkpt lat="44.063546" lon="5.843081">
        <ele>731.7</ele>
      </trkpt>
      <trkpt lat="44.063536" lon="5.843001">
        <ele>731.4</ele>
      </trkpt>
      <trkpt lat="44.063518" lon="5.842837">
        <ele>730.7</ele>
      </trkpt>
      <trkpt lat="44.063501" lon="5.842669">
        <ele>730</ele>
      </trkpt>
      <trkpt lat="44.063488" lon="5.842494">
        <ele>729.4</ele>
      </trkpt>
      <trkpt lat="44.063475" lon="5.842296">
        <ele>729</ele>
      </trkpt>
      <trkpt lat="44.063459" lon="5.842076">
        <ele>728.5</ele>
      </trkpt>
      <trkpt lat="44.063443" lon="5.841855">
        <ele>727.9</ele>
      </trkpt>
      <trkpt lat="44.063424" lon="5.841637">
        <ele>727.4</ele>
      </trkpt>
      <trkpt lat="44.063405" lon="5.84142">
        <ele>727</ele>
      </trkpt>
      <trkpt lat="44.063388" lon="5.841202">
        <ele>726.8</ele>
      </trkpt>
      <trkpt lat="44.06337" lon="5.84099">
        <ele>726.5</ele>
      </trkpt>
      <trkpt lat="44.063354" lon="5.840785">
        <ele>726.1</ele>
      </trkpt>
      <trkpt lat="44.063336" lon="5.840591">
        <ele>725.2</ele>
      </trkpt>
      <trkpt lat="44.06332" lon="5.840411">
        <ele>724.3</ele>
      </trkpt>
      <trkpt lat="44.063304" lon="5.840243">
        <ele>723.6</ele>
      </trkpt>
      <trkpt lat="44.063287" lon="5.840077">
        <ele>722.8</ele>
      </trkpt>
      <trkpt lat="44.063266" lon="5.839909">
        <ele>722.1</ele>
      </trkpt>
      <trkpt lat="44.063247" lon="5.839724">
        <ele>721.4</ele>
      </trkpt>
      <trkpt lat="44.063229" lon="5.839515">
        <ele>720.7</ele>
      </trkpt>
      <trkpt lat="44.063219" lon="5.839307">
        <ele>720</ele>
      </trkpt>
      <trkpt lat="44.063203" lon="5.839106">
        <ele>719.5</ele>
      </trkpt>
      <trkpt lat="44.06318" lon="5.838915">
        <ele>719.5</ele>
      </trkpt>
      <trkpt lat="44.063159" lon="5.838734">
        <ele>719.6</ele>
      </trkpt>
      <trkpt lat="44.06314" lon="5.838563">
        <ele>719.6</ele>
      </trkpt>
      <trkpt lat="44.063123" lon="5.838404">
        <ele>719.7</ele>
      </trkpt>
      <trkpt lat="44.063116" lon="5.838239">
        <ele>720</ele>
      </trkpt>
      <trkpt lat="44.063106" lon="5.838089">
        <ele>720.3</ele>
      </trkpt>
      <trkpt lat="44.063095" lon="5.837937">
        <ele>720.7</ele>
      </trkpt>
      <trkpt lat="44.063086" lon="5.837746">
        <ele>721.2</ele>
      </trkpt>
      <trkpt lat="44.063071" lon="5.837469">
        <ele>721.9</ele>
      </trkpt>
      <trkpt lat="44.063039" lon="5.837267">
        <ele>721.7</ele>
      </trkpt>
    </trkseg>
  </trk>
</gpx>
