<?xml version="1.0" ?>
<gpx xmlns="http://www.topografix.com/GPX/1/1" xmlns:xsi="http://www.w3.org/2001/XMLSchema-instance" xsi:schemaLocation="http://www.topografix.com/GPX/1/1 http://www.topografix.com/GPX/1/1/gpx.xsd" version="1.1" creator="EditGPX">
  <trk>
    <name>NewTrack</name>
    <trkseg>
      <trkpt lat="43.892239" lon="5.113945">
        <ele>116.9</ele>
      </trkpt>
      <trkpt lat="43.892210" lon="5.114023">
        <ele>117</ele>
      </trkpt>
      <trkpt lat="43.892000" lon="5.113802">
        <ele>116.4</ele>
      </trkpt>
      <trkpt lat="43.891854" lon="5.113572">
        <ele>115.9</ele>
      </trkpt>
      <trkpt lat="43.891715" lon="5.113315">
        <ele>114.4</ele>
      </trkpt>
      <trkpt lat="43.891425" lon="5.113320">
        <ele>115.4</ele>
      </trkpt>
      <trkpt lat="43.890930" lon="5.113441">
        <ele>118.7</ele>
      </trkpt>
      <trkpt lat="43.890600" lon="5.113646">
        <ele>123.5</ele>
      </trkpt>
      <trkpt lat="43.890439" lon="5.113481">
        <ele>124</ele>
      </trkpt>
      <trkpt lat="43.890280" lon="5.113346">
        <ele>124.7</ele>
      </trkpt>
      <trkpt lat="43.889690" lon="5.113465">
        <ele>130.9</ele>
      </trkpt>
      <trkpt lat="43.889210" lon="5.113890">
        <ele>135.3</ele>
      </trkpt>
      <trkpt lat="43.888935" lon="5.114028">
        <ele>141.5</ele>
      </trkpt>
      <trkpt lat="43.888770" lon="5.114006">
        <ele>142.5</ele>
      </trkpt>
      <trkpt lat="43.888440" lon="5.113827">
        <ele>143.7</ele>
      </trkpt>
      <trkpt lat="43.888030" lon="5.113783">
        <ele>148.2</ele>
      </trkpt>
      <trkpt lat="43.887410" lon="5.114009">
        <ele>150.4</ele>
      </trkpt>
      <trkpt lat="43.886618" lon="5.114267">
        <ele>146.9</ele>
      </trkpt>
      <trkpt lat="43.886270" lon="5.114381">
        <ele>145.1</ele>
      </trkpt>
      <trkpt lat="43.886410" lon="5.114548">
        <ele>145.6</ele>
      </trkpt>
      <trkpt lat="43.886538" lon="5.114924">
        <ele>146.6</ele>
      </trkpt>
      <trkpt lat="43.886900" lon="5.115486">
        <ele>151.8</ele>
      </trkpt>
      <trkpt lat="43.887190" lon="5.115868">
        <ele>155.2</ele>
      </trkpt>
      <trkpt lat="43.887331" lon="5.116072">
        <ele>155.8</ele>
      </trkpt>
      <trkpt lat="43.887532" lon="5.116217">
        <ele>158.4</ele>
      </trkpt>
      <trkpt lat="43.887768" lon="5.116480">
        <ele>159.1</ele>
      </trkpt>
      <trkpt lat="43.887940" lon="5.116610">
        <ele>159.2</ele>
      </trkpt>
      <trkpt lat="43.887419" lon="5.117513">
        <ele>168.2</ele>
      </trkpt>
      <trkpt lat="43.887380" lon="5.117581">
        <ele>168.9</ele>
      </trkpt>
      <trkpt lat="43.887120" lon="5.117792">
        <ele>170.7</ele>
      </trkpt>
      <trkpt lat="43.887010" lon="5.117898">
        <ele>171.3</ele>
      </trkpt>
      <trkpt lat="43.886850" lon="5.118065">
        <ele>172.4</ele>
      </trkpt>
      <trkpt lat="43.886790" lon="5.118373">
        <ele>178.3</ele>
      </trkpt>
      <trkpt lat="43.886890" lon="5.118838">
        <ele>182.1</ele>
      </trkpt>
      <trkpt lat="43.886782" lon="5.119286">
        <ele>187.2</ele>
      </trkpt>
      <trkpt lat="43.886454" lon="5.120402">
        <ele>188.8</ele>
      </trkpt>
      <trkpt lat="43.886454" lon="5.120402">
        <ele>188.8</ele>
      </trkpt>
      <trkpt lat="43.886430" lon="5.120482">
        <ele>189</ele>
      </trkpt>
      <trkpt lat="43.886270" lon="5.121669">
        <ele>193.9</ele>
      </trkpt>
      <trkpt lat="43.886270" lon="5.122141">
        <ele>194.1</ele>
      </trkpt>
      <trkpt lat="43.886320" lon="5.122331">
        <ele>194.3</ele>
      </trkpt>
      <trkpt lat="43.886620" lon="5.122724">
        <ele>194.1</ele>
      </trkpt>
      <trkpt lat="43.886950" lon="5.123034">
        <ele>196.6</ele>
      </trkpt>
      <trkpt lat="43.887130" lon="5.123316">
        <ele>197</ele>
      </trkpt>
      <trkpt lat="43.887323" lon="5.123765">
        <ele>196.8</ele>
      </trkpt>
      <trkpt lat="43.887580" lon="5.124706">
        <ele>200.3</ele>
      </trkpt>
      <trkpt lat="43.887660" lon="5.124833">
        <ele>200.3</ele>
      </trkpt>
      <trkpt lat="43.888010" lon="5.125205">
        <ele>200.9</ele>
      </trkpt>
      <trkpt lat="43.888150" lon="5.125455">
        <ele>201</ele>
      </trkpt>
      <trkpt lat="43.888530" lon="5.126139">
        <ele>203.5</ele>
      </trkpt>
      <trkpt lat="43.888890" lon="5.126959">
        <ele>203.7</ele>
      </trkpt>
      <trkpt lat="43.889102" lon="5.127735">
        <ele>204.6</ele>
      </trkpt>
      <trkpt lat="43.889206" lon="5.128094">
        <ele>207.2</ele>
      </trkpt>
      <trkpt lat="43.889442" lon="5.128850">
        <ele>207.1</ele>
      </trkpt>
      <trkpt lat="43.889651" lon="5.129279">
        <ele>208.1</ele>
      </trkpt>
      <trkpt lat="43.889906" lon="5.130202">
        <ele>209.7</ele>
      </trkpt>
      <trkpt lat="43.889930" lon="5.130443">
        <ele>210.2</ele>
      </trkpt>
      <trkpt lat="43.889948" lon="5.130744">
        <ele>210.8</ele>
      </trkpt>
      <trkpt lat="43.889940" lon="5.131911">
        <ele>218</ele>
      </trkpt>
      <trkpt lat="43.889870" lon="5.131520">
        <ele>216</ele>
      </trkpt>
      <trkpt lat="43.889640" lon="5.131042">
        <ele>213.9</ele>
      </trkpt>
      <trkpt lat="43.888703" lon="5.130401">
        <ele>210.2</ele>
      </trkpt>
      <trkpt lat="43.888646" lon="5.130362">
        <ele>210.1</ele>
      </trkpt>
      <trkpt lat="43.888646" lon="5.130362">
        <ele>210.1</ele>
      </trkpt>
      <trkpt lat="43.888610" lon="5.130337">
        <ele>210</ele>
      </trkpt>
      <trkpt lat="43.888321" lon="5.130299">
        <ele>209.2</ele>
      </trkpt>
      <trkpt lat="43.887969" lon="5.130229">
        <ele>209.1</ele>
      </trkpt>
      <trkpt lat="43.887800" lon="5.130276">
        <ele>209.1</ele>
      </trkpt>
      <trkpt lat="43.887570" lon="5.130017">
        <ele>209</ele>
      </trkpt>
      <trkpt lat="43.887374" lon="5.130631">
        <ele>208</ele>
      </trkpt>
      <trkpt lat="43.887281" lon="5.131270">
        <ele>207.7</ele>
      </trkpt>
      <trkpt lat="43.887335" lon="5.131881">
        <ele>207.8</ele>
      </trkpt>
      <trkpt lat="43.887350" lon="5.132096">
        <ele>207.6</ele>
      </trkpt>
      <trkpt lat="43.887273" lon="5.132423">
        <ele>207.5</ele>
      </trkpt>
      <trkpt lat="43.887280" lon="5.132528">
        <ele>207.5</ele>
      </trkpt>
      <trkpt lat="43.887118" lon="5.132729">
        <ele>207.3</ele>
      </trkpt>
      <trkpt lat="43.886650" lon="5.133080">
        <ele>205.6</ele>
      </trkpt>
      <trkpt lat="43.886763" lon="5.133464">
        <ele>206</ele>
      </trkpt>
      <trkpt lat="43.886879" lon="5.133689">
        <ele>205.9</ele>
      </trkpt>
      <trkpt lat="43.887050" lon="5.133970">
        <ele>205.6</ele>
      </trkpt>
      <trkpt lat="43.886740" lon="5.134266">
        <ele>202.6</ele>
      </trkpt>
      <trkpt lat="43.886666" lon="5.134284">
        <ele>202.7</ele>
      </trkpt>
      <trkpt lat="43.886330" lon="5.134065">
        <ele>204.1</ele>
      </trkpt>
      <trkpt lat="43.886040" lon="5.133995">
        <ele>203.8</ele>
      </trkpt>
      <trkpt lat="43.885970" lon="5.134054">
        <ele>203.6</ele>
      </trkpt>
      <trkpt lat="43.885943" lon="5.134150">
        <ele>203.4</ele>
      </trkpt>
      <trkpt lat="43.885951" lon="5.134381">
        <ele>201.7</ele>
      </trkpt>
      <trkpt lat="43.885935" lon="5.134274">
        <ele>202.1</ele>
      </trkpt>
      <trkpt lat="43.885950" lon="5.134588">
        <ele>201</ele>
      </trkpt>
      <trkpt lat="43.885890" lon="5.134668">
        <ele>200.8</ele>
      </trkpt>
      <trkpt lat="43.885850" lon="5.134920">
        <ele>200.2</ele>
      </trkpt>
      <trkpt lat="43.886140" lon="5.135697">
        <ele>195.4</ele>
      </trkpt>
      <trkpt lat="43.886280" lon="5.135788">
        <ele>194.4</ele>
      </trkpt>
      <trkpt lat="43.886370" lon="5.136004">
        <ele>191.7</ele>
      </trkpt>
      <trkpt lat="43.886360" lon="5.136222">
        <ele>191.8</ele>
      </trkpt>
      <trkpt lat="43.886270" lon="5.136730">
        <ele>190.1</ele>
      </trkpt>
      <trkpt lat="43.886030" lon="5.136845">
        <ele>191.4</ele>
      </trkpt>
      <trkpt lat="43.885960" lon="5.136841">
        <ele>191.8</ele>
      </trkpt>
      <trkpt lat="43.885850" lon="5.137084">
        <ele>190.8</ele>
      </trkpt>
      <trkpt lat="43.885710" lon="5.137138">
        <ele>190.6</ele>
      </trkpt>
      <trkpt lat="43.885540" lon="5.137263">
        <ele>189.8</ele>
      </trkpt>
      <trkpt lat="43.885400" lon="5.137314">
        <ele>189.1</ele>
      </trkpt>
      <trkpt lat="43.885390" lon="5.137460">
        <ele>188.8</ele>
      </trkpt>
      <trkpt lat="43.885470" lon="5.137527">
        <ele>185.8</ele>
      </trkpt>
      <trkpt lat="43.885500" lon="5.137834">
        <ele>185</ele>
      </trkpt>
      <trkpt lat="43.885510" lon="5.137894">
        <ele>184.9</ele>
      </trkpt>
      <trkpt lat="43.885375" lon="5.138260">
        <ele>182.7</ele>
      </trkpt>
      <trkpt lat="43.885332" lon="5.138469">
        <ele>176.7</ele>
      </trkpt>
      <trkpt lat="43.885406" lon="5.138737">
        <ele>176</ele>
      </trkpt>
      <trkpt lat="43.885456" lon="5.138844">
        <ele>175.7</ele>
      </trkpt>
      <trkpt lat="43.885193" lon="5.139204">
        <ele>165</ele>
      </trkpt>
      <trkpt lat="43.884992" lon="5.139456">
        <ele>158.4</ele>
      </trkpt>
      <trkpt lat="43.884810" lon="5.139709">
        <ele>155.7</ele>
      </trkpt>
      <trkpt lat="43.884594" lon="5.139933">
        <ele>154.2</ele>
      </trkpt>
      <trkpt lat="43.884451" lon="5.140041">
        <ele>149.3</ele>
      </trkpt>
      <trkpt lat="43.884350" lon="5.140073">
        <ele>149</ele>
      </trkpt>
      <trkpt lat="43.883650" lon="5.140534">
        <ele>144</ele>
      </trkpt>
      <trkpt lat="43.883059" lon="5.140765">
        <ele>139.7</ele>
      </trkpt>
      <trkpt lat="43.882962" lon="5.140942">
        <ele>137.7</ele>
      </trkpt>
      <trkpt lat="43.882923" lon="5.141011">
        <ele>137.5</ele>
      </trkpt>
      <trkpt lat="43.883025" lon="5.141087">
        <ele>137.8</ele>
      </trkpt>
      <trkpt lat="43.883156" lon="5.141290">
        <ele>137.9</ele>
      </trkpt>
      <trkpt lat="43.883191" lon="5.141467">
        <ele>138</ele>
      </trkpt>
      <trkpt lat="43.883218" lon="5.141762">
        <ele>137.7</ele>
      </trkpt>
      <trkpt lat="43.883291" lon="5.142159">
        <ele>137</ele>
      </trkpt>
      <trkpt lat="43.883400" lon="5.142809">
        <ele>139.4</ele>
      </trkpt>
      <trkpt lat="43.883489" lon="5.143034">
        <ele>139.2</ele>
      </trkpt>
      <trkpt lat="43.883810" lon="5.143265">
        <ele>140.3</ele>
      </trkpt>
      <trkpt lat="43.884390" lon="5.144128">
        <ele>139.4</ele>
      </trkpt>
      <trkpt lat="43.884459" lon="5.144230">
        <ele>137.4</ele>
      </trkpt>
      <trkpt lat="43.884911" lon="5.144654">
        <ele>138.3</ele>
      </trkpt>
      <trkpt lat="43.885634" lon="5.145351">
        <ele>141.6</ele>
      </trkpt>
      <trkpt lat="43.885955" lon="5.145797">
        <ele>145.2</ele>
      </trkpt>
      <trkpt lat="43.886141" lon="5.146108">
        <ele>146</ele>
      </trkpt>
      <trkpt lat="43.886373" lon="5.146354">
        <ele>146.5</ele>
      </trkpt>
      <trkpt lat="43.886489" lon="5.146419">
        <ele>146.6</ele>
      </trkpt>
      <trkpt lat="43.886860" lon="5.146800">
        <ele>148.9</ele>
      </trkpt>
      <trkpt lat="43.887534" lon="5.147473">
        <ele>152.5</ele>
      </trkpt>
      <trkpt lat="43.887586" lon="5.147525">
        <ele>152.6</ele>
      </trkpt>
      <trkpt lat="43.887586" lon="5.147525">
        <ele>152.6</ele>
      </trkpt>
      <trkpt lat="43.887676" lon="5.147615">
        <ele>153.2</ele>
      </trkpt>
      <trkpt lat="43.888148" lon="5.147856">
        <ele>154.7</ele>
      </trkpt>
      <trkpt lat="43.888310" lon="5.147948">
        <ele>154.9</ele>
      </trkpt>
      <trkpt lat="43.888488" lon="5.147980">
        <ele>158.2</ele>
      </trkpt>
      <trkpt lat="43.889234" lon="5.148076">
        <ele>163.1</ele>
      </trkpt>
      <trkpt lat="43.889342" lon="5.148093">
        <ele>163.3</ele>
      </trkpt>
      <trkpt lat="43.889748" lon="5.148044">
        <ele>164.8</ele>
      </trkpt>
      <trkpt lat="43.890030" lon="5.147953">
        <ele>168.1</ele>
      </trkpt>
      <trkpt lat="43.890185" lon="5.148103">
        <ele>167.7</ele>
      </trkpt>
      <trkpt lat="43.890347" lon="5.148371">
        <ele>167.4</ele>
      </trkpt>
      <trkpt lat="43.890432" lon="5.148634">
        <ele>167.9</ele>
      </trkpt>
      <trkpt lat="43.890426" lon="5.148795">
        <ele>168.1</ele>
      </trkpt>
      <trkpt lat="43.890428" lon="5.148967">
        <ele>168.3</ele>
      </trkpt>
      <trkpt lat="43.890684" lon="5.148978">
        <ele>169.2</ele>
      </trkpt>
      <trkpt lat="43.891140" lon="5.149144">
        <ele>172.4</ele>
      </trkpt>
      <trkpt lat="43.891735" lon="5.149187">
        <ele>176.4</ele>
      </trkpt>
      <trkpt lat="43.891971" lon="5.148677">
        <ele>176.7</ele>
      </trkpt>
      <trkpt lat="43.892010" lon="5.148581">
        <ele>176.7</ele>
      </trkpt>
      <trkpt lat="43.892238" lon="5.148484">
        <ele>177.4</ele>
      </trkpt>
      <trkpt lat="43.892272" lon="5.148624">
        <ele>177.4</ele>
      </trkpt>
      <trkpt lat="43.892346" lon="5.148672">
        <ele>177.6</ele>
      </trkpt>
      <trkpt lat="43.892384" lon="5.148648">
        <ele>177.7</ele>
      </trkpt>
      <trkpt lat="43.892672" lon="5.148618">
        <ele>179.7</ele>
      </trkpt>
      <trkpt lat="43.892763" lon="5.148661">
        <ele>179.8</ele>
      </trkpt>
      <trkpt lat="43.892908" lon="5.148626">
        <ele>180</ele>
      </trkpt>
      <trkpt lat="43.892964" lon="5.148302">
        <ele>180.1</ele>
      </trkpt>
      <trkpt lat="43.893024" lon="5.147564">
        <ele>180.4</ele>
      </trkpt>
      <trkpt lat="43.893024" lon="5.147148">
        <ele>181.6</ele>
      </trkpt>
      <trkpt lat="43.893020" lon="5.146789">
        <ele>182.3</ele>
      </trkpt>
      <trkpt lat="43.893739" lon="5.146746">
        <ele>185.8</ele>
      </trkpt>
      <trkpt lat="43.894197" lon="5.146894">
        <ele>188.6</ele>
      </trkpt>
      <trkpt lat="43.894487" lon="5.146845">
        <ele>189</ele>
      </trkpt>
      <trkpt lat="43.894891" lon="5.146832">
        <ele>190.2</ele>
      </trkpt>
      <trkpt lat="43.895829" lon="5.146979">
        <ele>194.8</ele>
      </trkpt>
      <trkpt lat="43.896678" lon="5.147043">
        <ele>202.2</ele>
      </trkpt>
      <trkpt lat="43.896742" lon="5.147048">
        <ele>202.3</ele>
      </trkpt>
      <trkpt lat="43.896848" lon="5.147056">
        <ele>202.6</ele>
      </trkpt>
      <trkpt lat="43.897039" lon="5.147071">
        <ele>203.1</ele>
      </trkpt>
      <trkpt lat="43.897580" lon="5.147092">
        <ele>209.3</ele>
      </trkpt>
      <trkpt lat="43.897616" lon="5.147041">
        <ele>209.5</ele>
      </trkpt>
      <trkpt lat="43.897609" lon="5.146961">
        <ele>209.5</ele>
      </trkpt>
      <trkpt lat="43.897562" lon="5.146853">
        <ele>209</ele>
      </trkpt>
      <trkpt lat="43.897507" lon="5.146762">
        <ele>208.2</ele>
      </trkpt>
      <trkpt lat="43.897387" lon="5.146596">
        <ele>208</ele>
      </trkpt>
      <trkpt lat="43.896911" lon="5.146065">
        <ele>209.8</ele>
      </trkpt>
      <trkpt lat="43.896687" lon="5.145625">
        <ele>215.9</ele>
      </trkpt>
      <trkpt lat="43.896691" lon="5.145528">
        <ele>217.4</ele>
      </trkpt>
      <trkpt lat="43.896648" lon="5.144783">
        <ele>221.1</ele>
      </trkpt>
      <trkpt lat="43.896664" lon="5.144691">
        <ele>221.5</ele>
      </trkpt>
      <trkpt lat="43.896590" lon="5.144600">
        <ele>221.9</ele>
      </trkpt>
      <trkpt lat="43.896575" lon="5.144300">
        <ele>225.4</ele>
      </trkpt>
      <trkpt lat="43.896590" lon="5.143517">
        <ele>233.4</ele>
      </trkpt>
      <trkpt lat="43.896560" lon="5.143313">
        <ele>237.8</ele>
      </trkpt>
      <trkpt lat="43.896641" lon="5.143195">
        <ele>237.9</ele>
      </trkpt>
      <trkpt lat="43.896919" lon="5.143120">
        <ele>242.2</ele>
      </trkpt>
      <trkpt lat="43.896911" lon="5.142927">
        <ele>242.8</ele>
      </trkpt>
      <trkpt lat="43.896855" lon="5.142902">
        <ele>242.7</ele>
      </trkpt>
      <trkpt lat="43.896652" lon="5.142763">
        <ele>239.4</ele>
      </trkpt>
      <trkpt lat="43.896570" lon="5.142720">
        <ele>239.5</ele>
      </trkpt>
      <trkpt lat="43.896480" lon="5.142613">
        <ele>239.7</ele>
      </trkpt>
      <trkpt lat="43.896296" lon="5.142463">
        <ele>241.2</ele>
      </trkpt>
      <trkpt lat="43.896120" lon="5.142259">
        <ele>241</ele>
      </trkpt>
      <trkpt lat="43.896018" lon="5.142194">
        <ele>241</ele>
      </trkpt>
      <trkpt lat="43.895854" lon="5.142044">
        <ele>241</ele>
      </trkpt>
      <trkpt lat="43.895728" lon="5.141942">
        <ele>239</ele>
      </trkpt>
      <trkpt lat="43.895660" lon="5.141846">
        <ele>239.1</ele>
      </trkpt>
      <trkpt lat="43.895591" lon="5.141803">
        <ele>238.9</ele>
      </trkpt>
      <trkpt lat="43.895411" lon="5.141768">
        <ele>238.3</ele>
      </trkpt>
      <trkpt lat="43.895301" lon="5.141658">
        <ele>237.4</ele>
      </trkpt>
      <trkpt lat="43.894899" lon="5.141497">
        <ele>235.8</ele>
      </trkpt>
      <trkpt lat="43.894684" lon="5.141392">
        <ele>234.6</ele>
      </trkpt>
      <trkpt lat="43.894466" lon="5.141285">
        <ele>234</ele>
      </trkpt>
      <trkpt lat="43.894128" lon="5.141221">
        <ele>231.8</ele>
      </trkpt>
      <trkpt lat="43.894019" lon="5.141154">
        <ele>231.5</ele>
      </trkpt>
      <trkpt lat="43.893971" lon="5.141143">
        <ele>231.5</ele>
      </trkpt>
      <trkpt lat="43.893903" lon="5.141167">
        <ele>231.4</ele>
      </trkpt>
      <trkpt lat="43.893764" lon="5.141229">
        <ele>231.3</ele>
      </trkpt>
      <trkpt lat="43.893672" lon="5.141215">
        <ele>231.1</ele>
      </trkpt>
      <trkpt lat="43.893563" lon="5.141100">
        <ele>230.8</ele>
      </trkpt>
      <trkpt lat="43.893471" lon="5.141049">
        <ele>230.7</ele>
      </trkpt>
      <trkpt lat="43.893329" lon="5.140939">
        <ele>228.5</ele>
      </trkpt>
      <trkpt lat="43.893198" lon="5.140934">
        <ele>227.8</ele>
      </trkpt>
      <trkpt lat="43.893072" lon="5.140864">
        <ele>226.9</ele>
      </trkpt>
      <trkpt lat="43.892813" lon="5.140751">
        <ele>223.2</ele>
      </trkpt>
      <trkpt lat="43.892742" lon="5.140757">
        <ele>223.1</ele>
      </trkpt>
      <trkpt lat="43.892684" lon="5.140773">
        <ele>223.1</ele>
      </trkpt>
      <trkpt lat="43.892608" lon="5.140848">
        <ele>224.4</ele>
      </trkpt>
      <trkpt lat="43.892442" lon="5.140877">
        <ele>222.9</ele>
      </trkpt>
      <trkpt lat="43.892369" lon="5.140893">
        <ele>222.2</ele>
      </trkpt>
      <trkpt lat="43.892315" lon="5.140845">
        <ele>222</ele>
      </trkpt>
      <trkpt lat="43.892303" lon="5.140786">
        <ele>222.6</ele>
      </trkpt>
      <trkpt lat="43.892297" lon="5.140719">
        <ele>222.4</ele>
      </trkpt>
      <trkpt lat="43.892330" lon="5.140566">
        <ele>221.9</ele>
      </trkpt>
      <trkpt lat="43.892392" lon="5.140451">
        <ele>221.2</ele>
      </trkpt>
      <trkpt lat="43.892407" lon="5.140357">
        <ele>220.6</ele>
      </trkpt>
      <trkpt lat="43.892549" lon="5.140252">
        <ele>219.7</ele>
      </trkpt>
      <trkpt lat="43.892678" lon="5.140209">
        <ele>219.8</ele>
      </trkpt>
      <trkpt lat="43.892751" lon="5.140134">
        <ele>219.6</ele>
      </trkpt>
      <trkpt lat="43.892867" lon="5.140091">
        <ele>219.9</ele>
      </trkpt>
      <trkpt lat="43.893018" lon="5.139995">
        <ele>214.3</ele>
      </trkpt>
      <trkpt lat="43.893171" lon="5.139847">
        <ele>214.5</ele>
      </trkpt>
      <trkpt lat="43.893287" lon="5.139630">
        <ele>213.5</ele>
      </trkpt>
      <trkpt lat="43.893312" lon="5.139542">
        <ele>213</ele>
      </trkpt>
      <trkpt lat="43.893329" lon="5.139453">
        <ele>212.7</ele>
      </trkpt>
      <trkpt lat="43.893399" lon="5.139279">
        <ele>214.5</ele>
      </trkpt>
      <trkpt lat="43.893471" lon="5.139112">
        <ele>214.7</ele>
      </trkpt>
      <trkpt lat="43.893573" lon="5.138724">
        <ele>216.9</ele>
      </trkpt>
      <trkpt lat="43.893596" lon="5.138563">
        <ele>217</ele>
      </trkpt>
      <trkpt lat="43.893637" lon="5.138356">
        <ele>217.2</ele>
      </trkpt>
      <trkpt lat="43.893641" lon="5.138265">
        <ele>219.6</ele>
      </trkpt>
      <trkpt lat="43.893954" lon="5.137766">
        <ele>223.4</ele>
      </trkpt>
      <trkpt lat="43.894399" lon="5.137267">
        <ele>233.6</ele>
      </trkpt>
      <trkpt lat="43.894620" lon="5.136856">
        <ele>236.1</ele>
      </trkpt>
      <trkpt lat="43.894646" lon="5.136387">
        <ele>240.6</ele>
      </trkpt>
      <trkpt lat="43.894557" lon="5.135309">
        <ele>245.5</ele>
      </trkpt>
      <trkpt lat="43.894526" lon="5.134853">
        <ele>246.9</ele>
      </trkpt>
      <trkpt lat="43.894441" lon="5.134698">
        <ele>246.9</ele>
      </trkpt>
      <trkpt lat="43.894329" lon="5.134306">
        <ele>246.5</ele>
      </trkpt>
      <trkpt lat="43.894205" lon="5.133936">
        <ele>246.1</ele>
      </trkpt>
      <trkpt lat="43.894100" lon="5.133727">
        <ele>242.6</ele>
      </trkpt>
      <trkpt lat="43.893881" lon="5.133051">
        <ele>238.9</ele>
      </trkpt>
      <trkpt lat="43.893745" lon="5.132589">
        <ele>237.8</ele>
      </trkpt>
      <trkpt lat="43.893687" lon="5.132300">
        <ele>235.6</ele>
      </trkpt>
      <trkpt lat="43.893656" lon="5.132128">
        <ele>235.2</ele>
      </trkpt>
      <trkpt lat="43.893684" lon="5.131913">
        <ele>234.9</ele>
      </trkpt>
      <trkpt lat="43.893711" lon="5.131769">
        <ele>234.8</ele>
      </trkpt>
      <trkpt lat="43.894043" lon="5.131570">
        <ele>235.3</ele>
      </trkpt>
      <trkpt lat="43.894213" lon="5.131581">
        <ele>239.7</ele>
      </trkpt>
      <trkpt lat="43.894348" lon="5.131747">
        <ele>242.3</ele>
      </trkpt>
      <trkpt lat="43.894410" lon="5.131962">
        <ele>244.4</ele>
      </trkpt>
      <trkpt lat="43.894526" lon="5.132053">
        <ele>245.7</ele>
      </trkpt>
      <trkpt lat="43.894658" lon="5.131989">
        <ele>246.9</ele>
      </trkpt>
      <trkpt lat="43.894750" lon="5.131613">
        <ele>247.9</ele>
      </trkpt>
      <trkpt lat="43.894851" lon="5.131474">
        <ele>248.6</ele>
      </trkpt>
      <trkpt lat="43.895037" lon="5.131345">
        <ele>255.3</ele>
      </trkpt>
      <trkpt lat="43.895152" lon="5.131184">
        <ele>255.3</ele>
      </trkpt>
      <trkpt lat="43.895265" lon="5.131055">
        <ele>255.4</ele>
      </trkpt>
      <trkpt lat="43.895392" lon="5.131093">
        <ele>256.1</ele>
      </trkpt>
      <trkpt lat="43.895469" lon="5.131200">
        <ele>256.6</ele>
      </trkpt>
      <trkpt lat="43.895547" lon="5.131425">
        <ele>257.5</ele>
      </trkpt>
      <trkpt lat="43.895686" lon="5.131677">
        <ele>260.6</ele>
      </trkpt>
      <trkpt lat="43.895864" lon="5.131946">
        <ele>265.2</ele>
      </trkpt>
      <trkpt lat="43.896146" lon="5.132225">
        <ele>267.1</ele>
      </trkpt>
      <trkpt lat="43.896370" lon="5.132289">
        <ele>268.4</ele>
      </trkpt>
      <trkpt lat="43.896510" lon="5.132404">
        <ele>270.3</ele>
      </trkpt>
      <trkpt lat="43.896641" lon="5.132498">
        <ele>273.3</ele>
      </trkpt>
      <trkpt lat="43.897023" lon="5.132595">
        <ele>275.7</ele>
      </trkpt>
      <trkpt lat="43.897163" lon="5.132713">
        <ele>275.9</ele>
      </trkpt>
      <trkpt lat="43.897545" lon="5.133399">
        <ele>281.5</ele>
      </trkpt>
      <trkpt lat="43.897835" lon="5.133802">
        <ele>283.1</ele>
      </trkpt>
      <trkpt lat="43.898253" lon="5.134140">
        <ele>285.1</ele>
      </trkpt>
      <trkpt lat="43.898682" lon="5.134209">
        <ele>288.3</ele>
      </trkpt>
      <trkpt lat="43.899049" lon="5.134247">
        <ele>288.6</ele>
      </trkpt>
      <trkpt lat="43.899200" lon="5.134284">
        <ele>290.8</ele>
      </trkpt>
      <trkpt lat="43.899269" lon="5.134204">
        <ele>290.6</ele>
      </trkpt>
      <trkpt lat="43.899211" lon="5.133957">
        <ele>291.8</ele>
      </trkpt>
      <trkpt lat="43.899010" lon="5.133694">
        <ele>287.4</ele>
      </trkpt>
      <trkpt lat="43.898844" lon="5.133453">
        <ele>287</ele>
      </trkpt>
      <trkpt lat="43.898802" lon="5.133356">
        <ele>286.7</ele>
      </trkpt>
      <trkpt lat="43.898693" lon="5.133196">
        <ele>285.9</ele>
      </trkpt>
      <trkpt lat="43.898585" lon="5.133002">
        <ele>285.4</ele>
      </trkpt>
      <trkpt lat="43.898531" lon="5.132697">
        <ele>285.1</ele>
      </trkpt>
      <trkpt lat="43.898543" lon="5.132461">
        <ele>283.4</ele>
      </trkpt>
      <trkpt lat="43.898623" lon="5.132225">
        <ele>283.6</ele>
      </trkpt>
      <trkpt lat="43.898674" lon="5.132171">
        <ele>283.7</ele>
      </trkpt>
      <trkpt lat="43.898836" lon="5.132074">
        <ele>284.1</ele>
      </trkpt>
      <trkpt lat="43.899018" lon="5.132166">
        <ele>285.4</ele>
      </trkpt>
      <trkpt lat="43.899161" lon="5.132294">
        <ele>287.4</ele>
      </trkpt>
      <trkpt lat="43.899567" lon="5.132536">
        <ele>295.7</ele>
      </trkpt>
      <trkpt lat="43.899899" lon="5.132691">
        <ele>297.5</ele>
      </trkpt>
      <trkpt lat="43.900127" lon="5.132718">
        <ele>302.1</ele>
      </trkpt>
      <trkpt lat="43.900197" lon="5.132697">
        <ele>302.3</ele>
      </trkpt>
      <trkpt lat="43.900320" lon="5.132740">
        <ele>303.1</ele>
      </trkpt>
      <trkpt lat="43.900375" lon="5.132761">
        <ele>303.5</ele>
      </trkpt>
      <trkpt lat="43.900437" lon="5.132691">
        <ele>303.6</ele>
      </trkpt>
      <trkpt lat="43.900715" lon="5.132541">
        <ele>304.6</ele>
      </trkpt>
      <trkpt lat="43.900885" lon="5.132418">
        <ele>307.4</ele>
      </trkpt>
      <trkpt lat="43.900974" lon="5.132294">
        <ele>309.7</ele>
      </trkpt>
      <trkpt lat="43.901156" lon="5.132359">
        <ele>311</ele>
      </trkpt>
      <trkpt lat="43.901403" lon="5.132359">
        <ele>313.2</ele>
      </trkpt>
      <trkpt lat="43.901550" lon="5.132493">
        <ele>314.6</ele>
      </trkpt>
      <trkpt lat="43.901612" lon="5.132579">
        <ele>314.9</ele>
      </trkpt>
      <trkpt lat="43.901735" lon="5.132520">
        <ele>317.6</ele>
      </trkpt>
      <trkpt lat="43.901894" lon="5.132589">
        <ele>320.1</ele>
      </trkpt>
      <trkpt lat="43.902025" lon="5.132455">
        <ele>321.9</ele>
      </trkpt>
      <trkpt lat="43.902284" lon="5.132391">
        <ele>324.3</ele>
      </trkpt>
      <trkpt lat="43.902454" lon="5.132471">
        <ele>326.2</ele>
      </trkpt>
      <trkpt lat="43.902586" lon="5.132675">
        <ele>325.5</ele>
      </trkpt>
      <trkpt lat="43.902791" lon="5.132868">
        <ele>324.3</ele>
      </trkpt>
      <trkpt lat="43.902879" lon="5.132911">
        <ele>323.9</ele>
      </trkpt>
      <trkpt lat="43.902977" lon="5.132954">
        <ele>323.4</ele>
      </trkpt>
      <trkpt lat="43.903051" lon="5.132973">
        <ele>323</ele>
      </trkpt>
      <trkpt lat="43.903082" lon="5.132973">
        <ele>322.9</ele>
      </trkpt>
      <trkpt lat="43.903080" lon="5.132892">
        <ele>323.3</ele>
      </trkpt>
      <trkpt lat="43.903084" lon="5.132825">
        <ele>323.5</ele>
      </trkpt>
      <trkpt lat="43.903099" lon="5.132772">
        <ele>323.7</ele>
      </trkpt>
      <trkpt lat="43.903177" lon="5.132721">
        <ele>323.8</ele>
      </trkpt>
      <trkpt lat="43.903240" lon="5.132667">
        <ele>324</ele>
      </trkpt>
      <trkpt lat="43.903287" lon="5.132670">
        <ele>324</ele>
      </trkpt>
      <trkpt lat="43.903343" lon="5.132605">
        <ele>316.7</ele>
      </trkpt>
      <trkpt lat="43.903403" lon="5.132528">
        <ele>318.4</ele>
      </trkpt>
      <trkpt lat="43.903455" lon="5.132530">
        <ele>315</ele>
      </trkpt>
      <trkpt lat="43.903511" lon="5.132477">
        <ele>317.4</ele>
      </trkpt>
      <trkpt lat="43.903573" lon="5.132420">
        <ele>315.2</ele>
      </trkpt>
      <trkpt lat="43.903620" lon="5.132334">
        <ele>313.7</ele>
      </trkpt>
      <trkpt lat="43.903666" lon="5.132133">
        <ele>313.3</ele>
      </trkpt>
      <trkpt lat="43.903671" lon="5.132058">
        <ele>313.8</ele>
      </trkpt>
      <trkpt lat="43.903766" lon="5.131822">
        <ele>313.6</ele>
      </trkpt>
      <trkpt lat="43.903981" lon="5.131229">
        <ele>316.8</ele>
      </trkpt>
      <trkpt lat="43.904004" lon="5.131130">
        <ele>316.6</ele>
      </trkpt>
      <trkpt lat="43.904004" lon="5.131077">
        <ele>316.5</ele>
      </trkpt>
      <trkpt lat="43.904050" lon="5.130827">
        <ele>312.2</ele>
      </trkpt>
      <trkpt lat="43.904066" lon="5.130720">
        <ele>312.1</ele>
      </trkpt>
      <trkpt lat="43.904042" lon="5.130634">
        <ele>312.1</ele>
      </trkpt>
      <trkpt lat="43.903988" lon="5.130529">
        <ele>312</ele>
      </trkpt>
      <trkpt lat="43.903940" lon="5.130470">
        <ele>311.9</ele>
      </trkpt>
      <trkpt lat="43.903841" lon="5.130436">
        <ele>312.6</ele>
      </trkpt>
      <trkpt lat="43.903778" lon="5.130336">
        <ele>312.5</ele>
      </trkpt>
      <trkpt lat="43.903710" lon="5.130259">
        <ele>312.7</ele>
      </trkpt>
      <trkpt lat="43.903637" lon="5.130199">
        <ele>313.2</ele>
      </trkpt>
      <trkpt lat="43.903588" lon="5.130114">
        <ele>313.5</ele>
      </trkpt>
      <trkpt lat="43.903526" lon="5.130076">
        <ele>314.1</ele>
      </trkpt>
      <trkpt lat="43.903474" lon="5.130095">
        <ele>314.6</ele>
      </trkpt>
      <trkpt lat="43.903407" lon="5.130143">
        <ele>315.1</ele>
      </trkpt>
      <trkpt lat="43.903370" lon="5.130167">
        <ele>315.2</ele>
      </trkpt>
      <trkpt lat="43.903322" lon="5.130140">
        <ele>317.2</ele>
      </trkpt>
      <trkpt lat="43.903237" lon="5.130167">
        <ele>317.4</ele>
      </trkpt>
      <trkpt lat="43.903184" lon="5.130178">
        <ele>317.4</ele>
      </trkpt>
      <trkpt lat="43.903150" lon="5.130157">
        <ele>317.2</ele>
      </trkpt>
      <trkpt lat="43.903063" lon="5.130189">
        <ele>317.2</ele>
      </trkpt>
      <trkpt lat="43.902864" lon="5.130250">
        <ele>316.4</ele>
      </trkpt>
      <trkpt lat="43.902788" lon="5.130293">
        <ele>316.2</ele>
      </trkpt>
      <trkpt lat="43.902661" lon="5.130309">
        <ele>315.4</ele>
      </trkpt>
      <trkpt lat="43.902549" lon="5.130377">
        <ele>315.9</ele>
      </trkpt>
      <trkpt lat="43.902431" lon="5.130342">
        <ele>312.1</ele>
      </trkpt>
      <trkpt lat="43.902309" lon="5.130320">
        <ele>312</ele>
      </trkpt>
      <trkpt lat="43.902164" lon="5.130309">
        <ele>312.1</ele>
      </trkpt>
      <trkpt lat="43.902017" lon="5.130197">
        <ele>311.3</ele>
      </trkpt>
      <trkpt lat="43.901729" lon="5.129934">
        <ele>304.1</ele>
      </trkpt>
      <trkpt lat="43.901644" lon="5.129805">
        <ele>303.6</ele>
      </trkpt>
      <trkpt lat="43.901549" lon="5.129687">
        <ele>302.2</ele>
      </trkpt>
      <trkpt lat="43.901395" lon="5.129564">
        <ele>301.1</ele>
      </trkpt>
      <trkpt lat="43.901331" lon="5.129516">
        <ele>300.9</ele>
      </trkpt>
      <trkpt lat="43.901241" lon="5.129451">
        <ele>300.7</ele>
      </trkpt>
      <trkpt lat="43.901040" lon="5.129440">
        <ele>301</ele>
      </trkpt>
      <trkpt lat="43.900943" lon="5.129440">
        <ele>301</ele>
      </trkpt>
      <trkpt lat="43.900866" lon="5.129392">
        <ele>300.7</ele>
      </trkpt>
      <trkpt lat="43.900680" lon="5.129457">
        <ele>299.8</ele>
      </trkpt>
      <trkpt lat="43.900541" lon="5.129414">
        <ele>299.3</ele>
      </trkpt>
      <trkpt lat="43.900380" lon="5.129354">
        <ele>298.4</ele>
      </trkpt>
      <trkpt lat="43.900310" lon="5.129389">
        <ele>298.2</ele>
      </trkpt>
      <trkpt lat="43.900260" lon="5.129543">
        <ele>298.7</ele>
      </trkpt>
      <trkpt lat="43.900140" lon="5.129688">
        <ele>298.9</ele>
      </trkpt>
      <trkpt lat="43.900035" lon="5.129891">
        <ele>299.1</ele>
      </trkpt>
      <trkpt lat="43.899903" lon="5.130116">
        <ele>294.1</ele>
      </trkpt>
      <trkpt lat="43.899772" lon="5.130256">
        <ele>290.8</ele>
      </trkpt>
      <trkpt lat="43.899733" lon="5.130379">
        <ele>290.1</ele>
      </trkpt>
      <trkpt lat="43.899733" lon="5.130519">
        <ele>290.3</ele>
      </trkpt>
      <trkpt lat="43.899756" lon="5.130690">
        <ele>291.4</ele>
      </trkpt>
      <trkpt lat="43.899756" lon="5.130819">
        <ele>292</ele>
      </trkpt>
      <trkpt lat="43.899633" lon="5.131248">
        <ele>290.2</ele>
      </trkpt>
      <trkpt lat="43.899578" lon="5.131275">
        <ele>289.7</ele>
      </trkpt>
      <trkpt lat="43.899408" lon="5.131323">
        <ele>288.1</ele>
      </trkpt>
      <trkpt lat="43.899142" lon="5.131474">
        <ele>280.8</ele>
      </trkpt>
      <trkpt lat="43.899006" lon="5.131479">
        <ele>280.4</ele>
      </trkpt>
      <trkpt lat="43.898887" lon="5.131479">
        <ele>279.8</ele>
      </trkpt>
      <trkpt lat="43.898740" lon="5.131522">
        <ele>279.2</ele>
      </trkpt>
      <trkpt lat="43.898554" lon="5.131516">
        <ele>278.6</ele>
      </trkpt>
      <trkpt lat="43.898427" lon="5.131559">
        <ele>278.3</ele>
      </trkpt>
      <trkpt lat="43.898334" lon="5.131640">
        <ele>278.1</ele>
      </trkpt>
      <trkpt lat="43.897835" lon="5.130905">
        <ele>271.2</ele>
      </trkpt>
      <trkpt lat="43.897754" lon="5.130626">
        <ele>268.3</ele>
      </trkpt>
      <trkpt lat="43.897754" lon="5.130422">
        <ele>267.8</ele>
      </trkpt>
      <trkpt lat="43.897735" lon="5.130224">
        <ele>267.3</ele>
      </trkpt>
      <trkpt lat="43.897677" lon="5.129993">
        <ele>263.8</ele>
      </trkpt>
      <trkpt lat="43.897468" lon="5.129735">
        <ele>261.7</ele>
      </trkpt>
      <trkpt lat="43.897221" lon="5.129328">
        <ele>259.7</ele>
      </trkpt>
      <trkpt lat="43.897105" lon="5.129092">
        <ele>258.2</ele>
      </trkpt>
      <trkpt lat="43.896946" lon="5.128845">
        <ele>257.9</ele>
      </trkpt>
      <trkpt lat="43.896873" lon="5.128663">
        <ele>257.8</ele>
      </trkpt>
      <trkpt lat="43.896846" lon="5.128507">
        <ele>257.7</ele>
      </trkpt>
      <trkpt lat="43.896795" lon="5.128314">
        <ele>256.7</ele>
      </trkpt>
      <trkpt lat="43.896633" lon="5.128153">
        <ele>252.6</ele>
      </trkpt>
      <trkpt lat="43.896571" lon="5.128008">
        <ele>250.4</ele>
      </trkpt>
      <trkpt lat="43.896560" lon="5.127858">
        <ele>249.8</ele>
      </trkpt>
      <trkpt lat="43.896598" lon="5.127681">
        <ele>250.9</ele>
      </trkpt>
      <trkpt lat="43.896575" lon="5.127418">
        <ele>250.2</ele>
      </trkpt>
      <trkpt lat="43.896517" lon="5.127193">
        <ele>246.3</ele>
      </trkpt>
      <trkpt lat="43.896459" lon="5.127000">
        <ele>244.9</ele>
      </trkpt>
      <trkpt lat="43.896417" lon="5.126887">
        <ele>244.5</ele>
      </trkpt>
      <trkpt lat="43.896424" lon="5.126731">
        <ele>244.8</ele>
      </trkpt>
      <trkpt lat="43.896467" lon="5.126629">
        <ele>242.6</ele>
      </trkpt>
      <trkpt lat="43.896865" lon="5.126415">
        <ele>242.8</ele>
      </trkpt>
      <trkpt lat="43.896913" lon="5.126385">
        <ele>242.3</ele>
      </trkpt>
      <trkpt lat="43.897050" lon="5.126211">
        <ele>240.6</ele>
      </trkpt>
      <trkpt lat="43.897158" lon="5.125873">
        <ele>238.7</ele>
      </trkpt>
      <trkpt lat="43.897270" lon="5.125616">
        <ele>233</ele>
      </trkpt>
      <trkpt lat="43.897398" lon="5.125380">
        <ele>232</ele>
      </trkpt>
      <trkpt lat="43.897421" lon="5.125178">
        <ele>230.9</ele>
      </trkpt>
      <trkpt lat="43.897365" lon="5.125039">
        <ele>230.4</ele>
      </trkpt>
      <trkpt lat="43.897113" lon="5.124663">
        <ele>222.9</ele>
      </trkpt>
      <trkpt lat="43.897123" lon="5.124588">
        <ele>222.3</ele>
      </trkpt>
      <trkpt lat="43.897200" lon="5.124575">
        <ele>222.1</ele>
      </trkpt>
      <trkpt lat="43.897670" lon="5.124830">
        <ele>217.4</ele>
      </trkpt>
      <trkpt lat="43.897755" lon="5.124924">
        <ele>216.5</ele>
      </trkpt>
      <trkpt lat="43.897813" lon="5.124950">
        <ele>215.1</ele>
      </trkpt>
      <trkpt lat="43.897860" lon="5.124913">
        <ele>213.8</ele>
      </trkpt>
      <trkpt lat="43.897860" lon="5.124803">
        <ele>213</ele>
      </trkpt>
      <trkpt lat="43.897802" lon="5.124653">
        <ele>212.6</ele>
      </trkpt>
      <trkpt lat="43.897195" lon="5.123848">
        <ele>206.8</ele>
      </trkpt>
      <trkpt lat="43.896961" lon="5.123663">
        <ele>205.6</ele>
      </trkpt>
      <trkpt lat="43.896466" lon="5.123320">
        <ele>197</ele>
      </trkpt>
      <trkpt lat="43.895987" lon="5.122821">
        <ele>191.8</ele>
      </trkpt>
      <trkpt lat="43.895581" lon="5.122558">
        <ele>188</ele>
      </trkpt>
      <trkpt lat="43.895492" lon="5.122381">
        <ele>182.1</ele>
      </trkpt>
      <trkpt lat="43.895418" lon="5.122075">
        <ele>180.2</ele>
      </trkpt>
      <trkpt lat="43.895341" lon="5.121984">
        <ele>179.7</ele>
      </trkpt>
      <trkpt lat="43.895229" lon="5.122000">
        <ele>179.7</ele>
      </trkpt>
      <trkpt lat="43.895101" lon="5.122113">
        <ele>180.2</ele>
      </trkpt>
      <trkpt lat="43.895047" lon="5.122078">
        <ele>180</ele>
      </trkpt>
      <trkpt lat="43.895105" lon="5.121930">
        <ele>179.2</ele>
      </trkpt>
      <trkpt lat="43.895262" lon="5.121818">
        <ele>178.9</ele>
      </trkpt>
      <trkpt lat="43.895376" lon="5.121823">
        <ele>178.9</ele>
      </trkpt>
      <trkpt lat="43.895440" lon="5.121863">
        <ele>179.1</ele>
      </trkpt>
      <trkpt lat="43.895652" lon="5.121909">
        <ele>178.8</ele>
      </trkpt>
      <trkpt lat="43.895842" lon="5.121890">
        <ele>177</ele>
      </trkpt>
      <trkpt lat="43.895992" lon="5.121759">
        <ele>176.1</ele>
      </trkpt>
      <trkpt lat="43.897041" lon="5.122041">
        <ele>171.7</ele>
      </trkpt>
      <trkpt lat="43.897376" lon="5.122131">
        <ele>170.9</ele>
      </trkpt>
      <trkpt lat="43.897707" lon="5.122161">
        <ele>169</ele>
      </trkpt>
      <trkpt lat="43.897954" lon="5.122204">
        <ele>169.2</ele>
      </trkpt>
      <trkpt lat="43.898650" lon="5.121877">
        <ele>171.5</ele>
      </trkpt>
      <trkpt lat="43.898720" lon="5.122097">
        <ele>172.4</ele>
      </trkpt>
      <trkpt lat="43.898928" lon="5.122322">
        <ele>173.9</ele>
      </trkpt>
      <trkpt lat="43.899114" lon="5.122579">
        <ele>177.1</ele>
      </trkpt>
      <trkpt lat="43.899195" lon="5.122767">
        <ele>180</ele>
      </trkpt>
      <trkpt lat="43.899286" lon="5.123003">
        <ele>181.2</ele>
      </trkpt>
      <trkpt lat="43.899414" lon="5.123113">
        <ele>181.7</ele>
      </trkpt>
      <trkpt lat="43.899561" lon="5.123212">
        <ele>182.5</ele>
      </trkpt>
      <trkpt lat="43.899839" lon="5.123298">
        <ele>185</ele>
      </trkpt>
      <trkpt lat="43.900127" lon="5.123422">
        <ele>189.1</ele>
      </trkpt>
      <trkpt lat="43.900533" lon="5.123722">
        <ele>190.4</ele>
      </trkpt>
      <trkpt lat="43.900719" lon="5.123819">
        <ele>190.9</ele>
      </trkpt>
      <trkpt lat="43.901125" lon="5.123861">
        <ele>190.7</ele>
      </trkpt>
      <trkpt lat="43.901404" lon="5.123963">
        <ele>190.8</ele>
      </trkpt>
      <trkpt lat="43.901582" lon="5.124041">
        <ele>191.2</ele>
      </trkpt>
      <trkpt lat="43.901979" lon="5.124307">
        <ele>192.7</ele>
      </trkpt>
      <trkpt lat="43.902052" lon="5.124339">
        <ele>192.7</ele>
      </trkpt>
      <trkpt lat="43.902295" lon="5.124438">
        <ele>192.1</ele>
      </trkpt>
      <trkpt lat="43.902482" lon="5.124511">
        <ele>192.1</ele>
      </trkpt>
      <trkpt lat="43.903177" lon="5.124827">
        <ele>190.9</ele>
      </trkpt>
      <trkpt lat="43.903300" lon="5.124942">
        <ele>191.6</ele>
      </trkpt>
      <trkpt lat="43.903343" lon="5.124999">
        <ele>191.9</ele>
      </trkpt>
      <trkpt lat="43.904372" lon="5.125238">
        <ele>195.5</ele>
      </trkpt>
      <trkpt lat="43.904461" lon="5.125259">
        <ele>195.9</ele>
      </trkpt>
      <trkpt lat="43.905260" lon="5.125527">
        <ele>197.7</ele>
      </trkpt>
      <trkpt lat="43.905318" lon="5.125546">
        <ele>197.6</ele>
      </trkpt>
      <trkpt lat="43.905419" lon="5.125540">
        <ele>197.4</ele>
      </trkpt>
      <trkpt lat="43.905635" lon="5.125583">
        <ele>197.3</ele>
      </trkpt>
      <trkpt lat="43.905817" lon="5.125680">
        <ele>197.6</ele>
      </trkpt>
      <trkpt lat="43.905948" lon="5.125846">
        <ele>197.8</ele>
      </trkpt>
      <trkpt lat="43.906053" lon="5.126023">
        <ele>197.7</ele>
      </trkpt>
      <trkpt lat="43.906138" lon="5.126066">
        <ele>197.5</ele>
      </trkpt>
      <trkpt lat="43.906354" lon="5.126388">
        <ele>196.7</ele>
      </trkpt>
      <trkpt lat="43.906714" lon="5.126635">
        <ele>191.7</ele>
      </trkpt>
      <trkpt lat="43.906783" lon="5.126688">
        <ele>189.1</ele>
      </trkpt>
      <trkpt lat="43.906841" lon="5.126670">
        <ele>188.2</ele>
      </trkpt>
      <trkpt lat="43.906889" lon="5.126490">
        <ele>190.8</ele>
      </trkpt>
      <trkpt lat="43.907015" lon="5.126243">
        <ele>191.1</ele>
      </trkpt>
      <trkpt lat="43.907111" lon="5.125996">
        <ele>192</ele>
      </trkpt>
      <trkpt lat="43.907218" lon="5.125819">
        <ele>197.2</ele>
      </trkpt>
      <trkpt lat="43.907523" lon="5.125532">
        <ele>197.6</ele>
      </trkpt>
      <trkpt lat="43.907878" lon="5.125291">
        <ele>199.2</ele>
      </trkpt>
      <trkpt lat="43.908035" lon="5.125165">
        <ele>199.8</ele>
      </trkpt>
      <trkpt lat="43.908155" lon="5.124875">
        <ele>204.4</ele>
      </trkpt>
      <trkpt lat="43.908286" lon="5.124261">
        <ele>206.3</ele>
      </trkpt>
      <trkpt lat="43.908313" lon="5.123824">
        <ele>204.8</ele>
      </trkpt>
      <trkpt lat="43.908127" lon="5.123743">
        <ele>204.4</ele>
      </trkpt>
      <trkpt lat="43.907857" lon="5.123727">
        <ele>204.1</ele>
      </trkpt>
      <trkpt lat="43.907520" lon="5.123595">
        <ele>203.2</ele>
      </trkpt>
      <trkpt lat="43.906980" lon="5.123730">
        <ele>201.2</ele>
      </trkpt>
      <trkpt lat="43.906825" lon="5.123695">
        <ele>200.8</ele>
      </trkpt>
      <trkpt lat="43.906490" lon="5.123432">
        <ele>196.9</ele>
      </trkpt>
      <trkpt lat="43.906340" lon="5.123412">
        <ele>196.2</ele>
      </trkpt>
      <trkpt lat="43.906070" lon="5.123237">
        <ele>188.9</ele>
      </trkpt>
      <trkpt lat="43.905739" lon="5.123373">
        <ele>190</ele>
      </trkpt>
      <trkpt lat="43.905534" lon="5.123395">
        <ele>188.4</ele>
      </trkpt>
      <trkpt lat="43.905368" lon="5.123464">
        <ele>187</ele>
      </trkpt>
      <trkpt lat="43.905202" lon="5.123481">
        <ele>185.2</ele>
      </trkpt>
      <trkpt lat="43.905030" lon="5.123534">
        <ele>184.3</ele>
      </trkpt>
      <trkpt lat="43.904750" lon="5.123770">
        <ele>183.5</ele>
      </trkpt>
      <trkpt lat="43.904378" lon="5.123684">
        <ele>182.7</ele>
      </trkpt>
      <trkpt lat="43.904119" lon="5.123577">
        <ele>182.4</ele>
      </trkpt>
      <trkpt lat="43.903829" lon="5.123733">
        <ele>184</ele>
      </trkpt>
      <trkpt lat="43.903702" lon="5.123652">
        <ele>184.1</ele>
      </trkpt>
      <trkpt lat="43.903563" lon="5.123454">
        <ele>184.2</ele>
      </trkpt>
      <trkpt lat="43.903630" lon="5.123304">
        <ele>182.6</ele>
      </trkpt>
      <trkpt lat="43.903680" lon="5.123046">
        <ele>182.2</ele>
      </trkpt>
      <trkpt lat="43.903610" lon="5.122882">
        <ele>182.6</ele>
      </trkpt>
      <trkpt lat="43.903270" lon="5.121990">
        <ele>189.6</ele>
      </trkpt>
      <trkpt lat="43.902860" lon="5.121460">
        <ele>191.4</ele>
      </trkpt>
      <trkpt lat="43.902010" lon="5.121270">
        <ele>190.4</ele>
      </trkpt>
      <trkpt lat="43.901330" lon="5.121038">
        <ele>187.2</ele>
      </trkpt>
      <trkpt lat="43.900950" lon="5.120783">
        <ele>184.4</ele>
      </trkpt>
      <trkpt lat="43.900714" lon="5.120686">
        <ele>181.8</ele>
      </trkpt>
      <trkpt lat="43.900480" lon="5.120552">
        <ele>179.8</ele>
      </trkpt>
      <trkpt lat="43.900130" lon="5.120319">
        <ele>178.4</ele>
      </trkpt>
      <trkpt lat="43.899860" lon="5.120244">
        <ele>174.8</ele>
      </trkpt>
      <trkpt lat="43.899670" lon="5.120049">
        <ele>174.2</ele>
      </trkpt>
      <trkpt lat="43.899360" lon="5.119884">
        <ele>171.2</ele>
      </trkpt>
      <trkpt lat="43.898810" lon="5.119857">
        <ele>165.4</ele>
      </trkpt>
      <trkpt lat="43.898186" lon="5.119967">
        <ele>158.8</ele>
      </trkpt>
      <trkpt lat="43.898070" lon="5.119994">
        <ele>157.8</ele>
      </trkpt>
      <trkpt lat="43.897989" lon="5.119806">
        <ele>157</ele>
      </trkpt>
      <trkpt lat="43.897424" lon="5.118984">
        <ele>149.9</ele>
      </trkpt>
      <trkpt lat="43.897340" lon="5.118862">
        <ele>149.5</ele>
      </trkpt>
      <trkpt lat="43.897429" lon="5.118814">
        <ele>149.6</ele>
      </trkpt>
      <trkpt lat="43.897444" lon="5.118701">
        <ele>149.5</ele>
      </trkpt>
      <trkpt lat="43.897510" lon="5.118583">
        <ele>151.4</ele>
      </trkpt>
      <trkpt lat="43.897500" lon="5.118313">
        <ele>149.7</ele>
      </trkpt>
      <trkpt lat="43.897280" lon="5.117929">
        <ele>146.9</ele>
      </trkpt>
      <trkpt lat="43.897119" lon="5.117751">
        <ele>146.8</ele>
      </trkpt>
      <trkpt lat="43.897003" lon="5.117692">
        <ele>147.2</ele>
      </trkpt>
      <trkpt lat="43.896833" lon="5.117564">
        <ele>148.3</ele>
      </trkpt>
      <trkpt lat="43.896670" lon="5.117315">
        <ele>145.9</ele>
      </trkpt>
      <trkpt lat="43.896600" lon="5.117149">
        <ele>146.4</ele>
      </trkpt>
      <trkpt lat="43.896308" lon="5.116920">
        <ele>145.7</ele>
      </trkpt>
      <trkpt lat="43.896049" lon="5.116684">
        <ele>146.6</ele>
      </trkpt>
      <trkpt lat="43.895875" lon="5.116464">
        <ele>144.2</ele>
      </trkpt>
      <trkpt lat="43.895701" lon="5.116357">
        <ele>144</ele>
      </trkpt>
      <trkpt lat="43.895534" lon="5.116153">
        <ele>142.9</ele>
      </trkpt>
      <trkpt lat="43.895400" lon="5.116083">
        <ele>142.7</ele>
      </trkpt>
      <trkpt lat="43.895256" lon="5.115906">
        <ele>142.4</ele>
      </trkpt>
      <trkpt lat="43.895190" lon="5.115749">
        <ele>139.2</ele>
      </trkpt>
      <trkpt lat="43.895063" lon="5.115665">
        <ele>139.3</ele>
      </trkpt>
      <trkpt lat="43.895005" lon="5.115520">
        <ele>138</ele>
      </trkpt>
      <trkpt lat="43.894600" lon="5.115135">
        <ele>136</ele>
      </trkpt>
      <trkpt lat="43.894510" lon="5.115206">
        <ele>136.1</ele>
      </trkpt>
      <trkpt lat="43.894450" lon="5.115588">
        <ele>136.3</ele>
      </trkpt>
      <trkpt lat="43.894360" lon="5.115845">
        <ele>136.4</ele>
      </trkpt>
      <trkpt lat="43.894077" lon="5.115659">
        <ele>133.8</ele>
      </trkpt>
      <trkpt lat="43.893450" lon="5.115403">
        <ele>132.7</ele>
      </trkpt>
      <trkpt lat="43.893385" lon="5.115219">
        <ele>131.6</ele>
      </trkpt>
      <trkpt lat="43.893366" lon="5.115021">
        <ele>129.7</ele>
      </trkpt>
      <trkpt lat="43.893366" lon="5.114828">
        <ele>128.2</ele>
      </trkpt>
      <trkpt lat="43.892341" lon="5.114136">
        <ele>117.7</ele>
      </trkpt>
      <trkpt lat="43.892243" lon="5.114061">
        <ele>117.2</ele>
      </trkpt>
    </trkseg>
  </trk>
</gpx>