<?xml version="1.0" ?>
<gpx xmlns="http://www.topografix.com/GPX/1/1" xmlns:xsi="http://www.w3.org/2001/XMLSchema-instance" xsi:schemaLocation="http://www.topografix.com/GPX/1/1 http://www.topografix.com/GPX/1/1/gpx.xsd" version="1.1" creator="EditGPX">
  <trk>
    <name>NewTrack</name>
    <trkseg>
      <trkpt lat="43.763792" lon="5.586253">
        <ele>309</ele>
      </trkpt>
      <trkpt lat="43.763581" lon="5.586119">
        <ele>309.2</ele>
      </trkpt>
      <trkpt lat="43.763219" lon="5.585990">
        <ele>311.4</ele>
      </trkpt>
      <trkpt lat="43.762936" lon="5.586030">
        <ele>313.8</ele>
      </trkpt>
      <trkpt lat="43.762320" lon="5.586170">
        <ele>317.3</ele>
      </trkpt>
      <trkpt lat="43.762304" lon="5.586255">
        <ele>318.2</ele>
      </trkpt>
      <trkpt lat="43.762298" lon="5.586301">
        <ele>318.6</ele>
      </trkpt>
      <trkpt lat="43.762287" lon="5.586379">
        <ele>319.3</ele>
      </trkpt>
      <trkpt lat="43.761607" lon="5.587315">
        <ele>333.5</ele>
      </trkpt>
      <trkpt lat="43.761558" lon="5.587452">
        <ele>334</ele>
      </trkpt>
      <trkpt lat="43.761541" lon="5.587567">
        <ele>338.1</ele>
      </trkpt>
      <trkpt lat="43.761512" lon="5.587859">
        <ele>342.1</ele>
      </trkpt>
      <trkpt lat="43.761492" lon="5.588377">
        <ele>351.4</ele>
      </trkpt>
      <trkpt lat="43.761399" lon="5.588879">
        <ele>355.2</ele>
      </trkpt>
      <trkpt lat="43.761328" lon="5.589201">
        <ele>361</ele>
      </trkpt>
      <trkpt lat="43.761357" lon="5.589214">
        <ele>361.2</ele>
      </trkpt>
      <trkpt lat="43.761425" lon="5.589083">
        <ele>357</ele>
      </trkpt>
      <trkpt lat="43.761556" lon="5.588847">
        <ele>355.6</ele>
      </trkpt>
      <trkpt lat="43.761655" lon="5.588683">
        <ele>353.8</ele>
      </trkpt>
      <trkpt lat="43.761816" lon="5.588415">
        <ele>357.2</ele>
      </trkpt>
      <trkpt lat="43.762002" lon="5.588109">
        <ele>352</ele>
      </trkpt>
      <trkpt lat="43.762316" lon="5.587731">
        <ele>351.6</ele>
      </trkpt>
      <trkpt lat="43.762502" lon="5.587583">
        <ele>353</ele>
      </trkpt>
      <trkpt lat="43.762831" lon="5.587438">
        <ele>341.5</ele>
      </trkpt>
      <trkpt lat="43.762996" lon="5.587406">
        <ele>340.8</ele>
      </trkpt>
      <trkpt lat="43.763160" lon="5.587454">
        <ele>342.6</ele>
      </trkpt>
      <trkpt lat="43.763319" lon="5.587508">
        <ele>348.6</ele>
      </trkpt>
      <trkpt lat="43.763379" lon="5.587586">
        <ele>343.8</ele>
      </trkpt>
      <trkpt lat="43.763441" lon="5.587715">
        <ele>340.4</ele>
      </trkpt>
      <trkpt lat="43.763457" lon="5.587902">
        <ele>340.1</ele>
      </trkpt>
      <trkpt lat="43.763457" lon="5.588163">
        <ele>345</ele>
      </trkpt>
      <trkpt lat="43.763422" lon="5.588334">
        <ele>353.5</ele>
      </trkpt>
      <trkpt lat="43.763356" lon="5.588458">
        <ele>352.3</ele>
      </trkpt>
      <trkpt lat="43.763298" lon="5.588610">
        <ele>364.6</ele>
      </trkpt>
      <trkpt lat="43.763277" lon="5.588761">
        <ele>365.7</ele>
      </trkpt>
      <trkpt lat="43.763290" lon="5.588924">
        <ele>366</ele>
      </trkpt>
      <trkpt lat="43.763259" lon="5.589013">
        <ele>365.8</ele>
      </trkpt>
      <trkpt lat="43.763096" lon="5.589214">
        <ele>367.1</ele>
      </trkpt>
      <trkpt lat="43.762934" lon="5.589488">
        <ele>368.4</ele>
      </trkpt>
      <trkpt lat="43.762794" lon="5.589616">
        <ele>369.2</ele>
      </trkpt>
      <trkpt lat="43.762554" lon="5.589681">
        <ele>370.6</ele>
      </trkpt>
      <trkpt lat="43.762261" lon="5.589761">
        <ele>371.6</ele>
      </trkpt>
      <trkpt lat="43.762201" lon="5.589817">
        <ele>371.3</ele>
      </trkpt>
      <trkpt lat="43.762052" lon="5.590150">
        <ele>368.8</ele>
      </trkpt>
      <trkpt lat="43.761872" lon="5.590528">
        <ele>367.7</ele>
      </trkpt>
      <trkpt lat="43.761799" lon="5.590673">
        <ele>367.4</ele>
      </trkpt>
      <trkpt lat="43.761651" lon="5.591027">
        <ele>367.6</ele>
      </trkpt>
      <trkpt lat="43.761533" lon="5.591266">
        <ele>368.2</ele>
      </trkpt>
      <trkpt lat="43.761475" lon="5.591344">
        <ele>368.4</ele>
      </trkpt>
      <trkpt lat="43.761457" lon="5.591389">
        <ele>368.5</ele>
      </trkpt>
      <trkpt lat="43.761484" lon="5.591456">
        <ele>368.7</ele>
      </trkpt>
      <trkpt lat="43.761508" lon="5.591521">
        <ele>368.9</ele>
      </trkpt>
      <trkpt lat="43.761494" lon="5.591631">
        <ele>369.1</ele>
      </trkpt>
      <trkpt lat="43.761436" lon="5.591982">
        <ele>371.6</ele>
      </trkpt>
      <trkpt lat="43.761364" lon="5.592280">
        <ele>372.4</ele>
      </trkpt>
      <trkpt lat="43.761118" lon="5.592980">
        <ele>377.4</ele>
      </trkpt>
      <trkpt lat="43.761087" lon="5.593066">
        <ele>377.8</ele>
      </trkpt>
      <trkpt lat="43.760797" lon="5.593766">
        <ele>383.1</ele>
      </trkpt>
      <trkpt lat="43.760644" lon="5.594219">
        <ele>384</ele>
      </trkpt>
      <trkpt lat="43.760388" lon="5.595405">
        <ele>381.8</ele>
      </trkpt>
      <trkpt lat="43.760359" lon="5.595523">
        <ele>382</ele>
      </trkpt>
      <trkpt lat="43.760311" lon="5.595579">
        <ele>382.2</ele>
      </trkpt>
      <trkpt lat="43.760274" lon="5.595638">
        <ele>382.5</ele>
      </trkpt>
      <trkpt lat="43.760146" lon="5.596153">
        <ele>382.9</ele>
      </trkpt>
      <trkpt lat="43.760102" lon="5.596367">
        <ele>383.5</ele>
      </trkpt>
      <trkpt lat="43.759980" lon="5.596890">
        <ele>392.6</ele>
      </trkpt>
      <trkpt lat="43.759879" lon="5.597263">
        <ele>394.4</ele>
      </trkpt>
      <trkpt lat="43.759797" lon="5.597507">
        <ele>395.9</ele>
      </trkpt>
      <trkpt lat="43.759675" lon="5.597773">
        <ele>397.4</ele>
      </trkpt>
      <trkpt lat="43.759598" lon="5.597888">
        <ele>397.9</ele>
      </trkpt>
      <trkpt lat="43.759365" lon="5.598199">
        <ele>400.1</ele>
      </trkpt>
      <trkpt lat="43.759073" lon="5.598588">
        <ele>405.5</ele>
      </trkpt>
      <trkpt lat="43.758880" lon="5.598865">
        <ele>406</ele>
      </trkpt>
      <trkpt lat="43.758721" lon="5.599144">
        <ele>407.1</ele>
      </trkpt>
      <trkpt lat="43.758670" lon="5.599070">
        <ele>407.7</ele>
      </trkpt>
      <trkpt lat="43.758651" lon="5.598709">
        <ele>407.6</ele>
      </trkpt>
      <trkpt lat="43.758686" lon="5.598451">
        <ele>407.6</ele>
      </trkpt>
      <trkpt lat="43.758589" lon="5.598521">
        <ele>408.1</ele>
      </trkpt>
      <trkpt lat="43.758291" lon="5.598832">
        <ele>413.1</ele>
      </trkpt>
      <trkpt lat="43.757965" lon="5.599299">
        <ele>412.6</ele>
      </trkpt>
      <trkpt lat="43.757783" lon="5.599573">
        <ele>412.2</ele>
      </trkpt>
      <trkpt lat="43.757605" lon="5.599873">
        <ele>411.8</ele>
      </trkpt>
      <trkpt lat="43.757533" lon="5.599937">
        <ele>411.9</ele>
      </trkpt>
      <trkpt lat="43.757349" lon="5.600047">
        <ele>412.3</ele>
      </trkpt>
      <trkpt lat="43.756952" lon="5.600246">
        <ele>413.6</ele>
      </trkpt>
      <trkpt lat="43.756471" lon="5.600573">
        <ele>417.6</ele>
      </trkpt>
      <trkpt lat="43.755845" lon="5.601206">
        <ele>419.6</ele>
      </trkpt>
      <trkpt lat="43.755466" lon="5.601579">
        <ele>428.8</ele>
      </trkpt>
      <trkpt lat="43.755303" lon="5.602359">
        <ele>431.8</ele>
      </trkpt>
      <trkpt lat="43.755024" lon="5.603049">
        <ele>431.6</ele>
      </trkpt>
      <trkpt lat="43.754801" lon="5.603690">
        <ele>437.6</ele>
      </trkpt>
      <trkpt lat="43.754722" lon="5.603990">
        <ele>436.8</ele>
      </trkpt>
      <trkpt lat="43.754720" lon="5.604790">
        <ele>434</ele>
      </trkpt>
      <trkpt lat="43.754514" lon="5.605457">
        <ele>434.7</ele>
      </trkpt>
      <trkpt lat="43.754315" lon="5.605943">
        <ele>435.6</ele>
      </trkpt>
      <trkpt lat="43.754210" lon="5.606208">
        <ele>433.2</ele>
      </trkpt>
      <trkpt lat="43.754162" lon="5.606396">
        <ele>441.6</ele>
      </trkpt>
      <trkpt lat="43.754144" lon="5.606549">
        <ele>438.6</ele>
      </trkpt>
      <trkpt lat="43.754158" lon="5.606715">
        <ele>435</ele>
      </trkpt>
      <trkpt lat="43.754381" lon="5.607021">
        <ele>427.6</ele>
      </trkpt>
      <trkpt lat="43.754429" lon="5.607067">
        <ele>427.1</ele>
      </trkpt>
      <trkpt lat="43.754728" lon="5.607182">
        <ele>424.8</ele>
      </trkpt>
      <trkpt lat="43.754929" lon="5.607246">
        <ele>423.2</ele>
      </trkpt>
      <trkpt lat="43.755070" lon="5.607271">
        <ele>417.1</ele>
      </trkpt>
      <trkpt lat="43.755208" lon="5.607268">
        <ele>416.5</ele>
      </trkpt>
      <trkpt lat="43.755344" lon="5.607222">
        <ele>415.8</ele>
      </trkpt>
      <trkpt lat="43.755466" lon="5.607128">
        <ele>415.2</ele>
      </trkpt>
      <trkpt lat="43.755659" lon="5.606965">
        <ele>414.4</ele>
      </trkpt>
      <trkpt lat="43.755787" lon="5.606812">
        <ele>413.5</ele>
      </trkpt>
      <trkpt lat="43.755876" lon="5.606635">
        <ele>411.7</ele>
      </trkpt>
      <trkpt lat="43.755964" lon="5.606394">
        <ele>411</ele>
      </trkpt>
      <trkpt lat="43.756438" lon="5.606672">
        <ele>407</ele>
      </trkpt>
      <trkpt lat="43.756529" lon="5.606630">
        <ele>407.8</ele>
      </trkpt>
      <trkpt lat="43.756791" lon="5.606066">
        <ele>405.6</ele>
      </trkpt>
      <trkpt lat="43.757457" lon="5.606034">
        <ele>403.5</ele>
      </trkpt>
      <trkpt lat="43.757732" lon="5.606018">
        <ele>399.4</ele>
      </trkpt>
      <trkpt lat="43.758350" lon="5.605801">
        <ele>394.4</ele>
      </trkpt>
      <trkpt lat="43.758682" lon="5.605828">
        <ele>391.2</ele>
      </trkpt>
      <trkpt lat="43.758740" lon="5.605691">
        <ele>390.7</ele>
      </trkpt>
      <trkpt lat="43.758713" lon="5.605028">
        <ele>390.6</ele>
      </trkpt>
      <trkpt lat="43.758980" lon="5.604285">
        <ele>387.9</ele>
      </trkpt>
      <trkpt lat="43.759639" lon="5.604036">
        <ele>381.5</ele>
      </trkpt>
      <trkpt lat="43.759670" lon="5.604261">
        <ele>381.7</ele>
      </trkpt>
      <trkpt lat="43.759724" lon="5.604519">
        <ele>381.8</ele>
      </trkpt>
      <trkpt lat="43.760177" lon="5.605609">
        <ele>377.6</ele>
      </trkpt>
      <trkpt lat="43.760507" lon="5.606402">
        <ele>378.9</ele>
      </trkpt>
      <trkpt lat="43.760952" lon="5.607193">
        <ele>382.8</ele>
      </trkpt>
      <trkpt lat="43.760905" lon="5.607405">
        <ele>382.6</ele>
      </trkpt>
      <trkpt lat="43.760861" lon="5.607700">
        <ele>383.8</ele>
      </trkpt>
      <trkpt lat="43.760787" lon="5.608293">
        <ele>383</ele>
      </trkpt>
      <trkpt lat="43.760714" lon="5.609081">
        <ele>386</ele>
      </trkpt>
      <trkpt lat="43.760677" lon="5.609221">
        <ele>386.6</ele>
      </trkpt>
      <trkpt lat="43.760532" lon="5.609950">
        <ele>386.7</ele>
      </trkpt>
      <trkpt lat="43.760487" lon="5.610441">
        <ele>388.2</ele>
      </trkpt>
      <trkpt lat="43.760477" lon="5.610747">
        <ele>388.7</ele>
      </trkpt>
      <trkpt lat="43.760479" lon="5.611621">
        <ele>390.5</ele>
      </trkpt>
      <trkpt lat="43.760495" lon="5.612787">
        <ele>395.9</ele>
      </trkpt>
      <trkpt lat="43.760495" lon="5.612799">
        <ele>395.9</ele>
      </trkpt>
      <trkpt lat="43.760487" lon="5.613043">
        <ele>396.6</ele>
      </trkpt>
      <trkpt lat="43.760473" lon="5.613217">
        <ele>397</ele>
      </trkpt>
      <trkpt lat="43.760413" lon="5.613496">
        <ele>400.5</ele>
      </trkpt>
      <trkpt lat="43.760210" lon="5.614172">
        <ele>405.3</ele>
      </trkpt>
      <trkpt lat="43.760134" lon="5.614614">
        <ele>406.4</ele>
      </trkpt>
      <trkpt lat="43.760107" lon="5.615221">
        <ele>409.5</ele>
      </trkpt>
      <trkpt lat="43.760074" lon="5.615339">
        <ele>409.7</ele>
      </trkpt>
      <trkpt lat="43.760020" lon="5.615548">
        <ele>410.6</ele>
      </trkpt>
      <trkpt lat="43.759888" lon="5.615840">
        <ele>413.9</ele>
      </trkpt>
      <trkpt lat="43.759697" lon="5.616154">
        <ele>414</ele>
      </trkpt>
      <trkpt lat="43.759255" lon="5.616838">
        <ele>417.7</ele>
      </trkpt>
      <trkpt lat="43.759038" lon="5.617238">
        <ele>416.2</ele>
      </trkpt>
      <trkpt lat="43.758976" lon="5.617455">
        <ele>417.2</ele>
      </trkpt>
      <trkpt lat="43.758935" lon="5.617675">
        <ele>419.1</ele>
      </trkpt>
      <trkpt lat="43.758904" lon="5.618066">
        <ele>419.5</ele>
      </trkpt>
      <trkpt lat="43.758840" lon="5.618412">
        <ele>421.9</ele>
      </trkpt>
      <trkpt lat="43.758765" lon="5.618793">
        <ele>422.4</ele>
      </trkpt>
      <trkpt lat="43.758512" lon="5.619923">
        <ele>425.9</ele>
      </trkpt>
      <trkpt lat="43.758457" lon="5.620169">
        <ele>428.3</ele>
      </trkpt>
      <trkpt lat="43.758449" lon="5.620208">
        <ele>428.5</ele>
      </trkpt>
      <trkpt lat="43.758205" lon="5.621387">
        <ele>429.6</ele>
      </trkpt>
      <trkpt lat="43.758153" lon="5.621591">
        <ele>430.5</ele>
      </trkpt>
      <trkpt lat="43.757986" lon="5.622768">
        <ele>432.6</ele>
      </trkpt>
      <trkpt lat="43.757860" lon="5.623589">
        <ele>436</ele>
      </trkpt>
      <trkpt lat="43.757812" lon="5.623817">
        <ele>436.7</ele>
      </trkpt>
      <trkpt lat="43.757686" lon="5.624346">
        <ele>439.7</ele>
      </trkpt>
      <trkpt lat="43.757605" lon="5.624700">
        <ele>440.4</ele>
      </trkpt>
      <trkpt lat="43.757334" lon="5.625848">
        <ele>440.2</ele>
      </trkpt>
      <trkpt lat="43.757477" lon="5.625912">
        <ele>441</ele>
      </trkpt>
      <trkpt lat="43.757520" lon="5.625982">
        <ele>442.7</ele>
      </trkpt>
      <trkpt lat="43.757655" lon="5.626202">
        <ele>443.2</ele>
      </trkpt>
      <trkpt lat="43.757725" lon="5.626298">
        <ele>443.4</ele>
      </trkpt>
      <trkpt lat="43.757857" lon="5.626373">
        <ele>443.6</ele>
      </trkpt>
      <trkpt lat="43.758167" lon="5.626464">
        <ele>444.5</ele>
      </trkpt>
      <trkpt lat="43.758492" lon="5.626379">
        <ele>444.8</ele>
      </trkpt>
      <trkpt lat="43.758961" lon="5.626266">
        <ele>444</ele>
      </trkpt>
      <trkpt lat="43.758992" lon="5.626148">
        <ele>443.7</ele>
      </trkpt>
      <trkpt lat="43.759007" lon="5.625933">
        <ele>443.2</ele>
      </trkpt>
      <trkpt lat="43.759046" lon="5.625821">
        <ele>442.2</ele>
      </trkpt>
      <trkpt lat="43.759189" lon="5.625778">
        <ele>441.4</ele>
      </trkpt>
      <trkpt lat="43.759341" lon="5.625778">
        <ele>440.5</ele>
      </trkpt>
      <trkpt lat="43.759476" lon="5.625890">
        <ele>440.9</ele>
      </trkpt>
      <trkpt lat="43.759860" lon="5.625805">
        <ele>438.6</ele>
      </trkpt>
      <trkpt lat="43.760344" lon="5.625783">
        <ele>438</ele>
      </trkpt>
      <trkpt lat="43.760968" lon="5.625569">
        <ele>439.2</ele>
      </trkpt>
      <trkpt lat="43.761030" lon="5.625520">
        <ele>439.3</ele>
      </trkpt>
      <trkpt lat="43.761138" lon="5.625574">
        <ele>439.5</ele>
      </trkpt>
      <trkpt lat="43.761351" lon="5.625617">
        <ele>440</ele>
      </trkpt>
      <trkpt lat="43.761376" lon="5.625622">
        <ele>440</ele>
      </trkpt>
      <trkpt lat="43.761375" lon="5.625676">
        <ele>440.1</ele>
      </trkpt>
      <trkpt lat="43.761394" lon="5.626127">
        <ele>441.2</ele>
      </trkpt>
      <trkpt lat="43.761394" lon="5.626368">
        <ele>441.4</ele>
      </trkpt>
      <trkpt lat="43.761429" lon="5.626652">
        <ele>441.7</ele>
      </trkpt>
      <trkpt lat="43.761564" lon="5.627360">
        <ele>443.3</ele>
      </trkpt>
      <trkpt lat="43.761677" lon="5.627757">
        <ele>445.9</ele>
      </trkpt>
      <trkpt lat="43.761863" lon="5.627961">
        <ele>446.6</ele>
      </trkpt>
      <trkpt lat="43.762105" lon="5.629366">
        <ele>449.7</ele>
      </trkpt>
      <trkpt lat="43.762175" lon="5.629776">
        <ele>450.5</ele>
      </trkpt>
      <trkpt lat="43.762266" lon="5.630305">
        <ele>453.5</ele>
      </trkpt>
      <trkpt lat="43.762711" lon="5.631417">
        <ele>461.3</ele>
      </trkpt>
      <trkpt lat="43.762728" lon="5.631459">
        <ele>461.4</ele>
      </trkpt>
      <trkpt lat="43.762785" lon="5.631507">
        <ele>461.5</ele>
      </trkpt>
      <trkpt lat="43.762816" lon="5.631547">
        <ele>461.5</ele>
      </trkpt>
      <trkpt lat="43.763143" lon="5.632266">
        <ele>466.2</ele>
      </trkpt>
      <trkpt lat="43.763466" lon="5.632687">
        <ele>471.1</ele>
      </trkpt>
      <trkpt lat="43.763538" lon="5.632856">
        <ele>472.3</ele>
      </trkpt>
      <trkpt lat="43.763571" lon="5.633065">
        <ele>473.1</ele>
      </trkpt>
      <trkpt lat="43.763579" lon="5.633301">
        <ele>473.6</ele>
      </trkpt>
      <trkpt lat="43.763614" lon="5.633570">
        <ele>475.6</ele>
      </trkpt>
      <trkpt lat="43.763637" lon="5.633819">
        <ele>475.9</ele>
      </trkpt>
      <trkpt lat="43.763703" lon="5.634063">
        <ele>476.1</ele>
      </trkpt>
      <trkpt lat="43.763780" lon="5.634305">
        <ele>476.5</ele>
      </trkpt>
      <trkpt lat="43.763832" lon="5.634500">
        <ele>476.5</ele>
      </trkpt>
      <trkpt lat="43.763852" lon="5.634632">
        <ele>476.5</ele>
      </trkpt>
      <trkpt lat="43.763848" lon="5.634747">
        <ele>476.5</ele>
      </trkpt>
      <trkpt lat="43.763815" lon="5.634795">
        <ele>476.5</ele>
      </trkpt>
      <trkpt lat="43.763780" lon="5.634865">
        <ele>476.5</ele>
      </trkpt>
      <trkpt lat="43.763759" lon="5.634903">
        <ele>476.5</ele>
      </trkpt>
      <trkpt lat="43.763825" lon="5.636099">
        <ele>477.2</ele>
      </trkpt>
      <trkpt lat="43.763869" lon="5.636831">
        <ele>479</ele>
      </trkpt>
      <trkpt lat="43.763898" lon="5.637177">
        <ele>479</ele>
      </trkpt>
      <trkpt lat="43.763945" lon="5.637864">
        <ele>479.7</ele>
      </trkpt>
      <trkpt lat="43.763905" lon="5.639123">
        <ele>481.3</ele>
      </trkpt>
      <trkpt lat="43.763902" lon="5.639210">
        <ele>481.6</ele>
      </trkpt>
      <trkpt lat="43.763871" lon="5.639412">
        <ele>481.7</ele>
      </trkpt>
      <trkpt lat="43.763819" lon="5.639615">
        <ele>481.7</ele>
      </trkpt>
      <trkpt lat="43.763403" lon="5.640787">
        <ele>480.4</ele>
      </trkpt>
      <trkpt lat="43.763403" lon="5.640788">
        <ele>480.4</ele>
      </trkpt>
      <trkpt lat="43.763269" lon="5.641166">
        <ele>483.3</ele>
      </trkpt>
      <trkpt lat="43.762913" lon="5.642170">
        <ele>486.3</ele>
      </trkpt>
      <trkpt lat="43.762913" lon="5.642170">
        <ele>486.3</ele>
      </trkpt>
      <trkpt lat="43.762557" lon="5.643174">
        <ele>487.2</ele>
      </trkpt>
      <trkpt lat="43.762368" lon="5.643708">
        <ele>487.1</ele>
      </trkpt>
      <trkpt lat="43.762329" lon="5.643813">
        <ele>487.2</ele>
      </trkpt>
      <trkpt lat="43.762275" lon="5.643733">
        <ele>487.1</ele>
      </trkpt>
      <trkpt lat="43.762046" lon="5.643325">
        <ele>487.2</ele>
      </trkpt>
      <trkpt lat="43.761851" lon="5.642987">
        <ele>487.6</ele>
      </trkpt>
      <trkpt lat="43.761429" lon="5.642346">
        <ele>493.9</ele>
      </trkpt>
      <trkpt lat="43.761256" lon="5.642102">
        <ele>495.7</ele>
      </trkpt>
      <trkpt lat="43.760927" lon="5.641769">
        <ele>499.9</ele>
      </trkpt>
      <trkpt lat="43.760830" lon="5.641694">
        <ele>503</ele>
      </trkpt>
      <trkpt lat="43.760735" lon="5.641667">
        <ele>503</ele>
      </trkpt>
      <trkpt lat="43.760555" lon="5.641643">
        <ele>504.4</ele>
      </trkpt>
      <trkpt lat="43.760301" lon="5.641555">
        <ele>505.1</ele>
      </trkpt>
      <trkpt lat="43.760150" lon="5.641471">
        <ele>505.4</ele>
      </trkpt>
      <trkpt lat="43.759844" lon="5.641243">
        <ele>507</ele>
      </trkpt>
      <trkpt lat="43.759404" lon="5.640932">
        <ele>508.2</ele>
      </trkpt>
      <trkpt lat="43.759098" lon="5.640804">
        <ele>511</ele>
      </trkpt>
      <trkpt lat="43.758823" lon="5.640726">
        <ele>512.9</ele>
      </trkpt>
      <trkpt lat="43.758809" lon="5.640782">
        <ele>512.9</ele>
      </trkpt>
      <trkpt lat="43.758751" lon="5.641085">
        <ele>510</ele>
      </trkpt>
      <trkpt lat="43.758498" lon="5.641748">
        <ele>506.6</ele>
      </trkpt>
      <trkpt lat="43.758323" lon="5.642174">
        <ele>507.1</ele>
      </trkpt>
      <trkpt lat="43.758189" lon="5.642531">
        <ele>505.2</ele>
      </trkpt>
      <trkpt lat="43.757973" lon="5.642933">
        <ele>505.2</ele>
      </trkpt>
      <trkpt lat="43.757442" lon="5.643902">
        <ele>502.5</ele>
      </trkpt>
      <trkpt lat="43.757095" lon="5.644535">
        <ele>499.4</ele>
      </trkpt>
      <trkpt lat="43.756866" lon="5.644953">
        <ele>498.6</ele>
      </trkpt>
      <trkpt lat="43.756630" lon="5.645350">
        <ele>496.2</ele>
      </trkpt>
      <trkpt lat="43.756533" lon="5.645586">
        <ele>495.7</ele>
      </trkpt>
      <trkpt lat="43.756465" lon="5.645645">
        <ele>495.6</ele>
      </trkpt>
      <trkpt lat="43.756212" lon="5.645795">
        <ele>495.5</ele>
      </trkpt>
      <trkpt lat="43.756169" lon="5.645814">
        <ele>495.4</ele>
      </trkpt>
      <trkpt lat="43.756155" lon="5.645988">
        <ele>492.8</ele>
      </trkpt>
      <trkpt lat="43.756177" lon="5.646460">
        <ele>491.2</ele>
      </trkpt>
      <trkpt lat="43.756175" lon="5.646659">
        <ele>490.8</ele>
      </trkpt>
      <trkpt lat="43.756115" lon="5.646790">
        <ele>485.5</ele>
      </trkpt>
      <trkpt lat="43.755494" lon="5.647609">
        <ele>481.9</ele>
      </trkpt>
      <trkpt lat="43.755349" lon="5.647799">
        <ele>481.9</ele>
      </trkpt>
      <trkpt lat="43.755111" lon="5.648091">
        <ele>482</ele>
      </trkpt>
      <trkpt lat="43.754898" lon="5.648032">
        <ele>487.6</ele>
      </trkpt>
      <trkpt lat="43.754662" lon="5.648035">
        <ele>488.9</ele>
      </trkpt>
      <trkpt lat="43.754437" lon="5.648032">
        <ele>490.3</ele>
      </trkpt>
      <trkpt lat="43.754369" lon="5.648062">
        <ele>490.6</ele>
      </trkpt>
      <trkpt lat="43.754311" lon="5.648110">
        <ele>490.8</ele>
      </trkpt>
      <trkpt lat="43.754292" lon="5.648188">
        <ele>490.9</ele>
      </trkpt>
      <trkpt lat="43.754311" lon="5.648536">
        <ele>487.8</ele>
      </trkpt>
      <trkpt lat="43.754266" lon="5.648727">
        <ele>486.8</ele>
      </trkpt>
      <trkpt lat="43.754235" lon="5.648909">
        <ele>486.1</ele>
      </trkpt>
      <trkpt lat="43.754179" lon="5.649078">
        <ele>486</ele>
      </trkpt>
      <trkpt lat="43.754142" lon="5.649239">
        <ele>487.6</ele>
      </trkpt>
      <trkpt lat="43.754084" lon="5.649392">
        <ele>489.3</ele>
      </trkpt>
      <trkpt lat="43.753995" lon="5.649684">
        <ele>489.1</ele>
      </trkpt>
      <trkpt lat="43.753821" lon="5.649950">
        <ele>489.5</ele>
      </trkpt>
      <trkpt lat="43.753645" lon="5.650148">
        <ele>487.8</ele>
      </trkpt>
      <trkpt lat="43.753524" lon="5.650248">
        <ele>488.3</ele>
      </trkpt>
      <trkpt lat="43.753457" lon="5.650347">
        <ele>488</ele>
      </trkpt>
      <trkpt lat="43.753329" lon="5.650645">
        <ele>491</ele>
      </trkpt>
      <trkpt lat="43.753274" lon="5.650878">
        <ele>486.9</ele>
      </trkpt>
      <trkpt lat="43.753240" lon="5.651181">
        <ele>487.9</ele>
      </trkpt>
      <trkpt lat="43.753172" lon="5.651256">
        <ele>488.1</ele>
      </trkpt>
      <trkpt lat="43.753085" lon="5.651565">
        <ele>487.4</ele>
      </trkpt>
      <trkpt lat="43.753067" lon="5.651613">
        <ele>487.4</ele>
      </trkpt>
      <trkpt lat="43.752956" lon="5.651929">
        <ele>485.8</ele>
      </trkpt>
      <trkpt lat="43.752522" lon="5.652955">
        <ele>487.1</ele>
      </trkpt>
      <trkpt lat="43.752475" lon="5.653067">
        <ele>497.1</ele>
      </trkpt>
      <trkpt lat="43.752072" lon="5.654193">
        <ele>498.3</ele>
      </trkpt>
      <trkpt lat="43.751933" lon="5.654558">
        <ele>498.9</ele>
      </trkpt>
      <trkpt lat="43.751827" lon="5.655129">
        <ele>498.6</ele>
      </trkpt>
      <trkpt lat="43.751771" lon="5.655768">
        <ele>496.4</ele>
      </trkpt>
      <trkpt lat="43.751668" lon="5.656393">
        <ele>498.4</ele>
      </trkpt>
      <trkpt lat="43.751540" lon="5.656865">
        <ele>495.1</ele>
      </trkpt>
      <trkpt lat="43.751277" lon="5.657503">
        <ele>493.6</ele>
      </trkpt>
      <trkpt lat="43.751068" lon="5.658501">
        <ele>487.3</ele>
      </trkpt>
      <trkpt lat="43.750986" lon="5.659327">
        <ele>480.3</ele>
      </trkpt>
      <trkpt lat="43.750934" lon="5.659654">
        <ele>479.3</ele>
      </trkpt>
      <trkpt lat="43.750891" lon="5.659976">
        <ele>473.5</ele>
      </trkpt>
      <trkpt lat="43.750819" lon="5.659995">
        <ele>471.5</ele>
      </trkpt>
      <trkpt lat="43.750747" lon="5.660030">
        <ele>470.8</ele>
      </trkpt>
      <trkpt lat="43.750655" lon="5.660113">
        <ele>470.6</ele>
      </trkpt>
      <trkpt lat="43.750552" lon="5.660260">
        <ele>470.3</ele>
      </trkpt>
      <trkpt lat="43.750349" lon="5.660738">
        <ele>468.9</ele>
      </trkpt>
      <trkpt lat="43.750227" lon="5.660885">
        <ele>464.1</ele>
      </trkpt>
      <trkpt lat="43.750163" lon="5.661041">
        <ele>463.5</ele>
      </trkpt>
      <trkpt lat="43.750103" lon="5.661467">
        <ele>460.3</ele>
      </trkpt>
      <trkpt lat="43.750054" lon="5.661808">
        <ele>455.8</ele>
      </trkpt>
      <trkpt lat="43.750014" lon="5.661977">
        <ele>453.8</ele>
      </trkpt>
      <trkpt lat="43.749926" lon="5.662167">
        <ele>459.5</ele>
      </trkpt>
      <trkpt lat="43.749849" lon="5.662385">
        <ele>456.6</ele>
      </trkpt>
      <trkpt lat="43.749739" lon="5.662588">
        <ele>452.2</ele>
      </trkpt>
      <trkpt lat="43.749663" lon="5.662776">
        <ele>452.8</ele>
      </trkpt>
      <trkpt lat="43.749502" lon="5.662985">
        <ele>452.8</ele>
      </trkpt>
      <trkpt lat="43.749374" lon="5.663318">
        <ele>451.4</ele>
      </trkpt>
      <trkpt lat="43.749229" lon="5.663476">
        <ele>447.8</ele>
      </trkpt>
      <trkpt lat="43.749188" lon="5.663645">
        <ele>446.4</ele>
      </trkpt>
      <trkpt lat="43.749078" lon="5.663830">
        <ele>447.5</ele>
      </trkpt>
      <trkpt lat="43.749002" lon="5.663887">
        <ele>447.3</ele>
      </trkpt>
      <trkpt lat="43.748915" lon="5.663881">
        <ele>447.8</ele>
      </trkpt>
      <trkpt lat="43.748855" lon="5.663879">
        <ele>448</ele>
      </trkpt>
      <trkpt lat="43.748770" lon="5.663999">
        <ele>447.7</ele>
      </trkpt>
      <trkpt lat="43.748526" lon="5.664278">
        <ele>442.6</ele>
      </trkpt>
      <trkpt lat="43.748458" lon="5.664375">
        <ele>442.3</ele>
      </trkpt>
      <trkpt lat="43.748344" lon="5.664619">
        <ele>440.7</ele>
      </trkpt>
      <trkpt lat="43.748148" lon="5.664812">
        <ele>441.4</ele>
      </trkpt>
      <trkpt lat="43.747975" lon="5.665035">
        <ele>437.8</ele>
      </trkpt>
      <trkpt lat="43.747956" lon="5.665126">
        <ele>437.8</ele>
      </trkpt>
      <trkpt lat="43.747949" lon="5.665190">
        <ele>437.7</ele>
      </trkpt>
      <trkpt lat="43.747682" lon="5.665485">
        <ele>437.9</ele>
      </trkpt>
      <trkpt lat="43.747419" lon="5.665721">
        <ele>438.3</ele>
      </trkpt>
      <trkpt lat="43.747310" lon="5.665762">
        <ele>438.1</ele>
      </trkpt>
      <trkpt lat="43.747228" lon="5.665829">
        <ele>437.8</ele>
      </trkpt>
      <trkpt lat="43.747123" lon="5.665947">
        <ele>436.4</ele>
      </trkpt>
      <trkpt lat="43.746865" lon="5.666373">
        <ele>435.5</ele>
      </trkpt>
      <trkpt lat="43.746708" lon="5.666660">
        <ele>434.3</ele>
      </trkpt>
      <trkpt lat="43.746639" lon="5.666885">
        <ele>432.9</ele>
      </trkpt>
      <trkpt lat="43.746613" lon="5.667070">
        <ele>432.4</ele>
      </trkpt>
      <trkpt lat="43.746599" lon="5.667210">
        <ele>432</ele>
      </trkpt>
      <trkpt lat="43.746557" lon="5.667400">
        <ele>431.6</ele>
      </trkpt>
      <trkpt lat="43.746485" lon="5.667585">
        <ele>430.4</ele>
      </trkpt>
      <trkpt lat="43.746411" lon="5.667720">
        <ele>430.1</ele>
      </trkpt>
      <trkpt lat="43.746357" lon="5.667862">
        <ele>429.9</ele>
      </trkpt>
      <trkpt lat="43.746313" lon="5.668087">
        <ele>429.5</ele>
      </trkpt>
      <trkpt lat="43.746270" lon="5.668154">
        <ele>429.4</ele>
      </trkpt>
      <trkpt lat="43.746208" lon="5.668216">
        <ele>429.3</ele>
      </trkpt>
      <trkpt lat="43.746175" lon="5.668307">
        <ele>429.2</ele>
      </trkpt>
      <trkpt lat="43.746144" lon="5.668398">
        <ele>428.4</ele>
      </trkpt>
      <trkpt lat="43.746047" lon="5.668505">
        <ele>428.3</ele>
      </trkpt>
      <trkpt lat="43.745999" lon="5.668578">
        <ele>428.2</ele>
      </trkpt>
      <trkpt lat="43.745958" lon="5.668763">
        <ele>428</ele>
      </trkpt>
      <trkpt lat="43.745879" lon="5.669063">
        <ele>427</ele>
      </trkpt>
      <trkpt lat="43.745770" lon="5.669200">
        <ele>427.7</ele>
      </trkpt>
      <trkpt lat="43.745713" lon="5.669374">
        <ele>429.9</ele>
      </trkpt>
      <trkpt lat="43.745650" lon="5.669629">
        <ele>430.5</ele>
      </trkpt>
      <trkpt lat="43.745620" lon="5.669943">
        <ele>428.9</ele>
      </trkpt>
      <trkpt lat="43.745603" lon="5.670136">
        <ele>427.4</ele>
      </trkpt>
      <trkpt lat="43.745581" lon="5.670308">
        <ele>427.8</ele>
      </trkpt>
      <trkpt lat="43.745511" lon="5.670496">
        <ele>428</ele>
      </trkpt>
      <trkpt lat="43.745528" lon="5.670753">
        <ele>427</ele>
      </trkpt>
      <trkpt lat="43.745476" lon="5.671876">
        <ele>420.5</ele>
      </trkpt>
      <trkpt lat="43.745463" lon="5.672158">
        <ele>420</ele>
      </trkpt>
      <trkpt lat="43.745460" lon="5.672212">
        <ele>419.9</ele>
      </trkpt>
      <trkpt lat="43.745453" lon="5.672558">
        <ele>416.7</ele>
      </trkpt>
      <trkpt lat="43.745352" lon="5.672818">
        <ele>417</ele>
      </trkpt>
      <trkpt lat="43.745329" lon="5.672947">
        <ele>416.7</ele>
      </trkpt>
      <trkpt lat="43.745286" lon="5.673097">
        <ele>416.7</ele>
      </trkpt>
      <trkpt lat="43.745279" lon="5.673371">
        <ele>412.3</ele>
      </trkpt>
      <trkpt lat="43.745259" lon="5.673645">
        <ele>410.6</ele>
      </trkpt>
      <trkpt lat="43.745251" lon="5.673779">
        <ele>409.7</ele>
      </trkpt>
      <trkpt lat="43.745213" lon="5.673934">
        <ele>408.9</ele>
      </trkpt>
      <trkpt lat="43.745178" lon="5.674090">
        <ele>408.3</ele>
      </trkpt>
      <trkpt lat="43.745131" lon="5.674251">
        <ele>403.1</ele>
      </trkpt>
      <trkpt lat="43.745069" lon="5.674320">
        <ele>402.8</ele>
      </trkpt>
      <trkpt lat="43.744992" lon="5.674422">
        <ele>402</ele>
      </trkpt>
      <trkpt lat="43.744941" lon="5.674503">
        <ele>400.7</ele>
      </trkpt>
      <trkpt lat="43.744829" lon="5.674514">
        <ele>400.3</ele>
      </trkpt>
      <trkpt lat="43.744728" lon="5.674621">
        <ele>399</ele>
      </trkpt>
      <trkpt lat="43.744608" lon="5.674717">
        <ele>398</ele>
      </trkpt>
      <trkpt lat="43.744426" lon="5.674707">
        <ele>397.4</ele>
      </trkpt>
      <trkpt lat="43.744298" lon="5.674701">
        <ele>397</ele>
      </trkpt>
      <trkpt lat="43.744210" lon="5.674723">
        <ele>396.4</ele>
      </trkpt>
      <trkpt lat="43.743982" lon="5.674868">
        <ele>396.6</ele>
      </trkpt>
      <trkpt lat="43.743873" lon="5.675002">
        <ele>392</ele>
      </trkpt>
      <trkpt lat="43.743813" lon="5.675082">
        <ele>392.4</ele>
      </trkpt>
      <trkpt lat="43.743738" lon="5.675243">
        <ele>392.5</ele>
      </trkpt>
      <trkpt lat="43.743383" lon="5.675603">
        <ele>392.3</ele>
      </trkpt>
      <trkpt lat="43.743201" lon="5.675804">
        <ele>397.3</ele>
      </trkpt>
      <trkpt lat="43.742965" lon="5.676034">
        <ele>395.5</ele>
      </trkpt>
      <trkpt lat="43.742806" lon="5.676142">
        <ele>396.3</ele>
      </trkpt>
      <trkpt lat="43.742600" lon="5.676225">
        <ele>396.9</ele>
      </trkpt>
      <trkpt lat="43.742565" lon="5.676241">
        <ele>396.8</ele>
      </trkpt>
      <trkpt lat="43.742317" lon="5.676627">
        <ele>402</ele>
      </trkpt>
      <trkpt lat="43.741717" lon="5.677400">
        <ele>401.2</ele>
      </trkpt>
      <trkpt lat="43.741605" lon="5.677775">
        <ele>402.6</ele>
      </trkpt>
      <trkpt lat="43.741337" lon="5.678338">
        <ele>395.6</ele>
      </trkpt>
      <trkpt lat="43.741240" lon="5.678853">
        <ele>393.7</ele>
      </trkpt>
      <trkpt lat="43.741077" lon="5.679148">
        <ele>393.2</ele>
      </trkpt>
      <trkpt lat="43.740824" lon="5.680346">
        <ele>384.1</ele>
      </trkpt>
      <trkpt lat="43.740795" lon="5.680484">
        <ele>383.8</ele>
      </trkpt>
      <trkpt lat="43.740787" lon="5.680661">
        <ele>383.7</ele>
      </trkpt>
      <trkpt lat="43.740876" lon="5.681139">
        <ele>382.9</ele>
      </trkpt>
      <trkpt lat="43.740883" lon="5.681219">
        <ele>382.9</ele>
      </trkpt>
      <trkpt lat="43.740879" lon="5.681334">
        <ele>383</ele>
      </trkpt>
      <trkpt lat="43.740864" lon="5.681436">
        <ele>383.4</ele>
      </trkpt>
      <trkpt lat="43.740469" lon="5.682029">
        <ele>380.1</ele>
      </trkpt>
      <trkpt lat="43.740333" lon="5.682287">
        <ele>379</ele>
      </trkpt>
      <trkpt lat="43.740091" lon="5.683048">
        <ele>374.5</ele>
      </trkpt>
      <trkpt lat="43.740007" lon="5.683596">
        <ele>371.6</ele>
      </trkpt>
      <trkpt lat="43.739953" lon="5.683963">
        <ele>369</ele>
      </trkpt>
      <trkpt lat="43.739589" lon="5.684853">
        <ele>365.1</ele>
      </trkpt>
      <trkpt lat="43.739577" lon="5.684963">
        <ele>364.9</ele>
      </trkpt>
      <trkpt lat="43.739581" lon="5.685036">
        <ele>362.4</ele>
      </trkpt>
      <trkpt lat="43.739785" lon="5.686063">
        <ele>357.9</ele>
      </trkpt>
      <trkpt lat="43.739839" lon="5.686374">
        <ele>356.9</ele>
      </trkpt>
      <trkpt lat="43.739876" lon="5.686675">
        <ele>354.1</ele>
      </trkpt>
      <trkpt lat="43.739868" lon="5.686881">
        <ele>353.3</ele>
      </trkpt>
      <trkpt lat="43.739736" lon="5.687517">
        <ele>348.1</ele>
      </trkpt>
      <trkpt lat="43.739748" lon="5.687533">
        <ele>348.1</ele>
      </trkpt>
      <trkpt lat="43.739816" lon="5.687525">
        <ele>348.2</ele>
      </trkpt>
      <trkpt lat="43.739885" lon="5.687522">
        <ele>348.4</ele>
      </trkpt>
      <trkpt lat="43.740281" lon="5.687758">
        <ele>343.6</ele>
      </trkpt>
      <trkpt lat="43.740535" lon="5.687887">
        <ele>342.1</ele>
      </trkpt>
      <trkpt lat="43.740802" lon="5.687458">
        <ele>341.4</ele>
      </trkpt>
      <trkpt lat="43.741075" lon="5.686956">
        <ele>342.5</ele>
      </trkpt>
      <trkpt lat="43.741178" lon="5.686720">
        <ele>343</ele>
      </trkpt>
      <trkpt lat="43.741534" lon="5.686125">
        <ele>346.5</ele>
      </trkpt>
      <trkpt lat="43.741709" lon="5.685945">
        <ele>346.1</ele>
      </trkpt>
      <trkpt lat="43.742151" lon="5.685387">
        <ele>347.9</ele>
      </trkpt>
      <trkpt lat="43.742397" lon="5.685213">
        <ele>347.9</ele>
      </trkpt>
      <trkpt lat="43.742668" lon="5.684878">
        <ele>348.4</ele>
      </trkpt>
      <trkpt lat="43.742678" lon="5.684848">
        <ele>348.5</ele>
      </trkpt>
      <trkpt lat="43.742484" lon="5.684682">
        <ele>350.7</ele>
      </trkpt>
      <trkpt lat="43.742211" lon="5.684392">
        <ele>352</ele>
      </trkpt>
      <trkpt lat="43.742827" lon="5.683660">
        <ele>351.1</ele>
      </trkpt>
      <trkpt lat="43.742951" lon="5.683515">
        <ele>351.3</ele>
      </trkpt>
      <trkpt lat="43.743081" lon="5.683306">
        <ele>354.1</ele>
      </trkpt>
      <trkpt lat="43.743135" lon="5.683314">
        <ele>353.8</ele>
      </trkpt>
      <trkpt lat="43.743209" lon="5.683271">
        <ele>353.5</ele>
      </trkpt>
      <trkpt lat="43.743335" lon="5.683145">
        <ele>353</ele>
      </trkpt>
      <trkpt lat="43.743437" lon="5.683089">
        <ele>353.2</ele>
      </trkpt>
      <trkpt lat="43.743470" lon="5.683091">
        <ele>353.2</ele>
      </trkpt>
      <trkpt lat="43.743652" lon="5.683193">
        <ele>353.3</ele>
      </trkpt>
      <trkpt lat="43.743705" lon="5.683193">
        <ele>353.3</ele>
      </trkpt>
      <trkpt lat="43.743972" lon="5.683019">
        <ele>353.6</ele>
      </trkpt>
      <trkpt lat="43.744094" lon="5.682879">
        <ele>353.9</ele>
      </trkpt>
      <trkpt lat="43.744358" lon="5.682480">
        <ele>354.9</ele>
      </trkpt>
      <trkpt lat="43.744579" lon="5.682281">
        <ele>354.9</ele>
      </trkpt>
      <trkpt lat="43.744978" lon="5.681758">
        <ele>355.7</ele>
      </trkpt>
      <trkpt lat="43.745048" lon="5.681670">
        <ele>356</ele>
      </trkpt>
      <trkpt lat="43.745468" lon="5.681243">
        <ele>357.5</ele>
      </trkpt>
      <trkpt lat="43.745546" lon="5.681235">
        <ele>357.6</ele>
      </trkpt>
      <trkpt lat="43.745586" lon="5.681246">
        <ele>357.6</ele>
      </trkpt>
      <trkpt lat="43.745689" lon="5.681434">
        <ele>357.4</ele>
      </trkpt>
      <trkpt lat="43.745772" lon="5.681525">
        <ele>357.3</ele>
      </trkpt>
      <trkpt lat="43.745877" lon="5.681514">
        <ele>358.4</ele>
      </trkpt>
      <trkpt lat="43.746303" lon="5.681128">
        <ele>360.2</ele>
      </trkpt>
      <trkpt lat="43.747014" lon="5.680575">
        <ele>362.5</ele>
      </trkpt>
      <trkpt lat="43.747156" lon="5.680508">
        <ele>362.5</ele>
      </trkpt>
      <trkpt lat="43.747878" lon="5.680452">
        <ele>364.2</ele>
      </trkpt>
      <trkpt lat="43.748041" lon="5.680396">
        <ele>364.5</ele>
      </trkpt>
      <trkpt lat="43.748272" lon="5.680262">
        <ele>365</ele>
      </trkpt>
      <trkpt lat="43.748590" lon="5.679991">
        <ele>366.8</ele>
      </trkpt>
      <trkpt lat="43.749225" lon="5.679239">
        <ele>369</ele>
      </trkpt>
      <trkpt lat="43.749252" lon="5.679207">
        <ele>369</ele>
      </trkpt>
      <trkpt lat="43.749458" lon="5.679044">
        <ele>370.7</ele>
      </trkpt>
      <trkpt lat="43.749839" lon="5.678915">
        <ele>371.5</ele>
      </trkpt>
      <trkpt lat="43.750252" lon="5.678668">
        <ele>373.2</ele>
      </trkpt>
      <trkpt lat="43.750717" lon="5.678387">
        <ele>374.2</ele>
      </trkpt>
      <trkpt lat="43.750957" lon="5.678204">
        <ele>376.6</ele>
      </trkpt>
      <trkpt lat="43.751484" lon="5.677751">
        <ele>379.2</ele>
      </trkpt>
      <trkpt lat="43.752180" lon="5.677126">
        <ele>386.1</ele>
      </trkpt>
      <trkpt lat="43.752434" lon="5.676901">
        <ele>387.8</ele>
      </trkpt>
      <trkpt lat="43.752476" lon="5.676844">
        <ele>388.4</ele>
      </trkpt>
      <trkpt lat="43.752505" lon="5.676788">
        <ele>390.7</ele>
      </trkpt>
      <trkpt lat="43.752536" lon="5.676659">
        <ele>392</ele>
      </trkpt>
      <trkpt lat="43.752598" lon="5.676600">
        <ele>393.7</ele>
      </trkpt>
      <trkpt lat="43.752633" lon="5.676506">
        <ele>395.1</ele>
      </trkpt>
      <trkpt lat="43.752627" lon="5.676450">
        <ele>395.6</ele>
      </trkpt>
      <trkpt lat="43.752592" lon="5.676343">
        <ele>396.5</ele>
      </trkpt>
      <trkpt lat="43.752575" lon="5.676260">
        <ele>397.1</ele>
      </trkpt>
      <trkpt lat="43.752591" lon="5.676171">
        <ele>397.7</ele>
      </trkpt>
      <trkpt lat="43.752653" lon="5.676067">
        <ele>398.3</ele>
      </trkpt>
      <trkpt lat="43.752811" lon="5.675927">
        <ele>399.1</ele>
      </trkpt>
      <trkpt lat="43.752963" lon="5.675903">
        <ele>400</ele>
      </trkpt>
      <trkpt lat="43.753360" lon="5.675616">
        <ele>409.3</ele>
      </trkpt>
      <trkpt lat="43.753799" lon="5.675249">
        <ele>412</ele>
      </trkpt>
      <trkpt lat="43.754020" lon="5.675029">
        <ele>413</ele>
      </trkpt>
      <trkpt lat="43.754094" lon="5.674715">
        <ele>417.2</ele>
      </trkpt>
      <trkpt lat="43.754202" lon="5.674500">
        <ele>416.4</ele>
      </trkpt>
      <trkpt lat="43.754348" lon="5.674162">
        <ele>421.6</ele>
      </trkpt>
      <trkpt lat="43.754605" lon="5.673784">
        <ele>423.5</ele>
      </trkpt>
      <trkpt lat="43.754778" lon="5.673647">
        <ele>424.5</ele>
      </trkpt>
      <trkpt lat="43.754935" lon="5.673575">
        <ele>425.4</ele>
      </trkpt>
      <trkpt lat="43.755177" lon="5.673207">
        <ele>431.3</ele>
      </trkpt>
      <trkpt lat="43.755850" lon="5.672636">
        <ele>437.2</ele>
      </trkpt>
      <trkpt lat="43.755954" lon="5.672502">
        <ele>437.3</ele>
      </trkpt>
      <trkpt lat="43.756035" lon="5.672354">
        <ele>438.4</ele>
      </trkpt>
      <trkpt lat="43.756115" lon="5.672258">
        <ele>438.9</ele>
      </trkpt>
      <trkpt lat="43.756339" lon="5.671697">
        <ele>440.6</ele>
      </trkpt>
      <trkpt lat="43.756471" lon="5.671518">
        <ele>440.9</ele>
      </trkpt>
      <trkpt lat="43.756632" lon="5.671104">
        <ele>440.8</ele>
      </trkpt>
      <trkpt lat="43.756678" lon="5.671043">
        <ele>448.9</ele>
      </trkpt>
      <trkpt lat="43.756812" lon="5.670944">
        <ele>449.1</ele>
      </trkpt>
      <trkpt lat="43.757163" lon="5.670823">
        <ele>453.7</ele>
      </trkpt>
      <trkpt lat="43.757418" lon="5.670689">
        <ele>457.2</ele>
      </trkpt>
      <trkpt lat="43.757645" lon="5.670453">
        <ele>467</ele>
      </trkpt>
      <trkpt lat="43.757823" lon="5.670286">
        <ele>468.1</ele>
      </trkpt>
      <trkpt lat="43.758013" lon="5.670037">
        <ele>470</ele>
      </trkpt>
      <trkpt lat="43.758261" lon="5.669785">
        <ele>468.6</ele>
      </trkpt>
      <trkpt lat="43.758507" lon="5.669667">
        <ele>477.3</ele>
      </trkpt>
      <trkpt lat="43.759024" lon="5.669541">
        <ele>480.4</ele>
      </trkpt>
      <trkpt lat="43.759189" lon="5.669495">
        <ele>488</ele>
      </trkpt>
      <trkpt lat="43.759307" lon="5.669399">
        <ele>487.7</ele>
      </trkpt>
      <trkpt lat="43.759418" lon="5.669227">
        <ele>487.7</ele>
      </trkpt>
      <trkpt lat="43.759449" lon="5.669125">
        <ele>488</ele>
      </trkpt>
      <trkpt lat="43.759455" lon="5.669007">
        <ele>488.5</ele>
      </trkpt>
      <trkpt lat="43.759098" lon="5.668369">
        <ele>487.2</ele>
      </trkpt>
      <trkpt lat="43.759069" lon="5.668226">
        <ele>487.2</ele>
      </trkpt>
      <trkpt lat="43.759150" lon="5.667985">
        <ele>486.2</ele>
      </trkpt>
      <trkpt lat="43.759232" lon="5.667875">
        <ele>492.3</ele>
      </trkpt>
      <trkpt lat="43.759538" lon="5.667749">
        <ele>493.3</ele>
      </trkpt>
      <trkpt lat="43.759683" lon="5.667741">
        <ele>494</ele>
      </trkpt>
      <trkpt lat="43.759836" lon="5.667714">
        <ele>494.7</ele>
      </trkpt>
      <trkpt lat="43.760150" lon="5.667384">
        <ele>497.3</ele>
      </trkpt>
      <trkpt lat="43.760630" lon="5.667119">
        <ele>498.9</ele>
      </trkpt>
      <trkpt lat="43.760764" lon="5.667081">
        <ele>499.2</ele>
      </trkpt>
      <trkpt lat="43.760971" lon="5.666950">
        <ele>502.4</ele>
      </trkpt>
      <trkpt lat="43.761181" lon="5.666716">
        <ele>502.2</ele>
      </trkpt>
      <trkpt lat="43.761444" lon="5.666668">
        <ele>502.6</ele>
      </trkpt>
      <trkpt lat="43.761496" lon="5.666625">
        <ele>501.2</ele>
      </trkpt>
      <trkpt lat="43.761783" lon="5.666429">
        <ele>498.6</ele>
      </trkpt>
      <trkpt lat="43.762037" lon="5.666395">
        <ele>497</ele>
      </trkpt>
      <trkpt lat="43.762205" lon="5.666360">
        <ele>495.9</ele>
      </trkpt>
      <trkpt lat="43.762509" lon="5.666260">
        <ele>488.9</ele>
      </trkpt>
      <trkpt lat="43.762569" lon="5.666175">
        <ele>488.6</ele>
      </trkpt>
      <trkpt lat="43.762595" lon="5.666091">
        <ele>488.5</ele>
      </trkpt>
      <trkpt lat="43.762676" lon="5.665794">
        <ele>487.3</ele>
      </trkpt>
      <trkpt lat="43.762721" lon="5.665737">
        <ele>486.7</ele>
      </trkpt>
      <trkpt lat="43.762965" lon="5.665745">
        <ele>484.8</ele>
      </trkpt>
      <trkpt lat="43.763065" lon="5.665727">
        <ele>484.2</ele>
      </trkpt>
      <trkpt lat="43.763575" lon="5.665662">
        <ele>481.4</ele>
      </trkpt>
      <trkpt lat="43.764251" lon="5.665574">
        <ele>482.6</ele>
      </trkpt>
      <trkpt lat="43.765171" lon="5.665446">
        <ele>484.9</ele>
      </trkpt>
      <trkpt lat="43.765384" lon="5.665416">
        <ele>485.2</ele>
      </trkpt>
      <trkpt lat="43.765506" lon="5.665407">
        <ele>485.4</ele>
      </trkpt>
      <trkpt lat="43.765543" lon="5.665394">
        <ele>485.5</ele>
      </trkpt>
      <trkpt lat="43.765572" lon="5.665418">
        <ele>485.5</ele>
      </trkpt>
      <trkpt lat="43.765721" lon="5.665386">
        <ele>485.7</ele>
      </trkpt>
      <trkpt lat="43.765826" lon="5.665340">
        <ele>485.9</ele>
      </trkpt>
      <trkpt lat="43.765934" lon="5.665268">
        <ele>487.9</ele>
      </trkpt>
      <trkpt lat="43.766027" lon="5.665193">
        <ele>488.1</ele>
      </trkpt>
      <trkpt lat="43.766535" lon="5.664938">
        <ele>489</ele>
      </trkpt>
      <trkpt lat="43.766955" lon="5.664847">
        <ele>490.7</ele>
      </trkpt>
      <trkpt lat="43.767811" lon="5.664672">
        <ele>494.9</ele>
      </trkpt>
      <trkpt lat="43.768239" lon="5.664584">
        <ele>495.8</ele>
      </trkpt>
      <trkpt lat="43.768417" lon="5.664568">
        <ele>499.6</ele>
      </trkpt>
      <trkpt lat="43.768505" lon="5.664496">
        <ele>499.7</ele>
      </trkpt>
      <trkpt lat="43.768590" lon="5.664453">
        <ele>499.9</ele>
      </trkpt>
      <trkpt lat="43.768716" lon="5.664512">
        <ele>500.5</ele>
      </trkpt>
      <trkpt lat="43.769266" lon="5.664276">
        <ele>506.2</ele>
      </trkpt>
      <trkpt lat="43.769337" lon="5.664214">
        <ele>506.6</ele>
      </trkpt>
      <trkpt lat="43.769394" lon="5.664123">
        <ele>507.4</ele>
      </trkpt>
      <trkpt lat="43.769477" lon="5.664085">
        <ele>508.2</ele>
      </trkpt>
      <trkpt lat="43.769564" lon="5.664056">
        <ele>509</ele>
      </trkpt>
      <trkpt lat="43.769719" lon="5.663838">
        <ele>510</ele>
      </trkpt>
      <trkpt lat="43.769787" lon="5.663825">
        <ele>510.4</ele>
      </trkpt>
      <trkpt lat="43.769905" lon="5.663828">
        <ele>510.9</ele>
      </trkpt>
      <trkpt lat="43.770178" lon="5.663702">
        <ele>516.9</ele>
      </trkpt>
      <trkpt lat="43.770285" lon="5.663688">
        <ele>517.3</ele>
      </trkpt>
      <trkpt lat="43.770455" lon="5.663653">
        <ele>518.1</ele>
      </trkpt>
      <trkpt lat="43.770581" lon="5.663476">
        <ele>518.8</ele>
      </trkpt>
      <trkpt lat="43.770680" lon="5.663184">
        <ele>519.6</ele>
      </trkpt>
      <trkpt lat="43.770800" lon="5.663012">
        <ele>519.7</ele>
      </trkpt>
      <trkpt lat="43.770901" lon="5.662916">
        <ele>517.9</ele>
      </trkpt>
      <trkpt lat="43.770954" lon="5.662795">
        <ele>518</ele>
      </trkpt>
      <trkpt lat="43.770959" lon="5.662631">
        <ele>518.9</ele>
      </trkpt>
      <trkpt lat="43.770953" lon="5.662519">
        <ele>519.6</ele>
      </trkpt>
      <trkpt lat="43.770986" lon="5.662377">
        <ele>518.7</ele>
      </trkpt>
      <trkpt lat="43.771003" lon="5.662189">
        <ele>517.7</ele>
      </trkpt>
      <trkpt lat="43.770980" lon="5.662009">
        <ele>517.8</ele>
      </trkpt>
      <trkpt lat="43.770931" lon="5.661792">
        <ele>519.2</ele>
      </trkpt>
      <trkpt lat="43.770949" lon="5.661618">
        <ele>519.3</ele>
      </trkpt>
      <trkpt lat="43.770910" lon="5.661355">
        <ele>517.7</ele>
      </trkpt>
      <trkpt lat="43.770868" lon="5.661162">
        <ele>517.6</ele>
      </trkpt>
      <trkpt lat="43.770689" lon="5.660606">
        <ele>521</ele>
      </trkpt>
      <trkpt lat="43.770645" lon="5.660496">
        <ele>521.1</ele>
      </trkpt>
      <trkpt lat="43.770608" lon="5.660368">
        <ele>521.3</ele>
      </trkpt>
      <trkpt lat="43.770417" lon="5.660153">
        <ele>521.4</ele>
      </trkpt>
      <trkpt lat="43.770149" lon="5.659692">
        <ele>524.1</ele>
      </trkpt>
      <trkpt lat="43.769793" lon="5.658662">
        <ele>520</ele>
      </trkpt>
      <trkpt lat="43.769448" lon="5.657664">
        <ele>519.5</ele>
      </trkpt>
      <trkpt lat="43.769119" lon="5.656629">
        <ele>514.8</ele>
      </trkpt>
      <trkpt lat="43.768797" lon="5.655615">
        <ele>510.4</ele>
      </trkpt>
      <trkpt lat="43.768604" lon="5.655094">
        <ele>508.5</ele>
      </trkpt>
      <trkpt lat="43.768499" lon="5.654901">
        <ele>507.5</ele>
      </trkpt>
      <trkpt lat="43.767883" lon="5.653968">
        <ele>502.2</ele>
      </trkpt>
      <trkpt lat="43.767254" lon="5.653035">
        <ele>503.2</ele>
      </trkpt>
      <trkpt lat="43.767210" lon="5.652970">
        <ele>503.5</ele>
      </trkpt>
      <trkpt lat="43.766800" lon="5.652251">
        <ele>510.2</ele>
      </trkpt>
      <trkpt lat="43.766290" lon="5.651275">
        <ele>518.2</ele>
      </trkpt>
      <trkpt lat="43.766202" lon="5.650824">
        <ele>520.7</ele>
      </trkpt>
      <trkpt lat="43.766182" lon="5.650460">
        <ele>520.6</ele>
      </trkpt>
      <trkpt lat="43.766220" lon="5.649623">
        <ele>518.5</ele>
      </trkpt>
      <trkpt lat="43.766350" lon="5.649451">
        <ele>518.5</ele>
      </trkpt>
      <trkpt lat="43.766540" lon="5.648989">
        <ele>517</ele>
      </trkpt>
      <trkpt lat="43.766610" lon="5.648664">
        <ele>516.5</ele>
      </trkpt>
      <trkpt lat="43.766622" lon="5.648292">
        <ele>517</ele>
      </trkpt>
      <trkpt lat="43.766650" lon="5.647905">
        <ele>514.8</ele>
      </trkpt>
      <trkpt lat="43.766680" lon="5.647726">
        <ele>518.6</ele>
      </trkpt>
      <trkpt lat="43.766672" lon="5.647509">
        <ele>516.2</ele>
      </trkpt>
      <trkpt lat="43.766775" lon="5.647466">
        <ele>516.9</ele>
      </trkpt>
      <trkpt lat="43.766868" lon="5.647354">
        <ele>517.5</ele>
      </trkpt>
      <trkpt lat="43.767036" lon="5.647257">
        <ele>518.3</ele>
      </trkpt>
      <trkpt lat="43.767114" lon="5.647201">
        <ele>518.6</ele>
      </trkpt>
      <trkpt lat="43.767158" lon="5.647104">
        <ele>518.6</ele>
      </trkpt>
      <trkpt lat="43.767301" lon="5.647083">
        <ele>519</ele>
      </trkpt>
      <trkpt lat="43.767365" lon="5.647048">
        <ele>519.2</ele>
      </trkpt>
      <trkpt lat="43.767452" lon="5.646994">
        <ele>519.2</ele>
      </trkpt>
      <trkpt lat="43.767532" lon="5.646967">
        <ele>523.5</ele>
      </trkpt>
      <trkpt lat="43.767656" lon="5.646898">
        <ele>523.6</ele>
      </trkpt>
      <trkpt lat="43.767790" lon="5.646887">
        <ele>524.3</ele>
      </trkpt>
      <trkpt lat="43.767853" lon="5.646761">
        <ele>524.3</ele>
      </trkpt>
      <trkpt lat="43.767921" lon="5.646594">
        <ele>521.9</ele>
      </trkpt>
      <trkpt lat="43.767972" lon="5.646621">
        <ele>522.2</ele>
      </trkpt>
      <trkpt lat="43.768018" lon="5.646603">
        <ele>522.4</ele>
      </trkpt>
      <trkpt lat="43.768061" lon="5.646552">
        <ele>522.6</ele>
      </trkpt>
      <trkpt lat="43.768140" lon="5.646420">
        <ele>522.5</ele>
      </trkpt>
      <trkpt lat="43.768332" lon="5.646147">
        <ele>521.7</ele>
      </trkpt>
      <trkpt lat="43.768495" lon="5.646026">
        <ele>525.4</ele>
      </trkpt>
      <trkpt lat="43.768636" lon="5.645707">
        <ele>524</ele>
      </trkpt>
      <trkpt lat="43.768826" lon="5.645221">
        <ele>524.7</ele>
      </trkpt>
      <trkpt lat="43.769002" lon="5.644940">
        <ele>525.4</ele>
      </trkpt>
      <trkpt lat="43.769039" lon="5.644840">
        <ele>525.3</ele>
      </trkpt>
      <trkpt lat="43.769080" lon="5.644620">
        <ele>525</ele>
      </trkpt>
      <trkpt lat="43.769194" lon="5.644293">
        <ele>529.1</ele>
      </trkpt>
      <trkpt lat="43.769221" lon="5.644138">
        <ele>528.8</ele>
      </trkpt>
      <trkpt lat="43.769384" lon="5.643518">
        <ele>534.1</ele>
      </trkpt>
      <trkpt lat="43.769361" lon="5.643309">
        <ele>534.8</ele>
      </trkpt>
      <trkpt lat="43.769334" lon="5.643108">
        <ele>535.5</ele>
      </trkpt>
      <trkpt lat="43.769300" lon="5.642904">
        <ele>536</ele>
      </trkpt>
      <trkpt lat="43.769301" lon="5.642617">
        <ele>535.7</ele>
      </trkpt>
      <trkpt lat="43.769390" lon="5.642257">
        <ele>535.7</ele>
      </trkpt>
      <trkpt lat="43.769355" lon="5.641758">
        <ele>534.8</ele>
      </trkpt>
      <trkpt lat="43.769285" lon="5.641490">
        <ele>533.2</ele>
      </trkpt>
      <trkpt lat="43.769273" lon="5.640777">
        <ele>531.4</ele>
      </trkpt>
      <trkpt lat="43.769204" lon="5.640224">
        <ele>530.1</ele>
      </trkpt>
      <trkpt lat="43.769111" lon="5.640058">
        <ele>531.4</ele>
      </trkpt>
      <trkpt lat="43.768968" lon="5.639843">
        <ele>530</ele>
      </trkpt>
      <trkpt lat="43.768886" lon="5.639543">
        <ele>529.2</ele>
      </trkpt>
      <trkpt lat="43.768836" lon="5.639409">
        <ele>529</ele>
      </trkpt>
      <trkpt lat="43.768720" lon="5.639285">
        <ele>528.8</ele>
      </trkpt>
      <trkpt lat="43.768681" lon="5.639141">
        <ele>527.7</ele>
      </trkpt>
      <trkpt lat="43.768681" lon="5.639006">
        <ele>527.6</ele>
      </trkpt>
      <trkpt lat="43.768801" lon="5.638792">
        <ele>527.3</ele>
      </trkpt>
      <trkpt lat="43.768805" lon="5.638529">
        <ele>526.8</ele>
      </trkpt>
      <trkpt lat="43.768732" lon="5.638159">
        <ele>523</ele>
      </trkpt>
      <trkpt lat="43.768635" lon="5.637837">
        <ele>522.2</ele>
      </trkpt>
      <trkpt lat="43.768604" lon="5.637580">
        <ele>522.1</ele>
      </trkpt>
      <trkpt lat="43.768371" lon="5.636925">
        <ele>516.2</ele>
      </trkpt>
      <trkpt lat="43.768356" lon="5.636662">
        <ele>518.7</ele>
      </trkpt>
      <trkpt lat="43.768127" lon="5.636196">
        <ele>517.6</ele>
      </trkpt>
      <trkpt lat="43.767992" lon="5.635745">
        <ele>515.2</ele>
      </trkpt>
      <trkpt lat="43.767903" lon="5.635407">
        <ele>515.3</ele>
      </trkpt>
      <trkpt lat="43.767875" lon="5.635112">
        <ele>515.2</ele>
      </trkpt>
      <trkpt lat="43.767751" lon="5.634887">
        <ele>515.1</ele>
      </trkpt>
      <trkpt lat="43.767717" lon="5.634785">
        <ele>515.1</ele>
      </trkpt>
      <trkpt lat="43.767349" lon="5.634248">
        <ele>514.5</ele>
      </trkpt>
      <trkpt lat="43.767191" lon="5.634200">
        <ele>513.1</ele>
      </trkpt>
      <trkpt lat="43.767239" lon="5.633894">
        <ele>513.4</ele>
      </trkpt>
      <trkpt lat="43.767221" lon="5.633723">
        <ele>513.1</ele>
      </trkpt>
      <trkpt lat="43.767186" lon="5.633535">
        <ele>513.1</ele>
      </trkpt>
      <trkpt lat="43.767205" lon="5.633395">
        <ele>513.3</ele>
      </trkpt>
      <trkpt lat="43.767259" lon="5.633229">
        <ele>512.8</ele>
      </trkpt>
      <trkpt lat="43.767259" lon="5.633100">
        <ele>512.4</ele>
      </trkpt>
      <trkpt lat="43.767259" lon="5.632966">
        <ele>512</ele>
      </trkpt>
      <trkpt lat="43.767310" lon="5.632854">
        <ele>512</ele>
      </trkpt>
      <trkpt lat="43.767372" lon="5.632634">
        <ele>512.1</ele>
      </trkpt>
      <trkpt lat="43.767352" lon="5.632545">
        <ele>512.1</ele>
      </trkpt>
      <trkpt lat="43.767317" lon="5.632309">
        <ele>510.7</ele>
      </trkpt>
      <trkpt lat="43.767290" lon="5.632135">
        <ele>510.2</ele>
      </trkpt>
      <trkpt lat="43.767311" lon="5.631805">
        <ele>510.1</ele>
      </trkpt>
      <trkpt lat="43.767228" lon="5.631681">
        <ele>509.8</ele>
      </trkpt>
      <trkpt lat="43.766608" lon="5.631244">
        <ele>503.3</ele>
      </trkpt>
      <trkpt lat="43.766461" lon="5.631156">
        <ele>502.7</ele>
      </trkpt>
      <trkpt lat="43.766395" lon="5.631134">
        <ele>502.3</ele>
      </trkpt>
      <trkpt lat="43.766343" lon="5.631056">
        <ele>502</ele>
      </trkpt>
      <trkpt lat="43.766174" lon="5.630796">
        <ele>501.3</ele>
      </trkpt>
      <trkpt lat="43.766136" lon="5.630598">
        <ele>501.3</ele>
      </trkpt>
      <trkpt lat="43.766110" lon="5.630541">
        <ele>501.3</ele>
      </trkpt>
      <trkpt lat="43.766105" lon="5.630466">
        <ele>501.5</ele>
      </trkpt>
      <trkpt lat="43.766062" lon="5.630383">
        <ele>501.4</ele>
      </trkpt>
      <trkpt lat="43.766017" lon="5.630316">
        <ele>501.2</ele>
      </trkpt>
      <trkpt lat="43.765930" lon="5.630297">
        <ele>500.9</ele>
      </trkpt>
      <trkpt lat="43.765855" lon="5.630203">
        <ele>500.5</ele>
      </trkpt>
      <trkpt lat="43.765806" lon="5.630056">
        <ele>496.8</ele>
      </trkpt>
      <trkpt lat="43.765723" lon="5.629713">
        <ele>494.2</ele>
      </trkpt>
      <trkpt lat="43.765682" lon="5.629420">
        <ele>494.4</ele>
      </trkpt>
      <trkpt lat="43.765702" lon="5.629257">
        <ele>495.9</ele>
      </trkpt>
      <trkpt lat="43.765740" lon="5.629136">
        <ele>497.4</ele>
      </trkpt>
      <trkpt lat="43.765715" lon="5.629090">
        <ele>496.5</ele>
      </trkpt>
      <trkpt lat="43.765622" lon="5.629039">
        <ele>494.8</ele>
      </trkpt>
      <trkpt lat="43.765520" lon="5.629050">
        <ele>493.5</ele>
      </trkpt>
      <trkpt lat="43.765359" lon="5.628927">
        <ele>491.6</ele>
      </trkpt>
      <trkpt lat="43.765243" lon="5.628752">
        <ele>490.9</ele>
      </trkpt>
      <trkpt lat="43.765206" lon="5.628546">
        <ele>490.5</ele>
      </trkpt>
      <trkpt lat="43.765204" lon="5.628294">
        <ele>489.1</ele>
      </trkpt>
      <trkpt lat="43.765186" lon="5.628195">
        <ele>489</ele>
      </trkpt>
      <trkpt lat="43.765111" lon="5.628071">
        <ele>488.8</ele>
      </trkpt>
      <trkpt lat="43.765068" lon="5.627671">
        <ele>487</ele>
      </trkpt>
      <trkpt lat="43.765068" lon="5.627462">
        <ele>484</ele>
      </trkpt>
      <trkpt lat="43.765078" lon="5.627371">
        <ele>484</ele>
      </trkpt>
      <trkpt lat="43.765113" lon="5.627285">
        <ele>483.8</ele>
      </trkpt>
      <trkpt lat="43.765094" lon="5.627242">
        <ele>483.7</ele>
      </trkpt>
      <trkpt lat="43.765039" lon="5.627199">
        <ele>483.5</ele>
      </trkpt>
      <trkpt lat="43.764985" lon="5.627156">
        <ele>479.3</ele>
      </trkpt>
      <trkpt lat="43.764854" lon="5.627156">
        <ele>478.9</ele>
      </trkpt>
      <trkpt lat="43.764710" lon="5.627097">
        <ele>478</ele>
      </trkpt>
      <trkpt lat="43.764327" lon="5.626974">
        <ele>475.7</ele>
      </trkpt>
      <trkpt lat="43.764156" lon="5.626969">
        <ele>469.2</ele>
      </trkpt>
      <trkpt lat="43.764028" lon="5.626931">
        <ele>468.8</ele>
      </trkpt>
      <trkpt lat="43.763912" lon="5.625732">
        <ele>465.3</ele>
      </trkpt>
      <trkpt lat="43.763908" lon="5.625542">
        <ele>464.4</ele>
      </trkpt>
      <trkpt lat="43.763925" lon="5.625327">
        <ele>463.8</ele>
      </trkpt>
      <trkpt lat="43.763993" lon="5.624592">
        <ele>460</ele>
      </trkpt>
      <trkpt lat="43.764121" lon="5.623573">
        <ele>456.7</ele>
      </trkpt>
      <trkpt lat="43.764210" lon="5.622940">
        <ele>458.2</ele>
      </trkpt>
      <trkpt lat="43.764247" lon="5.622645">
        <ele>456.9</ele>
      </trkpt>
      <trkpt lat="43.764325" lon="5.621808">
        <ele>453.6</ele>
      </trkpt>
      <trkpt lat="43.764325" lon="5.620918">
        <ele>448.5</ele>
      </trkpt>
      <trkpt lat="43.764326" lon="5.620754">
        <ele>446.1</ele>
      </trkpt>
      <trkpt lat="43.764307" lon="5.620419">
        <ele>445.4</ele>
      </trkpt>
      <trkpt lat="43.764208" lon="5.619681">
        <ele>440.8</ele>
      </trkpt>
      <trkpt lat="43.764133" lon="5.619365">
        <ele>438.1</ele>
      </trkpt>
      <trkpt lat="43.764125" lon="5.619099">
        <ele>437.8</ele>
      </trkpt>
      <trkpt lat="43.764198" lon="5.617876">
        <ele>431.9</ele>
      </trkpt>
      <trkpt lat="43.764212" lon="5.617651">
        <ele>432.3</ele>
      </trkpt>
      <trkpt lat="43.764158" lon="5.616733">
        <ele>430.9</ele>
      </trkpt>
      <trkpt lat="43.764040" lon="5.616141">
        <ele>430</ele>
      </trkpt>
      <trkpt lat="43.763778" lon="5.615277">
        <ele>427.5</ele>
      </trkpt>
      <trkpt lat="43.763724" lon="5.615100">
        <ele>427.1</ele>
      </trkpt>
      <trkpt lat="43.763641" lon="5.614824">
        <ele>425.3</ele>
      </trkpt>
      <trkpt lat="43.763573" lon="5.614580">
        <ele>425.2</ele>
      </trkpt>
      <trkpt lat="43.763606" lon="5.614569">
        <ele>425.2</ele>
      </trkpt>
      <trkpt lat="43.763674" lon="5.614639">
        <ele>425.4</ele>
      </trkpt>
      <trkpt lat="43.763836" lon="5.614781">
        <ele>425.8</ele>
      </trkpt>
      <trkpt lat="43.763886" lon="5.614848">
        <ele>426.1</ele>
      </trkpt>
      <trkpt lat="43.763956" lon="5.614848">
        <ele>426.3</ele>
      </trkpt>
      <trkpt lat="43.763995" lon="5.614832">
        <ele>426.4</ele>
      </trkpt>
      <trkpt lat="43.764115" lon="5.614759">
        <ele>426.5</ele>
      </trkpt>
      <trkpt lat="43.764202" lon="5.614690">
        <ele>421.3</ele>
      </trkpt>
      <trkpt lat="43.764249" lon="5.614657">
        <ele>420.8</ele>
      </trkpt>
      <trkpt lat="43.764309" lon="5.614663">
        <ele>420.4</ele>
      </trkpt>
      <trkpt lat="43.764344" lon="5.614673">
        <ele>420.1</ele>
      </trkpt>
      <trkpt lat="43.764321" lon="5.614561">
        <ele>420</ele>
      </trkpt>
      <trkpt lat="43.764294" lon="5.614478">
        <ele>420.3</ele>
      </trkpt>
      <trkpt lat="43.764168" lon="5.614204">
        <ele>424.8</ele>
      </trkpt>
      <trkpt lat="43.764075" lon="5.614019">
        <ele>424.4</ele>
      </trkpt>
      <trkpt lat="43.764036" lon="5.613359">
        <ele>421.8</ele>
      </trkpt>
      <trkpt lat="43.764071" lon="5.613005">
        <ele>419.8</ele>
      </trkpt>
      <trkpt lat="43.764067" lon="5.611643">
        <ele>417.6</ele>
      </trkpt>
      <trkpt lat="43.764051" lon="5.611390">
        <ele>415.8</ele>
      </trkpt>
      <trkpt lat="43.763997" lon="5.611197">
        <ele>414.7</ele>
      </trkpt>
      <trkpt lat="43.763866" lon="5.611106">
        <ele>414.3</ele>
      </trkpt>
      <trkpt lat="43.763719" lon="5.610886">
        <ele>413.8</ele>
      </trkpt>
      <trkpt lat="43.763684" lon="5.610452">
        <ele>410.9</ele>
      </trkpt>
      <trkpt lat="43.763738" lon="5.610141">
        <ele>410.4</ele>
      </trkpt>
      <trkpt lat="43.763715" lon="5.609910">
        <ele>408.3</ele>
      </trkpt>
      <trkpt lat="43.763757" lon="5.609679">
        <ele>407.7</ele>
      </trkpt>
      <trkpt lat="43.763767" lon="5.609577">
        <ele>407.4</ele>
      </trkpt>
      <trkpt lat="43.763809" lon="5.609167">
        <ele>406.5</ele>
      </trkpt>
      <trkpt lat="43.763825" lon="5.608958">
        <ele>405.2</ele>
      </trkpt>
      <trkpt lat="43.763809" lon="5.608794">
        <ele>405.4</ele>
      </trkpt>
      <trkpt lat="43.763834" lon="5.608510">
        <ele>405.3</ele>
      </trkpt>
      <trkpt lat="43.763860" lon="5.608336">
        <ele>405.2</ele>
      </trkpt>
      <trkpt lat="43.763817" lon="5.608188">
        <ele>405</ele>
      </trkpt>
      <trkpt lat="43.763838" lon="5.608073">
        <ele>404.9</ele>
      </trkpt>
      <trkpt lat="43.763890" lon="5.607989">
        <ele>404.9</ele>
      </trkpt>
      <trkpt lat="43.763881" lon="5.607869">
        <ele>404.8</ele>
      </trkpt>
      <trkpt lat="43.763844" lon="5.607705">
        <ele>404.8</ele>
      </trkpt>
      <trkpt lat="43.763820" lon="5.607532">
        <ele>404.7</ele>
      </trkpt>
      <trkpt lat="43.763718" lon="5.607136">
        <ele>404</ele>
      </trkpt>
      <trkpt lat="43.763674" lon="5.606976">
        <ele>403.9</ele>
      </trkpt>
      <trkpt lat="43.763676" lon="5.606874">
        <ele>403.8</ele>
      </trkpt>
      <trkpt lat="43.763745" lon="5.606627">
        <ele>403.2</ele>
      </trkpt>
      <trkpt lat="43.763720" lon="5.606415">
        <ele>403</ele>
      </trkpt>
      <trkpt lat="43.763710" lon="5.606332">
        <ele>402.9</ele>
      </trkpt>
      <trkpt lat="43.763730" lon="5.606191">
        <ele>402.9</ele>
      </trkpt>
      <trkpt lat="43.763776" lon="5.605980">
        <ele>403</ele>
      </trkpt>
      <trkpt lat="43.763790" lon="5.605838">
        <ele>403</ele>
      </trkpt>
      <trkpt lat="43.763757" lon="5.605696">
        <ele>401.5</ele>
      </trkpt>
      <trkpt lat="43.763590" lon="5.605186">
        <ele>399.5</ele>
      </trkpt>
      <trkpt lat="43.763571" lon="5.605055">
        <ele>398.9</ele>
      </trkpt>
      <trkpt lat="43.763544" lon="5.604806">
        <ele>397.1</ele>
      </trkpt>
      <trkpt lat="43.763449" lon="5.604149">
        <ele>393.3</ele>
      </trkpt>
      <trkpt lat="43.763468" lon="5.604044">
        <ele>393.7</ele>
      </trkpt>
      <trkpt lat="43.763493" lon="5.603963">
        <ele>394.1</ele>
      </trkpt>
      <trkpt lat="43.763484" lon="5.603918">
        <ele>394.1</ele>
      </trkpt>
      <trkpt lat="43.763441" lon="5.603821">
        <ele>394</ele>
      </trkpt>
      <trkpt lat="43.763401" lon="5.603690">
        <ele>393.6</ele>
      </trkpt>
      <trkpt lat="43.763404" lon="5.603317">
        <ele>390.7</ele>
      </trkpt>
      <trkpt lat="43.763381" lon="5.603051">
        <ele>391.4</ele>
      </trkpt>
      <trkpt lat="43.763342" lon="5.602614">
        <ele>388.5</ele>
      </trkpt>
      <trkpt lat="43.763342" lon="5.602435">
        <ele>386.8</ele>
      </trkpt>
      <trkpt lat="43.763337" lon="5.602365">
        <ele>387.4</ele>
      </trkpt>
      <trkpt lat="43.763275" lon="5.602212">
        <ele>381.3</ele>
      </trkpt>
      <trkpt lat="43.763298" lon="5.601992">
        <ele>380.5</ele>
      </trkpt>
      <trkpt lat="43.763284" lon="5.601898">
        <ele>380.4</ele>
      </trkpt>
      <trkpt lat="43.763213" lon="5.601823">
        <ele>380.3</ele>
      </trkpt>
      <trkpt lat="43.763147" lon="5.601729">
        <ele>380.1</ele>
      </trkpt>
      <trkpt lat="43.763178" lon="5.601399">
        <ele>377.9</ele>
      </trkpt>
      <trkpt lat="43.763172" lon="5.601155">
        <ele>377.3</ele>
      </trkpt>
      <trkpt lat="43.763153" lon="5.600924">
        <ele>377.7</ele>
      </trkpt>
      <trkpt lat="43.763216" lon="5.600595">
        <ele>376</ele>
      </trkpt>
      <trkpt lat="43.763255" lon="5.600455">
        <ele>375.5</ele>
      </trkpt>
      <trkpt lat="43.763261" lon="5.600192">
        <ele>375.4</ele>
      </trkpt>
      <trkpt lat="43.763249" lon="5.599983">
        <ele>375</ele>
      </trkpt>
      <trkpt lat="43.763375" lon="5.598916">
        <ele>371.2</ele>
      </trkpt>
      <trkpt lat="43.763379" lon="5.598671">
        <ele>370.7</ele>
      </trkpt>
      <trkpt lat="43.763397" lon="5.598578">
        <ele>370.5</ele>
      </trkpt>
      <trkpt lat="43.763443" lon="5.598505">
        <ele>370.3</ele>
      </trkpt>
      <trkpt lat="43.763565" lon="5.598312">
        <ele>367.4</ele>
      </trkpt>
      <trkpt lat="43.763614" lon="5.598071">
        <ele>366.4</ele>
      </trkpt>
      <trkpt lat="43.763668" lon="5.597969">
        <ele>365.9</ele>
      </trkpt>
      <trkpt lat="43.763736" lon="5.597875">
        <ele>365.4</ele>
      </trkpt>
      <trkpt lat="43.763875" lon="5.597792">
        <ele>364.6</ele>
      </trkpt>
      <trkpt lat="43.763962" lon="5.597725">
        <ele>363.7</ele>
      </trkpt>
      <trkpt lat="43.764001" lon="5.597666">
        <ele>363.1</ele>
      </trkpt>
      <trkpt lat="43.764057" lon="5.597572">
        <ele>361.7</ele>
      </trkpt>
      <trkpt lat="43.764185" lon="5.597263">
        <ele>353.5</ele>
      </trkpt>
      <trkpt lat="43.764290" lon="5.597073">
        <ele>351.6</ele>
      </trkpt>
      <trkpt lat="43.764328" lon="5.596979">
        <ele>351.2</ele>
      </trkpt>
      <trkpt lat="43.764342" lon="5.596810">
        <ele>351.4</ele>
      </trkpt>
      <trkpt lat="43.764330" lon="5.596692">
        <ele>352</ele>
      </trkpt>
      <trkpt lat="43.764286" lon="5.596534">
        <ele>348</ele>
      </trkpt>
      <trkpt lat="43.764290" lon="5.596453">
        <ele>346.4</ele>
      </trkpt>
      <trkpt lat="43.764309" lon="5.596397">
        <ele>345.3</ele>
      </trkpt>
      <trkpt lat="43.764437" lon="5.596265">
        <ele>342.8</ele>
      </trkpt>
      <trkpt lat="43.764489" lon="5.596223">
        <ele>342.1</ele>
      </trkpt>
      <trkpt lat="43.764663" lon="5.596182">
        <ele>340.9</ele>
      </trkpt>
      <trkpt lat="43.764737" lon="5.596139">
        <ele>340.2</ele>
      </trkpt>
      <trkpt lat="43.765076" lon="5.595877">
        <ele>332.6</ele>
      </trkpt>
      <trkpt lat="43.765171" lon="5.595742">
        <ele>328.5</ele>
      </trkpt>
      <trkpt lat="43.765221" lon="5.595608">
        <ele>326.6</ele>
      </trkpt>
      <trkpt lat="43.765291" lon="5.595195">
        <ele>324.2</ele>
      </trkpt>
      <trkpt lat="43.765301" lon="5.594954">
        <ele>320.8</ele>
      </trkpt>
      <trkpt lat="43.765247" lon="5.594517">
        <ele>319.7</ele>
      </trkpt>
      <trkpt lat="43.765008" lon="5.593387">
        <ele>315.1</ele>
      </trkpt>
      <trkpt lat="43.764987" lon="5.593269">
        <ele>315</ele>
      </trkpt>
      <trkpt lat="43.764991" lon="5.593173">
        <ele>314.9</ele>
      </trkpt>
      <trkpt lat="43.765022" lon="5.593020">
        <ele>312.6</ele>
      </trkpt>
      <trkpt lat="43.765070" lon="5.592803">
        <ele>312</ele>
      </trkpt>
      <trkpt lat="43.765074" lon="5.592698">
        <ele>311.8</ele>
      </trkpt>
      <trkpt lat="43.765039" lon="5.592567">
        <ele>311.9</ele>
      </trkpt>
      <trkpt lat="43.764904" lon="5.592215">
        <ele>313.4</ele>
      </trkpt>
      <trkpt lat="43.764755" lon="5.591668">
        <ele>313.1</ele>
      </trkpt>
      <trkpt lat="43.764704" lon="5.591499">
        <ele>313.1</ele>
      </trkpt>
      <trkpt lat="43.764679" lon="5.591379">
        <ele>313.3</ele>
      </trkpt>
      <trkpt lat="43.764679" lon="5.591306">
        <ele>313.2</ele>
      </trkpt>
      <trkpt lat="43.764607" lon="5.591258">
        <ele>313.6</ele>
      </trkpt>
      <trkpt lat="43.764553" lon="5.591226">
        <ele>313.9</ele>
      </trkpt>
      <trkpt lat="43.764516" lon="5.591204">
        <ele>314.1</ele>
      </trkpt>
      <trkpt lat="43.764479" lon="5.591105">
        <ele>314.4</ele>
      </trkpt>
      <trkpt lat="43.764458" lon="5.590979">
        <ele>314.7</ele>
      </trkpt>
      <trkpt lat="43.764452" lon="5.590939">
        <ele>314.8</ele>
      </trkpt>
      <trkpt lat="43.764433" lon="5.590861">
        <ele>315.1</ele>
      </trkpt>
      <trkpt lat="43.764435" lon="5.590788">
        <ele>314.6</ele>
      </trkpt>
      <trkpt lat="43.764425" lon="5.590719">
        <ele>314.6</ele>
      </trkpt>
      <trkpt lat="43.764390" lon="5.590579">
        <ele>314.6</ele>
      </trkpt>
      <trkpt lat="43.764371" lon="5.590421">
        <ele>314.5</ele>
      </trkpt>
      <trkpt lat="43.764352" lon="5.590252">
        <ele>315.1</ele>
      </trkpt>
      <trkpt lat="43.764342" lon="5.590145">
        <ele>315.7</ele>
      </trkpt>
      <trkpt lat="43.764365" lon="5.590019">
        <ele>315.9</ele>
      </trkpt>
      <trkpt lat="43.764385" lon="5.589906">
        <ele>316.3</ele>
      </trkpt>
      <trkpt lat="43.764385" lon="5.589809">
        <ele>316.1</ele>
      </trkpt>
      <trkpt lat="43.764367" lon="5.589742">
        <ele>316.1</ele>
      </trkpt>
      <trkpt lat="43.764375" lon="5.589662">
        <ele>316</ele>
      </trkpt>
      <trkpt lat="43.764357" lon="5.589555">
        <ele>316.3</ele>
      </trkpt>
      <trkpt lat="43.764336" lon="5.589439">
        <ele>317</ele>
      </trkpt>
      <trkpt lat="43.764379" lon="5.589372">
        <ele>317</ele>
      </trkpt>
      <trkpt lat="43.764390" lon="5.589311">
        <ele>317.3</ele>
      </trkpt>
      <trkpt lat="43.764361" lon="5.589136">
        <ele>318.3</ele>
      </trkpt>
      <trkpt lat="43.764352" lon="5.589034">
        <ele>317.9</ele>
      </trkpt>
      <trkpt lat="43.764352" lon="5.588798">
        <ele>316.4</ele>
      </trkpt>
      <trkpt lat="43.764350" lon="5.588586">
        <ele>316</ele>
      </trkpt>
      <trkpt lat="43.764340" lon="5.588511">
        <ele>316.1</ele>
      </trkpt>
      <trkpt lat="43.764286" lon="5.588517">
        <ele>316.4</ele>
      </trkpt>
      <trkpt lat="43.764270" lon="5.588492">
        <ele>316.5</ele>
      </trkpt>
      <trkpt lat="43.764233" lon="5.588458">
        <ele>316.8</ele>
      </trkpt>
      <trkpt lat="43.764185" lon="5.588399">
        <ele>317.3</ele>
      </trkpt>
      <trkpt lat="43.764170" lon="5.588323">
        <ele>317.7</ele>
      </trkpt>
      <trkpt lat="43.764181" lon="5.588165">
        <ele>314.7</ele>
      </trkpt>
      <trkpt lat="43.764181" lon="5.588042">
        <ele>313.5</ele>
      </trkpt>
      <trkpt lat="43.764177" lon="5.587924">
        <ele>312.7</ele>
      </trkpt>
      <trkpt lat="43.764202" lon="5.587803">
        <ele>312.2</ele>
      </trkpt>
      <trkpt lat="43.764224" lon="5.587701">
        <ele>311.9</ele>
      </trkpt>
      <trkpt lat="43.764226" lon="5.587554">
        <ele>311.8</ele>
      </trkpt>
      <trkpt lat="43.764195" lon="5.587428">
        <ele>310.8</ele>
      </trkpt>
      <trkpt lat="43.764139" lon="5.587251">
        <ele>317.3</ele>
      </trkpt>
      <trkpt lat="43.764100" lon="5.587036">
        <ele>316.9</ele>
      </trkpt>
      <trkpt lat="43.764059" lon="5.586880">
        <ele>314.8</ele>
      </trkpt>
      <trkpt lat="43.764001" lon="5.586784">
        <ele>314.1</ele>
      </trkpt>
      <trkpt lat="43.763972" lon="5.586730">
        <ele>314.2</ele>
      </trkpt>
      <trkpt lat="43.764003" lon="5.586599">
        <ele>307.7</ele>
      </trkpt>
      <trkpt lat="43.763906" lon="5.586500">
        <ele>308.8</ele>
      </trkpt>
      <trkpt lat="43.763873" lon="5.586414">
        <ele>309</ele>
      </trkpt>
      <trkpt lat="43.763902" lon="5.586323">
        <ele>308.6</ele>
      </trkpt>
    </trkseg>
  </trk>
</gpx>