<?xml version="1.0" ?>
<gpx xmlns="http://www.topografix.com/GPX/1/1" xmlns:xsi="http://www.w3.org/2001/XMLSchema-instance" xsi:schemaLocation="http://www.topografix.com/GPX/1/1 http://www.topografix.com/GPX/1/1/gpx.xsd" version="1.1" creator="EditGPX">
  <trk>
    <name>NewTrack</name>
    <trkseg>
      <trkpt lat="43.726422" lon="5.549372">
        <ele>268.8</ele>
      </trkpt>
      <trkpt lat="43.726447" lon="5.549177">
        <ele>269.2</ele>
      </trkpt>
      <trkpt lat="43.726121" lon="5.548640">
        <ele>270.8</ele>
      </trkpt>
      <trkpt lat="43.726073" lon="5.548541">
        <ele>270.8</ele>
      </trkpt>
      <trkpt lat="43.726053" lon="5.548399">
        <ele>270.8</ele>
      </trkpt>
      <trkpt lat="43.726040" lon="5.548283">
        <ele>270.6</ele>
      </trkpt>
      <trkpt lat="43.726003" lon="5.547854">
        <ele>270.6</ele>
      </trkpt>
      <trkpt lat="43.725982" lon="5.547449">
        <ele>271.1</ele>
      </trkpt>
      <trkpt lat="43.725857" lon="5.547358">
        <ele>271.3</ele>
      </trkpt>
      <trkpt lat="43.725580" lon="5.547235">
        <ele>271.8</ele>
      </trkpt>
      <trkpt lat="43.725253" lon="5.546966">
        <ele>271.8</ele>
      </trkpt>
      <trkpt lat="43.724974" lon="5.546835">
        <ele>270.1</ele>
      </trkpt>
      <trkpt lat="43.724743" lon="5.546803">
        <ele>268.9</ele>
      </trkpt>
      <trkpt lat="43.724466" lon="5.546819">
        <ele>267.3</ele>
      </trkpt>
      <trkpt lat="43.724132" lon="5.546781">
        <ele>262.9</ele>
      </trkpt>
      <trkpt lat="43.723948" lon="5.546717">
        <ele>261.4</ele>
      </trkpt>
      <trkpt lat="43.723654" lon="5.546116">
        <ele>256.4</ele>
      </trkpt>
      <trkpt lat="43.723590" lon="5.545953">
        <ele>255.5</ele>
      </trkpt>
      <trkpt lat="43.723530" lon="5.545915">
        <ele>254.9</ele>
      </trkpt>
      <trkpt lat="43.723427" lon="5.545947">
        <ele>254.2</ele>
      </trkpt>
      <trkpt lat="43.723384" lon="5.545958">
        <ele>254.1</ele>
      </trkpt>
      <trkpt lat="43.723363" lon="5.545937">
        <ele>253.7</ele>
      </trkpt>
      <trkpt lat="43.723531" lon="5.545698">
        <ele>251</ele>
      </trkpt>
      <trkpt lat="43.723851" lon="5.545408">
        <ele>250.1</ele>
      </trkpt>
      <trkpt lat="43.724340" lon="5.545121">
        <ele>251</ele>
      </trkpt>
      <trkpt lat="43.724570" lon="5.544955">
        <ele>248.3</ele>
      </trkpt>
      <trkpt lat="43.724658" lon="5.544826">
        <ele>248.6</ele>
      </trkpt>
      <trkpt lat="43.724685" lon="5.544673">
        <ele>248.3</ele>
      </trkpt>
      <trkpt lat="43.724636" lon="5.544493">
        <ele>247.7</ele>
      </trkpt>
      <trkpt lat="43.724598" lon="5.544279">
        <ele>247.2</ele>
      </trkpt>
      <trkpt lat="43.724805" lon="5.543246">
        <ele>253</ele>
      </trkpt>
      <trkpt lat="43.724840" lon="5.543091">
        <ele>253.7</ele>
      </trkpt>
      <trkpt lat="43.724795" lon="5.543032">
        <ele>254</ele>
      </trkpt>
      <trkpt lat="43.724741" lon="5.542938">
        <ele>254.5</ele>
      </trkpt>
      <trkpt lat="43.724768" lon="5.542042">
        <ele>260.6</ele>
      </trkpt>
      <trkpt lat="43.724782" lon="5.541312">
        <ele>263.3</ele>
      </trkpt>
      <trkpt lat="43.724722" lon="5.540746">
        <ele>263.1</ele>
      </trkpt>
      <trkpt lat="43.724640" lon="5.539467">
        <ele>261.1</ele>
      </trkpt>
      <trkpt lat="43.724584" lon="5.538933">
        <ele>260.3</ele>
      </trkpt>
      <trkpt lat="43.724508" lon="5.538343">
        <ele>260.3</ele>
      </trkpt>
      <trkpt lat="43.724479" lon="5.537839">
        <ele>260.6</ele>
      </trkpt>
      <trkpt lat="43.724454" lon="5.537222">
        <ele>260.4</ele>
      </trkpt>
      <trkpt lat="43.724479" lon="5.536887">
        <ele>260</ele>
      </trkpt>
      <trkpt lat="43.724460" lon="5.536710">
        <ele>259.8</ele>
      </trkpt>
      <trkpt lat="43.724406" lon="5.536519">
        <ele>258</ele>
      </trkpt>
      <trkpt lat="43.724272" lon="5.536195">
        <ele>256.7</ele>
      </trkpt>
      <trkpt lat="43.723875" lon="5.535452">
        <ele>252.8</ele>
      </trkpt>
      <trkpt lat="43.723382" lon="5.534827">
        <ele>253.3</ele>
      </trkpt>
      <trkpt lat="43.723219" lon="5.534658">
        <ele>254.2</ele>
      </trkpt>
      <trkpt lat="43.722841" lon="5.534441">
        <ele>255.2</ele>
      </trkpt>
      <trkpt lat="43.722661" lon="5.534288">
        <ele>256.2</ele>
      </trkpt>
      <trkpt lat="43.722330" lon="5.533786">
        <ele>258.8</ele>
      </trkpt>
      <trkpt lat="43.722074" lon="5.533145">
        <ele>258.6</ele>
      </trkpt>
      <trkpt lat="43.721909" lon="5.532697">
        <ele>258.1</ele>
      </trkpt>
      <trkpt lat="43.721853" lon="5.532338">
        <ele>257.2</ele>
      </trkpt>
      <trkpt lat="43.721688" lon="5.531705">
        <ele>256.2</ele>
      </trkpt>
      <trkpt lat="43.721645" lon="5.531412">
        <ele>252.5</ele>
      </trkpt>
      <trkpt lat="43.721657" lon="5.531214">
        <ele>251.3</ele>
      </trkpt>
      <trkpt lat="43.721833" lon="5.530565">
        <ele>248</ele>
      </trkpt>
      <trkpt lat="43.721942" lon="5.530007">
        <ele>246.2</ele>
      </trkpt>
      <trkpt lat="43.721938" lon="5.529819">
        <ele>244.9</ele>
      </trkpt>
      <trkpt lat="43.721781" lon="5.529462">
        <ele>244.8</ele>
      </trkpt>
      <trkpt lat="43.721651" lon="5.529336">
        <ele>243.5</ele>
      </trkpt>
      <trkpt lat="43.721126" lon="5.529044">
        <ele>243.1</ele>
      </trkpt>
      <trkpt lat="43.720787" lon="5.528765">
        <ele>243</ele>
      </trkpt>
      <trkpt lat="43.719893" lon="5.528108">
        <ele>248.4</ele>
      </trkpt>
      <trkpt lat="43.719304" lon="5.527461">
        <ele>251.7</ele>
      </trkpt>
      <trkpt lat="43.719197" lon="5.527357">
        <ele>251.8</ele>
      </trkpt>
      <trkpt lat="43.718940" lon="5.527754">
        <ele>250.7</ele>
      </trkpt>
      <trkpt lat="43.718641" lon="5.528156">
        <ele>249.8</ele>
      </trkpt>
      <trkpt lat="43.717610" lon="5.529304">
        <ele>245.8</ele>
      </trkpt>
      <trkpt lat="43.716636" lon="5.530683">
        <ele>240.6</ele>
      </trkpt>
      <trkpt lat="43.716551" lon="5.530833">
        <ele>240.6</ele>
      </trkpt>
      <trkpt lat="43.716403" lon="5.530994">
        <ele>238.1</ele>
      </trkpt>
      <trkpt lat="43.716229" lon="5.531099">
        <ele>237.2</ele>
      </trkpt>
      <trkpt lat="43.716091" lon="5.531123">
        <ele>236.8</ele>
      </trkpt>
      <trkpt lat="43.715676" lon="5.531090">
        <ele>233.2</ele>
      </trkpt>
      <trkpt lat="43.715572" lon="5.531045">
        <ele>233</ele>
      </trkpt>
      <trkpt lat="43.715469" lon="5.531131">
        <ele>232.4</ele>
      </trkpt>
      <trkpt lat="43.715419" lon="5.531241">
        <ele>232</ele>
      </trkpt>
      <trkpt lat="43.715314" lon="5.531294">
        <ele>231.6</ele>
      </trkpt>
      <trkpt lat="43.715192" lon="5.531270">
        <ele>231.3</ele>
      </trkpt>
      <trkpt lat="43.715043" lon="5.531182">
        <ele>231.2</ele>
      </trkpt>
      <trkpt lat="43.714934" lon="5.531144">
        <ele>228.8</ele>
      </trkpt>
      <trkpt lat="43.714806" lon="5.531217">
        <ele>228.4</ele>
      </trkpt>
      <trkpt lat="43.714317" lon="5.531769">
        <ele>225.5</ele>
      </trkpt>
      <trkpt lat="43.713967" lon="5.532035">
        <ele>224.9</ele>
      </trkpt>
      <trkpt lat="43.713548" lon="5.532306">
        <ele>224.7</ele>
      </trkpt>
      <trkpt lat="43.713541" lon="5.532311">
        <ele>224.7</ele>
      </trkpt>
      <trkpt lat="43.712601" lon="5.532992">
        <ele>225.3</ele>
      </trkpt>
      <trkpt lat="43.712499" lon="5.533081">
        <ele>230.7</ele>
      </trkpt>
      <trkpt lat="43.712480" lon="5.533108">
        <ele>230.6</ele>
      </trkpt>
      <trkpt lat="43.712477" lon="5.533290">
        <ele>228.9</ele>
      </trkpt>
      <trkpt lat="43.712460" lon="5.533427">
        <ele>230.9</ele>
      </trkpt>
      <trkpt lat="43.712427" lon="5.533500">
        <ele>232.4</ele>
      </trkpt>
      <trkpt lat="43.712400" lon="5.533557">
        <ele>233.3</ele>
      </trkpt>
      <trkpt lat="43.712367" lon="5.533602">
        <ele>234</ele>
      </trkpt>
      <trkpt lat="43.712330" lon="5.533642">
        <ele>234.5</ele>
      </trkpt>
      <trkpt lat="43.712292" lon="5.533683">
        <ele>235</ele>
      </trkpt>
      <trkpt lat="43.712253" lon="5.533727">
        <ele>235.4</ele>
      </trkpt>
      <trkpt lat="43.712217" lon="5.533777">
        <ele>235.7</ele>
      </trkpt>
      <trkpt lat="43.712187" lon="5.533832">
        <ele>236</ele>
      </trkpt>
      <trkpt lat="43.712158" lon="5.533890">
        <ele>236.3</ele>
      </trkpt>
      <trkpt lat="43.712133" lon="5.533950">
        <ele>236.4</ele>
      </trkpt>
      <trkpt lat="43.712113" lon="5.534013">
        <ele>236.6</ele>
      </trkpt>
      <trkpt lat="43.712093" lon="5.534077">
        <ele>236.7</ele>
      </trkpt>
      <trkpt lat="43.712075" lon="5.534143">
        <ele>236.7</ele>
      </trkpt>
      <trkpt lat="43.712058" lon="5.534212">
        <ele>238.6</ele>
      </trkpt>
      <trkpt lat="43.712043" lon="5.534280">
        <ele>238.6</ele>
      </trkpt>
      <trkpt lat="43.712028" lon="5.534347">
        <ele>238.6</ele>
      </trkpt>
      <trkpt lat="43.712013" lon="5.534413">
        <ele>238.7</ele>
      </trkpt>
      <trkpt lat="43.711998" lon="5.534478">
        <ele>238.7</ele>
      </trkpt>
      <trkpt lat="43.711983" lon="5.534545">
        <ele>238.8</ele>
      </trkpt>
      <trkpt lat="43.711967" lon="5.534610">
        <ele>238.8</ele>
      </trkpt>
      <trkpt lat="43.711952" lon="5.534675">
        <ele>238.9</ele>
      </trkpt>
      <trkpt lat="43.711935" lon="5.534738">
        <ele>238.9</ele>
      </trkpt>
      <trkpt lat="43.711918" lon="5.534803">
        <ele>238.8</ele>
      </trkpt>
      <trkpt lat="43.711902" lon="5.534868">
        <ele>238.8</ele>
      </trkpt>
      <trkpt lat="43.711885" lon="5.534933">
        <ele>238.8</ele>
      </trkpt>
      <trkpt lat="43.711870" lon="5.535000">
        <ele>239.1</ele>
      </trkpt>
      <trkpt lat="43.711850" lon="5.535063">
        <ele>239.1</ele>
      </trkpt>
      <trkpt lat="43.711827" lon="5.535127">
        <ele>239.1</ele>
      </trkpt>
      <trkpt lat="43.711802" lon="5.535187">
        <ele>239.2</ele>
      </trkpt>
      <trkpt lat="43.711775" lon="5.535247">
        <ele>239.2</ele>
      </trkpt>
      <trkpt lat="43.711748" lon="5.535307">
        <ele>239.3</ele>
      </trkpt>
      <trkpt lat="43.711722" lon="5.535367">
        <ele>239.4</ele>
      </trkpt>
      <trkpt lat="43.711695" lon="5.535428">
        <ele>239.5</ele>
      </trkpt>
      <trkpt lat="43.711670" lon="5.535490">
        <ele>239.6</ele>
      </trkpt>
      <trkpt lat="43.711643" lon="5.535552">
        <ele>239.7</ele>
      </trkpt>
      <trkpt lat="43.711618" lon="5.535612">
        <ele>239.7</ele>
      </trkpt>
      <trkpt lat="43.711592" lon="5.535673">
        <ele>239.8</ele>
      </trkpt>
      <trkpt lat="43.711567" lon="5.535735">
        <ele>239.8</ele>
      </trkpt>
      <trkpt lat="43.711543" lon="5.535798">
        <ele>239.9</ele>
      </trkpt>
      <trkpt lat="43.711522" lon="5.535865">
        <ele>240.7</ele>
      </trkpt>
      <trkpt lat="43.711503" lon="5.535933">
        <ele>240.9</ele>
      </trkpt>
      <trkpt lat="43.711490" lon="5.536005">
        <ele>241</ele>
      </trkpt>
      <trkpt lat="43.711478" lon="5.536075">
        <ele>241.2</ele>
      </trkpt>
      <trkpt lat="43.711472" lon="5.536147">
        <ele>241.4</ele>
      </trkpt>
      <trkpt lat="43.711467" lon="5.536217">
        <ele>241.5</ele>
      </trkpt>
      <trkpt lat="43.711465" lon="5.536288">
        <ele>241.6</ele>
      </trkpt>
      <trkpt lat="43.711463" lon="5.536358">
        <ele>241.8</ele>
      </trkpt>
      <trkpt lat="43.711463" lon="5.536428">
        <ele>241.9</ele>
      </trkpt>
      <trkpt lat="43.711465" lon="5.536498">
        <ele>241.9</ele>
      </trkpt>
      <trkpt lat="43.711463" lon="5.536568">
        <ele>242</ele>
      </trkpt>
      <trkpt lat="43.711462" lon="5.536640">
        <ele>242</ele>
      </trkpt>
      <trkpt lat="43.711458" lon="5.536710">
        <ele>244</ele>
      </trkpt>
      <trkpt lat="43.711453" lon="5.536782">
        <ele>244.2</ele>
      </trkpt>
      <trkpt lat="43.711442" lon="5.536850">
        <ele>244.5</ele>
      </trkpt>
      <trkpt lat="43.711417" lon="5.536912">
        <ele>244.8</ele>
      </trkpt>
      <trkpt lat="43.711385" lon="5.536962">
        <ele>245</ele>
      </trkpt>
      <trkpt lat="43.711350" lon="5.537008">
        <ele>245.2</ele>
      </trkpt>
      <trkpt lat="43.711317" lon="5.537048">
        <ele>245.4</ele>
      </trkpt>
      <trkpt lat="43.711285" lon="5.537085">
        <ele>245.6</ele>
      </trkpt>
      <trkpt lat="43.711255" lon="5.537120">
        <ele>245.8</ele>
      </trkpt>
      <trkpt lat="43.711225" lon="5.537158">
        <ele>246</ele>
      </trkpt>
      <trkpt lat="43.711195" lon="5.537193">
        <ele>246.3</ele>
      </trkpt>
      <trkpt lat="43.711163" lon="5.537223">
        <ele>246.5</ele>
      </trkpt>
      <trkpt lat="43.711132" lon="5.537255">
        <ele>246.8</ele>
      </trkpt>
      <trkpt lat="43.711102" lon="5.537287">
        <ele>247.1</ele>
      </trkpt>
      <trkpt lat="43.711072" lon="5.537318">
        <ele>247.4</ele>
      </trkpt>
      <trkpt lat="43.711043" lon="5.537350">
        <ele>247.8</ele>
      </trkpt>
      <trkpt lat="43.711015" lon="5.537383">
        <ele>248.3</ele>
      </trkpt>
      <trkpt lat="43.710987" lon="5.537417">
        <ele>248.8</ele>
      </trkpt>
      <trkpt lat="43.710962" lon="5.537452">
        <ele>249.3</ele>
      </trkpt>
      <trkpt lat="43.710935" lon="5.537487">
        <ele>249.8</ele>
      </trkpt>
      <trkpt lat="43.710910" lon="5.537522">
        <ele>250.8</ele>
      </trkpt>
      <trkpt lat="43.710885" lon="5.537558">
        <ele>250.8</ele>
      </trkpt>
      <trkpt lat="43.710863" lon="5.537597">
        <ele>250.5</ele>
      </trkpt>
      <trkpt lat="43.710842" lon="5.537637">
        <ele>250.2</ele>
      </trkpt>
      <trkpt lat="43.710822" lon="5.537677">
        <ele>252</ele>
      </trkpt>
      <trkpt lat="43.710800" lon="5.537717">
        <ele>252</ele>
      </trkpt>
      <trkpt lat="43.710782" lon="5.537758">
        <ele>252</ele>
      </trkpt>
      <trkpt lat="43.710763" lon="5.537802">
        <ele>252</ele>
      </trkpt>
      <trkpt lat="43.710748" lon="5.537847">
        <ele>252</ele>
      </trkpt>
      <trkpt lat="43.710737" lon="5.537893">
        <ele>252</ele>
      </trkpt>
      <trkpt lat="43.710722" lon="5.537937">
        <ele>252</ele>
      </trkpt>
      <trkpt lat="43.710705" lon="5.537980">
        <ele>252</ele>
      </trkpt>
      <trkpt lat="43.710685" lon="5.538018">
        <ele>252</ele>
      </trkpt>
      <trkpt lat="43.710663" lon="5.538057">
        <ele>252</ele>
      </trkpt>
      <trkpt lat="43.710642" lon="5.538093">
        <ele>252</ele>
      </trkpt>
      <trkpt lat="43.710613" lon="5.538127">
        <ele>252.1</ele>
      </trkpt>
      <trkpt lat="43.710582" lon="5.538152">
        <ele>252.1</ele>
      </trkpt>
      <trkpt lat="43.710545" lon="5.538160">
        <ele>252.2</ele>
      </trkpt>
      <trkpt lat="43.710510" lon="5.538165">
        <ele>252.3</ele>
      </trkpt>
      <trkpt lat="43.710475" lon="5.538173">
        <ele>252.4</ele>
      </trkpt>
      <trkpt lat="43.710442" lon="5.538182">
        <ele>252.5</ele>
      </trkpt>
      <trkpt lat="43.710407" lon="5.538192">
        <ele>252.7</ele>
      </trkpt>
      <trkpt lat="43.710372" lon="5.538205">
        <ele>252.8</ele>
      </trkpt>
      <trkpt lat="43.710335" lon="5.538225">
        <ele>253</ele>
      </trkpt>
      <trkpt lat="43.710302" lon="5.538245">
        <ele>253.1</ele>
      </trkpt>
      <trkpt lat="43.710267" lon="5.538268">
        <ele>253.3</ele>
      </trkpt>
      <trkpt lat="43.710232" lon="5.538293">
        <ele>253.6</ele>
      </trkpt>
      <trkpt lat="43.710195" lon="5.538318">
        <ele>253.9</ele>
      </trkpt>
      <trkpt lat="43.710160" lon="5.538340">
        <ele>254.8</ele>
      </trkpt>
      <trkpt lat="43.710125" lon="5.538363">
        <ele>255</ele>
      </trkpt>
      <trkpt lat="43.710088" lon="5.538385">
        <ele>255.2</ele>
      </trkpt>
      <trkpt lat="43.710052" lon="5.538407">
        <ele>255.3</ele>
      </trkpt>
      <trkpt lat="43.710018" lon="5.538437">
        <ele>255.2</ele>
      </trkpt>
      <trkpt lat="43.709980" lon="5.538465">
        <ele>256.2</ele>
      </trkpt>
      <trkpt lat="43.709947" lon="5.538490">
        <ele>256.3</ele>
      </trkpt>
      <trkpt lat="43.709908" lon="5.538512">
        <ele>256.3</ele>
      </trkpt>
      <trkpt lat="43.709868" lon="5.538532">
        <ele>256.4</ele>
      </trkpt>
      <trkpt lat="43.709828" lon="5.538552">
        <ele>256.4</ele>
      </trkpt>
      <trkpt lat="43.709792" lon="5.538570">
        <ele>256.4</ele>
      </trkpt>
      <trkpt lat="43.709750" lon="5.538590">
        <ele>256.5</ele>
      </trkpt>
      <trkpt lat="43.709710" lon="5.538612">
        <ele>256.5</ele>
      </trkpt>
      <trkpt lat="43.709673" lon="5.538643">
        <ele>256.5</ele>
      </trkpt>
      <trkpt lat="43.709640" lon="5.538683">
        <ele>256.6</ele>
      </trkpt>
      <trkpt lat="43.709608" lon="5.538725">
        <ele>256.7</ele>
      </trkpt>
      <trkpt lat="43.709578" lon="5.538767">
        <ele>256.8</ele>
      </trkpt>
      <trkpt lat="43.709550" lon="5.538808">
        <ele>256.9</ele>
      </trkpt>
      <trkpt lat="43.709525" lon="5.538852">
        <ele>257</ele>
      </trkpt>
      <trkpt lat="43.709505" lon="5.538895">
        <ele>257.1</ele>
      </trkpt>
      <trkpt lat="43.709490" lon="5.538940">
        <ele>257.3</ele>
      </trkpt>
      <trkpt lat="43.709477" lon="5.538985">
        <ele>257.4</ele>
      </trkpt>
      <trkpt lat="43.709462" lon="5.539033">
        <ele>257.6</ele>
      </trkpt>
      <trkpt lat="43.709447" lon="5.539083">
        <ele>257.7</ele>
      </trkpt>
      <trkpt lat="43.709433" lon="5.539135">
        <ele>257.9</ele>
      </trkpt>
      <trkpt lat="43.709417" lon="5.539187">
        <ele>258.6</ele>
      </trkpt>
      <trkpt lat="43.709402" lon="5.539237">
        <ele>258.6</ele>
      </trkpt>
      <trkpt lat="43.709383" lon="5.539288">
        <ele>258.6</ele>
      </trkpt>
      <trkpt lat="43.709120" lon="5.539880">
        <ele>258.2</ele>
      </trkpt>
      <trkpt lat="43.709105" lon="5.539948">
        <ele>258.4</ele>
      </trkpt>
      <trkpt lat="43.709088" lon="5.540017">
        <ele>258.3</ele>
      </trkpt>
      <trkpt lat="43.709073" lon="5.540087">
        <ele>257.9</ele>
      </trkpt>
      <trkpt lat="43.709058" lon="5.540157">
        <ele>257.6</ele>
      </trkpt>
      <trkpt lat="43.709043" lon="5.540230">
        <ele>257.3</ele>
      </trkpt>
      <trkpt lat="43.709030" lon="5.540303">
        <ele>257.1</ele>
      </trkpt>
      <trkpt lat="43.709017" lon="5.540378">
        <ele>256.9</ele>
      </trkpt>
      <trkpt lat="43.709003" lon="5.540455">
        <ele>256.7</ele>
      </trkpt>
      <trkpt lat="43.708888" lon="5.541203">
        <ele>256.3</ele>
      </trkpt>
      <trkpt lat="43.708890" lon="5.541335">
        <ele>256.3</ele>
      </trkpt>
      <trkpt lat="43.708912" lon="5.541392">
        <ele>256.4</ele>
      </trkpt>
      <trkpt lat="43.708945" lon="5.541442">
        <ele>256.4</ele>
      </trkpt>
      <trkpt lat="43.708983" lon="5.541488">
        <ele>256.5</ele>
      </trkpt>
      <trkpt lat="43.709023" lon="5.541537">
        <ele>256.6</ele>
      </trkpt>
      <trkpt lat="43.709060" lon="5.541595">
        <ele>256.7</ele>
      </trkpt>
      <trkpt lat="43.709097" lon="5.541662">
        <ele>256.8</ele>
      </trkpt>
      <trkpt lat="43.709135" lon="5.541728">
        <ele>256.6</ele>
      </trkpt>
      <trkpt lat="43.709168" lon="5.541802">
        <ele>255.2</ele>
      </trkpt>
      <trkpt lat="43.709200" lon="5.541873">
        <ele>254.5</ele>
      </trkpt>
      <trkpt lat="43.709237" lon="5.541948">
        <ele>254</ele>
      </trkpt>
      <trkpt lat="43.709272" lon="5.542025">
        <ele>253.6</ele>
      </trkpt>
      <trkpt lat="43.709307" lon="5.542102">
        <ele>253.3</ele>
      </trkpt>
      <trkpt lat="43.709345" lon="5.542177">
        <ele>253.1</ele>
      </trkpt>
      <trkpt lat="43.709382" lon="5.542253">
        <ele>253</ele>
      </trkpt>
      <trkpt lat="43.709417" lon="5.542332">
        <ele>252.9</ele>
      </trkpt>
      <trkpt lat="43.709452" lon="5.542410">
        <ele>252.7</ele>
      </trkpt>
      <trkpt lat="43.709487" lon="5.542487">
        <ele>252.6</ele>
      </trkpt>
      <trkpt lat="43.709522" lon="5.542563">
        <ele>251.9</ele>
      </trkpt>
      <trkpt lat="43.709557" lon="5.542638">
        <ele>251.8</ele>
      </trkpt>
      <trkpt lat="43.709590" lon="5.542713">
        <ele>251.7</ele>
      </trkpt>
      <trkpt lat="43.709623" lon="5.542788">
        <ele>251.6</ele>
      </trkpt>
      <trkpt lat="43.709657" lon="5.542863">
        <ele>251.5</ele>
      </trkpt>
      <trkpt lat="43.709690" lon="5.542938">
        <ele>251.5</ele>
      </trkpt>
      <trkpt lat="43.709722" lon="5.543013">
        <ele>251.4</ele>
      </trkpt>
      <trkpt lat="43.709755" lon="5.543090">
        <ele>251.3</ele>
      </trkpt>
      <trkpt lat="43.709792" lon="5.543167">
        <ele>251.2</ele>
      </trkpt>
      <trkpt lat="43.709827" lon="5.543242">
        <ele>251</ele>
      </trkpt>
      <trkpt lat="43.709862" lon="5.543317">
        <ele>250.8</ele>
      </trkpt>
      <trkpt lat="43.709897" lon="5.543393">
        <ele>251.1</ele>
      </trkpt>
      <trkpt lat="43.709932" lon="5.543467">
        <ele>251.3</ele>
      </trkpt>
      <trkpt lat="43.709968" lon="5.543540">
        <ele>251.6</ele>
      </trkpt>
      <trkpt lat="43.710025" lon="5.543670">
        <ele>250</ele>
      </trkpt>
      <trkpt lat="43.710107" lon="5.543831">
        <ele>250.1</ele>
      </trkpt>
      <trkpt lat="43.710215" lon="5.544051">
        <ele>250.2</ele>
      </trkpt>
      <trkpt lat="43.710630" lon="5.544673">
        <ele>249.2</ele>
      </trkpt>
      <trkpt lat="43.710541" lon="5.544856">
        <ele>249.1</ele>
      </trkpt>
      <trkpt lat="43.710278" lon="5.545365">
        <ele>249.9</ele>
      </trkpt>
      <trkpt lat="43.710072" lon="5.545843">
        <ele>251.7</ele>
      </trkpt>
      <trkpt lat="43.709839" lon="5.546256">
        <ele>252.9</ele>
      </trkpt>
      <trkpt lat="43.709428" lon="5.546798">
        <ele>254.1</ele>
      </trkpt>
      <trkpt lat="43.708975" lon="5.547591">
        <ele>256.5</ele>
      </trkpt>
      <trkpt lat="43.708769" lon="5.548139">
        <ele>257.1</ele>
      </trkpt>
      <trkpt lat="43.708707" lon="5.548407">
        <ele>258.1</ele>
      </trkpt>
      <trkpt lat="43.708653" lon="5.548739">
        <ele>258.4</ele>
      </trkpt>
      <trkpt lat="43.708331" lon="5.549700">
        <ele>261.2</ele>
      </trkpt>
      <trkpt lat="43.708284" lon="5.549812">
        <ele>261.2</ele>
      </trkpt>
      <trkpt lat="43.708641" lon="5.549785">
        <ele>260</ele>
      </trkpt>
      <trkpt lat="43.708816" lon="5.549807">
        <ele>259.9</ele>
      </trkpt>
      <trkpt lat="43.709308" lon="5.549968">
        <ele>261.1</ele>
      </trkpt>
      <trkpt lat="43.709413" lon="5.549979">
        <ele>261.8</ele>
      </trkpt>
      <trkpt lat="43.709998" lon="5.549973">
        <ele>267.4</ele>
      </trkpt>
      <trkpt lat="43.710565" lon="5.549893">
        <ele>265.8</ele>
      </trkpt>
      <trkpt lat="43.710704" lon="5.549898">
        <ele>266.1</ele>
      </trkpt>
      <trkpt lat="43.711429" lon="5.550343">
        <ele>265.7</ele>
      </trkpt>
      <trkpt lat="43.711466" lon="5.550432">
        <ele>265.7</ele>
      </trkpt>
      <trkpt lat="43.711555" lon="5.550829">
        <ele>264.9</ele>
      </trkpt>
      <trkpt lat="43.711617" lon="5.550990">
        <ele>266</ele>
      </trkpt>
      <trkpt lat="43.711739" lon="5.551210">
        <ele>263</ele>
      </trkpt>
      <trkpt lat="43.712042" lon="5.551516">
        <ele>262.1</ele>
      </trkpt>
      <trkpt lat="43.712288" lon="5.551760">
        <ele>260.3</ele>
      </trkpt>
      <trkpt lat="43.712456" lon="5.551438">
        <ele>260</ele>
      </trkpt>
      <trkpt lat="43.712592" lon="5.551223">
        <ele>258.1</ele>
      </trkpt>
      <trkpt lat="43.712828" lon="5.550944">
        <ele>258.3</ele>
      </trkpt>
      <trkpt lat="43.713220" lon="5.550665">
        <ele>260.1</ele>
      </trkpt>
      <trkpt lat="43.714318" lon="5.549576">
        <ele>256.7</ele>
      </trkpt>
      <trkpt lat="43.714411" lon="5.549507">
        <ele>256.6</ele>
      </trkpt>
      <trkpt lat="43.714620" lon="5.549249">
        <ele>256</ele>
      </trkpt>
      <trkpt lat="43.714791" lon="5.549040">
        <ele>258.5</ele>
      </trkpt>
      <trkpt lat="43.715415" lon="5.548471">
        <ele>254.4</ele>
      </trkpt>
      <trkpt lat="43.715485" lon="5.548401">
        <ele>254.1</ele>
      </trkpt>
      <trkpt lat="43.715628" lon="5.548251">
        <ele>255.6</ele>
      </trkpt>
      <trkpt lat="43.715760" lon="5.548047">
        <ele>255.9</ele>
      </trkpt>
      <trkpt lat="43.715962" lon="5.547613">
        <ele>253.1</ele>
      </trkpt>
      <trkpt lat="43.716408" lon="5.546561">
        <ele>253.4</ele>
      </trkpt>
      <trkpt lat="43.716559" lon="5.546293">
        <ele>253.7</ele>
      </trkpt>
      <trkpt lat="43.716962" lon="5.546312">
        <ele>250.4</ele>
      </trkpt>
      <trkpt lat="43.717121" lon="5.546283">
        <ele>250.3</ele>
      </trkpt>
      <trkpt lat="43.717576" lon="5.546170">
        <ele>249.8</ele>
      </trkpt>
      <trkpt lat="43.717877" lon="5.546071">
        <ele>249.8</ele>
      </trkpt>
      <trkpt lat="43.718301" lon="5.545945">
        <ele>248</ele>
      </trkpt>
      <trkpt lat="43.718385" lon="5.545966">
        <ele>247.5</ele>
      </trkpt>
      <trkpt lat="43.718583" lon="5.545998">
        <ele>247.9</ele>
      </trkpt>
      <trkpt lat="43.718895" lon="5.546189">
        <ele>248</ele>
      </trkpt>
      <trkpt lat="43.719009" lon="5.546355">
        <ele>248.7</ele>
      </trkpt>
      <trkpt lat="43.719211" lon="5.546637">
        <ele>248.7</ele>
      </trkpt>
      <trkpt lat="43.719479" lon="5.547039">
        <ele>250.7</ele>
      </trkpt>
      <trkpt lat="43.719851" lon="5.547431">
        <ele>248.9</ele>
      </trkpt>
      <trkpt lat="43.720029" lon="5.547634">
        <ele>246.6</ele>
      </trkpt>
      <trkpt lat="43.720335" lon="5.548401">
        <ele>251.3</ele>
      </trkpt>
      <trkpt lat="43.720506" lon="5.548809">
        <ele>251.2</ele>
      </trkpt>
      <trkpt lat="43.720793" lon="5.548777">
        <ele>249.2</ele>
      </trkpt>
      <trkpt lat="43.721277" lon="5.548466">
        <ele>242.7</ele>
      </trkpt>
      <trkpt lat="43.721510" lon="5.548353">
        <ele>242</ele>
      </trkpt>
      <trkpt lat="43.721626" lon="5.548380">
        <ele>241.5</ele>
      </trkpt>
      <trkpt lat="43.721743" lon="5.548557">
        <ele>242</ele>
      </trkpt>
      <trkpt lat="43.721789" lon="5.548675">
        <ele>242.2</ele>
      </trkpt>
      <trkpt lat="43.721867" lon="5.549024">
        <ele>242.6</ele>
      </trkpt>
      <trkpt lat="43.721894" lon="5.549453">
        <ele>243.4</ele>
      </trkpt>
      <trkpt lat="43.721917" lon="5.549619">
        <ele>243.6</ele>
      </trkpt>
      <trkpt lat="43.721971" lon="5.549785">
        <ele>243.8</ele>
      </trkpt>
      <trkpt lat="43.722119" lon="5.549957">
        <ele>243.8</ele>
      </trkpt>
      <trkpt lat="43.722487" lon="5.550311">
        <ele>245.1</ele>
      </trkpt>
      <trkpt lat="43.722607" lon="5.550381">
        <ele>244.6</ele>
      </trkpt>
      <trkpt lat="43.722820" lon="5.550424">
        <ele>244.6</ele>
      </trkpt>
      <trkpt lat="43.722944" lon="5.550499">
        <ele>244.6</ele>
      </trkpt>
      <trkpt lat="43.723328" lon="5.550692">
        <ele>244.8</ele>
      </trkpt>
      <trkpt lat="43.723856" lon="5.550724">
        <ele>244.5</ele>
      </trkpt>
      <trkpt lat="43.723983" lon="5.550751">
        <ele>244.6</ele>
      </trkpt>
      <trkpt lat="43.724104" lon="5.550762">
        <ele>244.8</ele>
      </trkpt>
      <trkpt lat="43.724270" lon="5.550818">
        <ele>245.5</ele>
      </trkpt>
      <trkpt lat="43.724132" lon="5.551320">
        <ele>246.5</ele>
      </trkpt>
      <trkpt lat="43.724086" lon="5.551631">
        <ele>247.5</ele>
      </trkpt>
      <trkpt lat="43.724029" lon="5.552417">
        <ele>247.4</ele>
      </trkpt>
      <trkpt lat="43.724010" lon="5.552664">
        <ele>248.3</ele>
      </trkpt>
      <trkpt lat="43.724020" lon="5.553200">
        <ele>249.2</ele>
      </trkpt>
      <trkpt lat="43.724097" lon="5.553605">
        <ele>251.5</ele>
      </trkpt>
      <trkpt lat="43.724171" lon="5.553865">
        <ele>251.1</ele>
      </trkpt>
      <trkpt lat="43.724305" lon="5.554128">
        <ele>251.9</ele>
      </trkpt>
      <trkpt lat="43.724351" lon="5.554217">
        <ele>253.4</ele>
      </trkpt>
      <trkpt lat="43.724462" lon="5.554353">
        <ele>253.6</ele>
      </trkpt>
      <trkpt lat="43.724610" lon="5.554470">
        <ele>253.7</ele>
      </trkpt>
      <trkpt lat="43.724696" lon="5.554485">
        <ele>253.6</ele>
      </trkpt>
      <trkpt lat="43.724894" lon="5.554487">
        <ele>253.3</ele>
      </trkpt>
      <trkpt lat="43.725115" lon="5.554485">
        <ele>252</ele>
      </trkpt>
      <trkpt lat="43.725171" lon="5.554734">
        <ele>252.7</ele>
      </trkpt>
      <trkpt lat="43.725251" lon="5.555169">
        <ele>255.9</ele>
      </trkpt>
      <trkpt lat="43.725301" lon="5.555458">
        <ele>256.9</ele>
      </trkpt>
      <trkpt lat="43.725323" lon="5.555555">
        <ele>257.2</ele>
      </trkpt>
      <trkpt lat="43.725319" lon="5.555724">
        <ele>257.8</ele>
      </trkpt>
      <trkpt lat="43.725410" lon="5.556271">
        <ele>260.5</ele>
      </trkpt>
      <trkpt lat="43.725429" lon="5.556684">
        <ele>262.9</ele>
      </trkpt>
      <trkpt lat="43.725385" lon="5.557105">
        <ele>264</ele>
      </trkpt>
      <trkpt lat="43.725249" lon="5.557626">
        <ele>267.6</ele>
      </trkpt>
      <trkpt lat="43.725120" lon="5.558120">
        <ele>267.7</ele>
      </trkpt>
      <trkpt lat="43.725032" lon="5.558446">
        <ele>268.5</ele>
      </trkpt>
      <trkpt lat="43.724939" lon="5.558698">
        <ele>271.4</ele>
      </trkpt>
      <trkpt lat="43.724902" lon="5.558803">
        <ele>271.2</ele>
      </trkpt>
      <trkpt lat="43.724890" lon="5.558932">
        <ele>270.6</ele>
      </trkpt>
      <trkpt lat="43.725060" lon="5.559770">
        <ele>268.5</ele>
      </trkpt>
      <trkpt lat="43.725119" lon="5.560117">
        <ele>270.8</ele>
      </trkpt>
      <trkpt lat="43.725080" lon="5.560210">
        <ele>271.2</ele>
      </trkpt>
      <trkpt lat="43.725030" lon="5.560340">
        <ele>271.9</ele>
      </trkpt>
      <trkpt lat="43.724810" lon="5.560660">
        <ele>274.4</ele>
      </trkpt>
      <trkpt lat="43.724730" lon="5.560800">
        <ele>274.4</ele>
      </trkpt>
      <trkpt lat="43.724660" lon="5.560940">
        <ele>276.5</ele>
      </trkpt>
      <trkpt lat="43.724580" lon="5.561090">
        <ele>276.4</ele>
      </trkpt>
      <trkpt lat="43.724297" lon="5.561689">
        <ele>277</ele>
      </trkpt>
      <trkpt lat="43.724039" lon="5.562791">
        <ele>276.3</ele>
      </trkpt>
      <trkpt lat="43.723790" lon="5.563854">
        <ele>278.8</ele>
      </trkpt>
      <trkpt lat="43.723704" lon="5.564221">
        <ele>281.7</ele>
      </trkpt>
      <trkpt lat="43.723644" lon="5.564269">
        <ele>282</ele>
      </trkpt>
      <trkpt lat="43.723623" lon="5.564323">
        <ele>282.2</ele>
      </trkpt>
      <trkpt lat="43.723801" lon="5.564744">
        <ele>282.4</ele>
      </trkpt>
      <trkpt lat="43.724070" lon="5.565439">
        <ele>285.9</ele>
      </trkpt>
      <trkpt lat="43.724171" lon="5.565702">
        <ele>284.2</ele>
      </trkpt>
      <trkpt lat="43.724260" lon="5.566002">
        <ele>285</ele>
      </trkpt>
      <trkpt lat="43.724237" lon="5.566327">
        <ele>285</ele>
      </trkpt>
      <trkpt lat="43.724334" lon="5.567308">
        <ele>285.6</ele>
      </trkpt>
      <trkpt lat="43.724514" lon="5.568035">
        <ele>286.1</ele>
      </trkpt>
      <trkpt lat="43.724551" lon="5.568234">
        <ele>286.1</ele>
      </trkpt>
      <trkpt lat="43.724592" lon="5.568448">
        <ele>287.3</ele>
      </trkpt>
      <trkpt lat="43.724679" lon="5.568730">
        <ele>287.4</ele>
      </trkpt>
      <trkpt lat="43.724712" lon="5.568961">
        <ele>287.5</ele>
      </trkpt>
      <trkpt lat="43.724714" lon="5.569033">
        <ele>287.5</ele>
      </trkpt>
      <trkpt lat="43.724667" lon="5.569806">
        <ele>293.2</ele>
      </trkpt>
      <trkpt lat="43.725055" lon="5.569870">
        <ele>290.5</ele>
      </trkpt>
      <trkpt lat="43.725540" lon="5.569953">
        <ele>289.2</ele>
      </trkpt>
      <trkpt lat="43.725702" lon="5.570087">
        <ele>290.8</ele>
      </trkpt>
      <trkpt lat="43.726065" lon="5.570267">
        <ele>293.6</ele>
      </trkpt>
      <trkpt lat="43.726336" lon="5.570460">
        <ele>295.6</ele>
      </trkpt>
      <trkpt lat="43.726464" lon="5.570476">
        <ele>296.2</ele>
      </trkpt>
      <trkpt lat="43.726501" lon="5.570452">
        <ele>296.3</ele>
      </trkpt>
      <trkpt lat="43.726584" lon="5.570304">
        <ele>295.9</ele>
      </trkpt>
      <trkpt lat="43.726635" lon="5.570135">
        <ele>295.7</ele>
      </trkpt>
      <trkpt lat="43.726652" lon="5.569996">
        <ele>295.7</ele>
      </trkpt>
      <trkpt lat="43.726637" lon="5.569392">
        <ele>291.9</ele>
      </trkpt>
      <trkpt lat="43.726677" lon="5.569028">
        <ele>292.6</ele>
      </trkpt>
      <trkpt lat="43.726883" lon="5.568027">
        <ele>289.6</ele>
      </trkpt>
      <trkpt lat="43.727152" lon="5.566882">
        <ele>288.7</ele>
      </trkpt>
      <trkpt lat="43.727218" lon="5.566547">
        <ele>288.1</ele>
      </trkpt>
      <trkpt lat="43.727336" lon="5.566139">
        <ele>287.5</ele>
      </trkpt>
      <trkpt lat="43.727373" lon="5.566099">
        <ele>287.5</ele>
      </trkpt>
      <trkpt lat="43.727449" lon="5.566077">
        <ele>287.6</ele>
      </trkpt>
      <trkpt lat="43.727668" lon="5.566120">
        <ele>291.7</ele>
      </trkpt>
      <trkpt lat="43.727736" lon="5.566099">
        <ele>291.9</ele>
      </trkpt>
      <trkpt lat="43.727798" lon="5.566021">
        <ele>292</ele>
      </trkpt>
      <trkpt lat="43.727900" lon="5.565659">
        <ele>291.2</ele>
      </trkpt>
      <trkpt lat="43.727984" lon="5.565452">
        <ele>291.4</ele>
      </trkpt>
      <trkpt lat="43.728055" lon="5.565337">
        <ele>291.7</ele>
      </trkpt>
      <trkpt lat="43.728207" lon="5.565206">
        <ele>292.6</ele>
      </trkpt>
      <trkpt lat="43.728408" lon="5.565071">
        <ele>295.6</ele>
      </trkpt>
      <trkpt lat="43.728678" lon="5.564959">
        <ele>295.1</ele>
      </trkpt>
      <trkpt lat="43.728734" lon="5.565187">
        <ele>296.7</ele>
      </trkpt>
      <trkpt lat="43.728777" lon="5.565463">
        <ele>297.1</ele>
      </trkpt>
      <trkpt lat="43.728811" lon="5.565836">
        <ele>298.7</ele>
      </trkpt>
      <trkpt lat="43.728879" lon="5.566324">
        <ele>299.2</ele>
      </trkpt>
      <trkpt lat="43.728926" lon="5.566683">
        <ele>300.7</ele>
      </trkpt>
      <trkpt lat="43.728961" lon="5.566917">
        <ele>300.8</ele>
      </trkpt>
      <trkpt lat="43.729125" lon="5.566879">
        <ele>301.2</ele>
      </trkpt>
      <trkpt lat="43.729660" lon="5.566960">
        <ele>304</ele>
      </trkpt>
      <trkpt lat="43.730463" lon="5.567064">
        <ele>307</ele>
      </trkpt>
      <trkpt lat="43.730738" lon="5.567174">
        <ele>308.1</ele>
      </trkpt>
      <trkpt lat="43.730990" lon="5.567282">
        <ele>309.7</ele>
      </trkpt>
      <trkpt lat="43.731290" lon="5.567392">
        <ele>309.6</ele>
      </trkpt>
      <trkpt lat="43.732066" lon="5.567800">
        <ele>313.4</ele>
      </trkpt>
      <trkpt lat="43.732116" lon="5.567826">
        <ele>313.5</ele>
      </trkpt>
      <trkpt lat="43.732345" lon="5.568003">
        <ele>314.1</ele>
      </trkpt>
      <trkpt lat="43.732624" lon="5.568561">
        <ele>315.7</ele>
      </trkpt>
      <trkpt lat="43.732861" lon="5.569199">
        <ele>314.9</ele>
      </trkpt>
      <trkpt lat="43.732881" lon="5.569411">
        <ele>314.5</ele>
      </trkpt>
      <trkpt lat="43.732845" lon="5.569725">
        <ele>314.3</ele>
      </trkpt>
      <trkpt lat="43.732771" lon="5.570245">
        <ele>311.4</ele>
      </trkpt>
      <trkpt lat="43.732674" lon="5.570589">
        <ele>311.4</ele>
      </trkpt>
      <trkpt lat="43.732612" lon="5.570878">
        <ele>311.2</ele>
      </trkpt>
      <trkpt lat="43.732531" lon="5.571093">
        <ele>308.5</ele>
      </trkpt>
      <trkpt lat="43.732550" lon="5.571141">
        <ele>307.8</ele>
      </trkpt>
      <trkpt lat="43.732605" lon="5.571131">
        <ele>307.6</ele>
      </trkpt>
      <trkpt lat="43.732633" lon="5.571093">
        <ele>307.7</ele>
      </trkpt>
      <trkpt lat="43.732697" lon="5.570878">
        <ele>309</ele>
      </trkpt>
      <trkpt lat="43.732744" lon="5.570747">
        <ele>310.9</ele>
      </trkpt>
      <trkpt lat="43.732785" lon="5.570704">
        <ele>310.2</ele>
      </trkpt>
      <trkpt lat="43.732849" lon="5.570691">
        <ele>309.3</ele>
      </trkpt>
      <trkpt lat="43.732883" lon="5.570747">
        <ele>308.7</ele>
      </trkpt>
      <trkpt lat="43.732876" lon="5.570953">
        <ele>305.3</ele>
      </trkpt>
      <trkpt lat="43.732849" lon="5.571224">
        <ele>304.7</ele>
      </trkpt>
      <trkpt lat="43.732833" lon="5.571385">
        <ele>304.5</ele>
      </trkpt>
      <trkpt lat="43.732841" lon="5.571554">
        <ele>304.2</ele>
      </trkpt>
      <trkpt lat="43.733048" lon="5.572107">
        <ele>302</ele>
      </trkpt>
      <trkpt lat="43.733226" lon="5.572439">
        <ele>300.5</ele>
      </trkpt>
      <trkpt lat="43.733310" lon="5.572547">
        <ele>300.1</ele>
      </trkpt>
      <trkpt lat="43.733637" lon="5.573204">
        <ele>299.8</ele>
      </trkpt>
      <trkpt lat="43.733698" lon="5.573008">
        <ele>299.6</ele>
      </trkpt>
      <trkpt lat="43.733845" lon="5.572547">
        <ele>299</ele>
      </trkpt>
      <trkpt lat="43.734496" lon="5.570900">
        <ele>296.4</ele>
      </trkpt>
      <trkpt lat="43.734771" lon="5.570235">
        <ele>292.4</ele>
      </trkpt>
      <trkpt lat="43.735004" lon="5.569865">
        <ele>288.6</ele>
      </trkpt>
      <trkpt lat="43.735268" lon="5.569709">
        <ele>286.3</ele>
      </trkpt>
      <trkpt lat="43.735628" lon="5.569618">
        <ele>285.2</ele>
      </trkpt>
      <trkpt lat="43.736151" lon="5.569548">
        <ele>282.7</ele>
      </trkpt>
      <trkpt lat="43.736229" lon="5.569468">
        <ele>282.3</ele>
      </trkpt>
      <trkpt lat="43.736260" lon="5.568405">
        <ele>277.5</ele>
      </trkpt>
      <trkpt lat="43.736265" lon="5.567029">
        <ele>272.4</ele>
      </trkpt>
      <trkpt lat="43.736209" lon="5.566504">
        <ele>268.7</ele>
      </trkpt>
      <trkpt lat="43.736232" lon="5.566297">
        <ele>268.2</ele>
      </trkpt>
      <trkpt lat="43.736358" lon="5.565978">
        <ele>267</ele>
      </trkpt>
      <trkpt lat="43.736432" lon="5.565745">
        <ele>264.3</ele>
      </trkpt>
      <trkpt lat="43.736655" lon="5.564937">
        <ele>263.1</ele>
      </trkpt>
      <trkpt lat="43.736977" lon="5.563696">
        <ele>265.7</ele>
      </trkpt>
      <trkpt lat="43.737040" lon="5.563451">
        <ele>265.8</ele>
      </trkpt>
      <trkpt lat="43.737083" lon="5.563285">
        <ele>265.5</ele>
      </trkpt>
      <trkpt lat="43.737647" lon="5.561842">
        <ele>265.5</ele>
      </trkpt>
      <trkpt lat="43.737663" lon="5.561791">
        <ele>265.4</ele>
      </trkpt>
      <trkpt lat="43.737361" lon="5.561335">
        <ele>263.3</ele>
      </trkpt>
      <trkpt lat="43.737004" lon="5.560734">
        <ele>261.2</ele>
      </trkpt>
      <trkpt lat="43.737265" lon="5.560713">
        <ele>261.2</ele>
      </trkpt>
      <trkpt lat="43.737316" lon="5.560707">
        <ele>261.3</ele>
      </trkpt>
      <trkpt lat="43.737446" lon="5.560654">
        <ele>261.3</ele>
      </trkpt>
      <trkpt lat="43.737651" lon="5.560458">
        <ele>262.2</ele>
      </trkpt>
      <trkpt lat="43.737798" lon="5.560316">
        <ele>262.3</ele>
      </trkpt>
      <trkpt lat="43.738287" lon="5.559790">
        <ele>262.9</ele>
      </trkpt>
      <trkpt lat="43.738684" lon="5.559259">
        <ele>265.1</ele>
      </trkpt>
      <trkpt lat="43.738878" lon="5.558996">
        <ele>266.4</ele>
      </trkpt>
      <trkpt lat="43.739070" lon="5.558816">
        <ele>267</ele>
      </trkpt>
      <trkpt lat="43.738976" lon="5.558642">
        <ele>267.3</ele>
      </trkpt>
      <trkpt lat="43.738864" lon="5.558390">
        <ele>267.5</ele>
      </trkpt>
      <trkpt lat="43.738829" lon="5.558076">
        <ele>270.5</ele>
      </trkpt>
      <trkpt lat="43.738790" lon="5.557878">
        <ele>271</ele>
      </trkpt>
      <trkpt lat="43.738777" lon="5.557813">
        <ele>271.2</ele>
      </trkpt>
      <trkpt lat="43.738787" lon="5.557669">
        <ele>271.7</ele>
      </trkpt>
      <trkpt lat="43.738790" lon="5.557601">
        <ele>271.9</ele>
      </trkpt>
      <trkpt lat="43.738732" lon="5.557467">
        <ele>273.4</ele>
      </trkpt>
      <trkpt lat="43.738163" lon="5.556960">
        <ele>272.8</ele>
      </trkpt>
      <trkpt lat="43.738135" lon="5.556942">
        <ele>272.9</ele>
      </trkpt>
      <trkpt lat="43.738073" lon="5.556936">
        <ele>273.1</ele>
      </trkpt>
      <trkpt lat="43.738013" lon="5.556885">
        <ele>273.3</ele>
      </trkpt>
      <trkpt lat="43.737988" lon="5.556794">
        <ele>273.6</ele>
      </trkpt>
      <trkpt lat="43.737998" lon="5.556260">
        <ele>276.5</ele>
      </trkpt>
      <trkpt lat="43.738002" lon="5.556196">
        <ele>276.6</ele>
      </trkpt>
      <trkpt lat="43.738006" lon="5.556097">
        <ele>276.6</ele>
      </trkpt>
      <trkpt lat="43.737986" lon="5.555957">
        <ele>276.8</ele>
      </trkpt>
      <trkpt lat="43.737946" lon="5.555842">
        <ele>277.2</ele>
      </trkpt>
      <trkpt lat="43.737888" lon="5.555649">
        <ele>276.7</ele>
      </trkpt>
      <trkpt lat="43.737802" lon="5.555429">
        <ele>276.4</ele>
      </trkpt>
      <trkpt lat="43.737398" lon="5.554205">
        <ele>276.3</ele>
      </trkpt>
      <trkpt lat="43.737299" lon="5.553905">
        <ele>278.5</ele>
      </trkpt>
      <trkpt lat="43.737167" lon="5.553449">
        <ele>280</ele>
      </trkpt>
      <trkpt lat="43.737035" lon="5.553455">
        <ele>280.2</ele>
      </trkpt>
      <trkpt lat="43.736202" lon="5.553659">
        <ele>280.5</ele>
      </trkpt>
      <trkpt lat="43.736056" lon="5.553728">
        <ele>280.4</ele>
      </trkpt>
      <trkpt lat="43.735806" lon="5.553801">
        <ele>279</ele>
      </trkpt>
      <trkpt lat="43.735783" lon="5.553715">
        <ele>279.2</ele>
      </trkpt>
      <trkpt lat="43.735686" lon="5.553672">
        <ele>279.1</ele>
      </trkpt>
      <trkpt lat="43.735554" lon="5.553637">
        <ele>278.9</ele>
      </trkpt>
      <trkpt lat="43.735424" lon="5.553581">
        <ele>278.6</ele>
      </trkpt>
      <trkpt lat="43.734893" lon="5.553197">
        <ele>278.6</ele>
      </trkpt>
      <trkpt lat="43.734583" lon="5.553018">
        <ele>278.9</ele>
      </trkpt>
      <trkpt lat="43.734232" lon="5.552782">
        <ele>278.7</ele>
      </trkpt>
      <trkpt lat="43.734056" lon="5.552629">
        <ele>277.7</ele>
      </trkpt>
      <trkpt lat="43.733915" lon="5.552462">
        <ele>276.8</ele>
      </trkpt>
      <trkpt lat="43.733771" lon="5.552250">
        <ele>276.3</ele>
      </trkpt>
      <trkpt lat="43.733597" lon="5.551977">
        <ele>276</ele>
      </trkpt>
      <trkpt lat="43.733064" lon="5.551250">
        <ele>273.5</ele>
      </trkpt>
      <trkpt lat="43.732876" lon="5.550987">
        <ele>273.1</ele>
      </trkpt>
      <trkpt lat="43.732757" lon="5.550837">
        <ele>272.8</ele>
      </trkpt>
      <trkpt lat="43.732403" lon="5.550612">
        <ele>272</ele>
      </trkpt>
      <trkpt lat="43.732087" lon="5.550343">
        <ele>271.9</ele>
      </trkpt>
      <trkpt lat="43.731796" lon="5.550008">
        <ele>271.4</ele>
      </trkpt>
      <trkpt lat="43.731254" lon="5.549453">
        <ele>271.7</ele>
      </trkpt>
      <trkpt lat="43.731164" lon="5.549372">
        <ele>271.7</ele>
      </trkpt>
      <trkpt lat="43.731126" lon="5.549362">
        <ele>271.7</ele>
      </trkpt>
      <trkpt lat="43.731064" lon="5.549413">
        <ele>271.6</ele>
      </trkpt>
      <trkpt lat="43.730978" lon="5.549574">
        <ele>271.2</ele>
      </trkpt>
      <trkpt lat="43.730693" lon="5.550005">
        <ele>268.5</ele>
      </trkpt>
      <trkpt lat="43.730395" lon="5.550429">
        <ele>267.7</ele>
      </trkpt>
      <trkpt lat="43.730197" lon="5.550727">
        <ele>267.1</ele>
      </trkpt>
      <trkpt lat="43.730110" lon="5.550821">
        <ele>266.6</ele>
      </trkpt>
      <trkpt lat="43.730038" lon="5.550864">
        <ele>266.4</ele>
      </trkpt>
      <trkpt lat="43.729868" lon="5.550807">
        <ele>265.7</ele>
      </trkpt>
      <trkpt lat="43.729788" lon="5.550751">
        <ele>265.6</ele>
      </trkpt>
      <trkpt lat="43.729715" lon="5.550722">
        <ele>265.5</ele>
      </trkpt>
      <trkpt lat="43.729656" lon="5.550711">
        <ele>265.3</ele>
      </trkpt>
      <trkpt lat="43.729575" lon="5.550708">
        <ele>265.2</ele>
      </trkpt>
      <trkpt lat="43.729529" lon="5.550711">
        <ele>265.1</ele>
      </trkpt>
      <trkpt lat="43.729496" lon="5.550722">
        <ele>265</ele>
      </trkpt>
      <trkpt lat="43.729468" lon="5.550829">
        <ele>264.8</ele>
      </trkpt>
      <trkpt lat="43.729447" lon="5.550880">
        <ele>263.5</ele>
      </trkpt>
      <trkpt lat="43.729422" lon="5.550925">
        <ele>263.4</ele>
      </trkpt>
      <trkpt lat="43.729393" lon="5.550952">
        <ele>263.3</ele>
      </trkpt>
      <trkpt lat="43.729256" lon="5.550885">
        <ele>263.1</ele>
      </trkpt>
      <trkpt lat="43.728589" lon="5.550488">
        <ele>263.4</ele>
      </trkpt>
      <trkpt lat="43.727823" lon="5.550091">
        <ele>264.9</ele>
      </trkpt>
      <trkpt lat="43.727216" lon="5.549708">
        <ele>268.5</ele>
      </trkpt>
      <trkpt lat="43.726799" lon="5.549445">
        <ele>269.1</ele>
      </trkpt>
      <trkpt lat="43.726598" lon="5.549346">
        <ele>269.1</ele>
      </trkpt>
      <trkpt lat="43.726540" lon="5.549316">
        <ele>269.1</ele>
      </trkpt>
    </trkseg>
  </trk>
</gpx>