<?xml version="1.0" ?>
<gpx xmlns="http://www.topografix.com/GPX/1/1" xmlns:xsi="http://www.w3.org/2001/XMLSchema-instance" xsi:schemaLocation="http://www.topografix.com/GPX/1/1 http://www.topografix.com/GPX/1/1/gpx.xsd" version="1.1" creator="EditGPX">
  <trk>
    <name>NewTrack</name>
    <trkseg>
      <trkpt lat="43.909175" lon="5.717397">
        <ele>560.9</ele>
      </trkpt>
      <trkpt lat="43.909235" lon="5.717297">
        <ele>560.9</ele>
      </trkpt>
      <trkpt lat="43.909239" lon="5.717161">
        <ele>561.2</ele>
      </trkpt>
      <trkpt lat="43.909403" lon="5.717115">
        <ele>561.1</ele>
      </trkpt>
      <trkpt lat="43.909364" lon="5.716643">
        <ele>565.8</ele>
      </trkpt>
      <trkpt lat="43.909318" lon="5.716555">
        <ele>565.8</ele>
      </trkpt>
      <trkpt lat="43.909299" lon="5.716394">
        <ele>566</ele>
      </trkpt>
      <trkpt lat="43.909277" lon="5.716136">
        <ele>566.2</ele>
      </trkpt>
      <trkpt lat="43.909264" lon="5.716082">
        <ele>566.2</ele>
      </trkpt>
      <trkpt lat="43.908899" lon="5.716211">
        <ele>560.8</ele>
      </trkpt>
      <trkpt lat="43.908777" lon="5.716302">
        <ele>560.2</ele>
      </trkpt>
      <trkpt lat="43.908707" lon="5.716300">
        <ele>559.8</ele>
      </trkpt>
      <trkpt lat="43.908568" lon="5.716372">
        <ele>559.1</ele>
      </trkpt>
      <trkpt lat="43.908356" lon="5.716375">
        <ele>558.4</ele>
      </trkpt>
      <trkpt lat="43.907863" lon="5.716015">
        <ele>550.7</ele>
      </trkpt>
      <trkpt lat="43.907786" lon="5.715970">
        <ele>550.1</ele>
      </trkpt>
      <trkpt lat="43.907703" lon="5.715873">
        <ele>549.1</ele>
      </trkpt>
      <trkpt lat="43.907461" lon="5.715669">
        <ele>544.5</ele>
      </trkpt>
      <trkpt lat="43.906671" lon="5.715007">
        <ele>540.1</ele>
      </trkpt>
      <trkpt lat="43.906128" lon="5.714430">
        <ele>542.1</ele>
      </trkpt>
      <trkpt lat="43.906008" lon="5.714296">
        <ele>542.9</ele>
      </trkpt>
      <trkpt lat="43.905911" lon="5.714208">
        <ele>543.9</ele>
      </trkpt>
      <trkpt lat="43.905713" lon="5.714110">
        <ele>546.5</ele>
      </trkpt>
      <trkpt lat="43.904972" lon="5.713770">
        <ele>550.6</ele>
      </trkpt>
      <trkpt lat="43.904767" lon="5.713742">
        <ele>550.8</ele>
      </trkpt>
      <trkpt lat="43.904647" lon="5.713749">
        <ele>550.9</ele>
      </trkpt>
      <trkpt lat="43.904607" lon="5.713754">
        <ele>551</ele>
      </trkpt>
      <trkpt lat="43.904566" lon="5.713722">
        <ele>551</ele>
      </trkpt>
      <trkpt lat="43.904448" lon="5.713652">
        <ele>551.2</ele>
      </trkpt>
      <trkpt lat="43.904297" lon="5.713572">
        <ele>551.4</ele>
      </trkpt>
      <trkpt lat="43.903691" lon="5.713180">
        <ele>550.4</ele>
      </trkpt>
      <trkpt lat="43.903399" lon="5.713027">
        <ele>549.9</ele>
      </trkpt>
      <trkpt lat="43.903012" lon="5.712864">
        <ele>548.4</ele>
      </trkpt>
      <trkpt lat="43.902206" lon="5.712518">
        <ele>547.8</ele>
      </trkpt>
      <trkpt lat="43.902042" lon="5.712448">
        <ele>551.8</ele>
      </trkpt>
      <trkpt lat="43.901661" lon="5.712271">
        <ele>552.4</ele>
      </trkpt>
      <trkpt lat="43.901149" lon="5.712024">
        <ele>553.7</ele>
      </trkpt>
      <trkpt lat="43.900693" lon="5.711710">
        <ele>552.9</ele>
      </trkpt>
      <trkpt lat="43.900440" lon="5.711482">
        <ele>554.3</ele>
      </trkpt>
      <trkpt lat="43.900314" lon="5.711297">
        <ele>554.1</ele>
      </trkpt>
      <trkpt lat="43.900030" lon="5.710782">
        <ele>552.9</ele>
      </trkpt>
      <trkpt lat="43.899785" lon="5.710420">
        <ele>551.1</ele>
      </trkpt>
      <trkpt lat="43.899532" lon="5.710152">
        <ele>551.1</ele>
      </trkpt>
      <trkpt lat="43.899350" lon="5.709972">
        <ele>554</ele>
      </trkpt>
      <trkpt lat="43.899018" lon="5.709723">
        <ele>552.8</ele>
      </trkpt>
      <trkpt lat="43.898627" lon="5.709342">
        <ele>553.6</ele>
      </trkpt>
      <trkpt lat="43.898488" lon="5.709168">
        <ele>553.7</ele>
      </trkpt>
      <trkpt lat="43.898264" lon="5.708838">
        <ele>558.1</ele>
      </trkpt>
      <trkpt lat="43.898016" lon="5.708336">
        <ele>560.1</ele>
      </trkpt>
      <trkpt lat="43.897962" lon="5.708433">
        <ele>559.8</ele>
      </trkpt>
      <trkpt lat="43.897674" lon="5.708956">
        <ele>558.9</ele>
      </trkpt>
      <trkpt lat="43.897512" lon="5.709353">
        <ele>556.5</ele>
      </trkpt>
      <trkpt lat="43.897259" lon="5.709498">
        <ele>562.3</ele>
      </trkpt>
      <trkpt lat="43.897147" lon="5.709629">
        <ele>563</ele>
      </trkpt>
      <trkpt lat="43.896986" lon="5.709819">
        <ele>564.5</ele>
      </trkpt>
      <trkpt lat="43.896909" lon="5.709999">
        <ele>565.8</ele>
      </trkpt>
      <trkpt lat="43.896721" lon="5.710495">
        <ele>561.9</ele>
      </trkpt>
      <trkpt lat="43.896627" lon="5.710621">
        <ele>571.2</ele>
      </trkpt>
      <trkpt lat="43.896528" lon="5.710887">
        <ele>566</ele>
      </trkpt>
      <trkpt lat="43.896117" lon="5.711563">
        <ele>569.2</ele>
      </trkpt>
      <trkpt lat="43.895711" lon="5.711831">
        <ele>571.5</ele>
      </trkpt>
      <trkpt lat="43.895531" lon="5.711839">
        <ele>571.5</ele>
      </trkpt>
      <trkpt lat="43.895338" lon="5.711769">
        <ele>572.3</ele>
      </trkpt>
      <trkpt lat="43.895237" lon="5.711718">
        <ele>573.2</ele>
      </trkpt>
      <trkpt lat="43.894872" lon="5.711684">
        <ele>576.1</ele>
      </trkpt>
      <trkpt lat="43.894767" lon="5.711622">
        <ele>580.6</ele>
      </trkpt>
      <trkpt lat="43.894087" lon="5.711187">
        <ele>585.6</ele>
      </trkpt>
      <trkpt lat="43.893990" lon="5.711222">
        <ele>585.5</ele>
      </trkpt>
      <trkpt lat="43.893959" lon="5.711260">
        <ele>585.4</ele>
      </trkpt>
      <trkpt lat="43.893929" lon="5.711335">
        <ele>585</ele>
      </trkpt>
      <trkpt lat="43.893909" lon="5.711440">
        <ele>584.4</ele>
      </trkpt>
      <trkpt lat="43.893923" lon="5.711544">
        <ele>583.7</ele>
      </trkpt>
      <trkpt lat="43.893969" lon="5.711673">
        <ele>580.3</ele>
      </trkpt>
      <trkpt lat="43.894068" lon="5.711826">
        <ele>579.9</ele>
      </trkpt>
      <trkpt lat="43.894276" lon="5.712024">
        <ele>575.7</ele>
      </trkpt>
      <trkpt lat="43.894394" lon="5.712183">
        <ele>574.9</ele>
      </trkpt>
      <trkpt lat="43.894437" lon="5.712295">
        <ele>574.5</ele>
      </trkpt>
      <trkpt lat="43.894458" lon="5.712437">
        <ele>574.2</ele>
      </trkpt>
      <trkpt lat="43.894427" lon="5.712679">
        <ele>571.2</ele>
      </trkpt>
      <trkpt lat="43.894350" lon="5.712934">
        <ele>570.5</ele>
      </trkpt>
      <trkpt lat="43.894151" lon="5.713792">
        <ele>569</ele>
      </trkpt>
      <trkpt lat="43.894114" lon="5.714124">
        <ele>564.3</ele>
      </trkpt>
      <trkpt lat="43.894068" lon="5.714559">
        <ele>562.4</ele>
      </trkpt>
      <trkpt lat="43.894031" lon="5.714768">
        <ele>560.6</ele>
      </trkpt>
      <trkpt lat="43.893961" lon="5.714980">
        <ele>559.5</ele>
      </trkpt>
      <trkpt lat="43.893828" lon="5.715216">
        <ele>554.2</ele>
      </trkpt>
      <trkpt lat="43.893588" lon="5.715484">
        <ele>553.5</ele>
      </trkpt>
      <trkpt lat="43.893455" lon="5.715605">
        <ele>552.4</ele>
      </trkpt>
      <trkpt lat="43.893229" lon="5.715685">
        <ele>554.3</ele>
      </trkpt>
      <trkpt lat="43.893099" lon="5.715718">
        <ele>555.2</ele>
      </trkpt>
      <trkpt lat="43.892920" lon="5.715712">
        <ele>556.2</ele>
      </trkpt>
      <trkpt lat="43.892755" lon="5.715640">
        <ele>556.6</ele>
      </trkpt>
      <trkpt lat="43.892610" lon="5.715533">
        <ele>557.5</ele>
      </trkpt>
      <trkpt lat="43.892433" lon="5.715468">
        <ele>557.9</ele>
      </trkpt>
      <trkpt lat="43.892146" lon="5.715436">
        <ele>558.2</ele>
      </trkpt>
      <trkpt lat="43.891938" lon="5.715356">
        <ele>558.6</ele>
      </trkpt>
      <trkpt lat="43.891748" lon="5.715262">
        <ele>559.5</ele>
      </trkpt>
      <trkpt lat="43.891551" lon="5.715184">
        <ele>560</ele>
      </trkpt>
      <trkpt lat="43.891362" lon="5.715162">
        <ele>559.6</ele>
      </trkpt>
      <trkpt lat="43.890952" lon="5.715181">
        <ele>560.9</ele>
      </trkpt>
      <trkpt lat="43.890817" lon="5.715120">
        <ele>560.4</ele>
      </trkpt>
      <trkpt lat="43.890749" lon="5.715052">
        <ele>561</ele>
      </trkpt>
      <trkpt lat="43.890637" lon="5.714658">
        <ele>563</ele>
      </trkpt>
      <trkpt lat="43.890619" lon="5.714540">
        <ele>563.5</ele>
      </trkpt>
      <trkpt lat="43.890612" lon="5.714299">
        <ele>565.3</ele>
      </trkpt>
      <trkpt lat="43.890629" lon="5.714240">
        <ele>566.1</ele>
      </trkpt>
      <trkpt lat="43.890598" lon="5.714124">
        <ele>569.2</ele>
      </trkpt>
      <trkpt lat="43.890200" lon="5.712252">
        <ele>576.3</ele>
      </trkpt>
      <trkpt lat="43.890113" lon="5.711651">
        <ele>579.1</ele>
      </trkpt>
      <trkpt lat="43.890032" lon="5.710841">
        <ele>581.7</ele>
      </trkpt>
      <trkpt lat="43.890005" lon="5.710450">
        <ele>589.6</ele>
      </trkpt>
      <trkpt lat="43.889740" lon="5.709060">
        <ele>586.3</ele>
      </trkpt>
      <trkpt lat="43.889699" lon="5.708905">
        <ele>584.9</ele>
      </trkpt>
      <trkpt lat="43.889690" lon="5.708824">
        <ele>584.7</ele>
      </trkpt>
      <trkpt lat="43.889686" lon="5.708588">
        <ele>585.2</ele>
      </trkpt>
      <trkpt lat="43.889701" lon="5.708280">
        <ele>585.6</ele>
      </trkpt>
      <trkpt lat="43.889686" lon="5.708030">
        <ele>583.7</ele>
      </trkpt>
      <trkpt lat="43.889686" lon="5.707880">
        <ele>583</ele>
      </trkpt>
      <trkpt lat="43.889726" lon="5.707591">
        <ele>583.1</ele>
      </trkpt>
      <trkpt lat="43.889811" lon="5.707414">
        <ele>580.2</ele>
      </trkpt>
      <trkpt lat="43.889893" lon="5.707263">
        <ele>579.2</ele>
      </trkpt>
      <trkpt lat="43.889964" lon="5.707135">
        <ele>577.7</ele>
      </trkpt>
      <trkpt lat="43.889991" lon="5.707019">
        <ele>576.5</ele>
      </trkpt>
      <trkpt lat="43.889962" lon="5.706909">
        <ele>575.6</ele>
      </trkpt>
      <trkpt lat="43.889898" lon="5.706858">
        <ele>575.2</ele>
      </trkpt>
      <trkpt lat="43.889862" lon="5.706840">
        <ele>575</ele>
      </trkpt>
      <trkpt lat="43.889796" lon="5.706853">
        <ele>574.8</ele>
      </trkpt>
      <trkpt lat="43.889719" lon="5.706818">
        <ele>574.2</ele>
      </trkpt>
      <trkpt lat="43.889676" lon="5.706764">
        <ele>573.8</ele>
      </trkpt>
      <trkpt lat="43.889715" lon="5.706633">
        <ele>571.3</ele>
      </trkpt>
      <trkpt lat="43.889809" lon="5.706515">
        <ele>571.8</ele>
      </trkpt>
      <trkpt lat="43.889856" lon="5.706486">
        <ele>571.9</ele>
      </trkpt>
      <trkpt lat="43.890146" lon="5.706451">
        <ele>571.6</ele>
      </trkpt>
      <trkpt lat="43.890471" lon="5.706325">
        <ele>569.7</ele>
      </trkpt>
      <trkpt lat="43.890741" lon="5.706231">
        <ele>568.6</ele>
      </trkpt>
      <trkpt lat="43.891072" lon="5.706164">
        <ele>565.6</ele>
      </trkpt>
      <trkpt lat="43.891358" lon="5.706188">
        <ele>565.4</ele>
      </trkpt>
      <trkpt lat="43.891431" lon="5.706172">
        <ele>565.3</ele>
      </trkpt>
      <trkpt lat="43.892206" lon="5.705847">
        <ele>563.6</ele>
      </trkpt>
      <trkpt lat="43.892442" lon="5.705799">
        <ele>560.4</ele>
      </trkpt>
      <trkpt lat="43.892618" lon="5.705796">
        <ele>559.2</ele>
      </trkpt>
      <trkpt lat="43.892997" lon="5.705871">
        <ele>560.9</ele>
      </trkpt>
      <trkpt lat="43.893157" lon="5.705920">
        <ele>559.7</ele>
      </trkpt>
      <trkpt lat="43.893355" lon="5.706032">
        <ele>558.8</ele>
      </trkpt>
      <trkpt lat="43.893542" lon="5.706089">
        <ele>559.7</ele>
      </trkpt>
      <trkpt lat="43.893747" lon="5.706107">
        <ele>560.1</ele>
      </trkpt>
      <trkpt lat="43.893919" lon="5.706102">
        <ele>559.9</ele>
      </trkpt>
      <trkpt lat="43.894147" lon="5.706021">
        <ele>558.4</ele>
      </trkpt>
      <trkpt lat="43.894329" lon="5.705979">
        <ele>559.1</ele>
      </trkpt>
      <trkpt lat="43.894518" lon="5.705995">
        <ele>560.1</ele>
      </trkpt>
      <trkpt lat="43.895065" lon="5.706126">
        <ele>559</ele>
      </trkpt>
      <trkpt lat="43.895633" lon="5.706199">
        <ele>557.8</ele>
      </trkpt>
      <trkpt lat="43.895805" lon="5.706252">
        <ele>557.7</ele>
      </trkpt>
      <trkpt lat="43.896016" lon="5.706370">
        <ele>554.5</ele>
      </trkpt>
      <trkpt lat="43.896982" lon="5.707164">
        <ele>556.8</ele>
      </trkpt>
      <trkpt lat="43.897282" lon="5.707381">
        <ele>558</ele>
      </trkpt>
      <trkpt lat="43.897462" lon="5.707561">
        <ele>560.1</ele>
      </trkpt>
      <trkpt lat="43.897549" lon="5.707459">
        <ele>560.2</ele>
      </trkpt>
      <trkpt lat="43.897964" lon="5.706767">
        <ele>560.4</ele>
      </trkpt>
      <trkpt lat="43.898082" lon="5.706571">
        <ele>557.9</ele>
      </trkpt>
      <trkpt lat="43.898401" lon="5.706231">
        <ele>560.3</ele>
      </trkpt>
      <trkpt lat="43.898911" lon="5.705756">
        <ele>556.2</ele>
      </trkpt>
      <trkpt lat="43.899224" lon="5.705507">
        <ele>558.9</ele>
      </trkpt>
      <trkpt lat="43.899495" lon="5.705217">
        <ele>558.2</ele>
      </trkpt>
      <trkpt lat="43.899580" lon="5.705177">
        <ele>558.4</ele>
      </trkpt>
      <trkpt lat="43.899659" lon="5.705163">
        <ele>558.6</ele>
      </trkpt>
      <trkpt lat="43.899740" lon="5.705236">
        <ele>558.9</ele>
      </trkpt>
      <trkpt lat="43.899829" lon="5.705413">
        <ele>559.8</ele>
      </trkpt>
      <trkpt lat="43.899868" lon="5.705531">
        <ele>560.6</ele>
      </trkpt>
      <trkpt lat="43.899949" lon="5.705614">
        <ele>561.6</ele>
      </trkpt>
      <trkpt lat="43.900003" lon="5.705641">
        <ele>563.9</ele>
      </trkpt>
      <trkpt lat="43.900129" lon="5.705643">
        <ele>563.9</ele>
      </trkpt>
      <trkpt lat="43.900266" lon="5.705595">
        <ele>563.7</ele>
      </trkpt>
      <trkpt lat="43.900838" lon="5.705316">
        <ele>566.3</ele>
      </trkpt>
      <trkpt lat="43.901176" lon="5.705139">
        <ele>566.7</ele>
      </trkpt>
      <trkpt lat="43.901495" lon="5.705115">
        <ele>567.8</ele>
      </trkpt>
      <trkpt lat="43.901824" lon="5.705077">
        <ele>571.5</ele>
      </trkpt>
      <trkpt lat="43.902589" lon="5.704935">
        <ele>575.3</ele>
      </trkpt>
      <trkpt lat="43.902742" lon="5.704863">
        <ele>576.8</ele>
      </trkpt>
      <trkpt lat="43.902908" lon="5.704734">
        <ele>578</ele>
      </trkpt>
      <trkpt lat="43.903209" lon="5.704310">
        <ele>578.8</ele>
      </trkpt>
      <trkpt lat="43.903331" lon="5.704139">
        <ele>579.2</ele>
      </trkpt>
      <trkpt lat="43.903391" lon="5.703967">
        <ele>583.8</ele>
      </trkpt>
      <trkpt lat="43.903403" lon="5.703860">
        <ele>584.2</ele>
      </trkpt>
      <trkpt lat="43.903376" lon="5.703723">
        <ele>583.8</ele>
      </trkpt>
      <trkpt lat="43.903426" lon="5.703594">
        <ele>583</ele>
      </trkpt>
      <trkpt lat="43.903513" lon="5.703452">
        <ele>582.4</ele>
      </trkpt>
      <trkpt lat="43.903584" lon="5.703278">
        <ele>579.5</ele>
      </trkpt>
      <trkpt lat="43.903581" lon="5.703143">
        <ele>579.6</ele>
      </trkpt>
      <trkpt lat="43.903538" lon="5.703015">
        <ele>579.3</ele>
      </trkpt>
      <trkpt lat="43.903380" lon="5.702653">
        <ele>576.9</ele>
      </trkpt>
      <trkpt lat="43.903366" lon="5.702548">
        <ele>575.3</ele>
      </trkpt>
      <trkpt lat="43.903381" lon="5.702422">
        <ele>574.4</ele>
      </trkpt>
      <trkpt lat="43.903540" lon="5.702170">
        <ele>574.8</ele>
      </trkpt>
      <trkpt lat="43.903582" lon="5.702033">
        <ele>574.5</ele>
      </trkpt>
      <trkpt lat="43.903640" lon="5.701663">
        <ele>571.2</ele>
      </trkpt>
      <trkpt lat="43.903743" lon="5.701172">
        <ele>571.1</ele>
      </trkpt>
      <trkpt lat="43.903760" lon="5.700936">
        <ele>570.7</ele>
      </trkpt>
      <trkpt lat="43.903724" lon="5.700590">
        <ele>568.6</ele>
      </trkpt>
      <trkpt lat="43.903629" lon="5.699855">
        <ele>566.4</ele>
      </trkpt>
      <trkpt lat="43.903650" lon="5.699785">
        <ele>566.4</ele>
      </trkpt>
      <trkpt lat="43.903691" lon="5.699748">
        <ele>566.5</ele>
      </trkpt>
      <trkpt lat="43.903838" lon="5.699780">
        <ele>567</ele>
      </trkpt>
      <trkpt lat="43.904122" lon="5.699860">
        <ele>568.4</ele>
      </trkpt>
      <trkpt lat="43.904201" lon="5.699903">
        <ele>571</ele>
      </trkpt>
      <trkpt lat="43.904305" lon="5.699960">
        <ele>571.5</ele>
      </trkpt>
      <trkpt lat="43.904367" lon="5.700005">
        <ele>572.6</ele>
      </trkpt>
      <trkpt lat="43.904475" lon="5.699997">
        <ele>572.7</ele>
      </trkpt>
      <trkpt lat="43.904622" lon="5.699903">
        <ele>573.8</ele>
      </trkpt>
      <trkpt lat="43.904719" lon="5.699911">
        <ele>574.5</ele>
      </trkpt>
      <trkpt lat="43.904841" lon="5.699973">
        <ele>575.7</ele>
      </trkpt>
      <trkpt lat="43.904972" lon="5.700139">
        <ele>576.5</ele>
      </trkpt>
      <trkpt lat="43.905045" lon="5.700177">
        <ele>578.9</ele>
      </trkpt>
      <trkpt lat="43.905111" lon="5.700169">
        <ele>579</ele>
      </trkpt>
      <trkpt lat="43.905173" lon="5.700107">
        <ele>579.1</ele>
      </trkpt>
      <trkpt lat="43.905476" lon="5.699627">
        <ele>580.4</ele>
      </trkpt>
      <trkpt lat="43.905585" lon="5.699498">
        <ele>580.8</ele>
      </trkpt>
      <trkpt lat="43.906176" lon="5.699160">
        <ele>585.3</ele>
      </trkpt>
      <trkpt lat="43.906528" lon="5.698965">
        <ele>586.7</ele>
      </trkpt>
      <trkpt lat="43.906661" lon="5.698919">
        <ele>586.9</ele>
      </trkpt>
      <trkpt lat="43.906941" lon="5.698758">
        <ele>591.2</ele>
      </trkpt>
      <trkpt lat="43.907206" lon="5.698653">
        <ele>592.4</ele>
      </trkpt>
      <trkpt lat="43.907536" lon="5.698527">
        <ele>596.4</ele>
      </trkpt>
      <trkpt lat="43.907693" lon="5.698450">
        <ele>596.6</ele>
      </trkpt>
      <trkpt lat="43.908025" lon="5.698393">
        <ele>597.5</ele>
      </trkpt>
      <trkpt lat="43.908468" lon="5.698230">
        <ele>601.3</ele>
      </trkpt>
      <trkpt lat="43.909241" lon="5.697650">
        <ele>608.1</ele>
      </trkpt>
      <trkpt lat="43.909592" lon="5.697417">
        <ele>608.6</ele>
      </trkpt>
      <trkpt lat="43.909780" lon="5.697221">
        <ele>609</ele>
      </trkpt>
      <trkpt lat="43.910296" lon="5.696722">
        <ele>613</ele>
      </trkpt>
      <trkpt lat="43.910586" lon="5.696524">
        <ele>609.3</ele>
      </trkpt>
      <trkpt lat="43.911208" lon="5.696041">
        <ele>615</ele>
      </trkpt>
      <trkpt lat="43.911330" lon="5.695963">
        <ele>615.8</ele>
      </trkpt>
      <trkpt lat="43.911724" lon="5.695923">
        <ele>620.7</ele>
      </trkpt>
      <trkpt lat="43.912079" lon="5.695869">
        <ele>623.4</ele>
      </trkpt>
      <trkpt lat="43.912195" lon="5.695832">
        <ele>624.3</ele>
      </trkpt>
      <trkpt lat="43.912512" lon="5.695687">
        <ele>628.8</ele>
      </trkpt>
      <trkpt lat="43.912860" lon="5.695590">
        <ele>630.8</ele>
      </trkpt>
      <trkpt lat="43.913140" lon="5.695631">
        <ele>631.9</ele>
      </trkpt>
      <trkpt lat="43.913621" lon="5.695609">
        <ele>635.8</ele>
      </trkpt>
      <trkpt lat="43.913708" lon="5.695593">
        <ele>636.1</ele>
      </trkpt>
      <trkpt lat="43.914481" lon="5.695352">
        <ele>640.4</ele>
      </trkpt>
      <trkpt lat="43.914630" lon="5.695336">
        <ele>640.8</ele>
      </trkpt>
      <trkpt lat="43.914736" lon="5.695333">
        <ele>641</ele>
      </trkpt>
      <trkpt lat="43.915107" lon="5.695419">
        <ele>643.5</ele>
      </trkpt>
      <trkpt lat="43.915640" lon="5.695534">
        <ele>644.1</ele>
      </trkpt>
      <trkpt lat="43.916189" lon="5.695647">
        <ele>646.7</ele>
      </trkpt>
      <trkpt lat="43.916686" lon="5.695864">
        <ele>647.9</ele>
      </trkpt>
      <trkpt lat="43.916972" lon="5.695987">
        <ele>647.6</ele>
      </trkpt>
      <trkpt lat="43.917086" lon="5.696079">
        <ele>647.5</ele>
      </trkpt>
      <trkpt lat="43.917234" lon="5.696261">
        <ele>647.3</ele>
      </trkpt>
      <trkpt lat="43.917317" lon="5.696408">
        <ele>647</ele>
      </trkpt>
      <trkpt lat="43.917493" lon="5.696854">
        <ele>645.6</ele>
      </trkpt>
      <trkpt lat="43.917544" lon="5.697012">
        <ele>645.5</ele>
      </trkpt>
      <trkpt lat="43.917650" lon="5.697060">
        <ele>645.4</ele>
      </trkpt>
      <trkpt lat="43.917744" lon="5.697197">
        <ele>645.2</ele>
      </trkpt>
      <trkpt lat="43.918154" lon="5.697438">
        <ele>645.3</ele>
      </trkpt>
      <trkpt lat="43.918446" lon="5.697736">
        <ele>645.1</ele>
      </trkpt>
      <trkpt lat="43.918508" lon="5.697803">
        <ele>645.1</ele>
      </trkpt>
      <trkpt lat="43.918645" lon="5.697951">
        <ele>645</ele>
      </trkpt>
      <trkpt lat="43.918884" lon="5.698136">
        <ele>645.1</ele>
      </trkpt>
      <trkpt lat="43.919153" lon="5.698396">
        <ele>644.4</ele>
      </trkpt>
      <trkpt lat="43.919421" lon="5.698592">
        <ele>644.2</ele>
      </trkpt>
      <trkpt lat="43.919877" lon="5.698873">
        <ele>643.9</ele>
      </trkpt>
      <trkpt lat="43.920254" lon="5.699144">
        <ele>641.6</ele>
      </trkpt>
      <trkpt lat="43.920370" lon="5.699193">
        <ele>640.7</ele>
      </trkpt>
      <trkpt lat="43.920478" lon="5.699257">
        <ele>640.3</ele>
      </trkpt>
      <trkpt lat="43.920590" lon="5.699458">
        <ele>640.1</ele>
      </trkpt>
      <trkpt lat="43.920733" lon="5.699598">
        <ele>640.2</ele>
      </trkpt>
      <trkpt lat="43.920847" lon="5.699729">
        <ele>640.4</ele>
      </trkpt>
      <trkpt lat="43.920828" lon="5.699777">
        <ele>640.5</ele>
      </trkpt>
      <trkpt lat="43.920772" lon="5.699887">
        <ele>640.7</ele>
      </trkpt>
      <trkpt lat="43.920743" lon="5.699965">
        <ele>640.8</ele>
      </trkpt>
      <trkpt lat="43.920706" lon="5.700072">
        <ele>640.7</ele>
      </trkpt>
      <trkpt lat="43.920747" lon="5.700102">
        <ele>640.7</ele>
      </trkpt>
      <trkpt lat="43.920793" lon="5.700126">
        <ele>640.7</ele>
      </trkpt>
      <trkpt lat="43.920822" lon="5.700121">
        <ele>640.7</ele>
      </trkpt>
      <trkpt lat="43.920838" lon="5.700118">
        <ele>641.5</ele>
      </trkpt>
      <trkpt lat="43.921201" lon="5.700257">
        <ele>642.4</ele>
      </trkpt>
      <trkpt lat="43.921336" lon="5.700295">
        <ele>642.7</ele>
      </trkpt>
      <trkpt lat="43.921384" lon="5.700357">
        <ele>642.7</ele>
      </trkpt>
      <trkpt lat="43.921454" lon="5.700429">
        <ele>642.8</ele>
      </trkpt>
      <trkpt lat="43.921549" lon="5.700633">
        <ele>643.1</ele>
      </trkpt>
      <trkpt lat="43.921653" lon="5.700944">
        <ele>642.7</ele>
      </trkpt>
      <trkpt lat="43.921690" lon="5.701089">
        <ele>643.3</ele>
      </trkpt>
      <trkpt lat="43.921769" lon="5.701435">
        <ele>642.1</ele>
      </trkpt>
      <trkpt lat="43.921842" lon="5.701569">
        <ele>641.7</ele>
      </trkpt>
      <trkpt lat="43.922030" lon="5.701770">
        <ele>639.1</ele>
      </trkpt>
      <trkpt lat="43.922354" lon="5.702266">
        <ele>637.9</ele>
      </trkpt>
      <trkpt lat="43.922669" lon="5.702599">
        <ele>636.7</ele>
      </trkpt>
      <trkpt lat="43.922957" lon="5.702851">
        <ele>636.6</ele>
      </trkpt>
      <trkpt lat="43.923210" lon="5.703093">
        <ele>636</ele>
      </trkpt>
      <trkpt lat="43.923283" lon="5.703109">
        <ele>636</ele>
      </trkpt>
      <trkpt lat="43.923596" lon="5.703321">
        <ele>637.4</ele>
      </trkpt>
      <trkpt lat="43.923942" lon="5.703744">
        <ele>633.4</ele>
      </trkpt>
      <trkpt lat="43.924226" lon="5.704088">
        <ele>632.6</ele>
      </trkpt>
      <trkpt lat="43.924470" lon="5.704289">
        <ele>631.1</ele>
      </trkpt>
      <trkpt lat="43.924615" lon="5.704536">
        <ele>631</ele>
      </trkpt>
      <trkpt lat="43.924730" lon="5.704715">
        <ele>630.8</ele>
      </trkpt>
      <trkpt lat="43.924958" lon="5.705008">
        <ele>630.2</ele>
      </trkpt>
      <trkpt lat="43.925148" lon="5.705220">
        <ele>629.6</ele>
      </trkpt>
      <trkpt lat="43.925542" lon="5.705501">
        <ele>628.8</ele>
      </trkpt>
      <trkpt lat="43.925868" lon="5.705563">
        <ele>630.8</ele>
      </trkpt>
      <trkpt lat="43.925951" lon="5.705630">
        <ele>630.5</ele>
      </trkpt>
      <trkpt lat="43.926025" lon="5.705847">
        <ele>627.6</ele>
      </trkpt>
      <trkpt lat="43.926052" lon="5.706008">
        <ele>627.6</ele>
      </trkpt>
      <trkpt lat="43.926118" lon="5.706164">
        <ele>627.5</ele>
      </trkpt>
      <trkpt lat="43.926185" lon="5.706306">
        <ele>627.3</ele>
      </trkpt>
      <trkpt lat="43.926284" lon="5.706378">
        <ele>627.6</ele>
      </trkpt>
      <trkpt lat="43.926467" lon="5.706405">
        <ele>628.2</ele>
      </trkpt>
      <trkpt lat="43.926713" lon="5.706440">
        <ele>632</ele>
      </trkpt>
      <trkpt lat="43.926844" lon="5.706443">
        <ele>632.5</ele>
      </trkpt>
      <trkpt lat="43.926896" lon="5.706486">
        <ele>632.6</ele>
      </trkpt>
      <trkpt lat="43.926956" lon="5.706550">
        <ele>632.8</ele>
      </trkpt>
      <trkpt lat="43.927029" lon="5.706708">
        <ele>631.7</ele>
      </trkpt>
      <trkpt lat="43.927109" lon="5.707014">
        <ele>631.8</ele>
      </trkpt>
      <trkpt lat="43.927118" lon="5.707183">
        <ele>631.5</ele>
      </trkpt>
      <trkpt lat="43.927257" lon="5.707650">
        <ele>630.2</ele>
      </trkpt>
      <trkpt lat="43.927356" lon="5.707910">
        <ele>629.7</ele>
      </trkpt>
      <trkpt lat="43.927723" lon="5.708427">
        <ele>629.8</ele>
      </trkpt>
      <trkpt lat="43.927781" lon="5.708604">
        <ele>629.3</ele>
      </trkpt>
      <trkpt lat="43.927808" lon="5.708765">
        <ele>628.7</ele>
      </trkpt>
      <trkpt lat="43.927789" lon="5.709122">
        <ele>627.5</ele>
      </trkpt>
      <trkpt lat="43.927818" lon="5.709192">
        <ele>624.1</ele>
      </trkpt>
      <trkpt lat="43.928038" lon="5.709278">
        <ele>623.8</ele>
      </trkpt>
      <trkpt lat="43.928204" lon="5.709227">
        <ele>624.2</ele>
      </trkpt>
      <trkpt lat="43.928308" lon="5.709184">
        <ele>624.8</ele>
      </trkpt>
      <trkpt lat="43.928345" lon="5.709192">
        <ele>625.2</ele>
      </trkpt>
      <trkpt lat="43.928345" lon="5.709267">
        <ele>625.4</ele>
      </trkpt>
      <trkpt lat="43.928285" lon="5.709345">
        <ele>623.9</ele>
      </trkpt>
      <trkpt lat="43.927914" lon="5.710458">
        <ele>616.6</ele>
      </trkpt>
      <trkpt lat="43.927916" lon="5.710538">
        <ele>616.2</ele>
      </trkpt>
      <trkpt lat="43.927955" lon="5.710831">
        <ele>615.5</ele>
      </trkpt>
      <trkpt lat="43.927982" lon="5.710922">
        <ele>612.7</ele>
      </trkpt>
      <trkpt lat="43.928101" lon="5.711279">
        <ele>612.8</ele>
      </trkpt>
      <trkpt lat="43.928129" lon="5.711389">
        <ele>613</ele>
      </trkpt>
      <trkpt lat="43.928098" lon="5.711517">
        <ele>613</ele>
      </trkpt>
      <trkpt lat="43.927712" lon="5.712370">
        <ele>613</ele>
      </trkpt>
      <trkpt lat="43.927692" lon="5.712526">
        <ele>614.3</ele>
      </trkpt>
      <trkpt lat="43.927686" lon="5.712574">
        <ele>614.3</ele>
      </trkpt>
      <trkpt lat="43.927738" lon="5.712722">
        <ele>615.3</ele>
      </trkpt>
      <trkpt lat="43.927918" lon="5.712936">
        <ele>616.8</ele>
      </trkpt>
      <trkpt lat="43.928146" lon="5.713178">
        <ele>618.7</ele>
      </trkpt>
      <trkpt lat="43.928235" lon="5.713357">
        <ele>620.4</ele>
      </trkpt>
      <trkpt lat="43.928246" lon="5.713430">
        <ele>620.1</ele>
      </trkpt>
      <trkpt lat="43.927949" lon="5.713526">
        <ele>617.4</ele>
      </trkpt>
      <trkpt lat="43.927779" lon="5.713548">
        <ele>616.2</ele>
      </trkpt>
      <trkpt lat="43.927626" lon="5.713626">
        <ele>615.5</ele>
      </trkpt>
      <trkpt lat="43.927352" lon="5.713701">
        <ele>608.6</ele>
      </trkpt>
      <trkpt lat="43.927240" lon="5.713754">
        <ele>608</ele>
      </trkpt>
      <trkpt lat="43.927099" lon="5.713800">
        <ele>607.2</ele>
      </trkpt>
      <trkpt lat="43.926415" lon="5.714189">
        <ele>599.7</ele>
      </trkpt>
      <trkpt lat="43.926353" lon="5.714224">
        <ele>599.1</ele>
      </trkpt>
      <trkpt lat="43.926309" lon="5.714299">
        <ele>598.7</ele>
      </trkpt>
      <trkpt lat="43.925760" lon="5.714765">
        <ele>591.8</ele>
      </trkpt>
      <trkpt lat="43.925445" lon="5.715015">
        <ele>591.7</ele>
      </trkpt>
      <trkpt lat="43.925316" lon="5.715047">
        <ele>591</ele>
      </trkpt>
      <trkpt lat="43.924814" lon="5.715527">
        <ele>586.3</ele>
      </trkpt>
      <trkpt lat="43.924674" lon="5.715597">
        <ele>585.9</ele>
      </trkpt>
      <trkpt lat="43.924406" lon="5.715787">
        <ele>585</ele>
      </trkpt>
      <trkpt lat="43.924273" lon="5.715962">
        <ele>584.4</ele>
      </trkpt>
      <trkpt lat="43.924153" lon="5.716133">
        <ele>581</ele>
      </trkpt>
      <trkpt lat="43.923965" lon="5.716458">
        <ele>580.2</ele>
      </trkpt>
      <trkpt lat="43.923842" lon="5.716584">
        <ele>579.7</ele>
      </trkpt>
      <trkpt lat="43.923571" lon="5.716724">
        <ele>576.2</ele>
      </trkpt>
      <trkpt lat="43.923446" lon="5.716766">
        <ele>575.9</ele>
      </trkpt>
      <trkpt lat="43.923007" lon="5.716780">
        <ele>571.4</ele>
      </trkpt>
      <trkpt lat="43.922779" lon="5.716764">
        <ele>570.1</ele>
      </trkpt>
      <trkpt lat="43.921978" lon="5.717043">
        <ele>563.7</ele>
      </trkpt>
      <trkpt lat="43.921668" lon="5.717104">
        <ele>562.8</ele>
      </trkpt>
      <trkpt lat="43.921545" lon="5.717123">
        <ele>559.2</ele>
      </trkpt>
      <trkpt lat="43.921396" lon="5.717198">
        <ele>558.7</ele>
      </trkpt>
      <trkpt lat="43.921346" lon="5.717225">
        <ele>558.5</ele>
      </trkpt>
      <trkpt lat="43.921253" lon="5.717335">
        <ele>558.1</ele>
      </trkpt>
      <trkpt lat="43.921010" lon="5.717531">
        <ele>554.9</ele>
      </trkpt>
      <trkpt lat="43.920617" lon="5.717804">
        <ele>551.2</ele>
      </trkpt>
      <trkpt lat="43.920405" lon="5.718016">
        <ele>550</ele>
      </trkpt>
      <trkpt lat="43.920233" lon="5.718142">
        <ele>549.2</ele>
      </trkpt>
      <trkpt lat="43.920138" lon="5.718193">
        <ele>548.7</ele>
      </trkpt>
      <trkpt lat="43.920032" lon="5.718199">
        <ele>548.3</ele>
      </trkpt>
      <trkpt lat="43.919943" lon="5.718199">
        <ele>546.3</ele>
      </trkpt>
      <trkpt lat="43.919850" lon="5.718260">
        <ele>546.1</ele>
      </trkpt>
      <trkpt lat="43.919804" lon="5.718349">
        <ele>544.7</ele>
      </trkpt>
      <trkpt lat="43.919520" lon="5.718695">
        <ele>542.6</ele>
      </trkpt>
      <trkpt lat="43.919508" lon="5.718749">
        <ele>542.5</ele>
      </trkpt>
      <trkpt lat="43.919763" lon="5.718837">
        <ele>543.2</ele>
      </trkpt>
      <trkpt lat="43.920474" lon="5.718950">
        <ele>546.8</ele>
      </trkpt>
      <trkpt lat="43.921276" lon="5.718960">
        <ele>549.9</ele>
      </trkpt>
      <trkpt lat="43.921411" lon="5.718971">
        <ele>550.1</ele>
      </trkpt>
      <trkpt lat="43.921522" lon="5.719237">
        <ele>549.6</ele>
      </trkpt>
      <trkpt lat="43.921740" lon="5.719652">
        <ele>551.4</ele>
      </trkpt>
      <trkpt lat="43.921950" lon="5.720173">
        <ele>553.2</ele>
      </trkpt>
      <trkpt lat="43.922043" lon="5.720540">
        <ele>554.2</ele>
      </trkpt>
      <trkpt lat="43.922149" lon="5.721036">
        <ele>560.5</ele>
      </trkpt>
      <trkpt lat="43.922246" lon="5.721230">
        <ele>561.9</ele>
      </trkpt>
      <trkpt lat="43.922347" lon="5.721275">
        <ele>562.5</ele>
      </trkpt>
      <trkpt lat="43.922625" lon="5.721310">
        <ele>566.2</ele>
      </trkpt>
      <trkpt lat="43.923069" lon="5.721264">
        <ele>567.1</ele>
      </trkpt>
      <trkpt lat="43.923247" lon="5.721329">
        <ele>568.2</ele>
      </trkpt>
      <trkpt lat="43.923311" lon="5.721415">
        <ele>569.3</ele>
      </trkpt>
      <trkpt lat="43.923361" lon="5.721594">
        <ele>573.5</ele>
      </trkpt>
      <trkpt lat="43.923413" lon="5.721737">
        <ele>576.2</ele>
      </trkpt>
      <trkpt lat="43.923498" lon="5.721855">
        <ele>578.1</ele>
      </trkpt>
      <trkpt lat="43.923646" lon="5.721943">
        <ele>579.5</ele>
      </trkpt>
      <trkpt lat="43.923812" lon="5.721932">
        <ele>580</ele>
      </trkpt>
      <trkpt lat="43.924058" lon="5.721887">
        <ele>580.2</ele>
      </trkpt>
      <trkpt lat="43.924170" lon="5.721849">
        <ele>581.8</ele>
      </trkpt>
      <trkpt lat="43.924338" lon="5.721847">
        <ele>582.5</ele>
      </trkpt>
      <trkpt lat="43.924497" lon="5.721863">
        <ele>583.4</ele>
      </trkpt>
      <trkpt lat="43.924921" lon="5.722010">
        <ele>584.6</ele>
      </trkpt>
      <trkpt lat="43.925366" lon="5.722292">
        <ele>585.8</ele>
      </trkpt>
      <trkpt lat="43.925853" lon="5.722490">
        <ele>584.1</ele>
      </trkpt>
      <trkpt lat="43.925885" lon="5.722512">
        <ele>582.5</ele>
      </trkpt>
      <trkpt lat="43.925903" lon="5.722568">
        <ele>581.5</ele>
      </trkpt>
      <trkpt lat="43.925845" lon="5.722640">
        <ele>580.7</ele>
      </trkpt>
      <trkpt lat="43.925524" lon="5.723043">
        <ele>580.7</ele>
      </trkpt>
      <trkpt lat="43.925424" lon="5.723295">
        <ele>580.5</ele>
      </trkpt>
      <trkpt lat="43.925200" lon="5.723885">
        <ele>573.6</ele>
      </trkpt>
      <trkpt lat="43.924854" lon="5.724826">
        <ele>573.7</ele>
      </trkpt>
      <trkpt lat="43.924717" lon="5.725197">
        <ele>569.8</ele>
      </trkpt>
      <trkpt lat="43.924416" lon="5.725921">
        <ele>566.6</ele>
      </trkpt>
      <trkpt lat="43.924197" lon="5.726715">
        <ele>566.6</ele>
      </trkpt>
      <trkpt lat="43.924170" lon="5.726924">
        <ele>564.3</ele>
      </trkpt>
      <trkpt lat="43.924168" lon="5.727096">
        <ele>563.8</ele>
      </trkpt>
      <trkpt lat="43.924180" lon="5.727715">
        <ele>566.3</ele>
      </trkpt>
      <trkpt lat="43.924168" lon="5.728101">
        <ele>566.9</ele>
      </trkpt>
      <trkpt lat="43.924346" lon="5.729072">
        <ele>563.7</ele>
      </trkpt>
      <trkpt lat="43.924385" lon="5.729217">
        <ele>560.8</ele>
      </trkpt>
      <trkpt lat="43.924698" lon="5.730070">
        <ele>557.2</ele>
      </trkpt>
      <trkpt lat="43.924775" lon="5.730255">
        <ele>557.1</ele>
      </trkpt>
      <trkpt lat="43.924848" lon="5.730515">
        <ele>556.6</ele>
      </trkpt>
      <trkpt lat="43.924926" lon="5.730717">
        <ele>556.3</ele>
      </trkpt>
      <trkpt lat="43.924939" lon="5.730832">
        <ele>556.1</ele>
      </trkpt>
      <trkpt lat="43.924902" lon="5.730934">
        <ele>555.2</ele>
      </trkpt>
      <trkpt lat="43.924897" lon="5.730996">
        <ele>555</ele>
      </trkpt>
      <trkpt lat="43.924788" lon="5.731234">
        <ele>554.2</ele>
      </trkpt>
      <trkpt lat="43.924676" lon="5.731631">
        <ele>553.5</ele>
      </trkpt>
      <trkpt lat="43.924638" lon="5.731714">
        <ele>551.1</ele>
      </trkpt>
      <trkpt lat="43.924383" lon="5.732393">
        <ele>553</ele>
      </trkpt>
      <trkpt lat="43.924039" lon="5.733254">
        <ele>551.3</ele>
      </trkpt>
      <trkpt lat="43.923722" lon="5.733957">
        <ele>545.9</ele>
      </trkpt>
      <trkpt lat="43.923579" lon="5.734187">
        <ele>541.4</ele>
      </trkpt>
      <trkpt lat="43.923571" lon="5.734249">
        <ele>541.3</ele>
      </trkpt>
      <trkpt lat="43.923523" lon="5.734391">
        <ele>540.5</ele>
      </trkpt>
      <trkpt lat="43.923394" lon="5.734928">
        <ele>540</ele>
      </trkpt>
      <trkpt lat="43.923293" lon="5.735392">
        <ele>539</ele>
      </trkpt>
      <trkpt lat="43.923241" lon="5.735628">
        <ele>537.2</ele>
      </trkpt>
      <trkpt lat="43.923077" lon="5.736658">
        <ele>530.5</ele>
      </trkpt>
      <trkpt lat="43.922953" lon="5.737403">
        <ele>524.9</ele>
      </trkpt>
      <trkpt lat="43.922945" lon="5.737500">
        <ele>524.8</ele>
      </trkpt>
      <trkpt lat="43.922913" lon="5.737623">
        <ele>520.5</ele>
      </trkpt>
      <trkpt lat="43.922905" lon="5.737733">
        <ele>520.2</ele>
      </trkpt>
      <trkpt lat="43.922878" lon="5.738044">
        <ele>519.1</ele>
      </trkpt>
      <trkpt lat="43.922805" lon="5.738221">
        <ele>519.5</ele>
      </trkpt>
      <trkpt lat="43.922731" lon="5.738468">
        <ele>516.4</ele>
      </trkpt>
      <trkpt lat="43.922708" lon="5.738586">
        <ele>515.7</ele>
      </trkpt>
      <trkpt lat="43.922697" lon="5.738715">
        <ele>514.9</ele>
      </trkpt>
      <trkpt lat="43.922731" lon="5.738962">
        <ele>514.1</ele>
      </trkpt>
      <trkpt lat="43.922828" lon="5.739203">
        <ele>509.7</ele>
      </trkpt>
      <trkpt lat="43.922855" lon="5.739380">
        <ele>508.8</ele>
      </trkpt>
      <trkpt lat="43.922878" lon="5.739546">
        <ele>508</ele>
      </trkpt>
      <trkpt lat="43.922840" lon="5.739793">
        <ele>507.8</ele>
      </trkpt>
      <trkpt lat="43.922770" lon="5.740077">
        <ele>505</ele>
      </trkpt>
      <trkpt lat="43.922755" lon="5.740201">
        <ele>504.4</ele>
      </trkpt>
      <trkpt lat="43.922727" lon="5.741231">
        <ele>498</ele>
      </trkpt>
      <trkpt lat="43.922592" lon="5.742341">
        <ele>495.4</ele>
      </trkpt>
      <trkpt lat="43.922565" lon="5.742545">
        <ele>495.6</ele>
      </trkpt>
      <trkpt lat="43.922557" lon="5.742883">
        <ele>491.8</ele>
      </trkpt>
      <trkpt lat="43.922545" lon="5.742998">
        <ele>491.4</ele>
      </trkpt>
      <trkpt lat="43.922476" lon="5.743175">
        <ele>494.4</ele>
      </trkpt>
      <trkpt lat="43.922451" lon="5.743358">
        <ele>492.5</ele>
      </trkpt>
      <trkpt lat="43.922451" lon="5.743505">
        <ele>491.6</ele>
      </trkpt>
      <trkpt lat="43.922426" lon="5.743656">
        <ele>490.8</ele>
      </trkpt>
      <trkpt lat="43.922387" lon="5.743792">
        <ele>490.1</ele>
      </trkpt>
      <trkpt lat="43.922383" lon="5.743924">
        <ele>489.6</ele>
      </trkpt>
      <trkpt lat="43.922395" lon="5.744020">
        <ele>489.1</ele>
      </trkpt>
      <trkpt lat="43.922484" lon="5.744235">
        <ele>487.2</ele>
      </trkpt>
      <trkpt lat="43.922532" lon="5.744361">
        <ele>483.3</ele>
      </trkpt>
      <trkpt lat="43.922547" lon="5.744509">
        <ele>481.6</ele>
      </trkpt>
      <trkpt lat="43.922551" lon="5.744643">
        <ele>480.9</ele>
      </trkpt>
      <trkpt lat="43.922551" lon="5.744825">
        <ele>481.1</ele>
      </trkpt>
      <trkpt lat="43.922511" lon="5.744946">
        <ele>482.2</ele>
      </trkpt>
      <trkpt lat="43.922426" lon="5.745101">
        <ele>481.2</ele>
      </trkpt>
      <trkpt lat="43.922341" lon="5.745201">
        <ele>480.1</ele>
      </trkpt>
      <trkpt lat="43.922298" lon="5.745284">
        <ele>479.4</ele>
      </trkpt>
      <trkpt lat="43.922283" lon="5.745388">
        <ele>478.8</ele>
      </trkpt>
      <trkpt lat="43.922281" lon="5.745547">
        <ele>477.7</ele>
      </trkpt>
      <trkpt lat="43.922234" lon="5.745592">
        <ele>477.6</ele>
      </trkpt>
      <trkpt lat="43.922128" lon="5.745748">
        <ele>477.3</ele>
      </trkpt>
      <trkpt lat="43.922010" lon="5.745994">
        <ele>473.3</ele>
      </trkpt>
      <trkpt lat="43.921931" lon="5.746150">
        <ele>473</ele>
      </trkpt>
      <trkpt lat="43.921825" lon="5.746244">
        <ele>472.8</ele>
      </trkpt>
      <trkpt lat="43.921612" lon="5.746421">
        <ele>473.1</ele>
      </trkpt>
      <trkpt lat="43.921342" lon="5.746606">
        <ele>472.9</ele>
      </trkpt>
      <trkpt lat="43.921257" lon="5.746614">
        <ele>472.9</ele>
      </trkpt>
      <trkpt lat="43.921114" lon="5.746560">
        <ele>472.9</ele>
      </trkpt>
      <trkpt lat="43.920927" lon="5.746418">
        <ele>473.1</ele>
      </trkpt>
      <trkpt lat="43.920691" lon="5.746295">
        <ele>474.1</ele>
      </trkpt>
      <trkpt lat="43.920378" lon="5.746107">
        <ele>474.9</ele>
      </trkpt>
      <trkpt lat="43.920059" lon="5.745799">
        <ele>477.6</ele>
      </trkpt>
      <trkpt lat="43.919962" lon="5.745705">
        <ele>478.4</ele>
      </trkpt>
      <trkpt lat="43.919773" lon="5.745506">
        <ele>479.9</ele>
      </trkpt>
      <trkpt lat="43.919678" lon="5.745445">
        <ele>480.3</ele>
      </trkpt>
      <trkpt lat="43.919412" lon="5.745426">
        <ele>480.7</ele>
      </trkpt>
      <trkpt lat="43.919240" lon="5.745391">
        <ele>481</ele>
      </trkpt>
      <trkpt lat="43.919151" lon="5.745351">
        <ele>481.6</ele>
      </trkpt>
      <trkpt lat="43.919078" lon="5.745265">
        <ele>482.1</ele>
      </trkpt>
      <trkpt lat="43.918896" lon="5.744951">
        <ele>485.5</ele>
      </trkpt>
      <trkpt lat="43.918803" lon="5.744723">
        <ele>485.8</ele>
      </trkpt>
      <trkpt lat="43.918795" lon="5.744573">
        <ele>486</ele>
      </trkpt>
      <trkpt lat="43.918811" lon="5.744409">
        <ele>486.3</ele>
      </trkpt>
      <trkpt lat="43.918853" lon="5.744310">
        <ele>486.6</ele>
      </trkpt>
      <trkpt lat="43.918942" lon="5.744302">
        <ele>486.7</ele>
      </trkpt>
      <trkpt lat="43.919004" lon="5.744248">
        <ele>487</ele>
      </trkpt>
      <trkpt lat="43.919062" lon="5.744044">
        <ele>488.8</ele>
      </trkpt>
      <trkpt lat="43.919091" lon="5.743822">
        <ele>489.6</ele>
      </trkpt>
      <trkpt lat="43.919114" lon="5.743674">
        <ele>490.2</ele>
      </trkpt>
      <trkpt lat="43.919199" lon="5.743470">
        <ele>491.7</ele>
      </trkpt>
      <trkpt lat="43.919265" lon="5.743232">
        <ele>493.8</ele>
      </trkpt>
      <trkpt lat="43.919242" lon="5.743098">
        <ele>494.3</ele>
      </trkpt>
      <trkpt lat="43.919166" lon="5.742902">
        <ele>493.6</ele>
      </trkpt>
      <trkpt lat="43.919035" lon="5.742703">
        <ele>494.1</ele>
      </trkpt>
      <trkpt lat="43.918948" lon="5.742537">
        <ele>494.3</ele>
      </trkpt>
      <trkpt lat="43.918952" lon="5.742430">
        <ele>496.4</ele>
      </trkpt>
      <trkpt lat="43.918977" lon="5.742387">
        <ele>496.5</ele>
      </trkpt>
      <trkpt lat="43.918896" lon="5.742296">
        <ele>496.6</ele>
      </trkpt>
      <trkpt lat="43.918784" lon="5.742143">
        <ele>496.9</ele>
      </trkpt>
      <trkpt lat="43.918724" lon="5.742017">
        <ele>497.2</ele>
      </trkpt>
      <trkpt lat="43.918697" lon="5.741875">
        <ele>497.5</ele>
      </trkpt>
      <trkpt lat="43.918678" lon="5.741698">
        <ele>497.8</ele>
      </trkpt>
      <trkpt lat="43.918632" lon="5.741617">
        <ele>500.4</ele>
      </trkpt>
      <trkpt lat="43.918566" lon="5.741558">
        <ele>500.3</ele>
      </trkpt>
      <trkpt lat="43.918423" lon="5.741558">
        <ele>499.5</ele>
      </trkpt>
      <trkpt lat="43.918230" lon="5.741451">
        <ele>500.6</ele>
      </trkpt>
      <trkpt lat="43.917851" lon="5.741268">
        <ele>502.3</ele>
      </trkpt>
      <trkpt lat="43.917681" lon="5.741193">
        <ele>503</ele>
      </trkpt>
      <trkpt lat="43.917458" lon="5.741032">
        <ele>505.9</ele>
      </trkpt>
      <trkpt lat="43.917362" lon="5.740914">
        <ele>506.2</ele>
      </trkpt>
      <trkpt lat="43.917275" lon="5.740842">
        <ele>506.2</ele>
      </trkpt>
      <trkpt lat="43.917199" lon="5.740965">
        <ele>506</ele>
      </trkpt>
      <trkpt lat="43.916800" lon="5.741494">
        <ele>504.8</ele>
      </trkpt>
      <trkpt lat="43.916715" lon="5.741655">
        <ele>504.2</ele>
      </trkpt>
      <trkpt lat="43.916664" lon="5.741732">
        <ele>503.5</ele>
      </trkpt>
      <trkpt lat="43.916560" lon="5.741821">
        <ele>502.8</ele>
      </trkpt>
      <trkpt lat="43.916491" lon="5.741864">
        <ele>502.5</ele>
      </trkpt>
      <trkpt lat="43.916181" lon="5.741987">
        <ele>502.1</ele>
      </trkpt>
      <trkpt lat="43.915969" lon="5.742030">
        <ele>502.1</ele>
      </trkpt>
      <trkpt lat="43.915828" lon="5.742049">
        <ele>502.3</ele>
      </trkpt>
      <trkpt lat="43.915723" lon="5.742092">
        <ele>502.1</ele>
      </trkpt>
      <trkpt lat="43.915648" lon="5.742148">
        <ele>501.9</ele>
      </trkpt>
      <trkpt lat="43.915482" lon="5.742355">
        <ele>501.3</ele>
      </trkpt>
      <trkpt lat="43.915370" lon="5.742489">
        <ele>501</ele>
      </trkpt>
      <trkpt lat="43.915318" lon="5.742516">
        <ele>497.5</ele>
      </trkpt>
      <trkpt lat="43.915287" lon="5.742481">
        <ele>500.9</ele>
      </trkpt>
      <trkpt lat="43.915279" lon="5.742376">
        <ele>501.1</ele>
      </trkpt>
      <trkpt lat="43.915264" lon="5.742290">
        <ele>501.4</ele>
      </trkpt>
      <trkpt lat="43.915208" lon="5.742202">
        <ele>501.7</ele>
      </trkpt>
      <trkpt lat="43.915130" lon="5.742162">
        <ele>501.9</ele>
      </trkpt>
      <trkpt lat="43.914394" lon="5.742065">
        <ele>502.6</ele>
      </trkpt>
      <trkpt lat="43.914363" lon="5.742022">
        <ele>502.7</ele>
      </trkpt>
      <trkpt lat="43.914352" lon="5.741963">
        <ele>503</ele>
      </trkpt>
      <trkpt lat="43.914334" lon="5.741740">
        <ele>503.8</ele>
      </trkpt>
      <trkpt lat="43.914359" lon="5.741204">
        <ele>507.4</ele>
      </trkpt>
      <trkpt lat="43.914383" lon="5.740820">
        <ele>510.2</ele>
      </trkpt>
      <trkpt lat="43.914377" lon="5.740678">
        <ele>510.6</ele>
      </trkpt>
      <trkpt lat="43.914388" lon="5.740542">
        <ele>511.2</ele>
      </trkpt>
      <trkpt lat="43.914525" lon="5.739970">
        <ele>515.6</ele>
      </trkpt>
      <trkpt lat="43.914618" lon="5.739385">
        <ele>517</ele>
      </trkpt>
      <trkpt lat="43.914674" lon="5.739031">
        <ele>520.4</ele>
      </trkpt>
      <trkpt lat="43.914672" lon="5.738954">
        <ele>520.6</ele>
      </trkpt>
      <trkpt lat="43.914618" lon="5.738739">
        <ele>521.3</ele>
      </trkpt>
      <trkpt lat="43.914514" lon="5.738498">
        <ele>522</ele>
      </trkpt>
      <trkpt lat="43.914410" lon="5.738251">
        <ele>525.5</ele>
      </trkpt>
      <trkpt lat="43.914352" lon="5.738071">
        <ele>525.9</ele>
      </trkpt>
      <trkpt lat="43.914315" lon="5.737942">
        <ele>526.4</ele>
      </trkpt>
      <trkpt lat="43.914180" lon="5.737629">
        <ele>528</ele>
      </trkpt>
      <trkpt lat="43.914098" lon="5.737393">
        <ele>529.6</ele>
      </trkpt>
      <trkpt lat="43.914052" lon="5.737277">
        <ele>530.1</ele>
      </trkpt>
      <trkpt lat="43.914008" lon="5.737224">
        <ele>530.3</ele>
      </trkpt>
      <trkpt lat="43.913990" lon="5.737146">
        <ele>530.5</ele>
      </trkpt>
      <trkpt lat="43.913955" lon="5.737004">
        <ele>531</ele>
      </trkpt>
      <trkpt lat="43.913907" lon="5.736864">
        <ele>531.4</ele>
      </trkpt>
      <trkpt lat="43.913882" lon="5.736660">
        <ele>531.4</ele>
      </trkpt>
      <trkpt lat="43.913849" lon="5.736569">
        <ele>531.1</ele>
      </trkpt>
      <trkpt lat="43.913797" lon="5.736604">
        <ele>530.9</ele>
      </trkpt>
      <trkpt lat="43.913733" lon="5.736569">
        <ele>530.6</ele>
      </trkpt>
      <trkpt lat="43.913704" lon="5.736497">
        <ele>530.3</ele>
      </trkpt>
      <trkpt lat="43.913677" lon="5.736419">
        <ele>530</ele>
      </trkpt>
      <trkpt lat="43.913639" lon="5.736349">
        <ele>529.7</ele>
      </trkpt>
      <trkpt lat="43.913548" lon="5.736247">
        <ele>528.9</ele>
      </trkpt>
      <trkpt lat="43.913519" lon="5.736167">
        <ele>528.2</ele>
      </trkpt>
      <trkpt lat="43.913521" lon="5.736086">
        <ele>527.6</ele>
      </trkpt>
      <trkpt lat="43.913552" lon="5.735982">
        <ele>527</ele>
      </trkpt>
      <trkpt lat="43.913615" lon="5.735856">
        <ele>527.2</ele>
      </trkpt>
      <trkpt lat="43.913774" lon="5.735663">
        <ele>522</ele>
      </trkpt>
      <trkpt lat="43.913899" lon="5.735461">
        <ele>521.4</ele>
      </trkpt>
      <trkpt lat="43.914050" lon="5.735263">
        <ele>520.8</ele>
      </trkpt>
      <trkpt lat="43.914224" lon="5.734949">
        <ele>521.5</ele>
      </trkpt>
      <trkpt lat="43.914321" lon="5.734721">
        <ele>521.8</ele>
      </trkpt>
      <trkpt lat="43.914402" lon="5.734568">
        <ele>521.3</ele>
      </trkpt>
      <trkpt lat="43.914454" lon="5.734488">
        <ele>521.1</ele>
      </trkpt>
      <trkpt lat="43.914477" lon="5.734394">
        <ele>520.6</ele>
      </trkpt>
      <trkpt lat="43.914489" lon="5.734271">
        <ele>519.9</ele>
      </trkpt>
      <trkpt lat="43.914539" lon="5.734155">
        <ele>517.3</ele>
      </trkpt>
      <trkpt lat="43.914591" lon="5.734002">
        <ele>518.1</ele>
      </trkpt>
      <trkpt lat="43.914609" lon="5.733847">
        <ele>518.2</ele>
      </trkpt>
      <trkpt lat="43.914607" lon="5.733734">
        <ele>518.1</ele>
      </trkpt>
      <trkpt lat="43.914570" lon="5.733651">
        <ele>517.9</ele>
      </trkpt>
      <trkpt lat="43.914524" lon="5.733597">
        <ele>517.8</ele>
      </trkpt>
      <trkpt lat="43.914429" lon="5.733562">
        <ele>517.6</ele>
      </trkpt>
      <trkpt lat="43.914288" lon="5.733560">
        <ele>517.3</ele>
      </trkpt>
      <trkpt lat="43.914029" lon="5.733603">
        <ele>513</ele>
      </trkpt>
      <trkpt lat="43.913702" lon="5.733672">
        <ele>511.5</ele>
      </trkpt>
      <trkpt lat="43.913472" lon="5.733621">
        <ele>511.9</ele>
      </trkpt>
      <trkpt lat="43.913279" lon="5.733514">
        <ele>509.4</ele>
      </trkpt>
      <trkpt lat="43.913156" lon="5.733375">
        <ele>509.6</ele>
      </trkpt>
      <trkpt lat="43.912785" lon="5.732650">
        <ele>514.8</ele>
      </trkpt>
      <trkpt lat="43.912672" lon="5.732224">
        <ele>517.9</ele>
      </trkpt>
      <trkpt lat="43.912661" lon="5.732031">
        <ele>518.2</ele>
      </trkpt>
      <trkpt lat="43.912732" lon="5.731591">
        <ele>517.2</ele>
      </trkpt>
      <trkpt lat="43.912823" lon="5.731199">
        <ele>519.9</ele>
      </trkpt>
      <trkpt lat="43.912906" lon="5.730676">
        <ele>519.4</ele>
      </trkpt>
      <trkpt lat="43.912966" lon="5.729995">
        <ele>518.3</ele>
      </trkpt>
      <trkpt lat="43.912968" lon="5.729614">
        <ele>517.6</ele>
      </trkpt>
      <trkpt lat="43.912993" lon="5.729319">
        <ele>517.6</ele>
      </trkpt>
      <trkpt lat="43.913123" lon="5.728563">
        <ele>514.8</ele>
      </trkpt>
      <trkpt lat="43.913128" lon="5.728378">
        <ele>514.9</ele>
      </trkpt>
      <trkpt lat="43.913061" lon="5.727782">
        <ele>513.7</ele>
      </trkpt>
      <trkpt lat="43.912993" lon="5.727434">
        <ele>515.8</ele>
      </trkpt>
      <trkpt lat="43.912676" lon="5.726691">
        <ele>514.3</ele>
      </trkpt>
      <trkpt lat="43.912605" lon="5.726468">
        <ele>515.8</ele>
      </trkpt>
      <trkpt lat="43.912574" lon="5.726031">
        <ele>515.6</ele>
      </trkpt>
      <trkpt lat="43.912584" lon="5.725596">
        <ele>515.9</ele>
      </trkpt>
      <trkpt lat="43.912640" lon="5.725261">
        <ele>516.5</ele>
      </trkpt>
      <trkpt lat="43.912725" lon="5.724993">
        <ele>514.6</ele>
      </trkpt>
      <trkpt lat="43.912742" lon="5.724896">
        <ele>514.7</ele>
      </trkpt>
      <trkpt lat="43.912771" lon="5.724765">
        <ele>514.7</ele>
      </trkpt>
      <trkpt lat="43.912827" lon="5.724641">
        <ele>514.7</ele>
      </trkpt>
      <trkpt lat="43.912860" lon="5.724604">
        <ele>514.8</ele>
      </trkpt>
      <trkpt lat="43.912852" lon="5.724502">
        <ele>514.4</ele>
      </trkpt>
      <trkpt lat="43.912775" lon="5.724416">
        <ele>513.5</ele>
      </trkpt>
      <trkpt lat="43.912711" lon="5.724322">
        <ele>512.6</ele>
      </trkpt>
      <trkpt lat="43.912644" lon="5.724041">
        <ele>509.3</ele>
      </trkpt>
      <trkpt lat="43.912605" lon="5.723898">
        <ele>509.3</ele>
      </trkpt>
      <trkpt lat="43.912528" lon="5.723743">
        <ele>509</ele>
      </trkpt>
      <trkpt lat="43.912363" lon="5.723402">
        <ele>506.6</ele>
      </trkpt>
      <trkpt lat="43.912303" lon="5.723185">
        <ele>507.2</ele>
      </trkpt>
      <trkpt lat="43.912187" lon="5.722901">
        <ele>507.8</ele>
      </trkpt>
      <trkpt lat="43.912089" lon="5.722721">
        <ele>508.2</ele>
      </trkpt>
      <trkpt lat="43.912027" lon="5.722646">
        <ele>508.5</ele>
      </trkpt>
      <trkpt lat="43.911973" lon="5.722595">
        <ele>508.7</ele>
      </trkpt>
      <trkpt lat="43.911936" lon="5.722573">
        <ele>508.9</ele>
      </trkpt>
      <trkpt lat="43.911863" lon="5.722576">
        <ele>509.2</ele>
      </trkpt>
      <trkpt lat="43.911739" lon="5.722504">
        <ele>510.2</ele>
      </trkpt>
      <trkpt lat="43.911629" lon="5.722380">
        <ele>513.4</ele>
      </trkpt>
      <trkpt lat="43.911382" lon="5.722123">
        <ele>516.4</ele>
      </trkpt>
      <trkpt lat="43.911150" lon="5.721688">
        <ele>518.6</ele>
      </trkpt>
      <trkpt lat="43.911036" lon="5.721498">
        <ele>520.3</ele>
      </trkpt>
      <trkpt lat="43.910924" lon="5.721350">
        <ele>520.3</ele>
      </trkpt>
      <trkpt lat="43.910810" lon="5.721270">
        <ele>523.8</ele>
      </trkpt>
      <trkpt lat="43.910721" lon="5.721195">
        <ele>523.8</ele>
      </trkpt>
      <trkpt lat="43.910640" lon="5.721031">
        <ele>523.6</ele>
      </trkpt>
      <trkpt lat="43.910578" lon="5.720884">
        <ele>523.6</ele>
      </trkpt>
      <trkpt lat="43.910514" lon="5.720841">
        <ele>523.9</ele>
      </trkpt>
      <trkpt lat="43.910410" lon="5.720817">
        <ele>524.8</ele>
      </trkpt>
      <trkpt lat="43.909990" lon="5.720833">
        <ele>527.2</ele>
      </trkpt>
      <trkpt lat="43.909747" lon="5.720835">
        <ele>529.4</ele>
      </trkpt>
      <trkpt lat="43.909502" lon="5.720784">
        <ele>530.9</ele>
      </trkpt>
      <trkpt lat="43.909413" lon="5.720755">
        <ele>531.3</ele>
      </trkpt>
      <trkpt lat="43.909391" lon="5.720787">
        <ele>531.5</ele>
      </trkpt>
      <trkpt lat="43.909357" lon="5.720830">
        <ele>531.7</ele>
      </trkpt>
      <trkpt lat="43.909339" lon="5.721152">
        <ele>531.3</ele>
      </trkpt>
      <trkpt lat="43.909241" lon="5.721592">
        <ele>532.8</ele>
      </trkpt>
      <trkpt lat="43.908924" lon="5.722579">
        <ele>539.4</ele>
      </trkpt>
      <trkpt lat="43.908589" lon="5.723362">
        <ele>545.7</ele>
      </trkpt>
      <trkpt lat="43.908423" lon="5.723861">
        <ele>547.5</ele>
      </trkpt>
      <trkpt lat="43.908259" lon="5.724708">
        <ele>557.9</ele>
      </trkpt>
      <trkpt lat="43.908104" lon="5.725580">
        <ele>558.1</ele>
      </trkpt>
      <trkpt lat="43.908079" lon="5.725921">
        <ele>556.4</ele>
      </trkpt>
      <trkpt lat="43.908077" lon="5.727915">
        <ele>553</ele>
      </trkpt>
      <trkpt lat="43.908077" lon="5.728311">
        <ele>551.9</ele>
      </trkpt>
      <trkpt lat="43.908039" lon="5.728380">
        <ele>550.9</ele>
      </trkpt>
      <trkpt lat="43.908006" lon="5.728364">
        <ele>551.3</ele>
      </trkpt>
      <trkpt lat="43.907996" lon="5.728346">
        <ele>551.4</ele>
      </trkpt>
      <trkpt lat="43.908017" lon="5.728278">
        <ele>552.7</ele>
      </trkpt>
      <trkpt lat="43.908017" lon="5.728115">
        <ele>553</ele>
      </trkpt>
      <trkpt lat="43.908006" lon="5.727935">
        <ele>553.5</ele>
      </trkpt>
      <trkpt lat="43.907975" lon="5.727809">
        <ele>553.9</ele>
      </trkpt>
      <trkpt lat="43.907931" lon="5.727549">
        <ele>554.5</ele>
      </trkpt>
      <trkpt lat="43.907902" lon="5.727189">
        <ele>556.5</ele>
      </trkpt>
      <trkpt lat="43.907894" lon="5.726860">
        <ele>557.1</ele>
      </trkpt>
      <trkpt lat="43.907869" lon="5.726674">
        <ele>557.8</ele>
      </trkpt>
      <trkpt lat="43.907834" lon="5.726489">
        <ele>559.7</ele>
      </trkpt>
      <trkpt lat="43.907817" lon="5.726358">
        <ele>559.9</ele>
      </trkpt>
      <trkpt lat="43.907803" lon="5.725966">
        <ele>561</ele>
      </trkpt>
      <trkpt lat="43.907786" lon="5.725282">
        <ele>562.5</ele>
      </trkpt>
      <trkpt lat="43.907815" lon="5.725113">
        <ele>562.6</ele>
      </trkpt>
      <trkpt lat="43.907832" lon="5.724950">
        <ele>562.7</ele>
      </trkpt>
      <trkpt lat="43.907826" lon="5.724843">
        <ele>562.6</ele>
      </trkpt>
      <trkpt lat="43.907807" lon="5.724695">
        <ele>562.5</ele>
      </trkpt>
      <trkpt lat="43.907807" lon="5.724585">
        <ele>562.3</ele>
      </trkpt>
      <trkpt lat="43.907834" lon="5.724400">
        <ele>562.1</ele>
      </trkpt>
      <trkpt lat="43.907857" lon="5.724252">
        <ele>561.9</ele>
      </trkpt>
      <trkpt lat="43.907851" lon="5.724172">
        <ele>562</ele>
      </trkpt>
      <trkpt lat="43.907793" lon="5.724140">
        <ele>559.7</ele>
      </trkpt>
      <trkpt lat="43.907759" lon="5.724078">
        <ele>559.9</ele>
      </trkpt>
      <trkpt lat="43.907718" lon="5.724027">
        <ele>560.2</ele>
      </trkpt>
      <trkpt lat="43.907623" lon="5.724041">
        <ele>561.9</ele>
      </trkpt>
      <trkpt lat="43.907554" lon="5.724070">
        <ele>563.7</ele>
      </trkpt>
      <trkpt lat="43.907521" lon="5.724129">
        <ele>566.1</ele>
      </trkpt>
      <trkpt lat="43.907459" lon="5.724159">
        <ele>566.1</ele>
      </trkpt>
      <trkpt lat="43.907388" lon="5.724199">
        <ele>566.6</ele>
      </trkpt>
      <trkpt lat="43.907316" lon="5.724271">
        <ele>565.9</ele>
      </trkpt>
      <trkpt lat="43.907016" lon="5.724507">
        <ele>564.1</ele>
      </trkpt>
      <trkpt lat="43.906877" lon="5.724607">
        <ele>563.8</ele>
      </trkpt>
      <trkpt lat="43.906775" lon="5.724692">
        <ele>563.8</ele>
      </trkpt>
      <trkpt lat="43.906696" lon="5.724743">
        <ele>563.8</ele>
      </trkpt>
      <trkpt lat="43.906595" lon="5.724835">
        <ele>559.4</ele>
      </trkpt>
      <trkpt lat="43.906462" lon="5.724899">
        <ele>558.7</ele>
      </trkpt>
      <trkpt lat="43.906311" lon="5.724977">
        <ele>557.4</ele>
      </trkpt>
      <trkpt lat="43.906410" lon="5.724845">
        <ele>557.7</ele>
      </trkpt>
      <trkpt lat="43.906524" lon="5.724722">
        <ele>557.5</ele>
      </trkpt>
      <trkpt lat="43.906580" lon="5.724641">
        <ele>557</ele>
      </trkpt>
      <trkpt lat="43.906620" lon="5.724464">
        <ele>555.9</ele>
      </trkpt>
      <trkpt lat="43.906671" lon="5.724360">
        <ele>560.6</ele>
      </trkpt>
      <trkpt lat="43.906707" lon="5.724148">
        <ele>555.9</ele>
      </trkpt>
      <trkpt lat="43.906785" lon="5.723984">
        <ele>555.5</ele>
      </trkpt>
      <trkpt lat="43.906951" lon="5.723445">
        <ele>552</ele>
      </trkpt>
      <trkpt lat="43.907173" lon="5.722595">
        <ele>541.8</ele>
      </trkpt>
      <trkpt lat="43.907287" lon="5.722166">
        <ele>536.3</ele>
      </trkpt>
      <trkpt lat="43.907451" lon="5.721138">
        <ele>534.2</ele>
      </trkpt>
      <trkpt lat="43.907552" lon="5.720602">
        <ele>536.1</ele>
      </trkpt>
      <trkpt lat="43.907656" lon="5.719862">
        <ele>539.1</ele>
      </trkpt>
      <trkpt lat="43.907687" lon="5.719687">
        <ele>539.7</ele>
      </trkpt>
      <trkpt lat="43.907795" lon="5.719229">
        <ele>540.8</ele>
      </trkpt>
      <trkpt lat="43.907844" lon="5.718912">
        <ele>544.8</ele>
      </trkpt>
      <trkpt lat="43.907867" lon="5.718765">
        <ele>545.4</ele>
      </trkpt>
      <trkpt lat="43.907898" lon="5.718636">
        <ele>546</ele>
      </trkpt>
      <trkpt lat="43.908019" lon="5.718099">
        <ele>551</ele>
      </trkpt>
      <trkpt lat="43.908099" lon="5.717735">
        <ele>552.6</ele>
      </trkpt>
      <trkpt lat="43.908126" lon="5.717609">
        <ele>553.4</ele>
      </trkpt>
      <trkpt lat="43.908164" lon="5.717601">
        <ele>553.8</ele>
      </trkpt>
      <trkpt lat="43.908201" lon="5.717638">
        <ele>553.8</ele>
      </trkpt>
      <trkpt lat="43.908191" lon="5.717729">
        <ele>553.1</ele>
      </trkpt>
      <trkpt lat="43.908172" lon="5.717845">
        <ele>552.3</ele>
      </trkpt>
      <trkpt lat="43.908170" lon="5.717936">
        <ele>551.8</ele>
      </trkpt>
      <trkpt lat="43.908211" lon="5.717968">
        <ele>551.7</ele>
      </trkpt>
      <trkpt lat="43.908294" lon="5.717963">
        <ele>551.8</ele>
      </trkpt>
      <trkpt lat="43.908342" lon="5.717930">
        <ele>553.9</ele>
      </trkpt>
      <trkpt lat="43.908435" lon="5.717888">
        <ele>554.2</ele>
      </trkpt>
      <trkpt lat="43.909051" lon="5.717767">
        <ele>556</ele>
      </trkpt>
      <trkpt lat="43.909142" lon="5.717727">
        <ele>556.7</ele>
      </trkpt>
      <trkpt lat="43.909152" lon="5.717627">
        <ele>558.2</ele>
      </trkpt>
      <trkpt lat="43.909144" lon="5.717517">
        <ele>560.2</ele>
      </trkpt>
    </trkseg>
  </trk>
</gpx>