<?xml version="1.0" ?>
<gpx xmlns="http://www.topografix.com/GPX/1/1" xmlns:xsi="http://www.w3.org/2001/XMLSchema-instance" xsi:schemaLocation="http://www.topografix.com/GPX/1/1 http://www.topografix.com/GPX/1/1/gpx.xsd" version="1.1" creator="EditGPX">
  <trk>
    <name>[Itinéraire] Tour du Colorado à VTT</name>
    <trkseg>
      <trkpt lat="43.924033" lon="5.484291">
        <ele>407.6</ele>
      </trkpt>
      <trkpt lat="43.924346" lon="5.484596">
        <ele>413.8</ele>
      </trkpt>
      <trkpt lat="43.924350" lon="5.484687">
        <ele>413.8</ele>
      </trkpt>
      <trkpt lat="43.924268" lon="5.484854">
        <ele>412.9</ele>
      </trkpt>
      <trkpt lat="43.924180" lon="5.485068">
        <ele>412.4</ele>
      </trkpt>
      <trkpt lat="43.924098" lon="5.485288">
        <ele>409.6</ele>
      </trkpt>
      <trkpt lat="43.924095" lon="5.485492">
        <ele>410</ele>
      </trkpt>
      <trkpt lat="43.924145" lon="5.485755">
        <ele>412.4</ele>
      </trkpt>
      <trkpt lat="43.924226" lon="5.485969">
        <ele>415.8</ele>
      </trkpt>
      <trkpt lat="43.924214" lon="5.486173">
        <ele>416.6</ele>
      </trkpt>
      <trkpt lat="43.924237" lon="5.486592">
        <ele>416</ele>
      </trkpt>
      <trkpt lat="43.924292" lon="5.486935">
        <ele>415</ele>
      </trkpt>
      <trkpt lat="43.924292" lon="5.486935">
        <ele>415</ele>
      </trkpt>
      <trkpt lat="43.924334" lon="5.487171">
        <ele>414.3</ele>
      </trkpt>
      <trkpt lat="43.924346" lon="5.487294">
        <ele>413.7</ele>
      </trkpt>
      <trkpt lat="43.924357" lon="5.487353">
        <ele>413.5</ele>
      </trkpt>
      <trkpt lat="43.924357" lon="5.487450">
        <ele>413</ele>
      </trkpt>
      <trkpt lat="43.924365" lon="5.487600">
        <ele>411.1</ele>
      </trkpt>
      <trkpt lat="43.924323" lon="5.487729">
        <ele>410.9</ele>
      </trkpt>
      <trkpt lat="43.924249" lon="5.487933">
        <ele>410.2</ele>
      </trkpt>
      <trkpt lat="43.924226" lon="5.488040">
        <ele>409.6</ele>
      </trkpt>
      <trkpt lat="43.924230" lon="5.488373">
        <ele>405.8</ele>
      </trkpt>
      <trkpt lat="43.924199" lon="5.488576">
        <ele>406.3</ele>
      </trkpt>
      <trkpt lat="43.924056" lon="5.489177">
        <ele>398.4</ele>
      </trkpt>
      <trkpt lat="43.923897" lon="5.490014">
        <ele>394.6</ele>
      </trkpt>
      <trkpt lat="43.923809" lon="5.490400">
        <ele>393.8</ele>
      </trkpt>
      <trkpt lat="43.923662" lon="5.490813">
        <ele>392.5</ele>
      </trkpt>
      <trkpt lat="43.923472" lon="5.491248">
        <ele>391.9</ele>
      </trkpt>
      <trkpt lat="43.923314" lon="5.491274">
        <ele>386</ele>
      </trkpt>
      <trkpt lat="43.922479" lon="5.491440">
        <ele>380</ele>
      </trkpt>
      <trkpt lat="43.922479" lon="5.491440">
        <ele>380</ele>
      </trkpt>
      <trkpt lat="43.922479" lon="5.491440">
        <ele>380</ele>
      </trkpt>
      <trkpt lat="43.922479" lon="5.491440">
        <ele>380</ele>
      </trkpt>
      <trkpt lat="43.922479" lon="5.491440">
        <ele>380</ele>
      </trkpt>
      <trkpt lat="43.922020" lon="5.491531">
        <ele>378.6</ele>
      </trkpt>
      <trkpt lat="43.921753" lon="5.491563">
        <ele>377.2</ele>
      </trkpt>
      <trkpt lat="43.921753" lon="5.491563">
        <ele>377.2</ele>
      </trkpt>
      <trkpt lat="43.920945" lon="5.491470">
        <ele>374.2</ele>
      </trkpt>
      <trkpt lat="43.920872" lon="5.491461">
        <ele>374.1</ele>
      </trkpt>
      <trkpt lat="43.920760" lon="5.491445">
        <ele>371.8</ele>
      </trkpt>
      <trkpt lat="43.920698" lon="5.491354">
        <ele>371.5</ele>
      </trkpt>
      <trkpt lat="43.920625" lon="5.491295">
        <ele>371.4</ele>
      </trkpt>
      <trkpt lat="43.920207" lon="5.491290">
        <ele>370</ele>
      </trkpt>
      <trkpt lat="43.920138" lon="5.491472">
        <ele>369.3</ele>
      </trkpt>
      <trkpt lat="43.918876" lon="5.492600">
        <ele>363.2</ele>
      </trkpt>
      <trkpt lat="43.918196" lon="5.493208">
        <ele>362.2</ele>
      </trkpt>
      <trkpt lat="43.918109" lon="5.493285">
        <ele>362</ele>
      </trkpt>
      <trkpt lat="43.917653" lon="5.493666">
        <ele>361.8</ele>
      </trkpt>
      <trkpt lat="43.917224" lon="5.493902">
        <ele>358.7</ele>
      </trkpt>
      <trkpt lat="43.916830" lon="5.494037">
        <ele>357.3</ele>
      </trkpt>
      <trkpt lat="43.916973" lon="5.494568">
        <ele>358.4</ele>
      </trkpt>
      <trkpt lat="43.917093" lon="5.494869">
        <ele>358.9</ele>
      </trkpt>
      <trkpt lat="43.917197" lon="5.495153">
        <ele>359.7</ele>
      </trkpt>
      <trkpt lat="43.917336" lon="5.495577">
        <ele>360.4</ele>
      </trkpt>
      <trkpt lat="43.917584" lon="5.496532">
        <ele>362.7</ele>
      </trkpt>
      <trkpt lat="43.917715" lon="5.496982">
        <ele>362.9</ele>
      </trkpt>
      <trkpt lat="43.917920" lon="5.497562">
        <ele>363</ele>
      </trkpt>
      <trkpt lat="43.918055" lon="5.498018">
        <ele>363.1</ele>
      </trkpt>
      <trkpt lat="43.918055" lon="5.498018">
        <ele>363.1</ele>
      </trkpt>
      <trkpt lat="43.918187" lon="5.499010">
        <ele>363.4</ele>
      </trkpt>
      <trkpt lat="43.918233" lon="5.499241">
        <ele>364.7</ele>
      </trkpt>
      <trkpt lat="43.918322" lon="5.499536">
        <ele>364.8</ele>
      </trkpt>
      <trkpt lat="43.918384" lon="5.499702">
        <ele>368.1</ele>
      </trkpt>
      <trkpt lat="43.918469" lon="5.499863">
        <ele>367.9</ele>
      </trkpt>
      <trkpt lat="43.918596" lon="5.500024">
        <ele>369.5</ele>
      </trkpt>
      <trkpt lat="43.918643" lon="5.500110">
        <ele>370</ele>
      </trkpt>
      <trkpt lat="43.918793" lon="5.500459">
        <ele>371.3</ele>
      </trkpt>
      <trkpt lat="43.918870" lon="5.500587">
        <ele>372</ele>
      </trkpt>
      <trkpt lat="43.918940" lon="5.500603">
        <ele>372.5</ele>
      </trkpt>
      <trkpt lat="43.918901" lon="5.500769">
        <ele>372.7</ele>
      </trkpt>
      <trkpt lat="43.918847" lon="5.500881">
        <ele>372.1</ele>
      </trkpt>
      <trkpt lat="43.918755" lon="5.501032">
        <ele>371.2</ele>
      </trkpt>
      <trkpt lat="43.918666" lon="5.501128">
        <ele>370.5</ele>
      </trkpt>
      <trkpt lat="43.918581" lon="5.501203">
        <ele>370</ele>
      </trkpt>
      <trkpt lat="43.918519" lon="5.501305">
        <ele>369.7</ele>
      </trkpt>
      <trkpt lat="43.918457" lon="5.501471">
        <ele>368.9</ele>
      </trkpt>
      <trkpt lat="43.918387" lon="5.501525">
        <ele>368.1</ele>
      </trkpt>
      <trkpt lat="43.918322" lon="5.501600">
        <ele>367.2</ele>
      </trkpt>
      <trkpt lat="43.918268" lon="5.501689">
        <ele>367</ele>
      </trkpt>
      <trkpt lat="43.918237" lon="5.501740">
        <ele>367.6</ele>
      </trkpt>
      <trkpt lat="43.918156" lon="5.501890">
        <ele>368.7</ele>
      </trkpt>
      <trkpt lat="43.918098" lon="5.501997">
        <ele>369.1</ele>
      </trkpt>
      <trkpt lat="43.918074" lon="5.502115">
        <ele>369.1</ele>
      </trkpt>
      <trkpt lat="43.918063" lon="5.502281">
        <ele>368.9</ele>
      </trkpt>
      <trkpt lat="43.918051" lon="5.502448">
        <ele>368.6</ele>
      </trkpt>
      <trkpt lat="43.918032" lon="5.502614">
        <ele>368.7</ele>
      </trkpt>
      <trkpt lat="43.917986" lon="5.502775">
        <ele>369.3</ele>
      </trkpt>
      <trkpt lat="43.917908" lon="5.502925">
        <ele>369.8</ele>
      </trkpt>
      <trkpt lat="43.917854" lon="5.503032">
        <ele>370.1</ele>
      </trkpt>
      <trkpt lat="43.917754" lon="5.503161">
        <ele>370.9</ele>
      </trkpt>
      <trkpt lat="43.917599" lon="5.503408">
        <ele>373.9</ele>
      </trkpt>
      <trkpt lat="43.917557" lon="5.503585">
        <ele>374.3</ele>
      </trkpt>
      <trkpt lat="43.917557" lon="5.503800">
        <ele>375.7</ele>
      </trkpt>
      <trkpt lat="43.917479" lon="5.504019">
        <ele>381.4</ele>
      </trkpt>
      <trkpt lat="43.917383" lon="5.504245">
        <ele>383.1</ele>
      </trkpt>
      <trkpt lat="43.917224" lon="5.504374">
        <ele>383.2</ele>
      </trkpt>
      <trkpt lat="43.917101" lon="5.504626">
        <ele>383.3</ele>
      </trkpt>
      <trkpt lat="43.916977" lon="5.504872">
        <ele>383.2</ele>
      </trkpt>
      <trkpt lat="43.916772" lon="5.505259">
        <ele>384.9</ele>
      </trkpt>
      <trkpt lat="43.916683" lon="5.505425">
        <ele>385.9</ele>
      </trkpt>
      <trkpt lat="43.916633" lon="5.505613">
        <ele>387</ele>
      </trkpt>
      <trkpt lat="43.916521" lon="5.505849">
        <ele>388.7</ele>
      </trkpt>
      <trkpt lat="43.916150" lon="5.506696">
        <ele>391.4</ele>
      </trkpt>
      <trkpt lat="43.915992" lon="5.507018">
        <ele>392</ele>
      </trkpt>
      <trkpt lat="43.915895" lon="5.507222">
        <ele>393.1</ele>
      </trkpt>
      <trkpt lat="43.915791" lon="5.507549">
        <ele>397.5</ele>
      </trkpt>
      <trkpt lat="43.915717" lon="5.507748">
        <ele>398.5</ele>
      </trkpt>
      <trkpt lat="43.915609" lon="5.507973">
        <ele>399.4</ele>
      </trkpt>
      <trkpt lat="43.915489" lon="5.508214">
        <ele>400.2</ele>
      </trkpt>
      <trkpt lat="43.915400" lon="5.508354">
        <ele>404</ele>
      </trkpt>
      <trkpt lat="43.915292" lon="5.508391">
        <ele>404.3</ele>
      </trkpt>
      <trkpt lat="43.915230" lon="5.508424">
        <ele>404.4</ele>
      </trkpt>
      <trkpt lat="43.915161" lon="5.508483">
        <ele>404.5</ele>
      </trkpt>
      <trkpt lat="43.915103" lon="5.508601">
        <ele>405</ele>
      </trkpt>
      <trkpt lat="43.915022" lon="5.508864">
        <ele>406.6</ele>
      </trkpt>
      <trkpt lat="43.914840" lon="5.509100">
        <ele>408.4</ele>
      </trkpt>
      <trkpt lat="43.914709" lon="5.509314">
        <ele>410.1</ele>
      </trkpt>
      <trkpt lat="43.914546" lon="5.509497">
        <ele>409.9</ele>
      </trkpt>
      <trkpt lat="43.914411" lon="5.509604">
        <ele>409.8</ele>
      </trkpt>
      <trkpt lat="43.914318" lon="5.509679">
        <ele>409.8</ele>
      </trkpt>
      <trkpt lat="43.914276" lon="5.509743">
        <ele>409.9</ele>
      </trkpt>
      <trkpt lat="43.914253" lon="5.509910">
        <ele>410</ele>
      </trkpt>
      <trkpt lat="43.914276" lon="5.510097">
        <ele>410.1</ele>
      </trkpt>
      <trkpt lat="43.914318" lon="5.510248">
        <ele>410.2</ele>
      </trkpt>
      <trkpt lat="43.914349" lon="5.510414">
        <ele>410.4</ele>
      </trkpt>
      <trkpt lat="43.914299" lon="5.510521">
        <ele>410.7</ele>
      </trkpt>
      <trkpt lat="43.914206" lon="5.510580">
        <ele>411</ele>
      </trkpt>
      <trkpt lat="43.914087" lon="5.510575">
        <ele>412.1</ele>
      </trkpt>
      <trkpt lat="43.913951" lon="5.510548">
        <ele>412</ele>
      </trkpt>
      <trkpt lat="43.913893" lon="5.510559">
        <ele>412.1</ele>
      </trkpt>
      <trkpt lat="43.913801" lon="5.510612">
        <ele>412.4</ele>
      </trkpt>
      <trkpt lat="43.913677" lon="5.510698">
        <ele>413.2</ele>
      </trkpt>
      <trkpt lat="43.913580" lon="5.510773">
        <ele>414.2</ele>
      </trkpt>
      <trkpt lat="43.913561" lon="5.510875">
        <ele>418</ele>
      </trkpt>
      <trkpt lat="43.913596" lon="5.511138">
        <ele>418.1</ele>
      </trkpt>
      <trkpt lat="43.913573" lon="5.511278">
        <ele>418.6</ele>
      </trkpt>
      <trkpt lat="43.913522" lon="5.511396">
        <ele>419.6</ele>
      </trkpt>
      <trkpt lat="43.913453" lon="5.511331">
        <ele>419.5</ele>
      </trkpt>
      <trkpt lat="43.913329" lon="5.511240">
        <ele>424.1</ele>
      </trkpt>
      <trkpt lat="43.913237" lon="5.511304">
        <ele>424.6</ele>
      </trkpt>
      <trkpt lat="43.913236" lon="5.511304">
        <ele>424.6</ele>
      </trkpt>
      <trkpt lat="43.912877" lon="5.511696">
        <ele>429.3</ele>
      </trkpt>
      <trkpt lat="43.912591" lon="5.512007">
        <ele>430.7</ele>
      </trkpt>
      <trkpt lat="43.912371" lon="5.512211">
        <ele>435.3</ele>
      </trkpt>
      <trkpt lat="43.912205" lon="5.512334">
        <ele>435.7</ele>
      </trkpt>
      <trkpt lat="43.912046" lon="5.512511">
        <ele>438.4</ele>
      </trkpt>
      <trkpt lat="43.911795" lon="5.512764">
        <ele>439</ele>
      </trkpt>
      <trkpt lat="43.911513" lon="5.513048">
        <ele>444.9</ele>
      </trkpt>
      <trkpt lat="43.911416" lon="5.513171">
        <ele>445.5</ele>
      </trkpt>
      <trkpt lat="43.911300" lon="5.513193">
        <ele>446.4</ele>
      </trkpt>
      <trkpt lat="43.911173" lon="5.513118">
        <ele>447.3</ele>
      </trkpt>
      <trkpt lat="43.910976" lon="5.513026">
        <ele>448.3</ele>
      </trkpt>
      <trkpt lat="43.910794" lon="5.513010">
        <ele>453.1</ele>
      </trkpt>
      <trkpt lat="43.910589" lon="5.513080">
        <ele>453.7</ele>
      </trkpt>
      <trkpt lat="43.910357" lon="5.513284">
        <ele>455.3</ele>
      </trkpt>
      <trkpt lat="43.910207" lon="5.513391">
        <ele>462.1</ele>
      </trkpt>
      <trkpt lat="43.910106" lon="5.513498">
        <ele>462.6</ele>
      </trkpt>
      <trkpt lat="43.910053" lon="5.513631">
        <ele>463.9</ele>
      </trkpt>
      <trkpt lat="43.909934" lon="5.513761">
        <ele>472.1</ele>
      </trkpt>
      <trkpt lat="43.909821" lon="5.513841">
        <ele>473.3</ele>
      </trkpt>
      <trkpt lat="43.909493" lon="5.513868">
        <ele>475</ele>
      </trkpt>
      <trkpt lat="43.909731" lon="5.513912">
        <ele>474.2</ele>
      </trkpt>
      <trkpt lat="43.909852" lon="5.513923">
        <ele>474.1</ele>
      </trkpt>
      <trkpt lat="43.909921" lon="5.513961">
        <ele>474.5</ele>
      </trkpt>
      <trkpt lat="43.910046" lon="5.514060">
        <ele>471.8</ele>
      </trkpt>
      <trkpt lat="43.910178" lon="5.514233">
        <ele>475.1</ele>
      </trkpt>
      <trkpt lat="43.910217" lon="5.514358">
        <ele>474.9</ele>
      </trkpt>
      <trkpt lat="43.910204" lon="5.514527">
        <ele>475.8</ele>
      </trkpt>
      <trkpt lat="43.910167" lon="5.514809">
        <ele>479.7</ele>
      </trkpt>
      <trkpt lat="43.910165" lon="5.514930">
        <ele>481.7</ele>
      </trkpt>
      <trkpt lat="43.910236" lon="5.515078">
        <ele>486.5</ele>
      </trkpt>
      <trkpt lat="43.910255" lon="5.515194">
        <ele>486.4</ele>
      </trkpt>
      <trkpt lat="43.910227" lon="5.515354">
        <ele>487.4</ele>
      </trkpt>
      <trkpt lat="43.910289" lon="5.515452">
        <ele>487.5</ele>
      </trkpt>
      <trkpt lat="43.910361" lon="5.515581">
        <ele>487.7</ele>
      </trkpt>
      <trkpt lat="43.910443" lon="5.515756">
        <ele>487.5</ele>
      </trkpt>
      <trkpt lat="43.910463" lon="5.515889">
        <ele>493.5</ele>
      </trkpt>
      <trkpt lat="43.910505" lon="5.516012">
        <ele>493.3</ele>
      </trkpt>
      <trkpt lat="43.910578" lon="5.516108">
        <ele>492.8</ele>
      </trkpt>
      <trkpt lat="43.910649" lon="5.516259">
        <ele>493</ele>
      </trkpt>
      <trkpt lat="43.910645" lon="5.516396">
        <ele>493.2</ele>
      </trkpt>
      <trkpt lat="43.910593" lon="5.516631">
        <ele>493.5</ele>
      </trkpt>
      <trkpt lat="43.910574" lon="5.516676">
        <ele>497.9</ele>
      </trkpt>
      <trkpt lat="43.910496" lon="5.516671">
        <ele>499.8</ele>
      </trkpt>
      <trkpt lat="43.910380" lon="5.516548">
        <ele>497.3</ele>
      </trkpt>
      <trkpt lat="43.910207" lon="5.516451">
        <ele>499.7</ele>
      </trkpt>
      <trkpt lat="43.910060" lon="5.516263">
        <ele>499.1</ele>
      </trkpt>
      <trkpt lat="43.909998" lon="5.516140">
        <ele>510.8</ele>
      </trkpt>
      <trkpt lat="43.909824" lon="5.515920">
        <ele>509.1</ele>
      </trkpt>
      <trkpt lat="43.909677" lon="5.515797">
        <ele>503.3</ele>
      </trkpt>
      <trkpt lat="43.909503" lon="5.515652">
        <ele>504.6</ele>
      </trkpt>
      <trkpt lat="43.909364" lon="5.515561">
        <ele>505.3</ele>
      </trkpt>
      <trkpt lat="43.909001" lon="5.515523">
        <ele>517.4</ele>
      </trkpt>
      <trkpt lat="43.908842" lon="5.515571">
        <ele>519.5</ele>
      </trkpt>
      <trkpt lat="43.908796" lon="5.515544">
        <ele>519.9</ele>
      </trkpt>
      <trkpt lat="43.908730" lon="5.515507">
        <ele>520.5</ele>
      </trkpt>
      <trkpt lat="43.908634" lon="5.515324">
        <ele>519.8</ele>
      </trkpt>
      <trkpt lat="43.908174" lon="5.514729">
        <ele>518.9</ele>
      </trkpt>
      <trkpt lat="43.907493" lon="5.514407">
        <ele>526.4</ele>
      </trkpt>
      <trkpt lat="43.907358" lon="5.514311">
        <ele>525.4</ele>
      </trkpt>
      <trkpt lat="43.906836" lon="5.514026">
        <ele>520.8</ele>
      </trkpt>
      <trkpt lat="43.906492" lon="5.513983">
        <ele>527.3</ele>
      </trkpt>
      <trkpt lat="43.906048" lon="5.514117">
        <ele>528.4</ele>
      </trkpt>
      <trkpt lat="43.905913" lon="5.514042">
        <ele>528.9</ele>
      </trkpt>
      <trkpt lat="43.905816" lon="5.513908">
        <ele>531.2</ele>
      </trkpt>
      <trkpt lat="43.905080" lon="5.512942">
        <ele>530.3</ele>
      </trkpt>
      <trkpt lat="43.905080" lon="5.512942">
        <ele>530.3</ele>
      </trkpt>
      <trkpt lat="43.905080" lon="5.512942">
        <ele>530.3</ele>
      </trkpt>
      <trkpt lat="43.904633" lon="5.512356">
        <ele>535.2</ele>
      </trkpt>
      <trkpt lat="43.904452" lon="5.512029">
        <ele>535.9</ele>
      </trkpt>
      <trkpt lat="43.904185" lon="5.511610">
        <ele>536.7</ele>
      </trkpt>
      <trkpt lat="43.903891" lon="5.511251">
        <ele>541.3</ele>
      </trkpt>
      <trkpt lat="43.903683" lon="5.511063">
        <ele>542.7</ele>
      </trkpt>
      <trkpt lat="43.903567" lon="5.510848">
        <ele>544.4</ele>
      </trkpt>
      <trkpt lat="43.903482" lon="5.510628">
        <ele>542.7</ele>
      </trkpt>
      <trkpt lat="43.903389" lon="5.510296">
        <ele>542.4</ele>
      </trkpt>
      <trkpt lat="43.903339" lon="5.509915">
        <ele>545</ele>
      </trkpt>
      <trkpt lat="43.903250" lon="5.509293">
        <ele>547.7</ele>
      </trkpt>
      <trkpt lat="43.903211" lon="5.509094">
        <ele>547.8</ele>
      </trkpt>
      <trkpt lat="43.903207" lon="5.508928">
        <ele>548.2</ele>
      </trkpt>
      <trkpt lat="43.903250" lon="5.508665">
        <ele>548.6</ele>
      </trkpt>
      <trkpt lat="43.903238" lon="5.508375">
        <ele>548.9</ele>
      </trkpt>
      <trkpt lat="43.903196" lon="5.508075">
        <ele>551.3</ele>
      </trkpt>
      <trkpt lat="43.903238" lon="5.507748">
        <ele>552.9</ele>
      </trkpt>
      <trkpt lat="43.903269" lon="5.507512">
        <ele>554.3</ele>
      </trkpt>
      <trkpt lat="43.903304" lon="5.507351">
        <ele>555.7</ele>
      </trkpt>
      <trkpt lat="43.903455" lon="5.507109">
        <ele>553.9</ele>
      </trkpt>
      <trkpt lat="43.903601" lon="5.506922">
        <ele>554.2</ele>
      </trkpt>
      <trkpt lat="43.903752" lon="5.506664">
        <ele>557.4</ele>
      </trkpt>
      <trkpt lat="43.903891" lon="5.506396">
        <ele>557.2</ele>
      </trkpt>
      <trkpt lat="43.903996" lon="5.506096">
        <ele>557.7</ele>
      </trkpt>
      <trkpt lat="43.904027" lon="5.505881">
        <ele>558</ele>
      </trkpt>
      <trkpt lat="43.903996" lon="5.505414">
        <ele>560.1</ele>
      </trkpt>
      <trkpt lat="43.903976" lon="5.505205">
        <ele>560.3</ele>
      </trkpt>
      <trkpt lat="43.904030" lon="5.504846">
        <ele>561.3</ele>
      </trkpt>
      <trkpt lat="43.904135" lon="5.504406">
        <ele>562.4</ele>
      </trkpt>
      <trkpt lat="43.904212" lon="5.503912">
        <ele>560.9</ele>
      </trkpt>
      <trkpt lat="43.904266" lon="5.503360">
        <ele>563.6</ele>
      </trkpt>
      <trkpt lat="43.904266" lon="5.503359">
        <ele>563.6</ele>
      </trkpt>
      <trkpt lat="43.904316" lon="5.502925">
        <ele>563.4</ele>
      </trkpt>
      <trkpt lat="43.904328" lon="5.502705">
        <ele>564.3</ele>
      </trkpt>
      <trkpt lat="43.904382" lon="5.502480">
        <ele>565.8</ele>
      </trkpt>
      <trkpt lat="43.904394" lon="5.502303">
        <ele>565.4</ele>
      </trkpt>
      <trkpt lat="43.904347" lon="5.502061">
        <ele>565.6</ele>
      </trkpt>
      <trkpt lat="43.904278" lon="5.501718">
        <ele>568.3</ele>
      </trkpt>
      <trkpt lat="43.904208" lon="5.501520">
        <ele>567.2</ele>
      </trkpt>
      <trkpt lat="43.904166" lon="5.501160">
        <ele>569.1</ele>
      </trkpt>
      <trkpt lat="43.904123" lon="5.500806">
        <ele>568.9</ele>
      </trkpt>
      <trkpt lat="43.904077" lon="5.500715">
        <ele>568.8</ele>
      </trkpt>
      <trkpt lat="43.904042" lon="5.500581">
        <ele>568.6</ele>
      </trkpt>
      <trkpt lat="43.904034" lon="5.500431">
        <ele>568.4</ele>
      </trkpt>
      <trkpt lat="43.904027" lon="5.500173">
        <ele>567.7</ele>
      </trkpt>
      <trkpt lat="43.903969" lon="5.499830">
        <ele>567.5</ele>
      </trkpt>
      <trkpt lat="43.903934" lon="5.499352">
        <ele>567.6</ele>
      </trkpt>
      <trkpt lat="43.903926" lon="5.498891">
        <ele>566.7</ele>
      </trkpt>
      <trkpt lat="43.903953" lon="5.498333">
        <ele>564.3</ele>
      </trkpt>
      <trkpt lat="43.903949" lon="5.497926">
        <ele>563.7</ele>
      </trkpt>
      <trkpt lat="43.903887" lon="5.497614">
        <ele>562.8</ele>
      </trkpt>
      <trkpt lat="43.903853" lon="5.497357">
        <ele>560</ele>
      </trkpt>
      <trkpt lat="43.903837" lon="5.497073">
        <ele>559.4</ele>
      </trkpt>
      <trkpt lat="43.903822" lon="5.496879">
        <ele>558.8</ele>
      </trkpt>
      <trkpt lat="43.903814" lon="5.496820">
        <ele>558.6</ele>
      </trkpt>
      <trkpt lat="43.904162" lon="5.497062">
        <ele>558.4</ele>
      </trkpt>
      <trkpt lat="43.904641" lon="5.497368">
        <ele>551.1</ele>
      </trkpt>
      <trkpt lat="43.904807" lon="5.497475">
        <ele>549.2</ele>
      </trkpt>
      <trkpt lat="43.904900" lon="5.497384">
        <ele>548.5</ele>
      </trkpt>
      <trkpt lat="43.905120" lon="5.497453">
        <ele>544.6</ele>
      </trkpt>
      <trkpt lat="43.905352" lon="5.497566">
        <ele>536.2</ele>
      </trkpt>
      <trkpt lat="43.905441" lon="5.497518">
        <ele>535.1</ele>
      </trkpt>
      <trkpt lat="43.905669" lon="5.497180">
        <ele>541.5</ele>
      </trkpt>
      <trkpt lat="43.905816" lon="5.497014">
        <ele>543.1</ele>
      </trkpt>
      <trkpt lat="43.906017" lon="5.496772">
        <ele>536.3</ele>
      </trkpt>
      <trkpt lat="43.906160" lon="5.496536">
        <ele>541.9</ele>
      </trkpt>
      <trkpt lat="43.906326" lon="5.496182">
        <ele>541.7</ele>
      </trkpt>
      <trkpt lat="43.906404" lon="5.496016">
        <ele>541.9</ele>
      </trkpt>
      <trkpt lat="43.906481" lon="5.495892">
        <ele>541.7</ele>
      </trkpt>
      <trkpt lat="43.906520" lon="5.495705">
        <ele>545.2</ele>
      </trkpt>
      <trkpt lat="43.906535" lon="5.495597">
        <ele>546</ele>
      </trkpt>
      <trkpt lat="43.906643" lon="5.495474">
        <ele>546.4</ele>
      </trkpt>
      <trkpt lat="43.906693" lon="5.495404">
        <ele>534.2</ele>
      </trkpt>
      <trkpt lat="43.906879" lon="5.495431">
        <ele>532.2</ele>
      </trkpt>
      <trkpt lat="43.907018" lon="5.495361">
        <ele>530.3</ele>
      </trkpt>
      <trkpt lat="43.907076" lon="5.495125">
        <ele>530.2</ele>
      </trkpt>
      <trkpt lat="43.907057" lon="5.494846">
        <ele>530.5</ele>
      </trkpt>
      <trkpt lat="43.906983" lon="5.494401">
        <ele>530.2</ele>
      </trkpt>
      <trkpt lat="43.906790" lon="5.493827">
        <ele>524.9</ele>
      </trkpt>
      <trkpt lat="43.906489" lon="5.493162">
        <ele>528.2</ele>
      </trkpt>
      <trkpt lat="43.906276" lon="5.492743">
        <ele>527</ele>
      </trkpt>
      <trkpt lat="43.906179" lon="5.492395">
        <ele>521.5</ele>
      </trkpt>
      <trkpt lat="43.906063" lon="5.492094">
        <ele>521.9</ele>
      </trkpt>
      <trkpt lat="43.906017" lon="5.491676">
        <ele>524.4</ele>
      </trkpt>
      <trkpt lat="43.906052" lon="5.491118">
        <ele>520.6</ele>
      </trkpt>
      <trkpt lat="43.906114" lon="5.490689">
        <ele>521.4</ele>
      </trkpt>
      <trkpt lat="43.906206" lon="5.490415">
        <ele>519.2</ele>
      </trkpt>
      <trkpt lat="43.906206" lon="5.490099">
        <ele>519.6</ele>
      </trkpt>
      <trkpt lat="43.906098" lon="5.489734">
        <ele>518.7</ele>
      </trkpt>
      <trkpt lat="43.905781" lon="5.489021">
        <ele>523.3</ele>
      </trkpt>
      <trkpt lat="43.905573" lon="5.488613">
        <ele>520.5</ele>
      </trkpt>
      <trkpt lat="43.905495" lon="5.488393">
        <ele>520</ele>
      </trkpt>
      <trkpt lat="43.905464" lon="5.488087">
        <ele>513.6</ele>
      </trkpt>
      <trkpt lat="43.905290" lon="5.487690">
        <ele>513.5</ele>
      </trkpt>
      <trkpt lat="43.905136" lon="5.487433">
        <ele>509.9</ele>
      </trkpt>
      <trkpt lat="43.904831" lon="5.487020">
        <ele>513.8</ele>
      </trkpt>
      <trkpt lat="43.904529" lon="5.486419">
        <ele>509.1</ele>
      </trkpt>
      <trkpt lat="43.904371" lon="5.485941">
        <ele>510.1</ele>
      </trkpt>
      <trkpt lat="43.904301" lon="5.485405">
        <ele>504.7</ele>
      </trkpt>
      <trkpt lat="43.904270" lon="5.484826">
        <ele>502.6</ele>
      </trkpt>
      <trkpt lat="43.904201" lon="5.484541">
        <ele>499.6</ele>
      </trkpt>
      <trkpt lat="43.904038" lon="5.484118">
        <ele>505.6</ele>
      </trkpt>
      <trkpt lat="43.903876" lon="5.483662">
        <ele>505.7</ele>
      </trkpt>
      <trkpt lat="43.903766" lon="5.483309">
        <ele>503.9</ele>
      </trkpt>
      <trkpt lat="43.903727" lon="5.483140">
        <ele>504</ele>
      </trkpt>
      <trkpt lat="43.903820" lon="5.482836">
        <ele>502.4</ele>
      </trkpt>
      <trkpt lat="43.903814" lon="5.482764">
        <ele>502.1</ele>
      </trkpt>
      <trkpt lat="43.903654" lon="5.482504">
        <ele>503.9</ele>
      </trkpt>
      <trkpt lat="43.903416" lon="5.482187">
        <ele>501.1</ele>
      </trkpt>
      <trkpt lat="43.903279" lon="5.482102">
        <ele>506.9</ele>
      </trkpt>
      <trkpt lat="43.903211" lon="5.481951">
        <ele>506.3</ele>
      </trkpt>
      <trkpt lat="43.903155" lon="5.481876">
        <ele>506.1</ele>
      </trkpt>
      <trkpt lat="43.903070" lon="5.481831">
        <ele>506.2</ele>
      </trkpt>
      <trkpt lat="43.903027" lon="5.481664">
        <ele>505.3</ele>
      </trkpt>
      <trkpt lat="43.902993" lon="5.481544">
        <ele>505.5</ele>
      </trkpt>
      <trkpt lat="43.902900" lon="5.481418">
        <ele>505.9</ele>
      </trkpt>
      <trkpt lat="43.902784" lon="5.480986">
        <ele>507.3</ele>
      </trkpt>
      <trkpt lat="43.902768" lon="5.480840">
        <ele>507.9</ele>
      </trkpt>
      <trkpt lat="43.902712" lon="5.480771">
        <ele>510.7</ele>
      </trkpt>
      <trkpt lat="43.902500" lon="5.480826">
        <ele>513.9</ele>
      </trkpt>
      <trkpt lat="43.902291" lon="5.480960">
        <ele>507.8</ele>
      </trkpt>
      <trkpt lat="43.902082" lon="5.481094">
        <ele>504.7</ele>
      </trkpt>
      <trkpt lat="43.901874" lon="5.481244">
        <ele>502.7</ele>
      </trkpt>
      <trkpt lat="43.901731" lon="5.481384">
        <ele>501</ele>
      </trkpt>
      <trkpt lat="43.901584" lon="5.481452">
        <ele>493.5</ele>
      </trkpt>
      <trkpt lat="43.901514" lon="5.481517">
        <ele>493.3</ele>
      </trkpt>
      <trkpt lat="43.901402" lon="5.481608">
        <ele>492.5</ele>
      </trkpt>
      <trkpt lat="43.901309" lon="5.481624">
        <ele>491.7</ele>
      </trkpt>
      <trkpt lat="43.901240" lon="5.481581">
        <ele>491.1</ele>
      </trkpt>
      <trkpt lat="43.901116" lon="5.481447">
        <ele>490.3</ele>
      </trkpt>
      <trkpt lat="43.900942" lon="5.481259">
        <ele>490.2</ele>
      </trkpt>
      <trkpt lat="43.900857" lon="5.481050">
        <ele>490.3</ele>
      </trkpt>
      <trkpt lat="43.900776" lon="5.480766">
        <ele>487.8</ele>
      </trkpt>
      <trkpt lat="43.900726" lon="5.480460">
        <ele>486.5</ele>
      </trkpt>
      <trkpt lat="43.900668" lon="5.480304">
        <ele>486.7</ele>
      </trkpt>
      <trkpt lat="43.900621" lon="5.480063">
        <ele>487.6</ele>
      </trkpt>
      <trkpt lat="43.900548" lon="5.479886">
        <ele>489</ele>
      </trkpt>
      <trkpt lat="43.900432" lon="5.479671">
        <ele>488.4</ele>
      </trkpt>
      <trkpt lat="43.900382" lon="5.479570">
        <ele>488.2</ele>
      </trkpt>
      <trkpt lat="43.900270" lon="5.479505">
        <ele>487.5</ele>
      </trkpt>
      <trkpt lat="43.900061" lon="5.479409">
        <ele>486</ele>
      </trkpt>
      <trkpt lat="43.899929" lon="5.479350">
        <ele>478.2</ele>
      </trkpt>
      <trkpt lat="43.899875" lon="5.479216">
        <ele>479.1</ele>
      </trkpt>
      <trkpt lat="43.899852" lon="5.479065">
        <ele>480.1</ele>
      </trkpt>
      <trkpt lat="43.899906" lon="5.478910">
        <ele>480</ele>
      </trkpt>
      <trkpt lat="43.899868" lon="5.478754">
        <ele>480.1</ele>
      </trkpt>
      <trkpt lat="43.899779" lon="5.478583">
        <ele>480.4</ele>
      </trkpt>
      <trkpt lat="43.899717" lon="5.478475">
        <ele>480.3</ele>
      </trkpt>
      <trkpt lat="43.899686" lon="5.478405">
        <ele>480</ele>
      </trkpt>
      <trkpt lat="43.899674" lon="5.478239">
        <ele>484.1</ele>
      </trkpt>
      <trkpt lat="43.899659" lon="5.478105">
        <ele>484.2</ele>
      </trkpt>
      <trkpt lat="43.899620" lon="5.477874">
        <ele>484.8</ele>
      </trkpt>
      <trkpt lat="43.899585" lon="5.477628">
        <ele>485.6</ele>
      </trkpt>
      <trkpt lat="43.899539" lon="5.477424">
        <ele>489.8</ele>
      </trkpt>
      <trkpt lat="43.899520" lon="5.477198">
        <ele>490.4</ele>
      </trkpt>
      <trkpt lat="43.899516" lon="5.476989">
        <ele>491.1</ele>
      </trkpt>
      <trkpt lat="43.899520" lon="5.476721">
        <ele>491.7</ele>
      </trkpt>
      <trkpt lat="43.899508" lon="5.476587">
        <ele>493.3</ele>
      </trkpt>
      <trkpt lat="43.899462" lon="5.476410">
        <ele>493.2</ele>
      </trkpt>
      <trkpt lat="43.899442" lon="5.476244">
        <ele>493.2</ele>
      </trkpt>
      <trkpt lat="43.899431" lon="5.476056">
        <ele>492.9</ele>
      </trkpt>
      <trkpt lat="43.899408" lon="5.475900">
        <ele>492.4</ele>
      </trkpt>
      <trkpt lat="43.899381" lon="5.475637">
        <ele>492.4</ele>
      </trkpt>
      <trkpt lat="43.899388" lon="5.475434">
        <ele>492.7</ele>
      </trkpt>
      <trkpt lat="43.899412" lon="5.475262">
        <ele>492.7</ele>
      </trkpt>
      <trkpt lat="43.899419" lon="5.475122">
        <ele>492.4</ele>
      </trkpt>
      <trkpt lat="43.899400" lon="5.474886">
        <ele>491.8</ele>
      </trkpt>
      <trkpt lat="43.899396" lon="5.474640">
        <ele>492</ele>
      </trkpt>
      <trkpt lat="43.899439" lon="5.474425">
        <ele>491.9</ele>
      </trkpt>
      <trkpt lat="43.899473" lon="5.474211">
        <ele>491.7</ele>
      </trkpt>
      <trkpt lat="43.899489" lon="5.474098">
        <ele>491.3</ele>
      </trkpt>
      <trkpt lat="43.899442" lon="5.473996">
        <ele>490.9</ele>
      </trkpt>
      <trkpt lat="43.899346" lon="5.473964">
        <ele>490.2</ele>
      </trkpt>
      <trkpt lat="43.899214" lon="5.473910">
        <ele>489.7</ele>
      </trkpt>
      <trkpt lat="43.899087" lon="5.473819">
        <ele>483</ele>
      </trkpt>
      <trkpt lat="43.898979" lon="5.473663">
        <ele>482.4</ele>
      </trkpt>
      <trkpt lat="43.898913" lon="5.473454">
        <ele>482.2</ele>
      </trkpt>
      <trkpt lat="43.898805" lon="5.473256">
        <ele>480.8</ele>
      </trkpt>
      <trkpt lat="43.898704" lon="5.473079">
        <ele>480</ele>
      </trkpt>
      <trkpt lat="43.898607" lon="5.472826">
        <ele>479.3</ele>
      </trkpt>
      <trkpt lat="43.898565" lon="5.472596">
        <ele>478.2</ele>
      </trkpt>
      <trkpt lat="43.898546" lon="5.472397">
        <ele>476</ele>
      </trkpt>
      <trkpt lat="43.898550" lon="5.472199">
        <ele>475.9</ele>
      </trkpt>
      <trkpt lat="43.898553" lon="5.472000">
        <ele>475.2</ele>
      </trkpt>
      <trkpt lat="43.898534" lon="5.471888">
        <ele>474.4</ele>
      </trkpt>
      <trkpt lat="43.898445" lon="5.471754">
        <ele>472.3</ele>
      </trkpt>
      <trkpt lat="43.898279" lon="5.471609">
        <ele>466</ele>
      </trkpt>
      <trkpt lat="43.898194" lon="5.471464">
        <ele>462.2</ele>
      </trkpt>
      <trkpt lat="43.898105" lon="5.471362">
        <ele>460.3</ele>
      </trkpt>
      <trkpt lat="43.897954" lon="5.471308">
        <ele>459</ele>
      </trkpt>
      <trkpt lat="43.897850" lon="5.471244">
        <ele>458.2</ele>
      </trkpt>
      <trkpt lat="43.897734" lon="5.471131">
        <ele>457.1</ele>
      </trkpt>
      <trkpt lat="43.897637" lon="5.471019">
        <ele>455.8</ele>
      </trkpt>
      <trkpt lat="43.897471" lon="5.470922">
        <ele>451.5</ele>
      </trkpt>
      <trkpt lat="43.897278" lon="5.470895">
        <ele>450.6</ele>
      </trkpt>
      <trkpt lat="43.897003" lon="5.470868">
        <ele>448.5</ele>
      </trkpt>
      <trkpt lat="43.896829" lon="5.470868">
        <ele>446.5</ele>
      </trkpt>
      <trkpt lat="43.896609" lon="5.470890">
        <ele>442.1</ele>
      </trkpt>
      <trkpt lat="43.896435" lon="5.470895">
        <ele>440.6</ele>
      </trkpt>
      <trkpt lat="43.896284" lon="5.470911">
        <ele>439.3</ele>
      </trkpt>
      <trkpt lat="43.896168" lon="5.470944">
        <ele>438.2</ele>
      </trkpt>
      <trkpt lat="43.896083" lon="5.470997">
        <ele>437.5</ele>
      </trkpt>
      <trkpt lat="43.896029" lon="5.470970">
        <ele>436.8</ele>
      </trkpt>
      <trkpt lat="43.895975" lon="5.470826">
        <ele>431.7</ele>
      </trkpt>
      <trkpt lat="43.895878" lon="5.470708">
        <ele>431.3</ele>
      </trkpt>
      <trkpt lat="43.895685" lon="5.470327">
        <ele>424.5</ele>
      </trkpt>
      <trkpt lat="43.895519" lon="5.470037">
        <ele>423.1</ele>
      </trkpt>
      <trkpt lat="43.895388" lon="5.469849">
        <ele>415</ele>
      </trkpt>
      <trkpt lat="43.895283" lon="5.469656">
        <ele>413.6</ele>
      </trkpt>
      <trkpt lat="43.895167" lon="5.469522">
        <ele>412.4</ele>
      </trkpt>
      <trkpt lat="43.894908" lon="5.469356">
        <ele>409.4</ele>
      </trkpt>
      <trkpt lat="43.894723" lon="5.469302">
        <ele>409.3</ele>
      </trkpt>
      <trkpt lat="43.894545" lon="5.469222">
        <ele>408.5</ele>
      </trkpt>
      <trkpt lat="43.894398" lon="5.469146">
        <ele>400.5</ele>
      </trkpt>
      <trkpt lat="43.894282" lon="5.469012">
        <ele>400.1</ele>
      </trkpt>
      <trkpt lat="43.894123" lon="5.468894">
        <ele>394.4</ele>
      </trkpt>
      <trkpt lat="43.893977" lon="5.468814">
        <ele>392.6</ele>
      </trkpt>
      <trkpt lat="43.893861" lon="5.468707">
        <ele>391.1</ele>
      </trkpt>
      <trkpt lat="43.893864" lon="5.468589">
        <ele>390.4</ele>
      </trkpt>
      <trkpt lat="43.893884" lon="5.468476">
        <ele>389.9</ele>
      </trkpt>
      <trkpt lat="43.894023" lon="5.468379">
        <ele>389.7</ele>
      </trkpt>
      <trkpt lat="43.894166" lon="5.468267">
        <ele>388.1</ele>
      </trkpt>
      <trkpt lat="43.894255" lon="5.468138">
        <ele>390.5</ele>
      </trkpt>
      <trkpt lat="43.894344" lon="5.467988">
        <ele>390.8</ele>
      </trkpt>
      <trkpt lat="43.894402" lon="5.467795">
        <ele>390.7</ele>
      </trkpt>
      <trkpt lat="43.894460" lon="5.467596">
        <ele>390.5</ele>
      </trkpt>
      <trkpt lat="43.894506" lon="5.467392">
        <ele>390</ele>
      </trkpt>
      <trkpt lat="43.894537" lon="5.467199">
        <ele>390.3</ele>
      </trkpt>
      <trkpt lat="43.894611" lon="5.466952">
        <ele>390.7</ele>
      </trkpt>
      <trkpt lat="43.894680" lon="5.466695">
        <ele>391.3</ele>
      </trkpt>
      <trkpt lat="43.894738" lon="5.466362">
        <ele>391.2</ele>
      </trkpt>
      <trkpt lat="43.894800" lon="5.466030">
        <ele>392</ele>
      </trkpt>
      <trkpt lat="43.894858" lon="5.465740">
        <ele>393.2</ele>
      </trkpt>
      <trkpt lat="43.894931" lon="5.465461">
        <ele>392.4</ele>
      </trkpt>
      <trkpt lat="43.894989" lon="5.465284">
        <ele>392.8</ele>
      </trkpt>
      <trkpt lat="43.895020" lon="5.465161">
        <ele>398.3</ele>
      </trkpt>
      <trkpt lat="43.895032" lon="5.465043">
        <ele>397</ele>
      </trkpt>
      <trkpt lat="43.895020" lon="5.464941">
        <ele>397.8</ele>
      </trkpt>
      <trkpt lat="43.894985" lon="5.464705">
        <ele>394.2</ele>
      </trkpt>
      <trkpt lat="43.894951" lon="5.464506">
        <ele>394.7</ele>
      </trkpt>
      <trkpt lat="43.894951" lon="5.464388">
        <ele>395.6</ele>
      </trkpt>
      <trkpt lat="43.894958" lon="5.464243">
        <ele>397.7</ele>
      </trkpt>
      <trkpt lat="43.894989" lon="5.464056">
        <ele>398.5</ele>
      </trkpt>
      <trkpt lat="43.895016" lon="5.463798">
        <ele>405.1</ele>
      </trkpt>
      <trkpt lat="43.895036" lon="5.463482">
        <ele>405.3</ele>
      </trkpt>
      <trkpt lat="43.895040" lon="5.463267">
        <ele>405.8</ele>
      </trkpt>
      <trkpt lat="43.895020" lon="5.463036">
        <ele>408.5</ele>
      </trkpt>
      <trkpt lat="43.894966" lon="5.462854">
        <ele>402.6</ele>
      </trkpt>
      <trkpt lat="43.894920" lon="5.462704">
        <ele>403.8</ele>
      </trkpt>
      <trkpt lat="43.894842" lon="5.462548">
        <ele>404.5</ele>
      </trkpt>
      <trkpt lat="43.894703" lon="5.462398">
        <ele>405.7</ele>
      </trkpt>
      <trkpt lat="43.894580" lon="5.462232">
        <ele>405</ele>
      </trkpt>
      <trkpt lat="43.894502" lon="5.462119">
        <ele>404.8</ele>
      </trkpt>
      <trkpt lat="43.894448" lon="5.461974">
        <ele>405.1</ele>
      </trkpt>
      <trkpt lat="43.894421" lon="5.461819">
        <ele>405.3</ele>
      </trkpt>
      <trkpt lat="43.894464" lon="5.461647">
        <ele>408.9</ele>
      </trkpt>
      <trkpt lat="43.894510" lon="5.461475">
        <ele>409.7</ele>
      </trkpt>
      <trkpt lat="43.894529" lon="5.461363">
        <ele>410.2</ele>
      </trkpt>
      <trkpt lat="43.894522" lon="5.461164">
        <ele>410.7</ele>
      </trkpt>
      <trkpt lat="43.894510" lon="5.460885">
        <ele>411.2</ele>
      </trkpt>
      <trkpt lat="43.894514" lon="5.460644">
        <ele>414.7</ele>
      </trkpt>
      <trkpt lat="43.894479" lon="5.460440">
        <ele>415.3</ele>
      </trkpt>
      <trkpt lat="43.894471" lon="5.460225">
        <ele>415.9</ele>
      </trkpt>
      <trkpt lat="43.894487" lon="5.459930">
        <ele>418.7</ele>
      </trkpt>
      <trkpt lat="43.894522" lon="5.459694">
        <ele>419.3</ele>
      </trkpt>
      <trkpt lat="43.894537" lon="5.459485">
        <ele>419.7</ele>
      </trkpt>
      <trkpt lat="43.894529" lon="5.459201">
        <ele>419.8</ele>
      </trkpt>
      <trkpt lat="43.894576" lon="5.458954">
        <ele>420.8</ele>
      </trkpt>
      <trkpt lat="43.894626" lon="5.458632">
        <ele>420.9</ele>
      </trkpt>
      <trkpt lat="43.894707" lon="5.458412">
        <ele>421.4</ele>
      </trkpt>
      <trkpt lat="43.894804" lon="5.458235">
        <ele>421</ele>
      </trkpt>
      <trkpt lat="43.894912" lon="5.457989">
        <ele>420.4</ele>
      </trkpt>
      <trkpt lat="43.894958" lon="5.457838">
        <ele>420.1</ele>
      </trkpt>
      <trkpt lat="43.894985" lon="5.457661">
        <ele>420.2</ele>
      </trkpt>
      <trkpt lat="43.895028" lon="5.457431">
        <ele>422.3</ele>
      </trkpt>
      <trkpt lat="43.895082" lon="5.457178">
        <ele>424.3</ele>
      </trkpt>
      <trkpt lat="43.895113" lon="5.456991">
        <ele>424.2</ele>
      </trkpt>
      <trkpt lat="43.895117" lon="5.456798">
        <ele>423.2</ele>
      </trkpt>
      <trkpt lat="43.895156" lon="5.456594">
        <ele>423.2</ele>
      </trkpt>
      <trkpt lat="43.895260" lon="5.456304">
        <ele>425.2</ele>
      </trkpt>
      <trkpt lat="43.895360" lon="5.456009">
        <ele>425.9</ele>
      </trkpt>
      <trkpt lat="43.895442" lon="5.455693">
        <ele>427.2</ele>
      </trkpt>
      <trkpt lat="43.895465" lon="5.455440">
        <ele>427.4</ele>
      </trkpt>
      <trkpt lat="43.895476" lon="5.455215">
        <ele>427.7</ele>
      </trkpt>
      <trkpt lat="43.895496" lon="5.455011">
        <ele>428</ele>
      </trkpt>
      <trkpt lat="43.895561" lon="5.454668">
        <ele>427.5</ele>
      </trkpt>
      <trkpt lat="43.895643" lon="5.454303">
        <ele>427.9</ele>
      </trkpt>
      <trkpt lat="43.895720" lon="5.454083">
        <ele>427.5</ele>
      </trkpt>
      <trkpt lat="43.895786" lon="5.453858">
        <ele>426.4</ele>
      </trkpt>
      <trkpt lat="43.895813" lon="5.453697">
        <ele>426.3</ele>
      </trkpt>
      <trkpt lat="43.895836" lon="5.453557">
        <ele>434.2</ele>
      </trkpt>
      <trkpt lat="43.895824" lon="5.453456">
        <ele>427.7</ele>
      </trkpt>
      <trkpt lat="43.895786" lon="5.453332">
        <ele>428.7</ele>
      </trkpt>
      <trkpt lat="43.895743" lon="5.453209">
        <ele>426.7</ele>
      </trkpt>
      <trkpt lat="43.895728" lon="5.453026">
        <ele>425.4</ele>
      </trkpt>
      <trkpt lat="43.895712" lon="5.452882">
        <ele>425.4</ele>
      </trkpt>
      <trkpt lat="43.895689" lon="5.452753">
        <ele>425.9</ele>
      </trkpt>
      <trkpt lat="43.895677" lon="5.452592">
        <ele>427.3</ele>
      </trkpt>
      <trkpt lat="43.895697" lon="5.452436">
        <ele>428</ele>
      </trkpt>
      <trkpt lat="43.896114" lon="5.451901">
        <ele>437.6</ele>
      </trkpt>
      <trkpt lat="43.896481" lon="5.451299">
        <ele>434.3</ele>
      </trkpt>
      <trkpt lat="43.896636" lon="5.451020">
        <ele>433.3</ele>
      </trkpt>
      <trkpt lat="43.896748" lon="5.450795">
        <ele>432.4</ele>
      </trkpt>
      <trkpt lat="43.897050" lon="5.450274">
        <ele>430</ele>
      </trkpt>
      <trkpt lat="43.897085" lon="5.450151">
        <ele>429.6</ele>
      </trkpt>
      <trkpt lat="43.897220" lon="5.449920">
        <ele>423.5</ele>
      </trkpt>
      <trkpt lat="43.897328" lon="5.449759">
        <ele>423.1</ele>
      </trkpt>
      <trkpt lat="43.897560" lon="5.449470">
        <ele>425.2</ele>
      </trkpt>
      <trkpt lat="43.897784" lon="5.449196">
        <ele>424.6</ele>
      </trkpt>
      <trkpt lat="43.898175" lon="5.448617">
        <ele>417</ele>
      </trkpt>
      <trkpt lat="43.898449" lon="5.448257">
        <ele>413.7</ele>
      </trkpt>
      <trkpt lat="43.898693" lon="5.447925">
        <ele>411.7</ele>
      </trkpt>
      <trkpt lat="43.898850" lon="5.447680">
        <ele>410.7</ele>
      </trkpt>
      <trkpt lat="43.898855" lon="5.447673">
        <ele>410.7</ele>
      </trkpt>
      <trkpt lat="43.899037" lon="5.447388">
        <ele>405.8</ele>
      </trkpt>
      <trkpt lat="43.899129" lon="5.447179">
        <ele>404</ele>
      </trkpt>
      <trkpt lat="43.899133" lon="5.447061">
        <ele>402.8</ele>
      </trkpt>
      <trkpt lat="43.899091" lon="5.446922">
        <ele>401.5</ele>
      </trkpt>
      <trkpt lat="43.898990" lon="5.446723">
        <ele>400.4</ele>
      </trkpt>
      <trkpt lat="43.898863" lon="5.446578">
        <ele>397.4</ele>
      </trkpt>
      <trkpt lat="43.898859" lon="5.446509">
        <ele>397.4</ele>
      </trkpt>
      <trkpt lat="43.899075" lon="5.446450">
        <ele>397.3</ele>
      </trkpt>
      <trkpt lat="43.899218" lon="5.446417">
        <ele>394.9</ele>
      </trkpt>
      <trkpt lat="43.899469" lon="5.446385">
        <ele>393.6</ele>
      </trkpt>
      <trkpt lat="43.899740" lon="5.446385">
        <ele>392.5</ele>
      </trkpt>
      <trkpt lat="43.899864" lon="5.446385">
        <ele>392.1</ele>
      </trkpt>
      <trkpt lat="43.900026" lon="5.446385">
        <ele>386.6</ele>
      </trkpt>
      <trkpt lat="43.900130" lon="5.446423">
        <ele>386.5</ele>
      </trkpt>
      <trkpt lat="43.900370" lon="5.446530">
        <ele>384.7</ele>
      </trkpt>
      <trkpt lat="43.900594" lon="5.446648">
        <ele>382.4</ele>
      </trkpt>
      <trkpt lat="43.900737" lon="5.446712">
        <ele>383</ele>
      </trkpt>
      <trkpt lat="43.900849" lon="5.446761">
        <ele>380.1</ele>
      </trkpt>
      <trkpt lat="43.900927" lon="5.446761">
        <ele>380.3</ele>
      </trkpt>
      <trkpt lat="43.901074" lon="5.446718">
        <ele>380.5</ele>
      </trkpt>
      <trkpt lat="43.901166" lon="5.446707">
        <ele>380.4</ele>
      </trkpt>
      <trkpt lat="43.901213" lon="5.446653">
        <ele>375.4</ele>
      </trkpt>
      <trkpt lat="43.901271" lon="5.446611">
        <ele>375.1</ele>
      </trkpt>
      <trkpt lat="43.901367" lon="5.446584">
        <ele>374.7</ele>
      </trkpt>
      <trkpt lat="43.901433" lon="5.446514">
        <ele>374.4</ele>
      </trkpt>
      <trkpt lat="43.901472" lon="5.446391">
        <ele>374</ele>
      </trkpt>
      <trkpt lat="43.901456" lon="5.446262">
        <ele>373.6</ele>
      </trkpt>
      <trkpt lat="43.901468" lon="5.446133">
        <ele>372.9</ele>
      </trkpt>
      <trkpt lat="43.901526" lon="5.445994">
        <ele>371.4</ele>
      </trkpt>
      <trkpt lat="43.901611" lon="5.445881">
        <ele>369</ele>
      </trkpt>
      <trkpt lat="43.901684" lon="5.445774">
        <ele>366.5</ele>
      </trkpt>
      <trkpt lat="43.901750" lon="5.445672">
        <ele>365.8</ele>
      </trkpt>
      <trkpt lat="43.901796" lon="5.445559">
        <ele>365.4</ele>
      </trkpt>
      <trkpt lat="43.901851" lon="5.445420">
        <ele>365</ele>
      </trkpt>
      <trkpt lat="43.902040" lon="5.444889">
        <ele>362</ele>
      </trkpt>
      <trkpt lat="43.902137" lon="5.444583">
        <ele>361</ele>
      </trkpt>
      <trkpt lat="43.902175" lon="5.444400">
        <ele>360.2</ele>
      </trkpt>
      <trkpt lat="43.902245" lon="5.444138">
        <ele>360.2</ele>
      </trkpt>
      <trkpt lat="43.902368" lon="5.443859">
        <ele>360.7</ele>
      </trkpt>
      <trkpt lat="43.902504" lon="5.443617">
        <ele>347.5</ele>
      </trkpt>
      <trkpt lat="43.902643" lon="5.443408">
        <ele>348.7</ele>
      </trkpt>
      <trkpt lat="43.902755" lon="5.443167">
        <ele>345.8</ele>
      </trkpt>
      <trkpt lat="43.902863" lon="5.442925">
        <ele>343.8</ele>
      </trkpt>
      <trkpt lat="43.902975" lon="5.442786">
        <ele>341.8</ele>
      </trkpt>
      <trkpt lat="43.903114" lon="5.442652">
        <ele>337.8</ele>
      </trkpt>
      <trkpt lat="43.903196" lon="5.442523">
        <ele>333.6</ele>
      </trkpt>
      <trkpt lat="43.903296" lon="5.442437">
        <ele>330.9</ele>
      </trkpt>
      <trkpt lat="43.903427" lon="5.442196">
        <ele>320.8</ele>
      </trkpt>
      <trkpt lat="43.903563" lon="5.442013">
        <ele>319.8</ele>
      </trkpt>
      <trkpt lat="43.903698" lon="5.441815">
        <ele>318.7</ele>
      </trkpt>
      <trkpt lat="43.903799" lon="5.441622">
        <ele>314.6</ele>
      </trkpt>
      <trkpt lat="43.903791" lon="5.441552">
        <ele>314.5</ele>
      </trkpt>
      <trkpt lat="43.903741" lon="5.441439">
        <ele>314.9</ele>
      </trkpt>
      <trkpt lat="43.903737" lon="5.441311">
        <ele>314.3</ele>
      </trkpt>
      <trkpt lat="43.903640" lon="5.441209">
        <ele>314.8</ele>
      </trkpt>
      <trkpt lat="43.903574" lon="5.441096">
        <ele>315.1</ele>
      </trkpt>
      <trkpt lat="43.903524" lon="5.440908">
        <ele>315.6</ele>
      </trkpt>
      <trkpt lat="43.903497" lon="5.440731">
        <ele>310.6</ele>
      </trkpt>
      <trkpt lat="43.903513" lon="5.440549">
        <ele>307.5</ele>
      </trkpt>
      <trkpt lat="43.903571" lon="5.440356">
        <ele>305</ele>
      </trkpt>
      <trkpt lat="43.903628" lon="5.440270">
        <ele>304</ele>
      </trkpt>
      <trkpt lat="43.903690" lon="5.440136">
        <ele>302.8</ele>
      </trkpt>
      <trkpt lat="43.903706" lon="5.440034">
        <ele>302.3</ele>
      </trkpt>
      <trkpt lat="43.903725" lon="5.439910">
        <ele>294.3</ele>
      </trkpt>
      <trkpt lat="43.903775" lon="5.439819">
        <ele>293.3</ele>
      </trkpt>
      <trkpt lat="43.903891" lon="5.439707">
        <ele>291.9</ele>
      </trkpt>
      <trkpt lat="43.904054" lon="5.439583">
        <ele>290.4</ele>
      </trkpt>
      <trkpt lat="43.904247" lon="5.439454">
        <ele>284.3</ele>
      </trkpt>
      <trkpt lat="43.904386" lon="5.439326">
        <ele>283.6</ele>
      </trkpt>
      <trkpt lat="43.904514" lon="5.439197">
        <ele>282.9</ele>
      </trkpt>
      <trkpt lat="43.904610" lon="5.439074">
        <ele>277.9</ele>
      </trkpt>
      <trkpt lat="43.904707" lon="5.438982">
        <ele>277.4</ele>
      </trkpt>
      <trkpt lat="43.904803" lon="5.438923">
        <ele>277.2</ele>
      </trkpt>
      <trkpt lat="43.904958" lon="5.438939">
        <ele>277.1</ele>
      </trkpt>
      <trkpt lat="43.905089" lon="5.438961">
        <ele>276.7</ele>
      </trkpt>
      <trkpt lat="43.905263" lon="5.438993">
        <ele>276.6</ele>
      </trkpt>
      <trkpt lat="43.905445" lon="5.439057">
        <ele>276.5</ele>
      </trkpt>
      <trkpt lat="43.905553" lon="5.439095">
        <ele>276.4</ele>
      </trkpt>
      <trkpt lat="43.905654" lon="5.439165">
        <ele>276.3</ele>
      </trkpt>
      <trkpt lat="43.905785" lon="5.439267">
        <ele>277</ele>
      </trkpt>
      <trkpt lat="43.905870" lon="5.439294">
        <ele>276.4</ele>
      </trkpt>
      <trkpt lat="43.905936" lon="5.439251">
        <ele>276.4</ele>
      </trkpt>
      <trkpt lat="43.906002" lon="5.439181">
        <ele>276.4</ele>
      </trkpt>
      <trkpt lat="43.906071" lon="5.439170">
        <ele>276.5</ele>
      </trkpt>
      <trkpt lat="43.906168" lon="5.439245">
        <ele>276.6</ele>
      </trkpt>
      <trkpt lat="43.906268" lon="5.439326">
        <ele>276.7</ele>
      </trkpt>
      <trkpt lat="43.906388" lon="5.439353">
        <ele>276.7</ele>
      </trkpt>
      <trkpt lat="43.906477" lon="5.439358">
        <ele>276.7</ele>
      </trkpt>
      <trkpt lat="43.906566" lon="5.439299">
        <ele>276.8</ele>
      </trkpt>
      <trkpt lat="43.906655" lon="5.439181">
        <ele>277</ele>
      </trkpt>
      <trkpt lat="43.906809" lon="5.439031">
        <ele>276.9</ele>
      </trkpt>
      <trkpt lat="43.906964" lon="5.438886">
        <ele>276.9</ele>
      </trkpt>
      <trkpt lat="43.907061" lon="5.438757">
        <ele>276.8</ele>
      </trkpt>
      <trkpt lat="43.907076" lon="5.438677">
        <ele>276.7</ele>
      </trkpt>
      <trkpt lat="43.907034" lon="5.438575">
        <ele>276.8</ele>
      </trkpt>
      <trkpt lat="43.906968" lon="5.438446">
        <ele>276.9</ele>
      </trkpt>
      <trkpt lat="43.906879" lon="5.438296">
        <ele>276.8</ele>
      </trkpt>
      <trkpt lat="43.906782" lon="5.438103">
        <ele>276.6</ele>
      </trkpt>
      <trkpt lat="43.906705" lon="5.438049">
        <ele>276.5</ele>
      </trkpt>
      <trkpt lat="43.906635" lon="5.437942">
        <ele>276.4</ele>
      </trkpt>
      <trkpt lat="43.906535" lon="5.437716">
        <ele>275.9</ele>
      </trkpt>
      <trkpt lat="43.906504" lon="5.437588">
        <ele>275.6</ele>
      </trkpt>
      <trkpt lat="43.906462" lon="5.437394">
        <ele>274.5</ele>
      </trkpt>
      <trkpt lat="43.906400" lon="5.437142">
        <ele>274.1</ele>
      </trkpt>
      <trkpt lat="43.906349" lon="5.436971">
        <ele>273.9</ele>
      </trkpt>
      <trkpt lat="43.906303" lon="5.436863">
        <ele>273.8</ele>
      </trkpt>
      <trkpt lat="43.906257" lon="5.436751">
        <ele>273.7</ele>
      </trkpt>
      <trkpt lat="43.906245" lon="5.436633">
        <ele>273.3</ele>
      </trkpt>
      <trkpt lat="43.906253" lon="5.436552">
        <ele>273.3</ele>
      </trkpt>
      <trkpt lat="43.906319" lon="5.436531">
        <ele>273.5</ele>
      </trkpt>
      <trkpt lat="43.906396" lon="5.436542">
        <ele>273.6</ele>
      </trkpt>
      <trkpt lat="43.906547" lon="5.436633">
        <ele>273.8</ele>
      </trkpt>
      <trkpt lat="43.906937" lon="5.436799">
        <ele>275.4</ele>
      </trkpt>
      <trkpt lat="43.907393" lon="5.436992">
        <ele>276.3</ele>
      </trkpt>
      <trkpt lat="43.907393" lon="5.436992">
        <ele>276.3</ele>
      </trkpt>
      <trkpt lat="43.907675" lon="5.437099">
        <ele>278.8</ele>
      </trkpt>
      <trkpt lat="43.907872" lon="5.437175">
        <ele>279.3</ele>
      </trkpt>
      <trkpt lat="43.907977" lon="5.437223">
        <ele>279.7</ele>
      </trkpt>
      <trkpt lat="43.908104" lon="5.437352">
        <ele>280.5</ele>
      </trkpt>
      <trkpt lat="43.908193" lon="5.437475">
        <ele>281.4</ele>
      </trkpt>
      <trkpt lat="43.908302" lon="5.437662">
        <ele>280.9</ele>
      </trkpt>
      <trkpt lat="43.908251" lon="5.437456">
        <ele>281.8</ele>
      </trkpt>
      <trkpt lat="43.908174" lon="5.436833">
        <ele>280.2</ele>
      </trkpt>
      <trkpt lat="43.908143" lon="5.436168">
        <ele>280.8</ele>
      </trkpt>
      <trkpt lat="43.908174" lon="5.434945">
        <ele>281</ele>
      </trkpt>
      <trkpt lat="43.908093" lon="5.434702">
        <ele>279.8</ele>
      </trkpt>
      <trkpt lat="43.908011" lon="5.434460">
        <ele>279.1</ele>
      </trkpt>
      <trkpt lat="43.908046" lon="5.434111">
        <ele>279.5</ele>
      </trkpt>
      <trkpt lat="43.908077" lon="5.433929">
        <ele>279.8</ele>
      </trkpt>
      <trkpt lat="43.908162" lon="5.433843">
        <ele>280</ele>
      </trkpt>
      <trkpt lat="43.908270" lon="5.433827">
        <ele>280.2</ele>
      </trkpt>
      <trkpt lat="43.908634" lon="5.433940">
        <ele>283.4</ele>
      </trkpt>
      <trkpt lat="43.908970" lon="5.433983">
        <ele>284.5</ele>
      </trkpt>
      <trkpt lat="43.909159" lon="5.433951">
        <ele>284.8</ele>
      </trkpt>
      <trkpt lat="43.909298" lon="5.433859">
        <ele>286.5</ele>
      </trkpt>
      <trkpt lat="43.909480" lon="5.433682">
        <ele>286.9</ele>
      </trkpt>
      <trkpt lat="43.909584" lon="5.433387">
        <ele>287.4</ele>
      </trkpt>
      <trkpt lat="43.909592" lon="5.433162">
        <ele>290</ele>
      </trkpt>
      <trkpt lat="43.909596" lon="5.432899">
        <ele>290.6</ele>
      </trkpt>
      <trkpt lat="43.909669" lon="5.432572">
        <ele>291.6</ele>
      </trkpt>
      <trkpt lat="43.909847" lon="5.432212">
        <ele>293.9</ele>
      </trkpt>
      <trkpt lat="43.910017" lon="5.431880">
        <ele>296.1</ele>
      </trkpt>
      <trkpt lat="43.910133" lon="5.431413">
        <ele>297.1</ele>
      </trkpt>
      <trkpt lat="43.910207" lon="5.431022">
        <ele>297.6</ele>
      </trkpt>
      <trkpt lat="43.910230" lon="5.430431">
        <ele>299.5</ele>
      </trkpt>
      <trkpt lat="43.910272" lon="5.429729">
        <ele>303</ele>
      </trkpt>
      <trkpt lat="43.910311" lon="5.429123">
        <ele>307.5</ele>
      </trkpt>
      <trkpt lat="43.910307" lon="5.428929">
        <ele>308</ele>
      </trkpt>
      <trkpt lat="43.910679" lon="5.427592">
        <ele>315.5</ele>
      </trkpt>
      <trkpt lat="43.910732" lon="5.427403">
        <ele>317.6</ele>
      </trkpt>
      <trkpt lat="43.910941" lon="5.426655">
        <ele>319.4</ele>
      </trkpt>
      <trkpt lat="43.911007" lon="5.426306">
        <ele>319</ele>
      </trkpt>
      <trkpt lat="43.910987" lon="5.426086">
        <ele>319.3</ele>
      </trkpt>
      <trkpt lat="43.911003" lon="5.425775">
        <ele>321.5</ele>
      </trkpt>
      <trkpt lat="43.911084" lon="5.425555">
        <ele>322</ele>
      </trkpt>
      <trkpt lat="43.911188" lon="5.425485">
        <ele>322</ele>
      </trkpt>
      <trkpt lat="43.911308" lon="5.425566">
        <ele>321.4</ele>
      </trkpt>
      <trkpt lat="43.911482" lon="5.425684">
        <ele>320.4</ele>
      </trkpt>
      <trkpt lat="43.911629" lon="5.425695">
        <ele>319.7</ele>
      </trkpt>
      <trkpt lat="43.911737" lon="5.425582">
        <ele>318.8</ele>
      </trkpt>
      <trkpt lat="43.911822" lon="5.425362">
        <ele>319.3</ele>
      </trkpt>
      <trkpt lat="43.911822" lon="5.425361">
        <ele>319.3</ele>
      </trkpt>
      <trkpt lat="43.911996" lon="5.424756">
        <ele>321.9</ele>
      </trkpt>
      <trkpt lat="43.912457" lon="5.423341">
        <ele>328.8</ele>
      </trkpt>
      <trkpt lat="43.912517" lon="5.423156">
        <ele>330.4</ele>
      </trkpt>
      <trkpt lat="43.912653" lon="5.422739">
        <ele>331.7</ele>
      </trkpt>
      <trkpt lat="43.912746" lon="5.422589">
        <ele>331.9</ele>
      </trkpt>
      <trkpt lat="43.912854" lon="5.422498">
        <ele>332.9</ele>
      </trkpt>
      <trkpt lat="43.912974" lon="5.422422">
        <ele>333</ele>
      </trkpt>
      <trkpt lat="43.913209" lon="5.422401">
        <ele>333.1</ele>
      </trkpt>
      <trkpt lat="43.913306" lon="5.422283">
        <ele>333.2</ele>
      </trkpt>
      <trkpt lat="43.913403" lon="5.422042">
        <ele>337.4</ele>
      </trkpt>
      <trkpt lat="43.913495" lon="5.421709">
        <ele>336.8</ele>
      </trkpt>
      <trkpt lat="43.913524" lon="5.421533">
        <ele>336.2</ele>
      </trkpt>
      <trkpt lat="43.913569" lon="5.421635">
        <ele>336.5</ele>
      </trkpt>
      <trkpt lat="43.913640" lon="5.421359">
        <ele>336.9</ele>
      </trkpt>
      <trkpt lat="43.913621" lon="5.421174">
        <ele>336.5</ele>
      </trkpt>
      <trkpt lat="43.913636" lon="5.420858">
        <ele>335.9</ele>
      </trkpt>
      <trkpt lat="43.913692" lon="5.420782">
        <ele>333.1</ele>
      </trkpt>
      <trkpt lat="43.913774" lon="5.420763">
        <ele>333.3</ele>
      </trkpt>
      <trkpt lat="43.913837" lon="5.420769">
        <ele>333.5</ele>
      </trkpt>
      <trkpt lat="43.913873" lon="5.420821">
        <ele>333.8</ele>
      </trkpt>
      <trkpt lat="43.913925" lon="5.420842">
        <ele>336.9</ele>
      </trkpt>
      <trkpt lat="43.913976" lon="5.420901">
        <ele>337.1</ele>
      </trkpt>
      <trkpt lat="43.914061" lon="5.420986">
        <ele>337.4</ele>
      </trkpt>
      <trkpt lat="43.914115" lon="5.421018">
        <ele>337.5</ele>
      </trkpt>
      <trkpt lat="43.914157" lon="5.421035">
        <ele>337.6</ele>
      </trkpt>
      <trkpt lat="43.914231" lon="5.421105">
        <ele>343.1</ele>
      </trkpt>
      <trkpt lat="43.914294" lon="5.421174">
        <ele>344.1</ele>
      </trkpt>
      <trkpt lat="43.914339" lon="5.421259">
        <ele>344.9</ele>
      </trkpt>
      <trkpt lat="43.914398" lon="5.421292">
        <ele>345.4</ele>
      </trkpt>
      <trkpt lat="43.914481" lon="5.421396">
        <ele>346.3</ele>
      </trkpt>
      <trkpt lat="43.914593" lon="5.421486">
        <ele>347.4</ele>
      </trkpt>
      <trkpt lat="43.914910" lon="5.421609">
        <ele>352.6</ele>
      </trkpt>
      <trkpt lat="43.915273" lon="5.421679">
        <ele>358.3</ele>
      </trkpt>
      <trkpt lat="43.915445" lon="5.421707">
        <ele>359.4</ele>
      </trkpt>
      <trkpt lat="43.915669" lon="5.421874">
        <ele>360.5</ele>
      </trkpt>
      <trkpt lat="43.916125" lon="5.421935">
        <ele>365.2</ele>
      </trkpt>
      <trkpt lat="43.916428" lon="5.422096">
        <ele>366</ele>
      </trkpt>
      <trkpt lat="43.916537" lon="5.421999">
        <ele>366.7</ele>
      </trkpt>
      <trkpt lat="43.916587" lon="5.421907">
        <ele>367.4</ele>
      </trkpt>
      <trkpt lat="43.916625" lon="5.421838">
        <ele>368.2</ele>
      </trkpt>
      <trkpt lat="43.916741" lon="5.421779">
        <ele>371.5</ele>
      </trkpt>
      <trkpt lat="43.916830" lon="5.421741">
        <ele>371.8</ele>
      </trkpt>
      <trkpt lat="43.916989" lon="5.421714">
        <ele>372.7</ele>
      </trkpt>
      <trkpt lat="43.917093" lon="5.421741">
        <ele>373.4</ele>
      </trkpt>
      <trkpt lat="43.917220" lon="5.421784">
        <ele>374.4</ele>
      </trkpt>
      <trkpt lat="43.917302" lon="5.421784">
        <ele>375.3</ele>
      </trkpt>
      <trkpt lat="43.917429" lon="5.421746">
        <ele>377.3</ele>
      </trkpt>
      <trkpt lat="43.917530" lon="5.421741">
        <ele>379.8</ele>
      </trkpt>
      <trkpt lat="43.917634" lon="5.421768">
        <ele>379.8</ele>
      </trkpt>
      <trkpt lat="43.917707" lon="5.421843">
        <ele>379.8</ele>
      </trkpt>
      <trkpt lat="43.917823" lon="5.421961">
        <ele>379.8</ele>
      </trkpt>
      <trkpt lat="43.917904" lon="5.422068">
        <ele>379.7</ele>
      </trkpt>
      <trkpt lat="43.917962" lon="5.422170">
        <ele>379.7</ele>
      </trkpt>
      <trkpt lat="43.917962" lon="5.422170">
        <ele>379.7</ele>
      </trkpt>
      <trkpt lat="43.918067" lon="5.422288">
        <ele>380</ele>
      </trkpt>
      <trkpt lat="43.918194" lon="5.422358">
        <ele>380.7</ele>
      </trkpt>
      <trkpt lat="43.918264" lon="5.422390">
        <ele>381</ele>
      </trkpt>
      <trkpt lat="43.918403" lon="5.422391">
        <ele>381.1</ele>
      </trkpt>
      <trkpt lat="43.918503" lon="5.422456">
        <ele>380.9</ele>
      </trkpt>
      <trkpt lat="43.918689" lon="5.422512">
        <ele>379.7</ele>
      </trkpt>
      <trkpt lat="43.918785" lon="5.422587">
        <ele>379.4</ele>
      </trkpt>
      <trkpt lat="43.918946" lon="5.422678">
        <ele>379.1</ele>
      </trkpt>
      <trkpt lat="43.919019" lon="5.422874">
        <ele>378.8</ele>
      </trkpt>
      <trkpt lat="43.919091" lon="5.423039">
        <ele>378.4</ele>
      </trkpt>
      <trkpt lat="43.919133" lon="5.423195">
        <ele>377.8</ele>
      </trkpt>
      <trkpt lat="43.919187" lon="5.423388">
        <ele>376.3</ele>
      </trkpt>
      <trkpt lat="43.919207" lon="5.423511">
        <ele>375.2</ele>
      </trkpt>
      <trkpt lat="43.919172" lon="5.423662">
        <ele>374.4</ele>
      </trkpt>
      <trkpt lat="43.919126" lon="5.423796">
        <ele>374.5</ele>
      </trkpt>
      <trkpt lat="43.919025" lon="5.423994">
        <ele>373.8</ele>
      </trkpt>
      <trkpt lat="43.918936" lon="5.424187">
        <ele>371.2</ele>
      </trkpt>
      <trkpt lat="43.918870" lon="5.424402">
        <ele>370.6</ele>
      </trkpt>
      <trkpt lat="43.918818" lon="5.424615">
        <ele>370.1</ele>
      </trkpt>
      <trkpt lat="43.918650" lon="5.424827">
        <ele>369.3</ele>
      </trkpt>
      <trkpt lat="43.918527" lon="5.424878">
        <ele>368.8</ele>
      </trkpt>
      <trkpt lat="43.918490" lon="5.424969">
        <ele>368.4</ele>
      </trkpt>
      <trkpt lat="43.918557" lon="5.425110">
        <ele>368.8</ele>
      </trkpt>
      <trkpt lat="43.918592" lon="5.425201">
        <ele>369.1</ele>
      </trkpt>
      <trkpt lat="43.918643" lon="5.425384">
        <ele>369.6</ele>
      </trkpt>
      <trkpt lat="43.918753" lon="5.425414">
        <ele>369.7</ele>
      </trkpt>
      <trkpt lat="43.918807" lon="5.425546">
        <ele>369.9</ele>
      </trkpt>
      <trkpt lat="43.918870" lon="5.425779">
        <ele>370.1</ele>
      </trkpt>
      <trkpt lat="43.919075" lon="5.426210">
        <ele>375.6</ele>
      </trkpt>
      <trkpt lat="43.919141" lon="5.426511">
        <ele>378.2</ele>
      </trkpt>
      <trkpt lat="43.919408" lon="5.427154">
        <ele>376.1</ele>
      </trkpt>
      <trkpt lat="43.919481" lon="5.427401">
        <ele>376.9</ele>
      </trkpt>
      <trkpt lat="43.919485" lon="5.427535">
        <ele>381.2</ele>
      </trkpt>
      <trkpt lat="43.919396" lon="5.428032">
        <ele>382.3</ele>
      </trkpt>
      <trkpt lat="43.919241" lon="5.428500">
        <ele>387.5</ele>
      </trkpt>
      <trkpt lat="43.919268" lon="5.428683">
        <ele>387.3</ele>
      </trkpt>
      <trkpt lat="43.919299" lon="5.428817">
        <ele>387.6</ele>
      </trkpt>
      <trkpt lat="43.919330" lon="5.428962">
        <ele>388.3</ele>
      </trkpt>
      <trkpt lat="43.919392" lon="5.429133">
        <ele>388.6</ele>
      </trkpt>
      <trkpt lat="43.919458" lon="5.429203">
        <ele>391.4</ele>
      </trkpt>
      <trkpt lat="43.919547" lon="5.429262">
        <ele>391.1</ele>
      </trkpt>
      <trkpt lat="43.919647" lon="5.429321">
        <ele>390.9</ele>
      </trkpt>
      <trkpt lat="43.919717" lon="5.429368">
        <ele>390.7</ele>
      </trkpt>
      <trkpt lat="43.919821" lon="5.429573">
        <ele>391.2</ele>
      </trkpt>
      <trkpt lat="43.919871" lon="5.429616">
        <ele>391.4</ele>
      </trkpt>
      <trkpt lat="43.919929" lon="5.429654">
        <ele>391.5</ele>
      </trkpt>
      <trkpt lat="43.919972" lon="5.429729">
        <ele>391.8</ele>
      </trkpt>
      <trkpt lat="43.920041" lon="5.429847">
        <ele>392</ele>
      </trkpt>
      <trkpt lat="43.920231" lon="5.430127">
        <ele>392.8</ele>
      </trkpt>
      <trkpt lat="43.920370" lon="5.430383">
        <ele>392.5</ele>
      </trkpt>
      <trkpt lat="43.920420" lon="5.431068">
        <ele>389.6</ele>
      </trkpt>
      <trkpt lat="43.920575" lon="5.431430">
        <ele>388.7</ele>
      </trkpt>
      <trkpt lat="43.920594" lon="5.431606">
        <ele>388.3</ele>
      </trkpt>
      <trkpt lat="43.920586" lon="5.431740">
        <ele>389.2</ele>
      </trkpt>
      <trkpt lat="43.920567" lon="5.431939">
        <ele>390</ele>
      </trkpt>
      <trkpt lat="43.920565" lon="5.432203">
        <ele>391.3</ele>
      </trkpt>
      <trkpt lat="43.920594" lon="5.432277">
        <ele>391.8</ele>
      </trkpt>
      <trkpt lat="43.920675" lon="5.432422">
        <ele>393.1</ele>
      </trkpt>
      <trkpt lat="43.920791" lon="5.432524">
        <ele>396.1</ele>
      </trkpt>
      <trkpt lat="43.920837" lon="5.432648">
        <ele>396</ele>
      </trkpt>
      <trkpt lat="43.920864" lon="5.432828">
        <ele>396.6</ele>
      </trkpt>
      <trkpt lat="43.920926" lon="5.433061">
        <ele>398.2</ele>
      </trkpt>
      <trkpt lat="43.921011" lon="5.433311">
        <ele>399.7</ele>
      </trkpt>
      <trkpt lat="43.921201" lon="5.433627">
        <ele>399.3</ele>
      </trkpt>
      <trkpt lat="43.921351" lon="5.433936">
        <ele>398.5</ele>
      </trkpt>
      <trkpt lat="43.921444" lon="5.434400">
        <ele>398.8</ele>
      </trkpt>
      <trkpt lat="43.921502" lon="5.434579">
        <ele>399.3</ele>
      </trkpt>
      <trkpt lat="43.921670" lon="5.434700">
        <ele>393.3</ele>
      </trkpt>
      <trkpt lat="43.921776" lon="5.434814">
        <ele>393.9</ele>
      </trkpt>
      <trkpt lat="43.921908" lon="5.435159">
        <ele>390.3</ele>
      </trkpt>
      <trkpt lat="43.921950" lon="5.435472">
        <ele>387.3</ele>
      </trkpt>
      <trkpt lat="43.922022" lon="5.435408">
        <ele>386.9</ele>
      </trkpt>
      <trkpt lat="43.922151" lon="5.435405">
        <ele>385.6</ele>
      </trkpt>
      <trkpt lat="43.922389" lon="5.435183">
        <ele>384.2</ele>
      </trkpt>
      <trkpt lat="43.922628" lon="5.434885">
        <ele>377.1</ele>
      </trkpt>
      <trkpt lat="43.922667" lon="5.434459">
        <ele>374.5</ele>
      </trkpt>
      <trkpt lat="43.922717" lon="5.434351">
        <ele>374.3</ele>
      </trkpt>
      <trkpt lat="43.922791" lon="5.434308">
        <ele>373.6</ele>
      </trkpt>
      <trkpt lat="43.922893" lon="5.434424">
        <ele>372.4</ele>
      </trkpt>
      <trkpt lat="43.923131" lon="5.434560">
        <ele>370.3</ele>
      </trkpt>
      <trkpt lat="43.923328" lon="5.434992">
        <ele>364.3</ele>
      </trkpt>
      <trkpt lat="43.923523" lon="5.435218">
        <ele>358.3</ele>
      </trkpt>
      <trkpt lat="43.923646" lon="5.435254">
        <ele>357.1</ele>
      </trkpt>
      <trkpt lat="43.923774" lon="5.435297">
        <ele>356.1</ele>
      </trkpt>
      <trkpt lat="43.924042" lon="5.435239">
        <ele>354.9</ele>
      </trkpt>
      <trkpt lat="43.924197" lon="5.435204">
        <ele>351.2</ele>
      </trkpt>
      <trkpt lat="43.924353" lon="5.435174">
        <ele>350.7</ele>
      </trkpt>
      <trkpt lat="43.924481" lon="5.435158">
        <ele>350.1</ele>
      </trkpt>
      <trkpt lat="43.924566" lon="5.435158">
        <ele>349.8</ele>
      </trkpt>
      <trkpt lat="43.924778" lon="5.435196">
        <ele>349.1</ele>
      </trkpt>
      <trkpt lat="43.925095" lon="5.435250">
        <ele>347.6</ele>
      </trkpt>
      <trkpt lat="43.925269" lon="5.435270">
        <ele>347.3</ele>
      </trkpt>
      <trkpt lat="43.925443" lon="5.435295">
        <ele>347.2</ele>
      </trkpt>
      <trkpt lat="43.925387" lon="5.436502">
        <ele>341.3</ele>
      </trkpt>
      <trkpt lat="43.925377" lon="5.436723">
        <ele>337.3</ele>
      </trkpt>
      <trkpt lat="43.925362" lon="5.437064">
        <ele>336.5</ele>
      </trkpt>
      <trkpt lat="43.925408" lon="5.438158">
        <ele>332.1</ele>
      </trkpt>
      <trkpt lat="43.925516" lon="5.438888">
        <ele>330.7</ele>
      </trkpt>
      <trkpt lat="43.925841" lon="5.439746">
        <ele>328.5</ele>
      </trkpt>
      <trkpt lat="43.926073" lon="5.440369">
        <ele>327.3</ele>
      </trkpt>
      <trkpt lat="43.926096" lon="5.440582">
        <ele>327.2</ele>
      </trkpt>
      <trkpt lat="43.926042" lon="5.440798">
        <ele>326.9</ele>
      </trkpt>
      <trkpt lat="43.925617" lon="5.441980">
        <ele>325.6</ele>
      </trkpt>
      <trkpt lat="43.925609" lon="5.442003">
        <ele>325.6</ele>
      </trkpt>
      <trkpt lat="43.925768" lon="5.442197">
        <ele>326.4</ele>
      </trkpt>
      <trkpt lat="43.925868" lon="5.442299">
        <ele>328.6</ele>
      </trkpt>
      <trkpt lat="43.926347" lon="5.442791">
        <ele>330.8</ele>
      </trkpt>
      <trkpt lat="43.926494" lon="5.442941">
        <ele>331.4</ele>
      </trkpt>
      <trkpt lat="43.926587" lon="5.443043">
        <ele>332</ele>
      </trkpt>
      <trkpt lat="43.926641" lon="5.443129">
        <ele>332.6</ele>
      </trkpt>
      <trkpt lat="43.926679" lon="5.443215">
        <ele>334.8</ele>
      </trkpt>
      <trkpt lat="43.926730" lon="5.443333">
        <ele>334.9</ele>
      </trkpt>
      <trkpt lat="43.926757" lon="5.443446">
        <ele>335.7</ele>
      </trkpt>
      <trkpt lat="43.926788" lon="5.443515">
        <ele>335.8</ele>
      </trkpt>
      <trkpt lat="43.926849" lon="5.443553">
        <ele>336</ele>
      </trkpt>
      <trkpt lat="43.926930" lon="5.443569">
        <ele>336.2</ele>
      </trkpt>
      <trkpt lat="43.927004" lon="5.443596">
        <ele>336.3</ele>
      </trkpt>
      <trkpt lat="43.927058" lon="5.443623">
        <ele>336.5</ele>
      </trkpt>
      <trkpt lat="43.927116" lon="5.443666">
        <ele>336.6</ele>
      </trkpt>
      <trkpt lat="43.927189" lon="5.443741">
        <ele>336.7</ele>
      </trkpt>
      <trkpt lat="43.927695" lon="5.444234">
        <ele>340.1</ele>
      </trkpt>
      <trkpt lat="43.928020" lon="5.444561">
        <ele>342.1</ele>
      </trkpt>
      <trkpt lat="43.928213" lon="5.444717">
        <ele>343.1</ele>
      </trkpt>
      <trkpt lat="43.928317" lon="5.444803">
        <ele>343.8</ele>
      </trkpt>
      <trkpt lat="43.928437" lon="5.444878">
        <ele>346.7</ele>
      </trkpt>
      <trkpt lat="43.928619" lon="5.444953">
        <ele>347.4</ele>
      </trkpt>
      <trkpt lat="43.928704" lon="5.445023">
        <ele>349.1</ele>
      </trkpt>
      <trkpt lat="43.928800" lon="5.445060">
        <ele>349.6</ele>
      </trkpt>
      <trkpt lat="43.928882" lon="5.445098">
        <ele>350</ele>
      </trkpt>
      <trkpt lat="43.928920" lon="5.445173">
        <ele>350.2</ele>
      </trkpt>
      <trkpt lat="43.928978" lon="5.445296">
        <ele>350.3</ele>
      </trkpt>
      <trkpt lat="43.929032" lon="5.445420">
        <ele>350.6</ele>
      </trkpt>
      <trkpt lat="43.929117" lon="5.445613">
        <ele>351.5</ele>
      </trkpt>
      <trkpt lat="43.929179" lon="5.445768">
        <ele>354.2</ele>
      </trkpt>
      <trkpt lat="43.929256" lon="5.445897">
        <ele>355.5</ele>
      </trkpt>
      <trkpt lat="43.929326" lon="5.446010">
        <ele>356.5</ele>
      </trkpt>
      <trkpt lat="43.929415" lon="5.446128">
        <ele>357.4</ele>
      </trkpt>
      <trkpt lat="43.929484" lon="5.446267">
        <ele>358</ele>
      </trkpt>
      <trkpt lat="43.929531" lon="5.446401">
        <ele>358.4</ele>
      </trkpt>
      <trkpt lat="43.929589" lon="5.446552">
        <ele>359</ele>
      </trkpt>
      <trkpt lat="43.929619" lon="5.446670">
        <ele>362.1</ele>
      </trkpt>
      <trkpt lat="43.929662" lon="5.446825">
        <ele>362.6</ele>
      </trkpt>
      <trkpt lat="43.929712" lon="5.446965">
        <ele>363.1</ele>
      </trkpt>
      <trkpt lat="43.929759" lon="5.447061">
        <ele>363.6</ele>
      </trkpt>
      <trkpt lat="43.929817" lon="5.447179">
        <ele>364.5</ele>
      </trkpt>
      <trkpt lat="43.929867" lon="5.447335">
        <ele>366.2</ele>
      </trkpt>
      <trkpt lat="43.929917" lon="5.447549">
        <ele>369.3</ele>
      </trkpt>
      <trkpt lat="43.929940" lon="5.447689">
        <ele>368.4</ele>
      </trkpt>
      <trkpt lat="43.929943" lon="5.447694">
        <ele>368.4</ele>
      </trkpt>
      <trkpt lat="43.929979" lon="5.447759">
        <ele>368.2</ele>
      </trkpt>
      <trkpt lat="43.930052" lon="5.447877">
        <ele>372.7</ele>
      </trkpt>
      <trkpt lat="43.930149" lon="5.447978">
        <ele>373</ele>
      </trkpt>
      <trkpt lat="43.930249" lon="5.448054">
        <ele>373.3</ele>
      </trkpt>
      <trkpt lat="43.930338" lon="5.448107">
        <ele>373.5</ele>
      </trkpt>
      <trkpt lat="43.930400" lon="5.448161">
        <ele>373.8</ele>
      </trkpt>
      <trkpt lat="43.930431" lon="5.448231">
        <ele>374</ele>
      </trkpt>
      <trkpt lat="43.930419" lon="5.448295">
        <ele>374.1</ele>
      </trkpt>
      <trkpt lat="43.930377" lon="5.448434">
        <ele>377</ele>
      </trkpt>
      <trkpt lat="43.930342" lon="5.448552">
        <ele>377.1</ele>
      </trkpt>
      <trkpt lat="43.930319" lon="5.448703">
        <ele>377.4</ele>
      </trkpt>
      <trkpt lat="43.930315" lon="5.448842">
        <ele>377.7</ele>
      </trkpt>
      <trkpt lat="43.930338" lon="5.448928">
        <ele>378</ele>
      </trkpt>
      <trkpt lat="43.930392" lon="5.449008">
        <ele>378.5</ele>
      </trkpt>
      <trkpt lat="43.930458" lon="5.449046">
        <ele>379.1</ele>
      </trkpt>
      <trkpt lat="43.930535" lon="5.449041">
        <ele>379.9</ele>
      </trkpt>
      <trkpt lat="43.930632" lon="5.449014">
        <ele>380.7</ele>
      </trkpt>
      <trkpt lat="43.930736" lon="5.448998">
        <ele>381.6</ele>
      </trkpt>
      <trkpt lat="43.930848" lon="5.449003">
        <ele>383.7</ele>
      </trkpt>
      <trkpt lat="43.930976" lon="5.449067">
        <ele>383.7</ele>
      </trkpt>
      <trkpt lat="43.931049" lon="5.449143">
        <ele>383.5</ele>
      </trkpt>
      <trkpt lat="43.931103" lon="5.449218">
        <ele>387.4</ele>
      </trkpt>
      <trkpt lat="43.931103" lon="5.449287">
        <ele>387.6</ele>
      </trkpt>
      <trkpt lat="43.931068" lon="5.449325">
        <ele>387.7</ele>
      </trkpt>
      <trkpt lat="43.931014" lon="5.449357">
        <ele>387.7</ele>
      </trkpt>
      <trkpt lat="43.930941" lon="5.449486">
        <ele>388.2</ele>
      </trkpt>
      <trkpt lat="43.930724" lon="5.449878">
        <ele>386.9</ele>
      </trkpt>
      <trkpt lat="43.930233" lon="5.450822">
        <ele>384.3</ele>
      </trkpt>
      <trkpt lat="43.930041" lon="5.451192">
        <ele>385.8</ele>
      </trkpt>
      <trkpt lat="43.929376" lon="5.452442">
        <ele>375.9</ele>
      </trkpt>
      <trkpt lat="43.929291" lon="5.452603">
        <ele>376.6</ele>
      </trkpt>
      <trkpt lat="43.929225" lon="5.452721">
        <ele>377.2</ele>
      </trkpt>
      <trkpt lat="43.929137" lon="5.452806">
        <ele>372.1</ele>
      </trkpt>
      <trkpt lat="43.929055" lon="5.452844">
        <ele>372</ele>
      </trkpt>
      <trkpt lat="43.929040" lon="5.452903">
        <ele>372</ele>
      </trkpt>
      <trkpt lat="43.929048" lon="5.452962">
        <ele>372.2</ele>
      </trkpt>
      <trkpt lat="43.929156" lon="5.453155">
        <ele>373.6</ele>
      </trkpt>
      <trkpt lat="43.929241" lon="5.453348">
        <ele>377.7</ele>
      </trkpt>
      <trkpt lat="43.929283" lon="5.453493">
        <ele>379.4</ele>
      </trkpt>
      <trkpt lat="43.929314" lon="5.453659">
        <ele>380.5</ele>
      </trkpt>
      <trkpt lat="43.929318" lon="5.453788">
        <ele>380.8</ele>
      </trkpt>
      <trkpt lat="43.929314" lon="5.453885">
        <ele>380.7</ele>
      </trkpt>
      <trkpt lat="43.929361" lon="5.453954">
        <ele>380.8</ele>
      </trkpt>
      <trkpt lat="43.929461" lon="5.454137">
        <ele>381.3</ele>
      </trkpt>
      <trkpt lat="43.929550" lon="5.454276">
        <ele>382.9</ele>
      </trkpt>
      <trkpt lat="43.929623" lon="5.454410">
        <ele>383.5</ele>
      </trkpt>
      <trkpt lat="43.929693" lon="5.454577">
        <ele>383.9</ele>
      </trkpt>
      <trkpt lat="43.929747" lon="5.454705">
        <ele>384.3</ele>
      </trkpt>
      <trkpt lat="43.929805" lon="5.454899">
        <ele>385</ele>
      </trkpt>
      <trkpt lat="43.929851" lon="5.455081">
        <ele>387.5</ele>
      </trkpt>
      <trkpt lat="43.929855" lon="5.455226">
        <ele>387.9</ele>
      </trkpt>
      <trkpt lat="43.929855" lon="5.455446">
        <ele>388.9</ele>
      </trkpt>
      <trkpt lat="43.929878" lon="5.455676">
        <ele>390.4</ele>
      </trkpt>
      <trkpt lat="43.929909" lon="5.455832">
        <ele>391.6</ele>
      </trkpt>
      <trkpt lat="43.929971" lon="5.456063">
        <ele>394.2</ele>
      </trkpt>
      <trkpt lat="43.930048" lon="5.456240">
        <ele>396.3</ele>
      </trkpt>
      <trkpt lat="43.930137" lon="5.456363">
        <ele>396.7</ele>
      </trkpt>
      <trkpt lat="43.930249" lon="5.456454">
        <ele>397</ele>
      </trkpt>
      <trkpt lat="43.930369" lon="5.456497">
        <ele>397.1</ele>
      </trkpt>
      <trkpt lat="43.930489" lon="5.456535">
        <ele>397.2</ele>
      </trkpt>
      <trkpt lat="43.930636" lon="5.456545">
        <ele>397.4</ele>
      </trkpt>
      <trkpt lat="43.930794" lon="5.456567">
        <ele>397.6</ele>
      </trkpt>
      <trkpt lat="43.930894" lon="5.456626">
        <ele>399.4</ele>
      </trkpt>
      <trkpt lat="43.930983" lon="5.456706">
        <ele>400.5</ele>
      </trkpt>
      <trkpt lat="43.931045" lon="5.456792">
        <ele>401.5</ele>
      </trkpt>
      <trkpt lat="43.931138" lon="5.456916">
        <ele>402.5</ele>
      </trkpt>
      <trkpt lat="43.931269" lon="5.456980">
        <ele>403.2</ele>
      </trkpt>
      <trkpt lat="43.931397" lon="5.457060">
        <ele>403.7</ele>
      </trkpt>
      <trkpt lat="43.931489" lon="5.457119">
        <ele>404</ele>
      </trkpt>
      <trkpt lat="43.931574" lon="5.457119">
        <ele>404.2</ele>
      </trkpt>
      <trkpt lat="43.931659" lon="5.457114">
        <ele>404.3</ele>
      </trkpt>
      <trkpt lat="43.931752" lon="5.457103">
        <ele>410.3</ele>
      </trkpt>
      <trkpt lat="43.931810" lon="5.457087">
        <ele>410.6</ele>
      </trkpt>
      <trkpt lat="43.931852" lon="5.457146">
        <ele>410.8</ele>
      </trkpt>
      <trkpt lat="43.931845" lon="5.457205">
        <ele>410.6</ele>
      </trkpt>
      <trkpt lat="43.931802" lon="5.457270">
        <ele>410.1</ele>
      </trkpt>
      <trkpt lat="43.931737" lon="5.457318">
        <ele>409.3</ele>
      </trkpt>
      <trkpt lat="43.931683" lon="5.457355">
        <ele>408.7</ele>
      </trkpt>
      <trkpt lat="43.931659" lon="5.457436">
        <ele>405.4</ele>
      </trkpt>
      <trkpt lat="43.931648" lon="5.457549">
        <ele>405.6</ele>
      </trkpt>
      <trkpt lat="43.931667" lon="5.457661">
        <ele>410</ele>
      </trkpt>
      <trkpt lat="43.931686" lon="5.457752">
        <ele>411.2</ele>
      </trkpt>
      <trkpt lat="43.931644" lon="5.457908">
        <ele>404.8</ele>
      </trkpt>
      <trkpt lat="43.931563" lon="5.458107">
        <ele>405</ele>
      </trkpt>
      <trkpt lat="43.931485" lon="5.458364">
        <ele>404.1</ele>
      </trkpt>
      <trkpt lat="43.931435" lon="5.458579">
        <ele>403</ele>
      </trkpt>
      <trkpt lat="43.931389" lon="5.458675">
        <ele>402.4</ele>
      </trkpt>
      <trkpt lat="43.931292" lon="5.458793">
        <ele>401.5</ele>
      </trkpt>
      <trkpt lat="43.931223" lon="5.458922">
        <ele>400.6</ele>
      </trkpt>
      <trkpt lat="43.931126" lon="5.459035">
        <ele>398.9</ele>
      </trkpt>
      <trkpt lat="43.931018" lon="5.459179">
        <ele>395.5</ele>
      </trkpt>
      <trkpt lat="43.930925" lon="5.459297">
        <ele>394.7</ele>
      </trkpt>
      <trkpt lat="43.930778" lon="5.459491">
        <ele>385.4</ele>
      </trkpt>
      <trkpt lat="43.930655" lon="5.459571">
        <ele>384.5</ele>
      </trkpt>
      <trkpt lat="43.930524" lon="5.459630">
        <ele>383.4</ele>
      </trkpt>
      <trkpt lat="43.930442" lon="5.459651">
        <ele>382.5</ele>
      </trkpt>
      <trkpt lat="43.930388" lon="5.459727">
        <ele>381.9</ele>
      </trkpt>
      <trkpt lat="43.930342" lon="5.459866">
        <ele>381.2</ele>
      </trkpt>
      <trkpt lat="43.930292" lon="5.459968">
        <ele>380.2</ele>
      </trkpt>
      <trkpt lat="43.930245" lon="5.460011">
        <ele>379.2</ele>
      </trkpt>
      <trkpt lat="43.930168" lon="5.460059">
        <ele>377.8</ele>
      </trkpt>
      <trkpt lat="43.930099" lon="5.460129">
        <ele>377.2</ele>
      </trkpt>
      <trkpt lat="43.930014" lon="5.460263">
        <ele>378</ele>
      </trkpt>
      <trkpt lat="43.929944" lon="5.460435">
        <ele>367.2</ele>
      </trkpt>
      <trkpt lat="43.929890" lon="5.460596">
        <ele>367.4</ele>
      </trkpt>
      <trkpt lat="43.929844" lon="5.460773">
        <ele>368.1</ele>
      </trkpt>
      <trkpt lat="43.929813" lon="5.460923">
        <ele>367.3</ele>
      </trkpt>
      <trkpt lat="43.929778" lon="5.461116">
        <ele>366</ele>
      </trkpt>
      <trkpt lat="43.929739" lon="5.461255">
        <ele>365.5</ele>
      </trkpt>
      <trkpt lat="43.929693" lon="5.461325">
        <ele>365.2</ele>
      </trkpt>
      <trkpt lat="43.929623" lon="5.461406">
        <ele>364.5</ele>
      </trkpt>
      <trkpt lat="43.929546" lon="5.461475">
        <ele>363.5</ele>
      </trkpt>
      <trkpt lat="43.929484" lon="5.461524">
        <ele>362.6</ele>
      </trkpt>
      <trkpt lat="43.929449" lon="5.461588">
        <ele>361.9</ele>
      </trkpt>
      <trkpt lat="43.929426" lon="5.461668">
        <ele>361.4</ele>
      </trkpt>
      <trkpt lat="43.929438" lon="5.461760">
        <ele>361.7</ele>
      </trkpt>
      <trkpt lat="43.929453" lon="5.461835">
        <ele>362.2</ele>
      </trkpt>
      <trkpt lat="43.929446" lon="5.461905">
        <ele>362.3</ele>
      </trkpt>
      <trkpt lat="43.929419" lon="5.462055">
        <ele>362.3</ele>
      </trkpt>
      <trkpt lat="43.929384" lon="5.462210">
        <ele>361.8</ele>
      </trkpt>
      <trkpt lat="43.929345" lon="5.462334">
        <ele>360.7</ele>
      </trkpt>
      <trkpt lat="43.929307" lon="5.462548">
        <ele>359.6</ele>
      </trkpt>
      <trkpt lat="43.929272" lon="5.462661">
        <ele>360.3</ele>
      </trkpt>
      <trkpt lat="43.929252" lon="5.462784">
        <ele>361.5</ele>
      </trkpt>
      <trkpt lat="43.929225" lon="5.462822">
        <ele>361.7</ele>
      </trkpt>
      <trkpt lat="43.929183" lon="5.462881">
        <ele>361.9</ele>
      </trkpt>
      <trkpt lat="43.929148" lon="5.462967">
        <ele>354.6</ele>
      </trkpt>
      <trkpt lat="43.929143" lon="5.462978">
        <ele>354.6</ele>
      </trkpt>
      <trkpt lat="43.929110" lon="5.463053">
        <ele>355</ele>
      </trkpt>
      <trkpt lat="43.929036" lon="5.463283">
        <ele>356.3</ele>
      </trkpt>
      <trkpt lat="43.928943" lon="5.463589">
        <ele>357.4</ele>
      </trkpt>
      <trkpt lat="43.928870" lon="5.463825">
        <ele>357.5</ele>
      </trkpt>
      <trkpt lat="43.928712" lon="5.464324">
        <ele>360.2</ele>
      </trkpt>
      <trkpt lat="43.928596" lon="5.464635">
        <ele>360.5</ele>
      </trkpt>
      <trkpt lat="43.928511" lon="5.465032">
        <ele>362.8</ele>
      </trkpt>
      <trkpt lat="43.928453" lon="5.465225">
        <ele>363.9</ele>
      </trkpt>
      <trkpt lat="43.928414" lon="5.465450">
        <ele>365.3</ele>
      </trkpt>
      <trkpt lat="43.928387" lon="5.465869">
        <ele>365.4</ele>
      </trkpt>
      <trkpt lat="43.928356" lon="5.466228">
        <ele>370.4</ele>
      </trkpt>
      <trkpt lat="43.928333" lon="5.466421">
        <ele>364.8</ele>
      </trkpt>
      <trkpt lat="43.928279" lon="5.466711">
        <ele>368.6</ele>
      </trkpt>
      <trkpt lat="43.928221" lon="5.466920">
        <ele>368.4</ele>
      </trkpt>
      <trkpt lat="43.928136" lon="5.467140">
        <ele>368.9</ele>
      </trkpt>
      <trkpt lat="43.928059" lon="5.467290">
        <ele>369.2</ele>
      </trkpt>
      <trkpt lat="43.927985" lon="5.467478">
        <ele>369.2</ele>
      </trkpt>
      <trkpt lat="43.927947" lon="5.467607">
        <ele>372.9</ele>
      </trkpt>
      <trkpt lat="43.927846" lon="5.467939">
        <ele>373.4</ele>
      </trkpt>
      <trkpt lat="43.927780" lon="5.468229">
        <ele>373.6</ele>
      </trkpt>
      <trkpt lat="43.927730" lon="5.468417">
        <ele>377</ele>
      </trkpt>
      <trkpt lat="43.927703" lon="5.468589">
        <ele>377.9</ele>
      </trkpt>
      <trkpt lat="43.927699" lon="5.468744">
        <ele>378.7</ele>
      </trkpt>
      <trkpt lat="43.927711" lon="5.468964">
        <ele>379</ele>
      </trkpt>
      <trkpt lat="43.927738" lon="5.469146">
        <ele>379.1</ele>
      </trkpt>
      <trkpt lat="43.927742" lon="5.469275">
        <ele>381.4</ele>
      </trkpt>
      <trkpt lat="43.927730" lon="5.469425">
        <ele>381.9</ele>
      </trkpt>
      <trkpt lat="43.927757" lon="5.469651">
        <ele>382.4</ele>
      </trkpt>
      <trkpt lat="43.927850" lon="5.470010">
        <ele>382.5</ele>
      </trkpt>
      <trkpt lat="43.927927" lon="5.470300">
        <ele>384.1</ele>
      </trkpt>
      <trkpt lat="43.928051" lon="5.470708">
        <ele>386.4</ele>
      </trkpt>
      <trkpt lat="43.928144" lon="5.470949">
        <ele>388.7</ele>
      </trkpt>
      <trkpt lat="43.928186" lon="5.471105">
        <ele>388.2</ele>
      </trkpt>
      <trkpt lat="43.928194" lon="5.471206">
        <ele>388</ele>
      </trkpt>
      <trkpt lat="43.928163" lon="5.471314">
        <ele>387.9</ele>
      </trkpt>
      <trkpt lat="43.928097" lon="5.471453">
        <ele>387.9</ele>
      </trkpt>
      <trkpt lat="43.928005" lon="5.471668">
        <ele>388.3</ele>
      </trkpt>
      <trkpt lat="43.927923" lon="5.471866">
        <ele>386.7</ele>
      </trkpt>
      <trkpt lat="43.927885" lon="5.472033">
        <ele>386.3</ele>
      </trkpt>
      <trkpt lat="43.927873" lon="5.472188">
        <ele>386.3</ele>
      </trkpt>
      <trkpt lat="43.927877" lon="5.472365">
        <ele>386.4</ele>
      </trkpt>
      <trkpt lat="43.927896" lon="5.472526">
        <ele>387.2</ele>
      </trkpt>
      <trkpt lat="43.927935" lon="5.472666">
        <ele>387.7</ele>
      </trkpt>
      <trkpt lat="43.927954" lon="5.472778">
        <ele>387.9</ele>
      </trkpt>
      <trkpt lat="43.927947" lon="5.473025">
        <ele>387.9</ele>
      </trkpt>
      <trkpt lat="43.927935" lon="5.473315">
        <ele>387.8</ele>
      </trkpt>
      <trkpt lat="43.927920" lon="5.473572">
        <ele>388.9</ele>
      </trkpt>
      <trkpt lat="43.927885" lon="5.473856">
        <ele>389</ele>
      </trkpt>
      <trkpt lat="43.927827" lon="5.474194">
        <ele>391</ele>
      </trkpt>
      <trkpt lat="43.927757" lon="5.474516">
        <ele>391.6</ele>
      </trkpt>
      <trkpt lat="43.927661" lon="5.474806">
        <ele>390.6</ele>
      </trkpt>
      <trkpt lat="43.927587" lon="5.475085">
        <ele>391</ele>
      </trkpt>
      <trkpt lat="43.927529" lon="5.475391">
        <ele>396.1</ele>
      </trkpt>
      <trkpt lat="43.927506" lon="5.475562">
        <ele>396.6</ele>
      </trkpt>
      <trkpt lat="43.927522" lon="5.475686">
        <ele>395.9</ele>
      </trkpt>
      <trkpt lat="43.927525" lon="5.475766">
        <ele>394.8</ele>
      </trkpt>
      <trkpt lat="43.927491" lon="5.475938">
        <ele>391.4</ele>
      </trkpt>
      <trkpt lat="43.927456" lon="5.476099">
        <ele>390.5</ele>
      </trkpt>
      <trkpt lat="43.927317" lon="5.476549">
        <ele>392.7</ele>
      </trkpt>
      <trkpt lat="43.927255" lon="5.476796">
        <ele>394.7</ele>
      </trkpt>
      <trkpt lat="43.927193" lon="5.477043">
        <ele>394</ele>
      </trkpt>
      <trkpt lat="43.927166" lon="5.477236">
        <ele>394.3</ele>
      </trkpt>
      <trkpt lat="43.927097" lon="5.477392">
        <ele>393.7</ele>
      </trkpt>
      <trkpt lat="43.927031" lon="5.477515">
        <ele>395.8</ele>
      </trkpt>
      <trkpt lat="43.927000" lon="5.477606">
        <ele>395.4</ele>
      </trkpt>
      <trkpt lat="43.927004" lon="5.477735">
        <ele>396.1</ele>
      </trkpt>
      <trkpt lat="43.927039" lon="5.477858">
        <ele>397.1</ele>
      </trkpt>
      <trkpt lat="43.927081" lon="5.477976">
        <ele>398.2</ele>
      </trkpt>
      <trkpt lat="43.927089" lon="5.478068">
        <ele>398.6</ele>
      </trkpt>
      <trkpt lat="43.927058" lon="5.478212">
        <ele>398.4</ele>
      </trkpt>
      <trkpt lat="43.927019" lon="5.478454">
        <ele>401.5</ele>
      </trkpt>
      <trkpt lat="43.926981" lon="5.478620">
        <ele>401.6</ele>
      </trkpt>
      <trkpt lat="43.926985" lon="5.478776">
        <ele>402.3</ele>
      </trkpt>
      <trkpt lat="43.926973" lon="5.478937">
        <ele>402.3</ele>
      </trkpt>
      <trkpt lat="43.926958" lon="5.479119">
        <ele>401.8</ele>
      </trkpt>
      <trkpt lat="43.926911" lon="5.479344">
        <ele>406.2</ele>
      </trkpt>
      <trkpt lat="43.926857" lon="5.479570">
        <ele>407.9</ele>
      </trkpt>
      <trkpt lat="43.926772" lon="5.479827">
        <ele>407.6</ele>
      </trkpt>
      <trkpt lat="43.926703" lon="5.480095">
        <ele>409.6</ele>
      </trkpt>
      <trkpt lat="43.926633" lon="5.480342">
        <ele>401.2</ele>
      </trkpt>
      <trkpt lat="43.926594" lon="5.480589">
        <ele>403.6</ele>
      </trkpt>
      <trkpt lat="43.926563" lon="5.480857">
        <ele>410.1</ele>
      </trkpt>
      <trkpt lat="43.926533" lon="5.481238">
        <ele>408.3</ele>
      </trkpt>
      <trkpt lat="43.926533" lon="5.481538">
        <ele>411.4</ele>
      </trkpt>
      <trkpt lat="43.926529" lon="5.481737">
        <ele>414.4</ele>
      </trkpt>
      <trkpt lat="43.926490" lon="5.482026">
        <ele>412.9</ele>
      </trkpt>
      <trkpt lat="43.926440" lon="5.482375">
        <ele>414.3</ele>
      </trkpt>
      <trkpt lat="43.926378" lon="5.482735">
        <ele>418</ele>
      </trkpt>
      <trkpt lat="43.926312" lon="5.483073">
        <ele>419.2</ele>
      </trkpt>
      <trkpt lat="43.926254" lon="5.483378">
        <ele>426.7</ele>
      </trkpt>
      <trkpt lat="43.926196" lon="5.483545">
        <ele>426.8</ele>
      </trkpt>
      <trkpt lat="43.926092" lon="5.483647">
        <ele>426.5</ele>
      </trkpt>
      <trkpt lat="43.926007" lon="5.483689">
        <ele>426.2</ele>
      </trkpt>
      <trkpt lat="43.925853" lon="5.483689">
        <ele>425.2</ele>
      </trkpt>
      <trkpt lat="43.925710" lon="5.483636">
        <ele>418.4</ele>
      </trkpt>
      <trkpt lat="43.925451" lon="5.483528">
        <ele>417.8</ele>
      </trkpt>
      <trkpt lat="43.925230" lon="5.483416">
        <ele>416.8</ele>
      </trkpt>
      <trkpt lat="43.925118" lon="5.483394">
        <ele>415.9</ele>
      </trkpt>
      <trkpt lat="43.924995" lon="5.483443">
        <ele>413.9</ele>
      </trkpt>
      <trkpt lat="43.924902" lon="5.483507">
        <ele>413.8</ele>
      </trkpt>
      <trkpt lat="43.924782" lon="5.483630">
        <ele>413.7</ele>
      </trkpt>
      <trkpt lat="43.924674" lon="5.483786">
        <ele>413.8</ele>
      </trkpt>
      <trkpt lat="43.924610" lon="5.483905">
        <ele>413.7</ele>
      </trkpt>
      <trkpt lat="43.924409" lon="5.484565">
        <ele>414.1</ele>
      </trkpt>
    </trkseg>
  </trk>
</gpx>