<?xml version="1.0" encoding="UTF-8"?>
<gpx xmlns="http://www.topografix.com/GPX/1/1" version="1.1" creator="MyGPSFiles" xsi:schemaLocation="http://www.topografix.com/GPX/1/1 http://www.topografix.com/GPX/1/1/gpx.xsd" xmlns:xsi="http://www.w3.org/2001/XMLSchema-instance">
  <trk>
    <name>NewTrack</name>
    <desc>Total: 28.0km</desc>
    <trkseg>
      <trkpt lat="43.94156" lon="5.382314">
        <ele>367.48</ele>
      </trkpt>
      <trkpt lat="43.941626" lon="5.382088">
        <ele>369.36821919229243</ele>
      </trkpt>
      <trkpt lat="43.941734" lon="5.382083">
        <ele>370.59687376515234</ele>
      </trkpt>
      <trkpt lat="43.942112" lon="5.38204">
        <ele>375.94</ele>
      </trkpt>
      <trkpt lat="43.942367" lon="5.381917">
        <ele>380.33</ele>
      </trkpt>
      <trkpt lat="43.9419" lon="5.380688">
        <ele>374.5022350544118</ele>
      </trkpt>
      <trkpt lat="43.941734" lon="5.380334">
        <ele>371.80983483010965</ele>
      </trkpt>
      <trkpt lat="43.941722" lon="5.38013">
        <ele>371.49</ele>
      </trkpt>
      <trkpt lat="43.942502" lon="5.379661">
        <ele>381.79</ele>
      </trkpt>
      <trkpt lat="43.943245" lon="5.379214">
        <ele>391.9567872675343</ele>
      </trkpt>
      <trkpt lat="43.943549" lon="5.379031">
        <ele>393.8758812542066</ele>
      </trkpt>
      <trkpt lat="43.94357" lon="5.379123">
        <ele>394.07334883015005</ele>
      </trkpt>
      <trkpt lat="43.94351999999998" lon="5.379364">
        <ele>394.22</ele>
      </trkpt>
      <trkpt lat="43.943259999999995" lon="5.379906000000001">
        <ele>392.99676237801486</ele>
      </trkpt>
      <trkpt lat="43.94311999999998" lon="5.380152999999999">
        <ele>392.8339406347881</ele>
      </trkpt>
      <trkpt lat="43.943043" lon="5.380313">
        <ele>393.2821712255745</ele>
      </trkpt>
      <trkpt lat="43.943034" lon="5.380436">
        <ele>393.88</ele>
      </trkpt>
      <trkpt lat="43.943086" lon="5.380581">
        <ele>395.06901963058874</ele>
      </trkpt>
      <trkpt lat="43.943213" lon="5.380627">
        <ele>396.8105436654608</ele>
      </trkpt>
      <trkpt lat="43.943518" lon="5.38045">
        <ele>401.71</ele>
      </trkpt>
      <trkpt lat="43.944229" lon="5.38001">
        <ele>408.9537752658851</ele>
      </trkpt>
      <trkpt lat="43.944333" lon="5.380305">
        <ele>411.04</ele>
      </trkpt>
      <trkpt lat="43.945096" lon="5.380203">
        <ele>419.9534910468145</ele>
      </trkpt>
      <trkpt lat="43.945262" lon="5.380136">
        <ele>421.7</ele>
      </trkpt>
      <trkpt lat="43.945357" lon="5.380042">
        <ele>422.68677460231993</ele>
      </trkpt>
      <trkpt lat="43.945479" lon="5.379798">
        <ele>424.1700784861947</ele>
      </trkpt>
      <trkpt lat="43.945542" lon="5.379768">
        <ele>424.57256407563074</ele>
      </trkpt>
      <trkpt lat="43.945608" lon="5.379825">
        <ele>425.02260761471405</ele>
      </trkpt>
      <trkpt lat="43.945593" lon="5.380265">
        <ele>426.86</ele>
      </trkpt>
      <trkpt lat="43.945554" lon="5.380592">
        <ele>428.4944993253412</ele>
      </trkpt>
      <trkpt lat="43.945662" lon="5.38064">
        <ele>429.354491017733</ele>
      </trkpt>
      <trkpt lat="43.945849" lon="5.380576">
        <ele>430.91291462535924</ele>
      </trkpt>
      <trkpt lat="43.94595" lon="5.38053">
        <ele>431.814409069381</ele>
      </trkpt>
      <trkpt lat="43.946075" lon="5.38049">
        <ele>432.93</ele>
      </trkpt>
      <trkpt lat="43.946126" lon="5.38056">
        <ele>433.56416081076355</ele>
      </trkpt>
      <trkpt lat="43.946091" lon="5.380975">
        <ele>436.2737993430779</ele>
      </trkpt>
      <trkpt lat="43.946108" lon="5.381112">
        <ele>437.1820594279526</ele>
      </trkpt>
      <trkpt lat="43.946207" lon="5.381144">
        <ele>438.1</ele>
      </trkpt>
      <trkpt lat="43.946769" lon="5.380884">
        <ele>443.2420106948052</ele>
      </trkpt>
      <trkpt lat="43.946819" lon="5.380914">
        <ele>443.6815790938477</ele>
      </trkpt>
      <trkpt lat="43.946859" lon="5.380967">
        <ele>444.12</ele>
      </trkpt>
      <trkpt lat="43.946788" lon="5.381767">
        <ele>448.2928744562065</ele>
      </trkpt>
      <trkpt lat="43.946767" lon="5.38208">
        <ele>449.7846343880151</ele>
      </trkpt>
      <trkpt lat="43.946832" lon="5.382244">
        <ele>450.66</ele>
      </trkpt>
      <trkpt lat="43.947255" lon="5.382882">
        <ele>454.0012197713134</ele>
      </trkpt>
      <trkpt lat="43.947246" lon="5.383092">
        <ele>454.3342659416824</ele>
      </trkpt>
      <trkpt lat="43.947188" lon="5.383295">
        <ele>454.35</ele>
      </trkpt>
      <trkpt lat="43.947319" lon="5.383456">
        <ele>454.1</ele>
      </trkpt>
      <trkpt lat="43.948621" lon="5.384009">
        <ele>463.45</ele>
      </trkpt>
      <trkpt lat="43.94893" lon="5.384229">
        <ele>465.2747914482597</ele>
      </trkpt>
      <trkpt lat="43.94896" lon="5.384325">
        <ele>465.4449224359543</ele>
      </trkpt>
      <trkpt lat="43.948914" lon="5.384403">
        <ele>465.5168895817752</ele>
      </trkpt>
      <trkpt lat="43.948721" lon="5.384387">
        <ele>465.22</ele>
      </trkpt>
      <trkpt lat="43.947584" lon="5.384615">
        <ele>452.56</ele>
      </trkpt>
      <trkpt lat="43.947502" lon="5.384631">
        <ele>451.45376986191127</ele>
      </trkpt>
      <trkpt lat="43.947286" lon="5.384725">
        <ele>448.9162809209138</ele>
      </trkpt>
      <trkpt lat="43.947047" lon="5.384867">
        <ele>447.79023001940607</ele>
      </trkpt>
      <trkpt lat="43.946944" lon="5.384958">
        <ele>448.28</ele>
      </trkpt>
      <trkpt lat="43.947143" lon="5.385098">
        <ele>450.95</ele>
      </trkpt>
      <trkpt lat="43.947978" lon="5.385379">
        <ele>467.23384649173244</ele>
      </trkpt>
      <trkpt lat="43.948254" lon="5.385565">
        <ele>473.55811765552227</ele>
      </trkpt>
      <trkpt lat="43.948501" lon="5.385642">
        <ele>478.44</ele>
      </trkpt>
      <trkpt lat="43.948702" lon="5.385844">
        <ele>482.7645035467919</ele>
      </trkpt>
      <trkpt lat="43.948818" lon="5.385908">
        <ele>484.8332510372938</ele>
      </trkpt>
      <trkpt lat="43.949069" lon="5.385983">
        <ele>489.09</ele>
      </trkpt>
      <trkpt lat="43.949337" lon="5.386077">
        <ele>493.95400441884806</ele>
      </trkpt>
      <trkpt lat="43.949511" lon="5.386195">
        <ele>497.57974273076053</ele>
      </trkpt>
      <trkpt lat="43.94959" lon="5.386358">
        <ele>500.3477712018309</ele>
      </trkpt>
      <trkpt lat="43.94969" lon="5.386444">
        <ele>502.72</ele>
      </trkpt>
      <trkpt lat="43.950119" lon="5.386554">
        <ele>511.7203311236204</ele>
      </trkpt>
      <trkpt lat="43.950281" lon="5.386662">
        <ele>515.1648156552685</ele>
      </trkpt>
      <trkpt lat="43.950538" lon="5.386755">
        <ele>519.4914010106886</ele>
      </trkpt>
      <trkpt lat="43.950619" lon="5.386847">
        <ele>520.85</ele>
      </trkpt>
      <trkpt lat="43.950768" lon="5.38719">
        <ele>523.6123779230196</ele>
      </trkpt>
      <trkpt lat="43.950824" lon="5.387394">
        <ele>524.908843435294</ele>
      </trkpt>
      <trkpt lat="43.950975" lon="5.387603">
        <ele>527.01</ele>
      </trkpt>
      <trkpt lat="43.951536" lon="5.387893">
        <ele>536.4782496165742</ele>
      </trkpt>
      <trkpt lat="43.951799" lon="5.38796">
        <ele>541.01</ele>
      </trkpt>
      <trkpt lat="43.952075" lon="5.388177">
        <ele>545.4884485990997</ele>
      </trkpt>
      <trkpt lat="43.952206" lon="5.388282">
        <ele>547.3300646773291</ele>
      </trkpt>
      <trkpt lat="43.952396" lon="5.388571">
        <ele>550.4814972783773</ele>
      </trkpt>
      <trkpt lat="43.952535" lon="5.388668">
        <ele>552.16</ele>
      </trkpt>
      <trkpt lat="43.952691" lon="5.388936">
        <ele>554.8759992318635</ele>
      </trkpt>
      <trkpt lat="43.952801" lon="5.389086">
        <ele>556.5756011111312</ele>
      </trkpt>
      <trkpt lat="43.952898" lon="5.389156">
        <ele>557.7771848941105</ele>
      </trkpt>
      <trkpt lat="43.953066" lon="5.389341">
        <ele>560.11</ele>
      </trkpt>
      <trkpt lat="43.953265" lon="5.389695">
        <ele>563.5719674167203</ele>
      </trkpt>
      <trkpt lat="43.95345" lon="5.389996">
        <ele>566.7407173533938</ele>
      </trkpt>
      <trkpt lat="43.953576" lon="5.390189">
        <ele>568.99</ele>
      </trkpt>
      <trkpt lat="43.953913" lon="5.390374">
        <ele>573.9291642398889</ele>
      </trkpt>
      <trkpt lat="43.954074" lon="5.390462">
        <ele>576.652661981478</ele>
      </trkpt>
      <trkpt lat="43.954184" lon="5.390556">
        <ele>578.8737736803632</ele>
      </trkpt>
      <trkpt lat="43.954425" lon="5.390653">
        <ele>583.71</ele>
      </trkpt>
      <trkpt lat="43.95457" lon="5.390798">
        <ele>587.5761793636428</ele>
      </trkpt>
      <trkpt lat="43.954839999999976" lon="5.390914">
        <ele>593.7741785728358</ele>
      </trkpt>
      <trkpt lat="43.95512" lon="5.391058">
        <ele>599.28</ele>
      </trkpt>
      <trkpt lat="43.955479999999994" lon="5.391359">
        <ele>603.8766052249476</ele>
      </trkpt>
      <trkpt lat="43.95577000000001" lon="5.391643">
        <ele>606.9400339149871</ele>
      </trkpt>
      <trkpt lat="43.955889" lon="5.391828">
        <ele>609.02</ele>
      </trkpt>
      <trkpt lat="43.956244" lon="5.392034">
        <ele>615.5629581657929</ele>
      </trkpt>
      <trkpt lat="43.956427" lon="5.392144">
        <ele>619.5019944073812</ele>
      </trkpt>
      <trkpt lat="43.956675" lon="5.392243">
        <ele>624.4</ele>
      </trkpt>
      <trkpt lat="43.95698" lon="5.392348">
        <ele>629.3099071239727</ele>
      </trkpt>
      <trkpt lat="43.957287" lon="5.392402">
        <ele>633.14</ele>
      </trkpt>
      <trkpt lat="43.957545" lon="5.392603">
        <ele>636.1510072984153</ele>
      </trkpt>
      <trkpt lat="43.95777" lon="5.392625">
        <ele>638.0556909050578</ele>
      </trkpt>
      <trkpt lat="43.95816000000001" lon="5.392619">
        <ele>640.56</ele>
      </trkpt>
      <trkpt lat="43.9583" lon="5.392748">
        <ele>641.3530052429124</ele>
      </trkpt>
      <trkpt lat="43.95839999999999" lon="5.39277">
        <ele>641.7918312918805</ele>
      </trkpt>
      <trkpt lat="43.958629999999985" lon="5.392990000000001">
        <ele>643.099115167403</ele>
      </trkpt>
      <trkpt lat="43.958909999999996" lon="5.393065">
        <ele>645.03</ele>
      </trkpt>
      <trkpt lat="43.959607" lon="5.393873">
        <ele>657.0708952833727</ele>
      </trkpt>
      <trkpt lat="43.959909" lon="5.394223">
        <ele>663.43</ele>
      </trkpt>
      <trkpt lat="43.96072" lon="5.394738">
        <ele>676.3270414526843</ele>
      </trkpt>
      <trkpt lat="43.960916" lon="5.394791">
        <ele>678.9</ele>
      </trkpt>
      <trkpt lat="43.961144" lon="5.395068">
        <ele>682.6464448611438</ele>
      </trkpt>
      <trkpt lat="43.961571" lon="5.395365">
        <ele>688.6</ele>
      </trkpt>
      <trkpt lat="43.962125" lon="5.395937">
        <ele>697.03</ele>
      </trkpt>
      <trkpt lat="43.962496" lon="5.396079">
        <ele>699.8336835483017</ele>
      </trkpt>
      <trkpt lat="43.962749" lon="5.396371">
        <ele>701.8161439003648</ele>
      </trkpt>
      <trkpt lat="43.962951" lon="5.39646">
        <ele>703.41</ele>
      </trkpt>
      <trkpt lat="43.963152" lon="5.396583">
        <ele>705.5571192913621</ele>
      </trkpt>
      <trkpt lat="43.963314" lon="5.39683">
        <ele>708.13</ele>
      </trkpt>
      <trkpt lat="43.964326" lon="5.397457">
        <ele>717.77</ele>
      </trkpt>
      <trkpt lat="43.964627" lon="5.397702">
        <ele>720.7816677875974</ele>
      </trkpt>
      <trkpt lat="43.964832" lon="5.397769">
        <ele>722.8337807012003</ele>
      </trkpt>
      <trkpt lat="43.96493" lon="5.397884">
        <ele>724.2156434355979</ele>
      </trkpt>
      <trkpt lat="43.965069" lon="5.397948">
        <ele>725.9400563314825</ele>
      </trkpt>
      <trkpt lat="43.965156" lon="5.398077">
        <ele>727.59</ele>
      </trkpt>
      <trkpt lat="43.965322" lon="5.398176">
        <ele>730.1449970533829</ele>
      </trkpt>
      <trkpt lat="43.965523" lon="5.398504">
        <ele>734.3971290088388</ele>
      </trkpt>
      <trkpt lat="43.965666" lon="5.398552">
        <ele>735.98</ele>
      </trkpt>
      <trkpt lat="43.966052" lon="5.398597">
        <ele>738.3279046091085</ele>
      </trkpt>
      <trkpt lat="43.966164" lon="5.398541">
        <ele>738.8222895521144</ele>
      </trkpt>
      <trkpt lat="43.966226" lon="5.398549">
        <ele>739.0944351226958</ele>
      </trkpt>
      <trkpt lat="43.966311" lon="5.398624">
        <ele>739.5953063198976</ele>
      </trkpt>
      <trkpt lat="43.9666" lon="5.398694">
        <ele>741.94</ele>
      </trkpt>
      <trkpt lat="43.96678" lon="5.398901">
        <ele>745.1391478508327</ele>
      </trkpt>
      <trkpt lat="43.966971" lon="5.398965">
        <ele>748.18</ele>
      </trkpt>
      <trkpt lat="43.967675" lon="5.399107">
        <ele>757.4379522232629</ele>
      </trkpt>
      <trkpt lat="43.967909" lon="5.399174">
        <ele>760.45</ele>
      </trkpt>
      <trkpt lat="43.968363" lon="5.39926">
        <ele>766.9681226286128</ele>
      </trkpt>
      <trkpt lat="43.968701" lon="5.399375">
        <ele>772.5</ele>
      </trkpt>
      <trkpt lat="43.969334" lon="5.399536">
        <ele>783.3012886943924</ele>
      </trkpt>
      <trkpt lat="43.969797" lon="5.399587">
        <ele>790.42</ele>
      </trkpt>
      <trkpt lat="43.970031" lon="5.399678">
        <ele>793.5911034016717</ele>
      </trkpt>
      <trkpt lat="43.970363" lon="5.399673">
        <ele>797.4431467975935</ele>
      </trkpt>
      <trkpt lat="43.970482" lon="5.39967">
        <ele>798.75</ele>
      </trkpt>
      <trkpt lat="43.970801" lon="5.399807">
        <ele>802.3969054031639</ele>
      </trkpt>
      <trkpt lat="43.970861" lon="5.399823">
        <ele>803.07915277203</ele>
      </trkpt>
      <trkpt lat="43.970957" lon="5.400003">
        <ele>804.9354780919144</ele>
      </trkpt>
      <trkpt lat="43.971312" lon="5.400207">
        <ele>809.84</ele>
      </trkpt>
      <trkpt lat="43.971554" lon="5.400408">
        <ele>813.9640777941345</ele>
      </trkpt>
      <trkpt lat="43.972005" lon="5.40062">
        <ele>820.4</ele>
      </trkpt>
      <trkpt lat="43.972231" lon="5.400596">
        <ele>822.507664062723</ele>
      </trkpt>
      <trkpt lat="43.972384" lon="5.400499">
        <ele>823.55219259668</ele>
      </trkpt>
      <trkpt lat="43.972687" lon="5.400386">
        <ele>824.27</ele>
      </trkpt>
      <trkpt lat="43.972889999999985" lon="5.400274">
        <ele>823.9291746917263</ele>
      </trkpt>
      <trkpt lat="43.972982" lon="5.400008">
        <ele>823.5950492341436</ele>
      </trkpt>
      <trkpt lat="43.973094" lon="5.399829">
        <ele>823.84</ele>
      </trkpt>
      <trkpt lat="43.973941" lon="5.399649">
        <ele>831.75</ele>
      </trkpt>
      <trkpt lat="43.974876" lon="5.399413">
        <ele>836.55</ele>
      </trkpt>
      <trkpt lat="43.975283" lon="5.399593">
        <ele>842.7128848560669</ele>
      </trkpt>
      <trkpt lat="43.975478" lon="5.399759">
        <ele>847.04</ele>
      </trkpt>
      <trkpt lat="43.975854" lon="5.400121">
        <ele>856.083326202614</ele>
      </trkpt>
      <trkpt lat="43.975995" lon="5.400392">
        <ele>860.4876305858655</ele>
      </trkpt>
      <trkpt lat="43.976175" lon="5.400427">
        <ele>863.41</ele>
      </trkpt>
      <trkpt lat="43.976455" lon="5.400445">
        <ele>867.1716456645623</ele>
      </trkpt>
      <trkpt lat="43.976844" lon="5.400647">
        <ele>872.71</ele>
      </trkpt>
      <trkpt lat="43.977327" lon="5.400859">
        <ele>881.4</ele>
      </trkpt>
      <trkpt lat="43.978076" lon="5.401137">
        <ele>891.7883252702417</ele>
      </trkpt>
      <trkpt lat="43.978317" lon="5.40125">
        <ele>894.5398311773279</ele>
      </trkpt>
      <trkpt lat="43.978514" lon="5.40136">
        <ele>896.79</ele>
      </trkpt>
      <trkpt lat="43.978887" lon="5.401465">
        <ele>900.76</ele>
      </trkpt>
      <trkpt lat="43.979684" lon="5.401561">
        <ele>906.1713062164189</ele>
      </trkpt>
      <trkpt lat="43.980162" lon="5.401478">
        <ele>906.49</ele>
      </trkpt>
      <trkpt lat="43.980689" lon="5.401221">
        <ele>905.24</ele>
      </trkpt>
      <trkpt lat="43.981276" lon="5.400813">
        <ele>909.1127358440228</ele>
      </trkpt>
      <trkpt lat="43.981579999999994" lon="5.40051">
        <ele>911.4862267803358</ele>
      </trkpt>
      <trkpt lat="43.981658" lon="5.400451">
        <ele>911.7544384810923</ele>
      </trkpt>
      <trkpt lat="43.981699" lon="5.400333">
        <ele>911.85</ele>
      </trkpt>
      <trkpt lat="43.98176999999999" lon="5.400114">
        <ele>911.5071732206653</ele>
      </trkpt>
      <trkpt lat="43.982204" lon="5.399399">
        <ele>910.36</ele>
      </trkpt>
      <trkpt lat="43.982438" lon="5.399222">
        <ele>912.8442322326215</ele>
      </trkpt>
      <trkpt lat="43.982671" lon="5.399069">
        <ele>915.11</ele>
      </trkpt>
      <trkpt lat="43.983248" lon="5.398399">
        <ele>912.73</ele>
      </trkpt>
      <trkpt lat="43.984265" lon="5.397594">
        <ele>915.38</ele>
      </trkpt>
      <trkpt lat="43.984404" lon="5.397484">
        <ele>915.28</ele>
      </trkpt>
      <trkpt lat="43.985111" lon="5.397095">
        <ele>919.9660478470549</ele>
      </trkpt>
      <trkpt lat="43.985802" lon="5.397007">
        <ele>927.05</ele>
      </trkpt>
      <trkpt lat="43.986307" lon="5.397055">
        <ele>930.0898511816343</ele>
      </trkpt>
      <trkpt lat="43.986504" lon="5.39717">
        <ele>930.62</ele>
      </trkpt>
      <trkpt lat="43.986772" lon="5.397334">
        <ele>930.7800458026617</ele>
      </trkpt>
      <trkpt lat="43.986906" lon="5.397428">
        <ele>930.8396561481597</ele>
      </trkpt>
      <trkpt lat="43.986909" lon="5.397474">
        <ele>930.8687016880493</ele>
      </trkpt>
      <trkpt lat="43.986576" lon="5.397407">
        <ele>931.88</ele>
      </trkpt>
      <trkpt lat="43.986234" lon="5.397463">
        <ele>934.859964900829</ele>
      </trkpt>
      <trkpt lat="43.985846" lon="5.397704">
        <ele>940.2</ele>
      </trkpt>
      <trkpt lat="43.985632" lon="5.397951">
        <ele>943.8499208665353</ele>
      </trkpt>
      <trkpt lat="43.985454" lon="5.39809">
        <ele>946.4492122128446</ele>
      </trkpt>
      <trkpt lat="43.985227" lon="5.398337">
        <ele>949.94</ele>
      </trkpt>
      <trkpt lat="43.984821" lon="5.398901">
        <ele>956.0930315539549</ele>
      </trkpt>
      <trkpt lat="43.984574" lon="5.399158">
        <ele>959.01</ele>
      </trkpt>
      <trkpt lat="43.984440000000006" lon="5.399379">
        <ele>960.8896830880452</ele>
      </trkpt>
      <trkpt lat="43.98427" lon="5.39962">
        <ele>963.2829825492253</ele>
      </trkpt>
      <trkpt lat="43.984179999999995" lon="5.399792000000001">
        <ele>965.0669666997524</ele>
      </trkpt>
      <trkpt lat="43.9841" lon="5.399936">
        <ele>966.85</ele>
      </trkpt>
      <trkpt lat="43.984046" lon="5.400231">
        <ele>970.4321101208615</ele>
      </trkpt>
      <trkpt lat="43.984044" lon="5.400403">
        <ele>972.6895493092974</ele>
      </trkpt>
      <trkpt lat="43.984065" lon="5.400456">
        <ele>973.506130331741</ele>
      </trkpt>
      <trkpt lat="43.984227" lon="5.400408">
        <ele>976.647592037324</ele>
      </trkpt>
      <trkpt lat="43.984435" lon="5.40036">
        <ele>980.5477388155767</ele>
      </trkpt>
      <trkpt lat="43.984513" lon="5.400373">
        <ele>981.9118997053065</ele>
      </trkpt>
      <trkpt lat="43.984532" lon="5.400435">
        <ele>982.72</ele>
      </trkpt>
      <trkpt lat="43.984545" lon="5.400566">
        <ele>984.2185119003994</ele>
      </trkpt>
      <trkpt lat="43.984501" lon="5.400848">
        <ele>987.2229971334427</ele>
      </trkpt>
      <trkpt lat="43.984555" lon="5.401172">
        <ele>990.6362067526921</ele>
      </trkpt>
      <trkpt lat="43.984632" lon="5.401593">
        <ele>995.92</ele>
      </trkpt>
      <trkpt lat="43.984756" lon="5.401883">
        <ele>1001.0628109642622</ele>
      </trkpt>
      <trkpt lat="43.98481" lon="5.402237">
        <ele>1006.328562392002</ele>
      </trkpt>
      <trkpt lat="43.984926" lon="5.402462">
        <ele>1009.08</ele>
      </trkpt>
      <trkpt lat="43.98481" lon="5.402817">
        <ele>1010.3166155550908</ele>
      </trkpt>
      <trkpt lat="43.984715" lon="5.40324">
        <ele>1011.11</ele>
      </trkpt>
      <trkpt lat="43.984671" lon="5.403911">
        <ele>1017.6065520147038</ele>
      </trkpt>
      <trkpt lat="43.984787" lon="5.404308">
        <ele>1023.3840250446672</ele>
      </trkpt>
      <trkpt lat="43.984806" lon="5.404512">
        <ele>1025.97</ele>
      </trkpt>
      <trkpt lat="43.984779" lon="5.404876">
        <ele>1029.717032414483</ele>
      </trkpt>
      <trkpt lat="43.984781" lon="5.405292">
        <ele>1032.89</ele>
      </trkpt>
      <trkpt lat="43.984717" lon="5.406046">
        <ele>1037.0474243593903</ele>
      </trkpt>
      <trkpt lat="43.984771" lon="5.406218">
        <ele>1037.9289174110108</ele>
      </trkpt>
      <trkpt lat="43.984864" lon="5.406057">
        <ele>1038.8965688187795</ele>
      </trkpt>
      <trkpt lat="43.985026" lon="5.405799">
        <ele>1040.5940960945286</ele>
      </trkpt>
      <trkpt lat="43.985176" lon="5.405676">
        <ele>1041.94</ele>
      </trkpt>
      <trkpt lat="43.985304" lon="5.40566">
        <ele>1043.036845528578</ele>
      </trkpt>
      <trkpt lat="43.985373" lon="5.405713">
        <ele>1043.7374010781043</ele>
      </trkpt>
      <trkpt lat="43.985404" lon="5.405839">
        <ele>1044.5966588733454</ele>
      </trkpt>
      <trkpt lat="43.985418" lon="5.406078">
        <ele>1046.0909852807565</ele>
      </trkpt>
      <trkpt lat="43.98545" lon="5.406148">
        <ele>1046.5715598588897</ele>
      </trkpt>
      <trkpt lat="43.98558" lon="5.406161">
        <ele>1047.516198277581</ele>
      </trkpt>
      <trkpt lat="43.985636" lon="5.406196">
        <ele>1047.9</ele>
      </trkpt>
      <trkpt lat="43.985626" lon="5.406475">
        <ele>1048.8472180979923</ele>
      </trkpt>
      <trkpt lat="43.985541" lon="5.406816">
        <ele>1049.4924390956937</ele>
      </trkpt>
      <trkpt lat="43.98553" lon="5.407095">
        <ele>1049.6847465602605</ele>
      </trkpt>
      <trkpt lat="43.985514" lon="5.407347">
        <ele>1049.73</ele>
      </trkpt>
      <trkpt lat="43.985533" lon="5.407497">
        <ele>1049.7252302976356</ele>
      </trkpt>
      <trkpt lat="43.985399999999984" lon="5.407898">
        <ele>1049.3042585611222</ele>
      </trkpt>
      <trkpt lat="43.985329" lon="5.408023">
        <ele>1048.8820025576877</ele>
      </trkpt>
      <trkpt lat="43.98524999999999" lon="5.408078000000001">
        <ele>1048.4168586820035</ele>
      </trkpt>
      <trkpt lat="43.98523" lon="5.408126">
        <ele>1048.160663885714</ele>
      </trkpt>
      <trkpt lat="43.985186" lon="5.408194">
        <ele>1047.6703517738856</ele>
      </trkpt>
      <trkpt lat="43.98521" lon="5.408241">
        <ele>1047.3146256418045</ele>
      </trkpt>
      <trkpt lat="43.985173" lon="5.408326">
        <ele>1046.61</ele>
      </trkpt>
      <trkpt lat="43.985113" lon="5.408355">
        <ele>1045.88541646235</ele>
      </trkpt>
      <trkpt lat="43.98502000000001" lon="5.408392">
        <ele>1044.6291227804275</ele>
      </trkpt>
      <trkpt lat="43.98496999999999" lon="5.408371000000001">
        <ele>1043.8903147597634</ele>
      </trkpt>
      <trkpt lat="43.98491999999999" lon="5.408346">
        <ele>1043.1061816416143</ele>
      </trkpt>
      <trkpt lat="43.98487" lon="5.408328">
        <ele>1042.3213617794115</ele>
      </trkpt>
      <trkpt lat="43.98481999999998" lon="5.408336">
        <ele>1041.5428380353376</ele>
      </trkpt>
      <trkpt lat="43.98476999999999" lon="5.408304000000001">
        <ele>1040.684354561766</ele>
      </trkpt>
      <trkpt lat="43.98472999999998" lon="5.408277">
        <ele>1039.9923549306</ele>
      </trkpt>
      <trkpt lat="43.98464999999999" lon="5.408177">
        <ele>1038.3556108478147</ele>
      </trkpt>
      <trkpt lat="43.984532" lon="5.408111">
        <ele>1036.5768552223512</ele>
      </trkpt>
      <trkpt lat="43.984474" lon="5.408079">
        <ele>1035.8</ele>
      </trkpt>
      <trkpt lat="43.984389" lon="5.408087">
        <ele>1034.86410614038</ele>
      </trkpt>
      <trkpt lat="43.98422" lon="5.408027">
        <ele>1033.285641811784</ele>
      </trkpt>
      <trkpt lat="43.983876" lon="5.407846">
        <ele>1030.3145467444972</ele>
      </trkpt>
      <trkpt lat="43.984080000000006" lon="5.40796">
        <ele>1027.88</ele>
      </trkpt>
      <trkpt lat="43.98397999999999" lon="5.407908999999999">
        <ele>1026.3237034037463</ele>
      </trkpt>
      <trkpt lat="43.983621" lon="5.40773">
        <ele>1019.144971802187</ele>
      </trkpt>
      <trkpt lat="43.983515" lon="5.407685">
        <ele>1016.7950584809171</ele>
      </trkpt>
      <trkpt lat="43.98341" lon="5.407598">
        <ele>1014.1747653879544</ele>
      </trkpt>
      <trkpt lat="43.983349999999994" lon="5.407576999999999">
        <ele>1012.86</ele>
      </trkpt>
      <trkpt lat="43.98329" lon="5.407609">
        <ele>1011.5121824907646</ele>
      </trkpt>
      <trkpt lat="43.98319999999998" lon="5.407606">
        <ele>1009.6552682461519</ele>
      </trkpt>
      <trkpt lat="43.98283" lon="5.407392">
        <ele>1001.664746115519</ele>
      </trkpt>
      <trkpt lat="43.98272" lon="5.407357">
        <ele>999.4500952792872</ele>
      </trkpt>
      <trkpt lat="43.98263000000001" lon="5.407357">
        <ele>997.68</ele>
      </trkpt>
      <trkpt lat="43.982470000000006" lon="5.407241">
        <ele>994.1050492447253</ele>
      </trkpt>
      <trkpt lat="43.982429999999994" lon="5.407209">
        <ele>993.1882276848762</ele>
      </trkpt>
      <trkpt lat="43.982299999999995" lon="5.407181999999999">
        <ele>990.5823633137788</ele>
      </trkpt>
      <trkpt lat="43.982172" lon="5.407057">
        <ele>987.4980791649803</ele>
      </trkpt>
      <trkpt lat="43.981911" lon="5.406907">
        <ele>982.06</ele>
      </trkpt>
      <trkpt lat="43.98178" lon="5.406848">
        <ele>979.4912771095686</ele>
      </trkpt>
      <trkpt lat="43.98171999999999" lon="5.406863">
        <ele>978.3642772791669</ele>
      </trkpt>
      <trkpt lat="43.98161999999999" lon="5.406844">
        <ele>976.4983318467753</ele>
      </trkpt>
      <trkpt lat="43.98154999999998" lon="5.406871">
        <ele>975.1468365667696</ele>
      </trkpt>
      <trkpt lat="43.98152" lon="5.406819999999999">
        <ele>974.2562274276133</ele>
      </trkpt>
      <trkpt lat="43.98126999999999" lon="5.40667">
        <ele>968.9456033128905</ele>
      </trkpt>
      <trkpt lat="43.98117" lon="5.406614">
        <ele>966.7</ele>
      </trkpt>
      <trkpt lat="43.980900000000005" lon="5.406574000000001">
        <ele>960.7061227126319</ele>
      </trkpt>
      <trkpt lat="43.98061" lon="5.406375">
        <ele>953.8618468870316</ele>
      </trkpt>
      <trkpt lat="43.98041" lon="5.406236">
        <ele>950.0586271585071</ele>
      </trkpt>
      <trkpt lat="43.9803" lon="5.406259999999999">
        <ele>948.63</ele>
      </trkpt>
      <trkpt lat="43.98018" lon="5.406501">
        <ele>946.901359435578</ele>
      </trkpt>
      <trkpt lat="43.98010999999998" lon="5.406858">
        <ele>946.0751142672705</ele>
      </trkpt>
      <trkpt lat="43.98004000000001" lon="5.407201000000001">
        <ele>945.98</ele>
      </trkpt>
      <trkpt lat="43.97997999999997" lon="5.407559">
        <ele>945.858498392466</ele>
      </trkpt>
      <trkpt lat="43.98000999999999" lon="5.407656">
        <ele>945.7469552203753</ele>
      </trkpt>
      <trkpt lat="43.98004000000001" lon="5.407717">
        <ele>945.6379766520809</ele>
      </trkpt>
      <trkpt lat="43.980059999999995" lon="5.407782">
        <ele>945.5060370912469</ele>
      </trkpt>
      <trkpt lat="43.980059999999995" lon="5.407884">
        <ele>945.2615426396553</ele>
      </trkpt>
      <trkpt lat="43.98005" lon="5.407980000000001">
        <ele>944.9622151589152</ele>
      </trkpt>
      <trkpt lat="43.98006999999998" lon="5.408197">
        <ele>944.005514049832</ele>
      </trkpt>
      <trkpt lat="43.980079999999994" lon="5.408299">
        <ele>943.4</ele>
      </trkpt>
      <trkpt lat="43.980079999999994" lon="5.4084579999999995">
        <ele>942.253631135542</ele>
      </trkpt>
      <trkpt lat="43.98005" lon="5.408565000000001">
        <ele>941.2854083489028</ele>
      </trkpt>
      <trkpt lat="43.98000999999999" lon="5.408629000000001">
        <ele>940.5075487618919</ele>
      </trkpt>
      <trkpt lat="43.97987999999998" lon="5.40875">
        <ele>938.3192461869608</ele>
      </trkpt>
      <trkpt lat="43.97976999999998" lon="5.40882">
        <ele>936.49450884455</ele>
      </trkpt>
      <trkpt lat="43.979697" lon="5.408798">
        <ele>935.3368299979884</ele>
      </trkpt>
      <trkpt lat="43.97962999999999" lon="5.408814">
        <ele>934.275530666217</ele>
      </trkpt>
      <trkpt lat="43.979519999999994" lon="5.408994">
        <ele>931.65</ele>
      </trkpt>
      <trkpt lat="43.97951000000001" lon="5.409264">
        <ele>928.7876127712108</ele>
      </trkpt>
      <trkpt lat="43.97947" lon="5.409403999999999">
        <ele>927.2223640542569</ele>
      </trkpt>
      <trkpt lat="43.97943" lon="5.409503">
        <ele>926.0320449899804</ele>
      </trkpt>
      <trkpt lat="43.979349999999975" lon="5.4096">
        <ele>924.4486979898714</ele>
      </trkpt>
      <trkpt lat="43.979107" lon="5.409712">
        <ele>920.29</ele>
      </trkpt>
      <trkpt lat="43.979004" lon="5.40989">
        <ele>917.2314188483449</ele>
      </trkpt>
      <trkpt lat="43.978834" lon="5.410099">
        <ele>912.5031754445453</ele>
      </trkpt>
      <trkpt lat="43.978755" lon="5.410142">
        <ele>910.5994185499525</ele>
      </trkpt>
      <trkpt lat="43.978663" lon="5.410198">
        <ele>908.2561698498523</ele>
      </trkpt>
      <trkpt lat="43.978641" lon="5.410297">
        <ele>906.4524512631515</ele>
      </trkpt>
      <trkpt lat="43.978711" lon="5.410402">
        <ele>903.8855800462195</ele>
      </trkpt>
      <trkpt lat="43.978717" lon="5.41048">
        <ele>902.44</ele>
      </trkpt>
      <trkpt lat="43.978672" lon="5.410635">
        <ele>899.2837115984337</ele>
      </trkpt>
      <trkpt lat="43.978624" lon="5.410665">
        <ele>897.8778292519178</ele>
      </trkpt>
      <trkpt lat="43.978591" lon="5.410732">
        <ele>896.2980514532546</ele>
      </trkpt>
      <trkpt lat="43.978553" lon="5.410756">
        <ele>895.1624496436702</ele>
      </trkpt>
      <trkpt lat="43.978448" lon="5.410847">
        <ele>891.7630352677127</ele>
      </trkpt>
      <trkpt lat="43.9784" lon="5.411046">
        <ele>887.5738420955292</ele>
      </trkpt>
      <trkpt lat="43.978309999999986" lon="5.41123">
        <ele>883.1540068736001</ele>
      </trkpt>
      <trkpt lat="43.978267" lon="5.411284">
        <ele>881.5714712038197</ele>
      </trkpt>
      <trkpt lat="43.97817" lon="5.4113">
        <ele>878.94</ele>
      </trkpt>
      <trkpt lat="43.978076" lon="5.411322">
        <ele>876.4209166587412</ele>
      </trkpt>
      <trkpt lat="43.978049" lon="5.41141">
        <ele>874.6321380275671</ele>
      </trkpt>
      <trkpt lat="43.978068" lon="5.411523">
        <ele>872.5071462538834</ele>
      </trkpt>
      <trkpt lat="43.978039" lon="5.411654">
        <ele>870.069196005583</ele>
      </trkpt>
      <trkpt lat="43.977991" lon="5.411625">
        <ele>868.813297495074</ele>
      </trkpt>
      <trkpt lat="43.977902" lon="5.41166">
        <ele>866.6582954257663</ele>
      </trkpt>
      <trkpt lat="43.9779" lon="5.411703">
        <ele>865.9529944350003</ele>
      </trkpt>
      <trkpt lat="43.977918" lon="5.411799">
        <ele>864.3688505076461</ele>
      </trkpt>
      <trkpt lat="43.97798000000001" lon="5.41185">
        <ele>862.8323232056555</ele>
      </trkpt>
      <trkpt lat="43.977979" lon="5.411901">
        <ele>862.0711556762207</ele>
      </trkpt>
      <trkpt lat="43.97791" lon="5.411952">
        <ele>860.5117666664831</ele>
      </trkpt>
      <trkpt lat="43.977869" lon="5.411974">
        <ele>859.67</ele>
      </trkpt>
      <trkpt lat="43.97786" lon="5.412022">
        <ele>859.0037623437839</ele>
      </trkpt>
      <trkpt lat="43.977923" lon="5.412086">
        <ele>857.6101217326218</ele>
      </trkpt>
      <trkpt lat="43.977947" lon="5.412143">
        <ele>856.8004712872607</ele>
      </trkpt>
      <trkpt lat="43.977937" lon="5.412253">
        <ele>855.5078252524698</ele>
      </trkpt>
      <trkpt lat="43.977831" lon="5.412301">
        <ele>853.8475719039815</ele>
      </trkpt>
      <trkpt lat="43.977721" lon="5.412301">
        <ele>852.3680578904139</ele>
      </trkpt>
      <trkpt lat="43.977674" lon="5.412354">
        <ele>851.6189595855934</ele>
      </trkpt>
      <trkpt lat="43.977609" lon="5.41236">
        <ele>850.865792539935</ele>
      </trkpt>
      <trkpt lat="43.977559" lon="5.412408">
        <ele>850.2104888405386</ele>
      </trkpt>
      <trkpt lat="43.977472" lon="5.412419">
        <ele>849.35</ele>
      </trkpt>
      <trkpt lat="43.977389" lon="5.412507">
        <ele>848.4334737737875</ele>
      </trkpt>
      <trkpt lat="43.977283" lon="5.412548">
        <ele>847.5446107030243</ele>
      </trkpt>
      <trkpt lat="43.977182" lon="5.412599">
        <ele>846.6826887239063</ele>
      </trkpt>
      <trkpt lat="43.977061" lon="5.412631">
        <ele>845.613855053579</ele>
      </trkpt>
      <trkpt lat="43.977082" lon="5.412671">
        <ele>845.273948520859</ele>
      </trkpt>
      <trkpt lat="43.977175" lon="5.41269">
        <ele>844.2863323029193</ele>
      </trkpt>
      <trkpt lat="43.977231" lon="5.412679">
        <ele>843.6126429873133</ele>
      </trkpt>
      <trkpt lat="43.977395" lon="5.412792">
        <ele>840.8871282284407</ele>
      </trkpt>
      <trkpt lat="43.977452" lon="5.412797">
        <ele>839.83</ele>
      </trkpt>
      <trkpt lat="43.977505" lon="5.412832">
        <ele>838.6264088932178</ele>
      </trkpt>
      <trkpt lat="43.977564" lon="5.412853">
        <ele>837.2650998664934</ele>
      </trkpt>
      <trkpt lat="43.977586" lon="5.412912">
        <ele>836.1247429144524</ele>
      </trkpt>
      <trkpt lat="43.977572" lon="5.413006">
        <ele>834.3887632169232</ele>
      </trkpt>
      <trkpt lat="43.977651" lon="5.413055">
        <ele>832.1119416862468</ele>
      </trkpt>
      <trkpt lat="43.97774" lon="5.413162">
        <ele>828.9062453629159</ele>
      </trkpt>
      <trkpt lat="43.977858" lon="5.413199">
        <ele>825.6153178591626</ele>
      </trkpt>
      <trkpt lat="43.977871" lon="5.413301">
        <ele>823.6422766209283</ele>
      </trkpt>
      <trkpt lat="43.977827" lon="5.413435">
        <ele>820.997329998895</ele>
      </trkpt>
      <trkpt lat="43.977883" lon="5.413478">
        <ele>819.53</ele>
      </trkpt>
      <trkpt lat="43.978037" lon="5.413481">
        <ele>816.4666925796363</ele>
      </trkpt>
      <trkpt lat="43.978115" lon="5.413524">
        <ele>815.0493150522669</ele>
      </trkpt>
      <trkpt lat="43.978165" lon="5.413481">
        <ele>814.1486071623286</ele>
      </trkpt>
      <trkpt lat="43.978309" lon="5.413527">
        <ele>812.1784016261433</ele>
      </trkpt>
      <trkpt lat="43.978402" lon="5.413527">
        <ele>811.1167203875547</ele>
      </trkpt>
      <trkpt lat="43.978493" lon="5.413548">
        <ele>810.1694439948396</ele>
      </trkpt>
      <trkpt lat="43.978585" lon="5.413604">
        <ele>809.2285448525934</ele>
      </trkpt>
      <trkpt lat="43.978694" lon="5.413642">
        <ele>808.25</ele>
      </trkpt>
      <trkpt lat="43.978792" lon="5.413629">
        <ele>807.4539177521381</ele>
      </trkpt>
      <trkpt lat="43.978943" lon="5.41361">
        <ele>806.64</ele>
      </trkpt>
      <trkpt lat="43.980143" lon="5.412714">
        <ele>824.14</ele>
      </trkpt>
      <trkpt lat="43.980959" lon="5.412541">
        <ele>835.35</ele>
      </trkpt>
      <trkpt lat="43.98115" lon="5.412501">
        <ele>839.35</ele>
      </trkpt>
      <trkpt lat="43.982019" lon="5.412993">
        <ele>843.57</ele>
      </trkpt>
      <trkpt lat="43.982475" lon="5.41325">
        <ele>847.0353248870256</ele>
      </trkpt>
      <trkpt lat="43.982888" lon="5.413417">
        <ele>853.09</ele>
      </trkpt>
      <trkpt lat="43.983467" lon="5.41332">
        <ele>862.52</ele>
      </trkpt>
      <trkpt lat="43.984254" lon="5.413277">
        <ele>868.3325719540451</ele>
      </trkpt>
      <trkpt lat="43.98479" lon="5.41332">
        <ele>875.09</ele>
      </trkpt>
      <trkpt lat="43.985184" lon="5.413138">
        <ele>884.4</ele>
      </trkpt>
      <trkpt lat="43.986361" lon="5.413401">
        <ele>893.12</ele>
      </trkpt>
      <trkpt lat="43.986686" lon="5.413492">
        <ele>896.7092405966371</ele>
      </trkpt>
      <trkpt lat="43.986859" lon="5.413481">
        <ele>899.083469480921</ele>
      </trkpt>
      <trkpt lat="43.987087" lon="5.413401">
        <ele>902.41</ele>
      </trkpt>
      <trkpt lat="43.987539" lon="5.41354">
        <ele>908.1854269345289</ele>
      </trkpt>
      <trkpt lat="43.987948" lon="5.413771">
        <ele>912.67</ele>
      </trkpt>
      <trkpt lat="43.988287" lon="5.413771">
        <ele>915.2247686753747</ele>
      </trkpt>
      <trkpt lat="43.988411" lon="5.41383">
        <ele>915.7</ele>
      </trkpt>
      <trkpt lat="43.987234" lon="5.414301">
        <ele>910.82</ele>
      </trkpt>
      <trkpt lat="43.986456" lon="5.414612">
        <ele>916.26</ele>
      </trkpt>
      <trkpt lat="43.985677" lon="5.414924">
        <ele>925.81</ele>
      </trkpt>
      <trkpt lat="43.984899" lon="5.415235">
        <ele>928.9338313861296</ele>
      </trkpt>
      <trkpt lat="43.984121" lon="5.415546">
        <ele>929.56</ele>
      </trkpt>
      <trkpt lat="43.983343" lon="5.415858">
        <ele>930.86</ele>
      </trkpt>
      <trkpt lat="43.982940000000006" lon="5.416019">
        <ele>928.72</ele>
      </trkpt>
      <trkpt lat="43.982589999999995" lon="5.416346">
        <ele>928.3850175036565</ele>
      </trkpt>
      <trkpt lat="43.98251000000001" lon="5.416459">
        <ele>928.6511904651395</ele>
      </trkpt>
      <trkpt lat="43.98236" lon="5.416597999999999">
        <ele>929.2444797031292</ele>
      </trkpt>
      <trkpt lat="43.982129999999984" lon="5.416904">
        <ele>930.46</ele>
      </trkpt>
      <trkpt lat="43.981556" lon="5.417995">
        <ele>932.2587395008194</ele>
      </trkpt>
      <trkpt lat="43.98153999999999" lon="5.418025">
        <ele>932.2636801924914</ele>
      </trkpt>
      <trkpt lat="43.98149999999998" lon="5.418079">
        <ele>932.2668167604797</ele>
      </trkpt>
      <trkpt lat="43.981158" lon="5.418406">
        <ele>932</ele>
      </trkpt>
      <trkpt lat="43.980819" lon="5.418556">
        <ele>931.3038321904959</ele>
      </trkpt>
      <trkpt lat="43.980456" lon="5.419081">
        <ele>928.6</ele>
      </trkpt>
      <trkpt lat="43.98" lon="5.419843">
        <ele>922.6</ele>
      </trkpt>
      <trkpt lat="43.98022000000001" lon="5.420904999999999">
        <ele>924.1249831629285</ele>
      </trkpt>
      <trkpt lat="43.98041" lon="5.421157">
        <ele>926.43</ele>
      </trkpt>
      <trkpt lat="43.98046999999998" lon="5.421290999999999">
        <ele>927.5990130745615</ele>
      </trkpt>
      <trkpt lat="43.98061999999999" lon="5.421484">
        <ele>929.8456721519578</ele>
      </trkpt>
      <trkpt lat="43.98070999999999" lon="5.421613">
        <ele>931.2940875020139</ele>
      </trkpt>
      <trkpt lat="43.98086999999998" lon="5.421774">
        <ele>933.4244318609931</ele>
      </trkpt>
      <trkpt lat="43.98100999999998" lon="5.421951000000001">
        <ele>935.24</ele>
      </trkpt>
      <trkpt lat="43.98109999999997" lon="5.422101">
        <ele>936.32</ele>
      </trkpt>
      <trkpt lat="43.9816" lon="5.42334">
        <ele>933.1470520993962</ele>
      </trkpt>
      <trkpt lat="43.98167999999999" lon="5.423442">
        <ele>932.1338311632777</ele>
      </trkpt>
      <trkpt lat="43.98193999999999" lon="5.423625">
        <ele>929.31</ele>
      </trkpt>
      <trkpt lat="43.98208999999999" lon="5.4237">
        <ele>927.8319640827813</ele>
      </trkpt>
      <trkpt lat="43.982110000000006" lon="5.423721">
        <ele>927.6113603674386</ele>
      </trkpt>
      <trkpt lat="43.982119999999995" lon="5.42378">
        <ele>927.2371734576324</ele>
      </trkpt>
      <trkpt lat="43.982239999999976" lon="5.423866">
        <ele>926.1834343740893</ele>
      </trkpt>
      <trkpt lat="43.98244999999999" lon="5.42392">
        <ele>924.94</ele>
      </trkpt>
      <trkpt lat="43.98288999999998" lon="5.423834">
        <ele>924.0211144760067</ele>
      </trkpt>
      <trkpt lat="43.983320000000006" lon="5.423721">
        <ele>923.04</ele>
      </trkpt>
      <trkpt lat="43.98365999999999" lon="5.423635">
        <ele>920.6917081973216</ele>
      </trkpt>
      <trkpt lat="43.98424999999999" lon="5.423539000000001">
        <ele>916.07</ele>
      </trkpt>
      <trkpt lat="43.98456999999998" lon="5.423464">
        <ele>914.9087511487062</ele>
      </trkpt>
      <trkpt lat="43.98481999999998" lon="5.423523">
        <ele>914.2757794383733</ele>
      </trkpt>
      <trkpt lat="43.9851" lon="5.423743">
        <ele>912.8</ele>
      </trkpt>
      <trkpt lat="43.98579" lon="5.424465">
        <ele>904.48</ele>
      </trkpt>
      <trkpt lat="43.986129999999996" lon="5.424820999999999">
        <ele>901.4086515477522</ele>
      </trkpt>
      <trkpt lat="43.98624999999998" lon="5.425116">
        <ele>897.4</ele>
      </trkpt>
      <trkpt lat="43.98633999999999" lon="5.425931">
        <ele>878.0392195227648</ele>
      </trkpt>
      <trkpt lat="43.98638999999998" lon="5.426312">
        <ele>871.04</ele>
      </trkpt>
      <trkpt lat="43.98671" lon="5.42679">
        <ele>870.2158060774631</ele>
      </trkpt>
      <trkpt lat="43.98702999999999" lon="5.426967">
        <ele>872.73</ele>
      </trkpt>
      <trkpt lat="43.987249999999996" lon="5.427009999999999">
        <ele>873.0716661539324</ele>
      </trkpt>
      <trkpt lat="43.98740000000001" lon="5.427058">
        <ele>872.6613941236998</ele>
      </trkpt>
      <trkpt lat="43.98749999999999" lon="5.427090000000001">
        <ele>872.1877840318305</ele>
      </trkpt>
      <trkpt lat="43.98756" lon="5.427106">
        <ele>871.8535562698454</ele>
      </trkpt>
      <trkpt lat="43.98759999999998" lon="5.427203">
        <ele>871.3735233284492</ele>
      </trkpt>
      <trkpt lat="43.98749999999999" lon="5.427176">
        <ele>870.7377148481891</ele>
      </trkpt>
      <trkpt lat="43.98740000000001" lon="5.427283">
        <ele>869.97</ele>
      </trkpt>
      <trkpt lat="43.987179999999995" lon="5.427385">
        <ele>868.7603549513937</ele>
      </trkpt>
      <trkpt lat="43.986860000000014" lon="5.42724">
        <ele>867</ele>
      </trkpt>
      <trkpt lat="43.98647" lon="5.427208">
        <ele>864.1061430752418</ele>
      </trkpt>
      <trkpt lat="43.98620999999998" lon="5.426994">
        <ele>861.2845212452729</ele>
      </trkpt>
      <trkpt lat="43.986039999999996" lon="5.426843">
        <ele>859.21</ele>
      </trkpt>
      <trkpt lat="43.98581000000001" lon="5.426554">
        <ele>855.7631772906064</ele>
      </trkpt>
      <trkpt lat="43.98572999999998" lon="5.426414">
        <ele>854.1815781109557</ele>
      </trkpt>
      <trkpt lat="43.98561999999999" lon="5.426312">
        <ele>852.4254564383559</ele>
      </trkpt>
      <trkpt lat="43.985399999999984" lon="5.426237">
        <ele>849.03</ele>
      </trkpt>
      <trkpt lat="43.98498" lon="5.426087">
        <ele>841.2251972963584</ele>
      </trkpt>
      <trkpt lat="43.98483" lon="5.426039">
        <ele>838.3237294887402</ele>
      </trkpt>
      <trkpt lat="43.98462000000001" lon="5.426070999999999">
        <ele>834.5031268086026</ele>
      </trkpt>
      <trkpt lat="43.98453" lon="5.426033">
        <ele>832.92</ele>
      </trkpt>
      <trkpt lat="43.98442999999999" lon="5.425926">
        <ele>830.9531281326025</ele>
      </trkpt>
      <trkpt lat="43.98436999999998" lon="5.425819000000001">
        <ele>829.5611827454468</ele>
      </trkpt>
      <trkpt lat="43.98422999999999" lon="5.425771">
        <ele>827.7192608187273</ele>
      </trkpt>
      <trkpt lat="43.98405999999997" lon="5.425846">
        <ele>825.7921287699039</ele>
      </trkpt>
      <trkpt lat="43.98391999999998" lon="5.42599">
        <ele>824.29</ele>
      </trkpt>
      <trkpt lat="43.98373999999998" lon="5.426216">
        <ele>822.7455413983716</ele>
      </trkpt>
      <trkpt lat="43.98359999999999" lon="5.426253">
        <ele>821.971271475566</ele>
      </trkpt>
      <trkpt lat="43.98320999999999" lon="5.426157">
        <ele>819.2950626643511</ele>
      </trkpt>
      <trkpt lat="43.98312999999999" lon="5.426184">
        <ele>818.49</ele>
      </trkpt>
      <trkpt lat="43.98300999999999" lon="5.4263770000000005">
        <ele>816.2814950723639</ele>
      </trkpt>
      <trkpt lat="43.98283999999999" lon="5.426623">
        <ele>812.9353274933333</ele>
      </trkpt>
      <trkpt lat="43.98257999999998" lon="5.426693">
        <ele>809.7567609122602</ele>
      </trkpt>
      <trkpt lat="43.982420000000005" lon="5.426575">
        <ele>808.39</ele>
      </trkpt>
      <trkpt lat="43.982299999999995" lon="5.426522">
        <ele>807.9935662426434</ele>
      </trkpt>
      <trkpt lat="43.982129999999984" lon="5.426522">
        <ele>807.9230988071937</ele>
      </trkpt>
      <trkpt lat="43.982059999999976" lon="5.426563999999999">
        <ele>807.9493720273298</ele>
      </trkpt>
      <trkpt lat="43.98196" lon="5.426660999999999">
        <ele>807.918581726455</ele>
      </trkpt>
      <trkpt lat="43.981840000000005" lon="5.426575">
        <ele>807.5884184004345</ele>
      </trkpt>
      <trkpt lat="43.98168999999999" lon="5.426436">
        <ele>806.25</ele>
      </trkpt>
      <trkpt lat="43.98151" lon="5.426463000000001">
        <ele>803.5797929944594</ele>
      </trkpt>
      <trkpt lat="43.981390000000005" lon="5.426522">
        <ele>801.223869520548</ele>
      </trkpt>
      <trkpt lat="43.98130000000001" lon="5.426618">
        <ele>799.0672653559564</ele>
      </trkpt>
      <trkpt lat="43.98111" lon="5.426563999999999">
        <ele>795.89</ele>
      </trkpt>
      <trkpt lat="43.98081" lon="5.426580999999999">
        <ele>793.4406039126914</ele>
      </trkpt>
      <trkpt lat="43.98073999999998" lon="5.426575">
        <ele>793.2044611449447</ele>
      </trkpt>
      <trkpt lat="43.98066" lon="5.426463000000001">
        <ele>792.9771824398422</ele>
      </trkpt>
      <trkpt lat="43.98054" lon="5.426318">
        <ele>792.8134754119228</ele>
      </trkpt>
      <trkpt lat="43.98037999999998" lon="5.426226">
        <ele>792.5485031210704</ele>
      </trkpt>
      <trkpt lat="43.98015999999998" lon="5.426259">
        <ele>791.53</ele>
      </trkpt>
      <trkpt lat="43.979820000000004" lon="5.426259">
        <ele>787.7649836696816</ele>
      </trkpt>
      <trkpt lat="43.97965999999998" lon="5.426231999999999">
        <ele>785.5307708359023</ele>
      </trkpt>
      <trkpt lat="43.97960000000001" lon="5.42613">
        <ele>784.2373574608323</ele>
      </trkpt>
      <trkpt lat="43.97953999999999" lon="5.426023">
        <ele>782.9967985752988</ele>
      </trkpt>
      <trkpt lat="43.979420000000005" lon="5.425931">
        <ele>781.53</ele>
      </trkpt>
      <trkpt lat="43.97922" lon="5.425839999999999">
        <ele>780.0795465373313</ele>
      </trkpt>
      <trkpt lat="43.97908000000001" lon="5.425717">
        <ele>779.4331253501413</ele>
      </trkpt>
      <trkpt lat="43.978959999999994" lon="5.42547">
        <ele>778.8677597585133</ele>
      </trkpt>
      <trkpt lat="43.97883" lon="5.425406">
        <ele>778.47</ele>
      </trkpt>
      <trkpt lat="43.978679999999976" lon="5.425315000000001">
        <ele>777.7967824664048</ele>
      </trkpt>
      <trkpt lat="43.97845999999999" lon="5.42488">
        <ele>775.2435183186723</ele>
      </trkpt>
      <trkpt lat="43.97831999999998" lon="5.424644000000001">
        <ele>773.14</ele>
      </trkpt>
      <trkpt lat="43.978113" lon="5.424644">
        <ele>770.746025896695</ele>
      </trkpt>
      <trkpt lat="43.97792" lon="5.4245">
        <ele>767.8302581940688</ele>
      </trkpt>
      <trkpt lat="43.977765" lon="5.4245">
        <ele>765.5762692682281</ele>
      </trkpt>
      <trkpt lat="43.977418" lon="5.424403">
        <ele>760</ele>
      </trkpt>
      <trkpt lat="43.977248" lon="5.424371">
        <ele>757.1693411248006</ele>
      </trkpt>
      <trkpt lat="43.97702" lon="5.424446">
        <ele>753.33</ele>
      </trkpt>
      <trkpt lat="43.976565" lon="5.424403">
        <ele>746.4562348829186</ele>
      </trkpt>
      <trkpt lat="43.976125" lon="5.424194">
        <ele>740.5243253720051</ele>
      </trkpt>
      <trkpt lat="43.975974" lon="5.424322">
        <ele>738.6</ele>
      </trkpt>
      <trkpt lat="43.975819999999985" lon="5.424295">
        <ele>737.0773902092808</ele>
      </trkpt>
      <trkpt lat="43.97561" lon="5.424267999999999">
        <ele>735.25074439797</ele>
      </trkpt>
      <trkpt lat="43.97535" lon="5.423984">
        <ele>732.9195836155271</ele>
      </trkpt>
      <trkpt lat="43.97525000000001" lon="5.423888">
        <ele>732.2203307096236</ele>
      </trkpt>
      <trkpt lat="43.97518000000001" lon="5.423774999999999">
        <ele>731.67</ele>
      </trkpt>
      <trkpt lat="43.97507" lon="5.423576">
        <ele>730.8480606692874</ele>
      </trkpt>
      <trkpt lat="43.97493000000001" lon="5.423496">
        <ele>730.1402059387416</ele>
      </trkpt>
      <trkpt lat="43.97471" lon="5.423271">
        <ele>728.394799840669</ele>
      </trkpt>
      <trkpt lat="43.97456" lon="5.423157999999999">
        <ele>726.73</ele>
      </trkpt>
      <trkpt lat="43.97449" lon="5.423029">
        <ele>725.2609264454583</ele>
      </trkpt>
      <trkpt lat="43.974129" lon="5.422708">
        <ele>719.52</ele>
      </trkpt>
      <trkpt lat="43.973723" lon="5.42222">
        <ele>715.1</ele>
      </trkpt>
      <trkpt lat="43.97275" lon="5.42179">
        <ele>699.99</ele>
      </trkpt>
      <trkpt lat="43.97231" lon="5.421415">
        <ele>697.7980815702774</ele>
      </trkpt>
      <trkpt lat="43.971704" lon="5.421174">
        <ele>695.42</ele>
      </trkpt>
      <trkpt lat="43.971349" lon="5.421313">
        <ele>690.5148924457941</ele>
      </trkpt>
      <trkpt lat="43.971214" lon="5.421275">
        <ele>688.439257868728</ele>
      </trkpt>
      <trkpt lat="43.970901" lon="5.421163">
        <ele>684.62</ele>
      </trkpt>
      <trkpt lat="43.970592" lon="5.421104">
        <ele>683.4392240849619</ele>
      </trkpt>
      <trkpt lat="43.970341" lon="5.420916">
        <ele>682.94</ele>
      </trkpt>
      <trkpt lat="43.969929999999984" lon="5.420851999999999">
        <ele>680.2334731779105</ele>
      </trkpt>
      <trkpt lat="43.969619" lon="5.421023">
        <ele>677.02</ele>
      </trkpt>
      <trkpt lat="43.96911" lon="5.421056">
        <ele>672.666512021052</ele>
      </trkpt>
      <trkpt lat="43.968889999999995" lon="5.421013">
        <ele>671.4066838888249</ele>
      </trkpt>
      <trkpt lat="43.968689" lon="5.42098">
        <ele>670.77</ele>
      </trkpt>
      <trkpt lat="43.968461" lon="5.420787">
        <ele>670.5689473921775</ele>
      </trkpt>
      <trkpt lat="43.968087" lon="5.420256">
        <ele>667.2</ele>
      </trkpt>
      <trkpt lat="43.96777" lon="5.419672">
        <ele>656.97</ele>
      </trkpt>
      <trkpt lat="43.967585" lon="5.418797">
        <ele>655.1487454181802</ele>
      </trkpt>
      <trkpt lat="43.967345" lon="5.418282">
        <ele>652.66</ele>
      </trkpt>
      <trkpt lat="43.966959" lon="5.41774">
        <ele>639.6278661009329</ele>
      </trkpt>
      <trkpt lat="43.966859" lon="5.417424">
        <ele>634.86</ele>
      </trkpt>
      <trkpt lat="43.966751" lon="5.416877">
        <ele>632.48</ele>
      </trkpt>
      <trkpt lat="43.966218" lon="5.415959">
        <ele>618.36</ele>
      </trkpt>
      <trkpt lat="43.9656" lon="5.415155">
        <ele>599.74</ele>
      </trkpt>
      <trkpt lat="43.965141" lon="5.413674">
        <ele>587.17</ele>
      </trkpt>
      <trkpt lat="43.96523999999999" lon="5.413449">
        <ele>587.0504138769468</ele>
      </trkpt>
      <trkpt lat="43.965419" lon="5.413218">
        <ele>587.534396450919</ele>
      </trkpt>
      <trkpt lat="43.965535" lon="5.412966">
        <ele>588.34</ele>
      </trkpt>
      <trkpt lat="43.96576999999999" lon="5.412671">
        <ele>589.838674189095</ele>
      </trkpt>
      <trkpt lat="43.965888" lon="5.412623">
        <ele>590.5087643363186</ele>
      </trkpt>
      <trkpt lat="43.966042" lon="5.412518">
        <ele>591.5314148219371</ele>
      </trkpt>
      <trkpt lat="43.96617" lon="5.412548">
        <ele>592.3747033026102</ele>
      </trkpt>
      <trkpt lat="43.966245" lon="5.412515">
        <ele>592.9160078026011</ele>
      </trkpt>
      <trkpt lat="43.96633" lon="5.412537">
        <ele>593.5375901011087</ele>
      </trkpt>
      <trkpt lat="43.966436" lon="5.412499">
        <ele>594.365705163988</ele>
      </trkpt>
      <trkpt lat="43.966446" lon="5.412424">
        <ele>594.8</ele>
      </trkpt>
      <trkpt lat="43.966405" lon="5.412336">
        <ele>595.4097700844602</ele>
      </trkpt>
      <trkpt lat="43.966268" lon="5.412167">
        <ele>596.7616576612462</ele>
      </trkpt>
      <trkpt lat="43.966162" lon="5.412054">
        <ele>597.4016277091933</ele>
      </trkpt>
      <trkpt lat="43.965971" lon="5.411949">
        <ele>597.3098338539221</ele>
      </trkpt>
      <trkpt lat="43.965828" lon="5.411826">
        <ele>595.82</ele>
      </trkpt>
      <trkpt lat="43.965693" lon="5.411719">
        <ele>593.0913041043707</ele>
      </trkpt>
      <trkpt lat="43.965316" lon="5.411791">
        <ele>584.0026026200542</ele>
      </trkpt>
      <trkpt lat="43.965154" lon="5.41178">
        <ele>580.7048693645357</ele>
      </trkpt>
      <trkpt lat="43.965038" lon="5.411673">
        <ele>578.9</ele>
      </trkpt>
      <trkpt lat="43.964921" lon="5.411579">
        <ele>578.3690312297497</ele>
      </trkpt>
      <trkpt lat="43.964689" lon="5.411362">
        <ele>580.1505258307303</ele>
      </trkpt>
      <trkpt lat="43.964291" lon="5.411169">
        <ele>585.08</ele>
      </trkpt>
      <trkpt lat="43.964007" lon="5.410877">
        <ele>586.9544718807886</ele>
      </trkpt>
      <trkpt lat="43.963774" lon="5.410756">
        <ele>588.1965586541401</ele>
      </trkpt>
      <trkpt lat="43.963691" lon="5.41074">
        <ele>588.9</ele>
      </trkpt>
      <trkpt lat="43.9635" lon="5.410764">
        <ele>591.2832683510738</ele>
      </trkpt>
      <trkpt lat="43.963479999999976" lon="5.410680999999999">
        <ele>592.2458325174708</ele>
      </trkpt>
      <trkpt lat="43.963329999999985" lon="5.410445">
        <ele>596.0203049856302</ele>
      </trkpt>
      <trkpt lat="43.96323" lon="5.410054">
        <ele>600.56</ele>
      </trkpt>
      <trkpt lat="43.96306999999998" lon="5.409689">
        <ele>603.1064888235925</ele>
      </trkpt>
      <trkpt lat="43.96292999999999" lon="5.409469">
        <ele>603.4830984444325</ele>
      </trkpt>
      <trkpt lat="43.96278000000001" lon="5.409271">
        <ele>602.8437491829097</ele>
      </trkpt>
      <trkpt lat="43.962673" lon="5.409222">
        <ele>602.1</ele>
      </trkpt>
      <trkpt lat="43.962446" lon="5.409018">
        <ele>599.3767411252495</ele>
      </trkpt>
      <trkpt lat="43.961886" lon="5.408535">
        <ele>592.03</ele>
      </trkpt>
      <trkpt lat="43.961835" lon="5.408401">
        <ele>591.3738553185731</ele>
      </trkpt>
      <trkpt lat="43.961662" lon="5.408264">
        <ele>590.6647578340962</ele>
      </trkpt>
      <trkpt lat="43.961281" lon="5.407779">
        <ele>589.34</ele>
      </trkpt>
      <trkpt lat="43.961028" lon="5.407559">
        <ele>587.5720578514148</ele>
      </trkpt>
      <trkpt lat="43.960841" lon="5.407368">
        <ele>586.6994930152305</ele>
      </trkpt>
      <trkpt lat="43.960737" lon="5.407221">
        <ele>586.9474185908164</ele>
      </trkpt>
      <trkpt lat="43.960789" lon="5.407172">
        <ele>587.33</ele>
      </trkpt>
      <trkpt lat="43.961339" lon="5.407189">
        <ele>596.49</ele>
      </trkpt>
      <trkpt lat="43.961822" lon="5.407315">
        <ele>606.5030429890095</ele>
      </trkpt>
      <trkpt lat="43.96227" lon="5.407384">
        <ele>614.49</ele>
      </trkpt>
      <trkpt lat="43.962743" lon="5.407371">
        <ele>621.0947121151083</ele>
      </trkpt>
      <trkpt lat="43.962857" lon="5.407545">
        <ele>623.217955130604</ele>
      </trkpt>
      <trkpt lat="43.963007" lon="5.407878">
        <ele>626.77</ele>
      </trkpt>
      <trkpt lat="43.963422" lon="5.408162">
        <ele>633.1557814716584</ele>
      </trkpt>
      <trkpt lat="43.963834" lon="5.408409">
        <ele>640.3</ele>
      </trkpt>
      <trkpt lat="43.964382" lon="5.408674">
        <ele>650.9091088601109</ele>
      </trkpt>
      <trkpt lat="43.964606" lon="5.408739">
        <ele>655.28</ele>
      </trkpt>
      <trkpt lat="43.965343" lon="5.409216">
        <ele>669.7</ele>
      </trkpt>
      <trkpt lat="43.966077" lon="5.409691">
        <ele>680.23</ele>
      </trkpt>
      <trkpt lat="43.966388" lon="5.409892">
        <ele>684.4465801847142</ele>
      </trkpt>
      <trkpt lat="43.966562" lon="5.410005">
        <ele>686.8300544082648</ele>
      </trkpt>
      <trkpt lat="43.966585" lon="5.409932">
        <ele>687.5426099446587</ele>
      </trkpt>
      <trkpt lat="43.966475" lon="5.409675">
        <ele>690.2</ele>
      </trkpt>
      <trkpt lat="43.966403" lon="5.409334">
        <ele>693.3275442799093</ele>
      </trkpt>
      <trkpt lat="43.96644999999999" lon="5.409272">
        <ele>694.1234295720878</ele>
      </trkpt>
      <trkpt lat="43.966531" lon="5.409334">
        <ele>695.2688104616465</ele>
      </trkpt>
      <trkpt lat="43.966843" lon="5.409605">
        <ele>700.06</ele>
      </trkpt>
      <trkpt lat="43.967212" lon="5.409785">
        <ele>705.63</ele>
      </trkpt>
      <trkpt lat="43.967853" lon="5.409983">
        <ele>714.5592932970568</ele>
      </trkpt>
      <trkpt lat="43.968096" lon="5.410045">
        <ele>717.5811179902452</ele>
      </trkpt>
      <trkpt lat="43.968372" lon="5.410219">
        <ele>720.95</ele>
      </trkpt>
      <trkpt lat="43.969038" lon="5.410691">
        <ele>728.77</ele>
      </trkpt>
      <trkpt lat="43.969774" lon="5.411027">
        <ele>738.39</ele>
      </trkpt>
      <trkpt lat="43.969932" lon="5.41108">
        <ele>739.589779489003</ele>
      </trkpt>
      <trkpt lat="43.969882" lon="5.410981">
        <ele>740.081453180279</ele>
      </trkpt>
      <trkpt lat="43.96944" lon="5.41053">
        <ele>742.46</ele>
      </trkpt>
      <trkpt lat="43.969301" lon="5.410244">
        <ele>743.9902193420154</ele>
      </trkpt>
      <trkpt lat="43.969031" lon="5.409906">
        <ele>745.75</ele>
      </trkpt>
      <trkpt lat="43.96817" lon="5.40906">
        <ele>740.3</ele>
      </trkpt>
      <trkpt lat="43.967919" lon="5.408801">
        <ele>737.680002774428</ele>
      </trkpt>
      <trkpt lat="43.967664" lon="5.408672">
        <ele>735.68</ele>
      </trkpt>
      <trkpt lat="43.967386" lon="5.408339">
        <ele>733.3821621456239</ele>
      </trkpt>
      <trkpt lat="43.9671" lon="5.40814">
        <ele>730.84</ele>
      </trkpt>
      <trkpt lat="43.965924" lon="5.407483">
        <ele>709.9434780008215</ele>
      </trkpt>
      <trkpt lat="43.96558" lon="5.40729">
        <ele>702.61</ele>
      </trkpt>
      <trkpt lat="43.96518" lon="5.40701">
        <ele>694.2463854129703</ele>
      </trkpt>
      <trkpt lat="43.96472" lon="5.40678">
        <ele>685.32</ele>
      </trkpt>
      <trkpt lat="43.96375" lon="5.40611">
        <ele>666.16</ele>
      </trkpt>
      <trkpt lat="43.963455" lon="5.405901">
        <ele>661.6863217406225</ele>
      </trkpt>
      <trkpt lat="43.963268" lon="5.405657">
        <ele>658.5737107725881</ele>
      </trkpt>
      <trkpt lat="43.96306" lon="5.40547">
        <ele>655.61</ele>
      </trkpt>
      <trkpt lat="43.962368" lon="5.404859">
        <ele>642.06</ele>
      </trkpt>
      <trkpt lat="43.96229" lon="5.40479">
        <ele>639.7516276336237</ele>
      </trkpt>
      <trkpt lat="43.96212" lon="5.40447">
        <ele>632.3519904929803</ele>
      </trkpt>
      <trkpt lat="43.96203" lon="5.40433">
        <ele>629.3927023033923</ele>
      </trkpt>
      <trkpt lat="43.961882" lon="5.404386">
        <ele>627.0233314110898</ele>
      </trkpt>
      <trkpt lat="43.961752" lon="5.404372">
        <ele>626.18</ele>
      </trkpt>
      <trkpt lat="43.961679" lon="5.404415">
        <ele>626.2948121296662</ele>
      </trkpt>
      <trkpt lat="43.96165" lon="5.40427">
        <ele>627.0414356298876</ele>
      </trkpt>
      <trkpt lat="43.9616" lon="5.40383">
        <ele>630.06</ele>
      </trkpt>
      <trkpt lat="43.96132" lon="5.40362">
        <ele>629.1966834862752</ele>
      </trkpt>
      <trkpt lat="43.96097" lon="5.40348">
        <ele>624.2413905836441</ele>
      </trkpt>
      <trkpt lat="43.960575" lon="5.403361">
        <ele>617.89</ele>
      </trkpt>
      <trkpt lat="43.960227" lon="5.403168">
        <ele>614.3222244583889</ele>
      </trkpt>
      <trkpt lat="43.95997" lon="5.40294">
        <ele>612.5877405487122</ele>
      </trkpt>
      <trkpt lat="43.959835" lon="5.402865">
        <ele>611.83</ele>
      </trkpt>
      <trkpt lat="43.959532" lon="5.40258">
        <ele>609.6486309500593</ele>
      </trkpt>
      <trkpt lat="43.959362" lon="5.402481">
        <ele>608.5251563937454</ele>
      </trkpt>
      <trkpt lat="43.959144" lon="5.402385">
        <ele>607.27</ele>
      </trkpt>
      <trkpt lat="43.958972" lon="5.402165">
        <ele>606.1704802376045</ele>
      </trkpt>
      <trkpt lat="43.958673" lon="5.401894">
        <ele>603.75</ele>
      </trkpt>
      <trkpt lat="43.95818" lon="5.40162">
        <ele>596.2027584617342</ele>
      </trkpt>
      <trkpt lat="43.957937" lon="5.401406">
        <ele>590.93</ele>
      </trkpt>
      <trkpt lat="43.957663" lon="5.401269">
        <ele>585.3928408577065</ele>
      </trkpt>
      <trkpt lat="43.95745" lon="5.40105">
        <ele>580</ele>
      </trkpt>
      <trkpt lat="43.95697" lon="5.400303">
        <ele>565.3498894670265</ele>
      </trkpt>
      <trkpt lat="43.95659" lon="5.400062">
        <ele>562.0021148421606</ele>
      </trkpt>
      <trkpt lat="43.956617" lon="5.399984">
        <ele>562.12</ele>
      </trkpt>
      <trkpt lat="43.956626" lon="5.399796">
        <ele>563.0117886801883</ele>
      </trkpt>
      <trkpt lat="43.956646" lon="5.399697">
        <ele>563.8092254849056</ele>
      </trkpt>
      <trkpt lat="43.956659" lon="5.399319">
        <ele>567.9546620509872</ele>
      </trkpt>
      <trkpt lat="43.95672" lon="5.39892">
        <ele>572.96</ele>
      </trkpt>
      <trkpt lat="43.95669" lon="5.39835">
        <ele>577.5788779522808</ele>
      </trkpt>
      <trkpt lat="43.956526" lon="5.397994">
        <ele>578.4355818730126</ele>
      </trkpt>
      <trkpt lat="43.95645" lon="5.39775">
        <ele>577.7</ele>
      </trkpt>
      <trkpt lat="43.956447" lon="5.397602">
        <ele>576.8417899490116</ele>
      </trkpt>
      <trkpt lat="43.956186" lon="5.397235">
        <ele>572.3118644918878</ele>
      </trkpt>
      <trkpt lat="43.956093" lon="5.39698">
        <ele>569.5987038755682</ele>
      </trkpt>
      <trkpt lat="43.956" lon="5.39687">
        <ele>568.21</ele>
      </trkpt>
      <trkpt lat="43.95589" lon="5.39682">
        <ele>567.1292114879442</ele>
      </trkpt>
      <trkpt lat="43.95584" lon="5.396527">
        <ele>565.2789344653933</ele>
      </trkpt>
      <trkpt lat="43.9558" lon="5.396347">
        <ele>563.8599664976048</ele>
      </trkpt>
      <trkpt lat="43.95581" lon="5.39619">
        <ele>562.2931755565843</ele>
      </trkpt>
      <trkpt lat="43.95574" lon="5.39604">
        <ele>559.9</ele>
      </trkpt>
      <trkpt lat="43.95559" lon="5.39597">
        <ele>555.9253909293398</ele>
      </trkpt>
      <trkpt lat="43.95548" lon="5.39593">
        <ele>552.6001922658206</ele>
      </trkpt>
      <trkpt lat="43.95525" lon="5.39575">
        <ele>544.7075065086101</ele>
      </trkpt>
      <trkpt lat="43.955024" lon="5.395497">
        <ele>538.4667126795532</ele>
      </trkpt>
      <trkpt lat="43.954972" lon="5.395355">
        <ele>537.49</ele>
      </trkpt>
      <trkpt lat="43.954852" lon="5.395132">
        <ele>538.1421972167373</ele>
      </trkpt>
      <trkpt lat="43.95486" lon="5.39502">
        <ele>538.84391128846</ele>
      </trkpt>
      <trkpt lat="43.95492" lon="5.39481">
        <ele>540.0563291904614</ele>
      </trkpt>
      <trkpt lat="43.95487" lon="5.39474">
        <ele>540.22</ele>
      </trkpt>
      <trkpt lat="43.95459" lon="5.39442">
        <ele>536.2277652582666</ele>
      </trkpt>
      <trkpt lat="43.95439" lon="5.39402">
        <ele>529.06</ele>
      </trkpt>
      <trkpt lat="43.9539" lon="5.39335">
        <ele>519.0024157322129</ele>
      </trkpt>
      <trkpt lat="43.95353" lon="5.39289">
        <ele>510.4</ele>
      </trkpt>
      <trkpt lat="43.95297" lon="5.39268">
        <ele>493.3687721772458</ele>
      </trkpt>
      <trkpt lat="43.952784" lon="5.392522">
        <ele>485.88</ele>
      </trkpt>
      <trkpt lat="43.952571" lon="5.392466">
        <ele>478.4</ele>
      </trkpt>
      <trkpt lat="43.95171" lon="5.39199">
        <ele>450.32521566628657</ele>
      </trkpt>
      <trkpt lat="43.95152" lon="5.39186">
        <ele>446.07081809747393</ele>
      </trkpt>
      <trkpt lat="43.95135" lon="5.3918">
        <ele>443.5140978659034</ele>
      </trkpt>
      <trkpt lat="43.951268" lon="5.391817">
        <ele>442.65</ele>
      </trkpt>
      <trkpt lat="43.951154" lon="5.391994">
        <ele>441.59832253697283</ele>
      </trkpt>
      <trkpt lat="43.951394" lon="5.392246">
        <ele>441.85</ele>
      </trkpt>
      <trkpt lat="43.951977" lon="5.393179">
        <ele>450.61</ele>
      </trkpt>
      <trkpt lat="43.952351" lon="5.393815">
        <ele>456.3</ele>
      </trkpt>
      <trkpt lat="43.952821" lon="5.394931">
        <ele>470.0764343039873</ele>
      </trkpt>
      <trkpt lat="43.953037" lon="5.395245">
        <ele>471.32</ele>
      </trkpt>
      <trkpt lat="43.953099" lon="5.395336">
        <ele>470.95541545661007</ele>
      </trkpt>
      <trkpt lat="43.95311" lon="5.395451">
        <ele>470.3678139305248</ele>
      </trkpt>
      <trkpt lat="43.953037" lon="5.39555">
        <ele>469.4313513411868</ele>
      </trkpt>
      <trkpt lat="43.952747" lon="5.395741">
        <ele>466.29256592371695</ele>
      </trkpt>
      <trkpt lat="43.952509999999975" lon="5.395924">
        <ele>465.64</ele>
      </trkpt>
      <trkpt lat="43.952421" lon="5.396052">
        <ele>466.62022932260743</ele>
      </trkpt>
      <trkpt lat="43.95232" lon="5.396288">
        <ele>469.4205929464533</ele>
      </trkpt>
      <trkpt lat="43.952297" lon="5.396693">
        <ele>474.51</ele>
      </trkpt>
      <trkpt lat="43.952344" lon="5.397015">
        <ele>477.81457445199675</ele>
      </trkpt>
      <trkpt lat="43.952581" lon="5.398031">
        <ele>484.67</ele>
      </trkpt>
      <trkpt lat="43.952641" lon="5.398458">
        <ele>487.14</ele>
      </trkpt>
      <trkpt lat="43.952651" lon="5.39963">
        <ele>488.7162567720182</ele>
      </trkpt>
      <trkpt lat="43.952718" lon="5.399807">
        <ele>489.29</ele>
      </trkpt>
      <trkpt lat="43.953352" lon="5.400483">
        <ele>497.51448996262974</ele>
      </trkpt>
      <trkpt lat="43.95362" lon="5.400636">
        <ele>500.83</ele>
      </trkpt>
      <trkpt lat="43.953747" lon="5.400714">
        <ele>502.1557058675035</ele>
      </trkpt>
      <trkpt lat="43.953861" lon="5.400754">
        <ele>503.15009717506337</ele>
      </trkpt>
      <trkpt lat="43.953925" lon="5.400692">
        <ele>503.7622429334455</ele>
      </trkpt>
      <trkpt lat="43.953969999999984" lon="5.400613">
        <ele>504.30641645806753</ele>
      </trkpt>
      <trkpt lat="43.95394" lon="5.400467">
        <ele>505.0979401192055</ele>
      </trkpt>
      <trkpt lat="43.953838" lon="5.400317">
        <ele>506.1558980977264</ele>
      </trkpt>
      <trkpt lat="43.953744" lon="5.400099">
        <ele>507.52</ele>
      </trkpt>
      <trkpt lat="43.953772" lon="5.399971">
        <ele>508.2999863872922</ele>
      </trkpt>
      <trkpt lat="43.953825" lon="5.399896">
        <ele>508.94842543257994</ele>
      </trkpt>
      <trkpt lat="43.953908" lon="5.39989">
        <ele>509.6986188416404</ele>
      </trkpt>
      <trkpt lat="43.953983" lon="5.399952">
        <ele>510.53340645842303</ele>
      </trkpt>
      <trkpt lat="43.954242" lon="5.400378">
        <ele>515.06</ele>
      </trkpt>
      <trkpt lat="43.954601" lon="5.400706">
        <ele>520.6548283687868</ele>
      </trkpt>
      <trkpt lat="43.954798" lon="5.400936">
        <ele>523.12</ele>
      </trkpt>
      <trkpt lat="43.954898" lon="5.401352">
        <ele>524.3103305814612</ele>
      </trkpt>
      <trkpt lat="43.954863" lon="5.401489">
        <ele>524.4436154818134</ele>
      </trkpt>
      <trkpt lat="43.95478000000001" lon="5.401595000000001">
        <ele>524.5617441141371</ele>
      </trkpt>
      <trkpt lat="43.954794" lon="5.401682">
        <ele>524.6467639470713</ele>
      </trkpt>
      <trkpt lat="43.95492999999998" lon="5.40204">
        <ele>525.64</ele>
      </trkpt>
      <trkpt lat="43.95502" lon="5.402181">
        <ele>526.6617365542763</ele>
      </trkpt>
      <trkpt lat="43.955232" lon="5.402401">
        <ele>529.4925685245986</ele>
      </trkpt>
      <trkpt lat="43.955365" lon="5.402521">
        <ele>531.4505664302127</ele>
      </trkpt>
      <trkpt lat="43.955487" lon="5.402682">
        <ele>533.51</ele>
      </trkpt>
      <trkpt lat="43.955698" lon="5.402859">
        <ele>536.194594690939</ele>
      </trkpt>
      <trkpt lat="43.955978" lon="5.403157">
        <ele>539.4461548395586</ele>
      </trkpt>
      <trkpt lat="43.956283" lon="5.403399">
        <ele>542.3</ele>
      </trkpt>
      <trkpt lat="43.956418" lon="5.403452">
        <ele>543.4050189402443</ele>
      </trkpt>
      <trkpt lat="43.956572" lon="5.40342">
        <ele>544.6209829605365</ele>
      </trkpt>
      <trkpt lat="43.956773" lon="5.403318">
        <ele>546.26894447142</ele>
      </trkpt>
      <trkpt lat="43.956891" lon="5.403372">
        <ele>547.21</ele>
      </trkpt>
      <trkpt lat="43.957157" lon="5.403798">
        <ele>550.1701386446099</ele>
      </trkpt>
      <trkpt lat="43.957308" lon="5.404327">
        <ele>552.854882869179</ele>
      </trkpt>
      <trkpt lat="43.957298" lon="5.40452">
        <ele>553.67</ele>
      </trkpt>
      <trkpt lat="43.957229" lon="5.404941">
        <ele>555.3113345195181</ele>
      </trkpt>
      <trkpt lat="43.957271" lon="5.405086">
        <ele>555.8750066630615</ele>
      </trkpt>
      <trkpt lat="43.957221" lon="5.405255">
        <ele>556.5356985770148</ele>
      </trkpt>
      <trkpt lat="43.957183" lon="5.405579">
        <ele>557.78</ele>
      </trkpt>
      <trkpt lat="43.957264" lon="5.406105">
        <ele>559.6156795716826</ele>
      </trkpt>
      <trkpt lat="43.957303" lon="5.406529">
        <ele>559.32</ele>
      </trkpt>
      <trkpt lat="43.957449" lon="5.406818">
        <ele>557.0876193540653</ele>
      </trkpt>
      <trkpt lat="43.957666" lon="5.407044">
        <ele>553.8849011001743</ele>
      </trkpt>
      <trkpt lat="43.958133" lon="5.407274">
        <ele>551.44</ele>
      </trkpt>
      <trkpt lat="43.958488" lon="5.407258">
        <ele>554.18</ele>
      </trkpt>
      <trkpt lat="43.958925" lon="5.407607">
        <ele>550.55</ele>
      </trkpt>
      <trkpt lat="43.959948" lon="5.408551">
        <ele>535.2</ele>
      </trkpt>
      <trkpt lat="43.960392" lon="5.408857">
        <ele>531.5947586305069</ele>
      </trkpt>
      <trkpt lat="43.960647" lon="5.409034">
        <ele>529.6731042432634</ele>
      </trkpt>
      <trkpt lat="43.960794" lon="5.40934">
        <ele>527.44</ele>
      </trkpt>
      <trkpt lat="43.960906" lon="5.409672">
        <ele>524.5728847071707</ele>
      </trkpt>
      <trkpt lat="43.961166" lon="5.410203">
        <ele>519.8512191116392</ele>
      </trkpt>
      <trkpt lat="43.961036" lon="5.410203">
        <ele>519.05</ele>
      </trkpt>
      <trkpt lat="43.960787" lon="5.410262">
        <ele>518.3869471607594</ele>
      </trkpt>
      <trkpt lat="43.960592" lon="5.410351">
        <ele>518.068963366355</ele>
      </trkpt>
      <trkpt lat="43.960457" lon="5.410308">
        <ele>517.59</ele>
      </trkpt>
      <trkpt lat="43.960212" lon="5.409895">
        <ele>514.276656983703</ele>
      </trkpt>
      <trkpt lat="43.959953" lon="5.409589">
        <ele>510.0331810049987</ele>
      </trkpt>
      <trkpt lat="43.959712" lon="5.409482">
        <ele>506.95</ele>
      </trkpt>
      <trkpt lat="43.959548" lon="5.409436">
        <ele>505.2131223950899</ele>
      </trkpt>
      <trkpt lat="43.9593" lon="5.409501">
        <ele>502.89150367998946</ele>
      </trkpt>
      <trkpt lat="43.958916" lon="5.40938">
        <ele>499.04</ele>
      </trkpt>
      <trkpt lat="43.958215" lon="5.409088">
        <ele>490.54</ele>
      </trkpt>
      <trkpt lat="43.957991" lon="5.409192">
        <ele>489.12018473732746</ele>
      </trkpt>
      <trkpt lat="43.957858" lon="5.409257">
        <ele>488.64730509034587</ele>
      </trkpt>
      <trkpt lat="43.957654" lon="5.409482">
        <ele>488.1873822727844</ele>
      </trkpt>
      <trkpt lat="43.957482" lon="5.409549">
        <ele>487.96232021625906</ele>
      </trkpt>
      <trkpt lat="43.957329" lon="5.409525">
        <ele>487.68</ele>
      </trkpt>
      <trkpt lat="43.956848" lon="5.40979">
        <ele>485.75566909362</ele>
      </trkpt>
      <trkpt lat="43.956704" lon="5.410034">
        <ele>484.81057911887984</ele>
      </trkpt>
      <trkpt lat="43.956686" lon="5.410142">
        <ele>484.52</ele>
      </trkpt>
      <trkpt lat="43.956669999999995" lon="5.410254">
        <ele>484.25140991256706</ele>
      </trkpt>
      <trkpt lat="43.956601" lon="5.410351">
        <ele>483.93898731263323</ele>
      </trkpt>
      <trkpt lat="43.956315" lon="5.410244">
        <ele>482.55529921610446</ele>
      </trkpt>
      <trkpt lat="43.956288" lon="5.410128">
        <ele>481.87141294923396</ele>
      </trkpt>
      <trkpt lat="43.956229" lon="5.410072">
        <ele>481.17755850377637</ele>
      </trkpt>
      <trkpt lat="43.956179999999996" lon="5.410072">
        <ele>480.62</ele>
      </trkpt>
      <trkpt lat="43.956097" lon="5.410241">
        <ele>478.53810619643957</ele>
      </trkpt>
      <trkpt lat="43.95601" lon="5.410372">
        <ele>476.3793927796782</ele>
      </trkpt>
      <trkpt lat="43.955844" lon="5.410525">
        <ele>472.81174927637767</ele>
      </trkpt>
      <trkpt lat="43.95562999999997" lon="5.410613999999999">
        <ele>469.2</ele>
      </trkpt>
      <trkpt lat="43.955369" lon="5.410748">
        <ele>466.18285812433624</ele>
      </trkpt>
      <trkpt lat="43.955246" lon="5.410751">
        <ele>465.30010979113484</ele>
      </trkpt>
      <trkpt lat="43.955089" lon="5.410555">
        <ele>464.1953539521229</ele>
      </trkpt>
      <trkpt lat="43.954977" lon="5.410337">
        <ele>463.4196895195807</ele>
      </trkpt>
      <trkpt lat="43.954875" lon="5.41019">
        <ele>462.83</ele>
      </trkpt>
      <trkpt lat="43.954721" lon="5.410142">
        <ele>462.07143061150776</ele>
      </trkpt>
      <trkpt lat="43.954638" lon="5.410104">
        <ele>461.5521992154679</ele>
      </trkpt>
      <trkpt lat="43.954443" lon="5.410227">
        <ele>459.8312840791334</ele>
      </trkpt>
      <trkpt lat="43.9543" lon="5.410142">
        <ele>458.05</ele>
      </trkpt>
      <trkpt lat="43.953919" lon="5.409919">
        <ele>451.225350760853</ele>
      </trkpt>
      <trkpt lat="43.953734" lon="5.409863">
        <ele>447.8208087128779</ele>
      </trkpt>
      <trkpt lat="43.953471" lon="5.409935">
        <ele>443.6897628996572</ele>
      </trkpt>
      <trkpt lat="43.953309" lon="5.409954">
        <ele>441.98</ele>
      </trkpt>
      <trkpt lat="43.952958" lon="5.409718">
        <ele>440.56975908960294</ele>
      </trkpt>
      <trkpt lat="43.95262" lon="5.40967">
        <ele>439.56</ele>
      </trkpt>
      <trkpt lat="43.952201" lon="5.409527">
        <ele>434.94428638365054</ele>
      </trkpt>
      <trkpt lat="43.951818" lon="5.409353">
        <ele>429.73</ele>
      </trkpt>
      <trkpt lat="43.951637" lon="5.40927">
        <ele>427.93770765281204</ele>
      </trkpt>
      <trkpt lat="43.951353" lon="5.409152">
        <ele>425.9876817388096</ele>
      </trkpt>
      <trkpt lat="43.951208" lon="5.409053">
        <ele>425.14432414671904</ele>
      </trkpt>
      <trkpt lat="43.95109" lon="5.409018">
        <ele>424.53</ele>
      </trkpt>
      <trkpt lat="43.950922" lon="5.408991">
        <ele>423.60543108707986</ele>
      </trkpt>
      <trkpt lat="43.950633" lon="5.408739">
        <ele>421.26125044648273</ele>
      </trkpt>
      <trkpt lat="43.950285" lon="5.408763">
        <ele>417.78</ele>
      </trkpt>
      <trkpt lat="43.950069" lon="5.40876">
        <ele>415.0294698999857</ele>
      </trkpt>
      <trkpt lat="43.949752" lon="5.408873">
        <ele>411.9545510759533</ele>
      </trkpt>
      <trkpt lat="43.949743" lon="5.408833">
        <ele>411.841883814482</ele>
      </trkpt>
      <trkpt lat="43.949783" lon="5.408658">
        <ele>411.87</ele>
      </trkpt>
      <trkpt lat="43.949719" lon="5.408162">
        <ele>416.20192676889656</ele>
      </trkpt>
      <trkpt lat="43.949646" lon="5.407945">
        <ele>419.39240863690196</ele>
      </trkpt>
      <trkpt lat="43.94954" lon="5.407626">
        <ele>423.78138066765507</ele>
      </trkpt>
      <trkpt lat="43.94947999999998" lon="5.407375">
        <ele>425.87</ele>
      </trkpt>
      <trkpt lat="43.949399999999976" lon="5.407197999999999">
        <ele>426.33818287477317</ele>
      </trkpt>
      <trkpt lat="43.949279" lon="5.407221">
        <ele>426.13153546666774</ele>
      </trkpt>
      <trkpt lat="43.949169" lon="5.407143">
        <ele>425.63660321509667</ele>
      </trkpt>
      <trkpt lat="43.949067" lon="5.407052">
        <ele>425.0953733054336</ele>
      </trkpt>
      <trkpt lat="43.948968" lon="5.406869">
        <ele>424.67</ele>
      </trkpt>
      <trkpt lat="43.948819" lon="5.406564">
        <ele>425.56862030441124</ele>
      </trkpt>
      <trkpt lat="43.948551" lon="5.405973">
        <ele>431.5721979749685</ele>
      </trkpt>
      <trkpt lat="43.948472" lon="5.405904">
        <ele>433.08</ele>
      </trkpt>
      <trkpt lat="43.948393" lon="5.40577">
        <ele>435.2062799628357</ele>
      </trkpt>
      <trkpt lat="43.948039" lon="5.40482">
        <ele>450.37</ele>
      </trkpt>
      <trkpt lat="43.9479" lon="5.404311">
        <ele>458.20155205202013</ele>
      </trkpt>
      <trkpt lat="43.947815" lon="5.404168">
        <ele>460.19</ele>
      </trkpt>
      <trkpt lat="43.947533" lon="5.403616">
        <ele>463.0117266431956</ele>
      </trkpt>
      <trkpt lat="43.947298" lon="5.403055">
        <ele>462.13</ele>
      </trkpt>
      <trkpt lat="43.947331" lon="5.402774">
        <ele>461.6085073001697</ele>
      </trkpt>
      <trkpt lat="43.947331" lon="5.40246">
        <ele>461.0079823908399</ele>
      </trkpt>
      <trkpt lat="43.947469999999996" lon="5.40191">
        <ele>459.25</ele>
      </trkpt>
      <trkpt lat="43.94756999999999" lon="5.401754">
        <ele>458.25781953292943</ele>
      </trkpt>
      <trkpt lat="43.947572" lon="5.401478">
        <ele>456.60881788175465</ele>
      </trkpt>
      <trkpt lat="43.947622" lon="5.400912">
        <ele>452.06</ele>
      </trkpt>
      <trkpt lat="43.947632" lon="5.400537">
        <ele>448.32950595663704</ele>
      </trkpt>
      <trkpt lat="43.947578" lon="5.400327">
        <ele>445.94888051555046</ele>
      </trkpt>
      <trkpt lat="43.947632" lon="5.400167">
        <ele>444.02835565001755</ele>
      </trkpt>
      <trkpt lat="43.94762" lon="5.400038">
        <ele>442.6148585973577</ele>
      </trkpt>
      <trkpt lat="43.947647" lon="5.399947">
        <ele>441.5550650433942</ele>
      </trkpt>
      <trkpt lat="43.947647" lon="5.399823">
        <ele>440.24</ele>
      </trkpt>
      <trkpt lat="43.947700000000005" lon="5.399565">
        <ele>437.4890780285931</ele>
      </trkpt>
      <trkpt lat="43.94770999999999" lon="5.399351">
        <ele>435.33502616825297</ele>
      </trkpt>
      <trkpt lat="43.947642" lon="5.39908">
        <ele>432.420566210341</ele>
      </trkpt>
      <trkpt lat="43.947593" lon="5.399043">
        <ele>431.615197023373</ele>
      </trkpt>
      <trkpt lat="43.947472" lon="5.398892">
        <ele>429.17994642730173</ele>
      </trkpt>
      <trkpt lat="43.947344" lon="5.398699">
        <ele>426.13</ele>
      </trkpt>
      <trkpt lat="43.947244" lon="5.398375">
        <ele>421.61019625154705</ele>
      </trkpt>
      <trkpt lat="43.947153" lon="5.397962">
        <ele>415.9300271994482</ele>
      </trkpt>
      <trkpt lat="43.946989" lon="5.397771">
        <ele>412.34</ele>
      </trkpt>
      <trkpt lat="43.946722" lon="5.397514">
        <ele>407.7068055702969</ele>
      </trkpt>
      <trkpt lat="43.946647" lon="5.397423">
        <ele>406.36373435603747</ele>
      </trkpt>
      <trkpt lat="43.946471" lon="5.397305">
        <ele>403.63</ele>
      </trkpt>
      <trkpt lat="43.946348" lon="5.397004">
        <ele>399.7163624296421</ele>
      </trkpt>
      <trkpt lat="43.946218" lon="5.396892">
        <ele>397.1184802504599</ele>
      </trkpt>
      <trkpt lat="43.946087" lon="5.396833">
        <ele>394.6960819962974</ele>
      </trkpt>
      <trkpt lat="43.945958" lon="5.396693">
        <ele>391.7545083680563</ele>
      </trkpt>
      <trkpt lat="43.945876" lon="5.396521">
        <ele>389.07</ele>
      </trkpt>
      <trkpt lat="43.945679" lon="5.396315">
        <ele>384.67680793678807</ele>
      </trkpt>
      <trkpt lat="43.94549" lon="5.396216">
        <ele>381.1606177725697</ele>
      </trkpt>
      <trkpt lat="43.945316" lon="5.396208">
        <ele>378.2010216202069</ele>
      </trkpt>
      <trkpt lat="43.945235" lon="5.396178">
        <ele>376.8014900581031</ele>
      </trkpt>
      <trkpt lat="43.945247" lon="5.396092">
        <ele>375.7572609062551</ele>
      </trkpt>
      <trkpt lat="43.945218" lon="5.396009">
        <ele>374.67</ele>
      </trkpt>
      <trkpt lat="43.945369" lon="5.395824">
        <ele>371.47530404782714</ele>
      </trkpt>
      <trkpt lat="43.945374" lon="5.395719">
        <ele>370.32618358143225</ele>
      </trkpt>
      <trkpt lat="43.94545" lon="5.395615">
        <ele>368.7810458723336</ele>
      </trkpt>
      <trkpt lat="43.945676" lon="5.395435">
        <ele>365.4619967834667</ele>
      </trkpt>
      <trkpt lat="43.945714" lon="5.395328">
        <ele>364.5400758357804</ele>
      </trkpt>
      <trkpt lat="43.945687" lon="5.395215">
        <ele>363.722252360389</ele>
      </trkpt>
      <trkpt lat="43.945740000000015" lon="5.395097">
        <ele>362.91</ele>
      </trkpt>
      <trkpt lat="43.945911" lon="5.394955">
        <ele>361.756086407841</ele>
      </trkpt>
      <trkpt lat="43.946002" lon="5.394877">
        <ele>361.33989984419594</ele>
      </trkpt>
      <trkpt lat="43.946116" lon="5.394697">
        <ele>360.8692786488402</ele>
      </trkpt>
      <trkpt lat="43.946183" lon="5.39422">
        <ele>360.19</ele>
      </trkpt>
      <trkpt lat="43.94629" lon="5.393783">
        <ele>359.4424257653724</ele>
      </trkpt>
      <trkpt lat="43.946506" lon="5.393185">
        <ele>360.25</ele>
      </trkpt>
      <trkpt lat="43.946597" lon="5.392573">
        <ele>363.83</ele>
      </trkpt>
      <trkpt lat="43.946593" lon="5.392015">
        <ele>364.01913070755955</ele>
      </trkpt>
      <trkpt lat="43.946465" lon="5.391817">
        <ele>363.28147800051005</ele>
      </trkpt>
      <trkpt lat="43.946323" lon="5.391586">
        <ele>362.3663798846265</ele>
      </trkpt>
      <trkpt lat="43.946193" lon="5.391278">
        <ele>361.84</ele>
      </trkpt>
      <trkpt lat="43.946081" lon="5.390899">
        <ele>362.5853511030866</ele>
      </trkpt>
      <trkpt lat="43.94599999999999" lon="5.390559">
        <ele>363.87033801902334</ele>
      </trkpt>
      <trkpt lat="43.9459" lon="5.39032">
        <ele>364.79</ele>
      </trkpt>
      <trkpt lat="43.945753" lon="5.389918">
        <ele>365.649046232109</ele>
      </trkpt>
      <trkpt lat="43.945546" lon="5.389725">
        <ele>366.2134451230846</ele>
      </trkpt>
      <trkpt lat="43.94561999999999" lon="5.389642">
        <ele>366.52125033690777</ele>
      </trkpt>
      <trkpt lat="43.94565" lon="5.389422">
        <ele>367.27</ele>
      </trkpt>
      <trkpt lat="43.945813" lon="5.38892">
        <ele>370.37</ele>
      </trkpt>
      <trkpt lat="43.946027" lon="5.387732">
        <ele>379.27528357556446</ele>
      </trkpt>
      <trkpt lat="43.946017" lon="5.38737">
        <ele>382.64</ele>
      </trkpt>
      <trkpt lat="43.945932" lon="5.387061">
        <ele>386.07388835520004</ele>
      </trkpt>
      <trkpt lat="43.945795" lon="5.386753">
        <ele>389.77612906144253</ele>
      </trkpt>
      <trkpt lat="43.946197" lon="5.38711">
        <ele>394.41770665701017</ele>
      </trkpt>
      <trkpt lat="43.946229999999986" lon="5.38704">
        <ele>394.66</ele>
      </trkpt>
      <trkpt lat="43.94565" lon="5.386294">
        <ele>392.44</ele>
      </trkpt>
      <trkpt lat="43.945446" lon="5.386021">
        <ele>391.7852432036172</ele>
      </trkpt>
      <trkpt lat="43.945079" lon="5.385559">
        <ele>391.88</ele>
      </trkpt>
      <trkpt lat="43.944615" lon="5.384969">
        <ele>392.38</ele>
      </trkpt>
      <trkpt lat="43.944163" lon="5.384272">
        <ele>390.101019247051</ele>
      </trkpt>
      <trkpt lat="43.944021" lon="5.384207">
        <ele>388.54</ele>
      </trkpt>
      <trkpt lat="43.943719" lon="5.384551">
        <ele>382.52680145993884</ele>
      </trkpt>
      <trkpt lat="43.943638" lon="5.384604">
        <ele>381.0557581125537</ele>
      </trkpt>
      <trkpt lat="43.943395" lon="5.384567">
        <ele>377.5817763819505</ele>
      </trkpt>
      <trkpt lat="43.943333" lon="5.384411">
        <ele>376.34</ele>
      </trkpt>
      <trkpt lat="43.94314" lon="5.383987">
        <ele>375.6262012319988</ele>
      </trkpt>
      <trkpt lat="43.942757" lon="5.383467">
        <ele>378.31</ele>
      </trkpt>
      <trkpt lat="43.942429" lon="5.382416">
        <ele>380.15</ele>
      </trkpt>
      <trkpt lat="43.942356" lon="5.382174">
        <ele>380.07015017711956</ele>
      </trkpt>
      <trkpt lat="43.942364" lon="5.382003"/>
    </trkseg>
  </trk>
</gpx>
