<?xml version="1.0" ?>
<gpx xmlns="http://www.topografix.com/GPX/1/1" xmlns:xsi="http://www.w3.org/2001/XMLSchema-instance" xsi:schemaLocation="http://www.topografix.com/GPX/1/1 http://www.topografix.com/GPX/1/1/gpx.xsd" version="1.1" creator="EditGPX">
  <metadata>
    <name>NewTrack</name>
  </metadata>
  <trk>
    <name>NewTrack</name>
    <trkseg>
      <trkpt lat="43.754234" lon="5.202654">
        <ele>155.5</ele>
      </trkpt>
      <trkpt lat="43.754234" lon="5.202654">
        <ele>155.5</ele>
      </trkpt>
      <trkpt lat="43.754207" lon="5.203008">
        <ele>156</ele>
      </trkpt>
      <trkpt lat="43.754757" lon="5.203051">
        <ele>158</ele>
      </trkpt>
      <trkpt lat="43.755218" lon="5.202928">
        <ele>162.8</ele>
      </trkpt>
      <trkpt lat="43.755761" lon="5.202531">
        <ele>166</ele>
      </trkpt>
      <trkpt lat="43.756120" lon="5.202390">
        <ele>167.8</ele>
      </trkpt>
      <trkpt lat="43.756030" lon="5.202010">
        <ele>168</ele>
      </trkpt>
      <trkpt lat="43.756240" lon="5.201250">
        <ele>170.5</ele>
      </trkpt>
      <trkpt lat="43.756280" lon="5.200810">
        <ele>174.8</ele>
      </trkpt>
      <trkpt lat="43.756310" lon="5.200630">
        <ele>175.5</ele>
      </trkpt>
      <trkpt lat="43.756340" lon="5.200400">
        <ele>176.6</ele>
      </trkpt>
      <trkpt lat="43.756380" lon="5.200200">
        <ele>178</ele>
      </trkpt>
      <trkpt lat="43.756410" lon="5.199900">
        <ele>182.4</ele>
      </trkpt>
      <trkpt lat="43.756460" lon="5.199460">
        <ele>183.3</ele>
      </trkpt>
      <trkpt lat="43.756520" lon="5.199210">
        <ele>185.1</ele>
      </trkpt>
      <trkpt lat="43.756540" lon="5.198940">
        <ele>184.8</ele>
      </trkpt>
      <trkpt lat="43.756610" lon="5.198830">
        <ele>184.7</ele>
      </trkpt>
      <trkpt lat="43.756700" lon="5.198470">
        <ele>192.7</ele>
      </trkpt>
      <trkpt lat="43.757010" lon="5.197730">
        <ele>196.7</ele>
      </trkpt>
      <trkpt lat="43.757040" lon="5.197210">
        <ele>194.8</ele>
      </trkpt>
      <trkpt lat="43.757090" lon="5.197110">
        <ele>195.1</ele>
      </trkpt>
      <trkpt lat="43.757390" lon="5.196850">
        <ele>197.8</ele>
      </trkpt>
      <trkpt lat="43.757442" lon="5.196678">
        <ele>199.7</ele>
      </trkpt>
      <trkpt lat="43.757578" lon="5.196410">
        <ele>202.7</ele>
      </trkpt>
      <trkpt lat="43.757682" lon="5.196260">
        <ele>202.6</ele>
      </trkpt>
      <trkpt lat="43.757799" lon="5.196077">
        <ele>202.2</ele>
      </trkpt>
      <trkpt lat="43.758019" lon="5.195879">
        <ele>204</ele>
      </trkpt>
      <trkpt lat="43.758058" lon="5.195755">
        <ele>196.4</ele>
      </trkpt>
      <trkpt lat="43.758147" lon="5.195407">
        <ele>193.4</ele>
      </trkpt>
      <trkpt lat="43.758143" lon="5.195020">
        <ele>191.1</ele>
      </trkpt>
      <trkpt lat="43.758202" lon="5.194688">
        <ele>183.9</ele>
      </trkpt>
      <trkpt lat="43.758283" lon="5.193921">
        <ele>179.3</ele>
      </trkpt>
      <trkpt lat="43.758260" lon="5.193545">
        <ele>177.2</ele>
      </trkpt>
      <trkpt lat="43.758252" lon="5.193395">
        <ele>178.1</ele>
      </trkpt>
      <trkpt lat="43.758124" lon="5.192644">
        <ele>175.1</ele>
      </trkpt>
      <trkpt lat="43.758058" lon="5.192403">
        <ele>175.5</ele>
      </trkpt>
      <trkpt lat="43.757965" lon="5.192113">
        <ele>174.7</ele>
      </trkpt>
      <trkpt lat="43.757554" lon="5.191491">
        <ele>171.4</ele>
      </trkpt>
      <trkpt lat="43.757283" lon="5.191040">
        <ele>167.8</ele>
      </trkpt>
      <trkpt lat="43.757078" lon="5.190691">
        <ele>164</ele>
      </trkpt>
      <trkpt lat="43.756783" lon="5.190069">
        <ele>162.8</ele>
      </trkpt>
      <trkpt lat="43.756563" lon="5.189833">
        <ele>160.8</ele>
      </trkpt>
      <trkpt lat="43.756373" lon="5.189586">
        <ele>159.2</ele>
      </trkpt>
      <trkpt lat="43.756225" lon="5.189366">
        <ele>158.7</ele>
      </trkpt>
      <trkpt lat="43.756160" lon="5.189222">
        <ele>158.7</ele>
      </trkpt>
      <trkpt lat="43.756109" lon="5.189130">
        <ele>154</ele>
      </trkpt>
      <trkpt lat="43.755714" lon="5.188095">
        <ele>147.9</ele>
      </trkpt>
      <trkpt lat="43.755780" lon="5.187886">
        <ele>146.5</ele>
      </trkpt>
      <trkpt lat="43.755885" lon="5.187505">
        <ele>141.7</ele>
      </trkpt>
      <trkpt lat="43.756016" lon="5.187183">
        <ele>139.2</ele>
      </trkpt>
      <trkpt lat="43.756160" lon="5.187044">
        <ele>138.7</ele>
      </trkpt>
      <trkpt lat="43.756361" lon="5.186926">
        <ele>138.6</ele>
      </trkpt>
      <trkpt lat="43.756551" lon="5.186834">
        <ele>138.2</ele>
      </trkpt>
      <trkpt lat="43.756710" lon="5.186738">
        <ele>138.3</ele>
      </trkpt>
      <trkpt lat="43.756842" lon="5.186512">
        <ele>139.7</ele>
      </trkpt>
      <trkpt lat="43.756931" lon="5.186303">
        <ele>140.8</ele>
      </trkpt>
      <trkpt lat="43.756981" lon="5.186062">
        <ele>141.5</ele>
      </trkpt>
      <trkpt lat="43.756935" lon="5.185681">
        <ele>143.2</ele>
      </trkpt>
      <trkpt lat="43.756927" lon="5.185397">
        <ele>143.8</ele>
      </trkpt>
      <trkpt lat="43.756997" lon="5.185252">
        <ele>144.1</ele>
      </trkpt>
      <trkpt lat="43.757171" lon="5.184919">
        <ele>145</ele>
      </trkpt>
      <trkpt lat="43.757818" lon="5.183986">
        <ele>152.1</ele>
      </trkpt>
      <trkpt lat="43.758066" lon="5.183353">
        <ele>154.6</ele>
      </trkpt>
      <trkpt lat="43.758287" lon="5.182736">
        <ele>156.3</ele>
      </trkpt>
      <trkpt lat="43.758380" lon="5.182409">
        <ele>156.3</ele>
      </trkpt>
      <trkpt lat="43.758395" lon="5.182001">
        <ele>156.1</ele>
      </trkpt>
      <trkpt lat="43.758434" lon="5.181824">
        <ele>155.6</ele>
      </trkpt>
      <trkpt lat="43.758380" lon="5.181604">
        <ele>154.2</ele>
      </trkpt>
      <trkpt lat="43.758163" lon="5.181255">
        <ele>151.7</ele>
      </trkpt>
      <trkpt lat="43.758202" lon="5.181191">
        <ele>151.4</ele>
      </trkpt>
      <trkpt lat="43.758539" lon="5.181051">
        <ele>153.4</ele>
      </trkpt>
      <trkpt lat="43.758713" lon="5.180923">
        <ele>154</ele>
      </trkpt>
      <trkpt lat="43.759011" lon="5.180461">
        <ele>152.1</ele>
      </trkpt>
      <trkpt lat="43.759860" lon="5.179415">
        <ele>152.8</ele>
      </trkpt>
      <trkpt lat="43.760375" lon="5.178798">
        <ele>160.9</ele>
      </trkpt>
      <trkpt lat="43.760732" lon="5.178262">
        <ele>164</ele>
      </trkpt>
      <trkpt lat="43.760817" lon="5.178123">
        <ele>163.1</ele>
      </trkpt>
      <trkpt lat="43.760883" lon="5.177624">
        <ele>170.8</ele>
      </trkpt>
      <trkpt lat="43.760995" lon="5.177634">
        <ele>173.4</ele>
      </trkpt>
      <trkpt lat="43.761196" lon="5.176899">
        <ele>177.2</ele>
      </trkpt>
      <trkpt lat="43.761270" lon="5.176578">
        <ele>178.9</ele>
      </trkpt>
      <trkpt lat="43.761293" lon="5.176374">
        <ele>179.2</ele>
      </trkpt>
      <trkpt lat="43.761510" lon="5.176100">
        <ele>182.3</ele>
      </trkpt>
      <trkpt lat="43.761530" lon="5.175998">
        <ele>183.5</ele>
      </trkpt>
      <trkpt lat="43.761351" lon="5.175676">
        <ele>181.4</ele>
      </trkpt>
      <trkpt lat="43.761367" lon="5.175478">
        <ele>181.4</ele>
      </trkpt>
      <trkpt lat="43.761460" lon="5.175333">
        <ele>182.9</ele>
      </trkpt>
      <trkpt lat="43.761677" lon="5.175204">
        <ele>195.5</ele>
      </trkpt>
      <trkpt lat="43.761843" lon="5.175156">
        <ele>196.4</ele>
      </trkpt>
      <trkpt lat="43.761878" lon="5.175049">
        <ele>196.4</ele>
      </trkpt>
      <trkpt lat="43.761871" lon="5.174743">
        <ele>198.1</ele>
      </trkpt>
      <trkpt lat="43.761836" lon="5.174142">
        <ele>197.2</ele>
      </trkpt>
      <trkpt lat="43.761913" lon="5.172775">
        <ele>196.4</ele>
      </trkpt>
      <trkpt lat="43.761913" lon="5.172775">
        <ele>196.4</ele>
      </trkpt>
      <trkpt lat="43.761913" lon="5.172775">
        <ele>196.4</ele>
      </trkpt>
      <trkpt lat="43.761913" lon="5.172775">
        <ele>196.4</ele>
      </trkpt>
      <trkpt lat="43.761913" lon="5.172775">
        <ele>196.4</ele>
      </trkpt>
      <trkpt lat="43.761913" lon="5.172775">
        <ele>196.4</ele>
      </trkpt>
      <trkpt lat="43.761944" lon="5.172222">
        <ele>193.8</ele>
      </trkpt>
      <trkpt lat="43.761967" lon="5.171948">
        <ele>193.5</ele>
      </trkpt>
      <trkpt lat="43.761991" lon="5.171615">
        <ele>193.8</ele>
      </trkpt>
      <trkpt lat="43.762099" lon="5.171514">
        <ele>195.1</ele>
      </trkpt>
      <trkpt lat="43.762142" lon="5.171310">
        <ele>195.8</ele>
      </trkpt>
      <trkpt lat="43.762146" lon="5.171079">
        <ele>196.5</ele>
      </trkpt>
      <trkpt lat="43.762165" lon="5.170741">
        <ele>199.9</ele>
      </trkpt>
      <trkpt lat="43.762177" lon="5.170543">
        <ele>200.2</ele>
      </trkpt>
      <trkpt lat="43.762212" lon="5.170044">
        <ele>202.9</ele>
      </trkpt>
      <trkpt lat="43.762386" lon="5.169523">
        <ele>206</ele>
      </trkpt>
      <trkpt lat="43.762429" lon="5.169346">
        <ele>208</ele>
      </trkpt>
      <trkpt lat="43.762266" lon="5.168579">
        <ele>207.4</ele>
      </trkpt>
      <trkpt lat="43.762184" lon="5.168247">
        <ele>208.7</ele>
      </trkpt>
      <trkpt lat="43.762111" lon="5.167608">
        <ele>208.5</ele>
      </trkpt>
      <trkpt lat="43.762068" lon="5.167056">
        <ele>208.8</ele>
      </trkpt>
      <trkpt lat="43.761991" lon="5.166632">
        <ele>206.1</ele>
      </trkpt>
      <trkpt lat="43.761971" lon="5.166482">
        <ele>205.9</ele>
      </trkpt>
      <trkpt lat="43.762022" lon="5.166155">
        <ele>206.1</ele>
      </trkpt>
      <trkpt lat="43.762111" lon="5.165870">
        <ele>206.7</ele>
      </trkpt>
      <trkpt lat="43.762355" lon="5.165339">
        <ele>205</ele>
      </trkpt>
      <trkpt lat="43.762432" lon="5.165184">
        <ele>206.2</ele>
      </trkpt>
      <trkpt lat="43.762258" lon="5.164593">
        <ele>202.3</ele>
      </trkpt>
      <trkpt lat="43.762181" lon="5.164374">
        <ele>201.8</ele>
      </trkpt>
      <trkpt lat="43.762057" lon="5.164014">
        <ele>197.7</ele>
      </trkpt>
      <trkpt lat="43.761998" lon="5.163403">
        <ele>194.6</ele>
      </trkpt>
      <trkpt lat="43.761778" lon="5.162947">
        <ele>187.5</ele>
      </trkpt>
      <trkpt lat="43.761689" lon="5.162743">
        <ele>185</ele>
      </trkpt>
      <trkpt lat="43.761685" lon="5.162458">
        <ele>178.7</ele>
      </trkpt>
      <trkpt lat="43.761572" lon="5.162083">
        <ele>170.5</ele>
      </trkpt>
      <trkpt lat="43.761541" lon="5.161514">
        <ele>164.7</ele>
      </trkpt>
      <trkpt lat="43.761375" lon="5.161053">
        <ele>160</ele>
      </trkpt>
      <trkpt lat="43.761196" lon="5.160774">
        <ele>152.6</ele>
      </trkpt>
      <trkpt lat="43.761065" lon="5.160527">
        <ele>151.3</ele>
      </trkpt>
      <trkpt lat="43.760871" lon="5.160136">
        <ele>147.8</ele>
      </trkpt>
      <trkpt lat="43.760790" lon="5.159985">
        <ele>144</ele>
      </trkpt>
      <trkpt lat="43.760732" lon="5.159926">
        <ele>142.8</ele>
      </trkpt>
      <trkpt lat="43.760639" lon="5.159798">
        <ele>141.2</ele>
      </trkpt>
      <trkpt lat="43.760445" lon="5.159567">
        <ele>139.5</ele>
      </trkpt>
      <trkpt lat="43.760278" lon="5.159406">
        <ele>138.7</ele>
      </trkpt>
      <trkpt lat="43.760185" lon="5.159250">
        <ele>137.9</ele>
      </trkpt>
      <trkpt lat="43.760131" lon="5.159143">
        <ele>135.8</ele>
      </trkpt>
      <trkpt lat="43.760100" lon="5.158923">
        <ele>135.4</ele>
      </trkpt>
      <trkpt lat="43.760034" lon="5.158773">
        <ele>134.9</ele>
      </trkpt>
      <trkpt lat="43.759937" lon="5.158478">
        <ele>134.2</ele>
      </trkpt>
      <trkpt lat="43.759829" lon="5.157909">
        <ele>129.2</ele>
      </trkpt>
      <trkpt lat="43.759693" lon="5.157781">
        <ele>128.8</ele>
      </trkpt>
      <trkpt lat="43.759550" lon="5.157679">
        <ele>128.7</ele>
      </trkpt>
      <trkpt lat="43.759496" lon="5.157545">
        <ele>128.4</ele>
      </trkpt>
      <trkpt lat="43.759418" lon="5.157164">
        <ele>124.4</ele>
      </trkpt>
      <trkpt lat="43.759321" lon="5.157019">
        <ele>124.1</ele>
      </trkpt>
      <trkpt lat="43.759228" lon="5.156820">
        <ele>123.6</ele>
      </trkpt>
      <trkpt lat="43.759100" lon="5.156713">
        <ele>123.5</ele>
      </trkpt>
      <trkpt lat="43.759228" lon="5.156574">
        <ele>123.7</ele>
      </trkpt>
      <trkpt lat="43.759302" lon="5.156423">
        <ele>124.5</ele>
      </trkpt>
      <trkpt lat="43.759558" lon="5.155018">
        <ele>134.6</ele>
      </trkpt>
      <trkpt lat="43.759643" lon="5.154846">
        <ele>140.8</ele>
      </trkpt>
      <trkpt lat="43.760146" lon="5.153889">
        <ele>139.3</ele>
      </trkpt>
      <trkpt lat="43.760146" lon="5.153889">
        <ele>139.3</ele>
      </trkpt>
      <trkpt lat="43.760146" lon="5.153889">
        <ele>139.3</ele>
      </trkpt>
      <trkpt lat="43.760146" lon="5.153889">
        <ele>139.3</ele>
      </trkpt>
      <trkpt lat="43.760146" lon="5.153889">
        <ele>139.3</ele>
      </trkpt>
      <trkpt lat="43.760146" lon="5.153889">
        <ele>139.3</ele>
      </trkpt>
      <trkpt lat="43.760220" lon="5.153747">
        <ele>140.2</ele>
      </trkpt>
      <trkpt lat="43.760429" lon="5.153339">
        <ele>141.1</ele>
      </trkpt>
      <trkpt lat="43.760600" lon="5.152920">
        <ele>147.5</ele>
      </trkpt>
      <trkpt lat="43.760805" lon="5.152180">
        <ele>151.8</ele>
      </trkpt>
      <trkpt lat="43.760782" lon="5.151853">
        <ele>152.1</ele>
      </trkpt>
      <trkpt lat="43.760782" lon="5.151483">
        <ele>154.3</ele>
      </trkpt>
      <trkpt lat="43.761193" lon="5.150485">
        <ele>156.7</ele>
      </trkpt>
      <trkpt lat="43.761417" lon="5.150179">
        <ele>157.9</ele>
      </trkpt>
      <trkpt lat="43.761534" lon="5.150040">
        <ele>158.8</ele>
      </trkpt>
      <trkpt lat="43.761700" lon="5.149739">
        <ele>161.6</ele>
      </trkpt>
      <trkpt lat="43.761789" lon="5.149659">
        <ele>161.9</ele>
      </trkpt>
      <trkpt lat="43.761890" lon="5.149578">
        <ele>162.1</ele>
      </trkpt>
      <trkpt lat="43.761902" lon="5.149487">
        <ele>162.1</ele>
      </trkpt>
      <trkpt lat="43.761894" lon="5.149053">
        <ele>161</ele>
      </trkpt>
      <trkpt lat="43.761840" lon="5.148849">
        <ele>161.1</ele>
      </trkpt>
      <trkpt lat="43.761611" lon="5.148785">
        <ele>165.4</ele>
      </trkpt>
      <trkpt lat="43.761557" lon="5.148720">
        <ele>165.8</ele>
      </trkpt>
      <trkpt lat="43.761530" lon="5.148634">
        <ele>166</ele>
      </trkpt>
      <trkpt lat="43.761561" lon="5.148312">
        <ele>166.3</ele>
      </trkpt>
      <trkpt lat="43.761696" lon="5.147899">
        <ele>163.7</ele>
      </trkpt>
      <trkpt lat="43.762398" lon="5.146456">
        <ele>170</ele>
      </trkpt>
      <trkpt lat="43.762552" lon="5.146430">
        <ele>165.8</ele>
      </trkpt>
      <trkpt lat="43.762874" lon="5.146580">
        <ele>165.6</ele>
      </trkpt>
      <trkpt lat="43.763025" lon="5.146607">
        <ele>165.6</ele>
      </trkpt>
      <trkpt lat="43.763316" lon="5.146800">
        <ele>167.5</ele>
      </trkpt>
      <trkpt lat="43.763769" lon="5.146778">
        <ele>170.1</ele>
      </trkpt>
      <trkpt lat="43.764389" lon="5.146430">
        <ele>170.3</ele>
      </trkpt>
      <trkpt lat="43.764521" lon="5.146312">
        <ele>170.3</ele>
      </trkpt>
      <trkpt lat="43.764982" lon="5.145823">
        <ele>170.3</ele>
      </trkpt>
      <trkpt lat="43.765125" lon="5.145711">
        <ele>169.7</ele>
      </trkpt>
      <trkpt lat="43.765307" lon="5.145630">
        <ele>169.2</ele>
      </trkpt>
      <trkpt lat="43.765601" lon="5.145555">
        <ele>169.3</ele>
      </trkpt>
      <trkpt lat="43.765702" lon="5.145491">
        <ele>169</ele>
      </trkpt>
      <trkpt lat="43.765784" lon="5.145324">
        <ele>167.5</ele>
      </trkpt>
      <trkpt lat="43.765791" lon="5.145105">
        <ele>165</ele>
      </trkpt>
      <trkpt lat="43.765729" lon="5.144954">
        <ele>162.3</ele>
      </trkpt>
      <trkpt lat="43.765605" lon="5.144842">
        <ele>161.7</ele>
      </trkpt>
      <trkpt lat="43.765520" lon="5.144740">
        <ele>161.3</ele>
      </trkpt>
      <trkpt lat="43.765477" lon="5.144616">
        <ele>160.9</ele>
      </trkpt>
      <trkpt lat="43.765539" lon="5.144477">
        <ele>160.4</ele>
      </trkpt>
      <trkpt lat="43.765729" lon="5.144187">
        <ele>159.5</ele>
      </trkpt>
      <trkpt lat="43.765741" lon="5.143946">
        <ele>156.5</ele>
      </trkpt>
      <trkpt lat="43.765795" lon="5.143753">
        <ele>156</ele>
      </trkpt>
      <trkpt lat="43.765787" lon="5.143511">
        <ele>156.2</ele>
      </trkpt>
      <trkpt lat="43.765702" lon="5.143388">
        <ele>156.2</ele>
      </trkpt>
      <trkpt lat="43.765601" lon="5.143243">
        <ele>155.9</ele>
      </trkpt>
      <trkpt lat="43.765466" lon="5.143012">
        <ele>155.3</ele>
      </trkpt>
      <trkpt lat="43.765261" lon="5.142851">
        <ele>153.9</ele>
      </trkpt>
      <trkpt lat="43.765071" lon="5.142578">
        <ele>150.6</ele>
      </trkpt>
      <trkpt lat="43.764420" lon="5.142202">
        <ele>141.8</ele>
      </trkpt>
      <trkpt lat="43.764315" lon="5.142052">
        <ele>141.1</ele>
      </trkpt>
      <trkpt lat="43.764180" lon="5.141779">
        <ele>137.9</ele>
      </trkpt>
      <trkpt lat="43.764009" lon="5.141408">
        <ele>139.1</ele>
      </trkpt>
      <trkpt lat="43.763970" lon="5.141194">
        <ele>139.9</ele>
      </trkpt>
      <trkpt lat="43.764021" lon="5.140893">
        <ele>138.7</ele>
      </trkpt>
      <trkpt lat="43.764149" lon="5.140754">
        <ele>137.6</ele>
      </trkpt>
      <trkpt lat="43.764288" lon="5.140325">
        <ele>143.3</ele>
      </trkpt>
      <trkpt lat="43.764509" lon="5.140062">
        <ele>145.3</ele>
      </trkpt>
      <trkpt lat="43.764606" lon="5.139960">
        <ele>144.7</ele>
      </trkpt>
      <trkpt lat="43.764695" lon="5.139917">
        <ele>146.4</ele>
      </trkpt>
      <trkpt lat="43.764710" lon="5.139842">
        <ele>146.3</ele>
      </trkpt>
      <trkpt lat="43.764645" lon="5.139649">
        <ele>144.3</ele>
      </trkpt>
      <trkpt lat="43.764629" lon="5.139445">
        <ele>143.4</ele>
      </trkpt>
      <trkpt lat="43.764815" lon="5.138619">
        <ele>138.7</ele>
      </trkpt>
      <trkpt lat="43.764920" lon="5.138340">
        <ele>139.9</ele>
      </trkpt>
      <trkpt lat="43.765078" lon="5.138002">
        <ele>144.8</ele>
      </trkpt>
      <trkpt lat="43.765106" lon="5.137836">
        <ele>143.6</ele>
      </trkpt>
      <trkpt lat="43.765047" lon="5.137782">
        <ele>142.3</ele>
      </trkpt>
      <trkpt lat="43.765357" lon="5.137364">
        <ele>137.7</ele>
      </trkpt>
      <trkpt lat="43.765640" lon="5.136849">
        <ele>137.4</ele>
      </trkpt>
      <trkpt lat="43.765737" lon="5.136747">
        <ele>137.3</ele>
      </trkpt>
      <trkpt lat="43.765884" lon="5.136618">
        <ele>138.2</ele>
      </trkpt>
      <trkpt lat="43.766326" lon="5.136393">
        <ele>143</ele>
      </trkpt>
      <trkpt lat="43.766690" lon="5.136151">
        <ele>149.8</ele>
      </trkpt>
      <trkpt lat="43.766853" lon="5.135894">
        <ele>148</ele>
      </trkpt>
      <trkpt lat="43.766981" lon="5.135754">
        <ele>148.8</ele>
      </trkpt>
      <trkpt lat="43.767074" lon="5.135706">
        <ele>149.7</ele>
      </trkpt>
      <trkpt lat="43.767182" lon="5.135674">
        <ele>150.5</ele>
      </trkpt>
      <trkpt lat="43.767260" lon="5.135690">
        <ele>150.7</ele>
      </trkpt>
      <trkpt lat="43.767360" lon="5.135813">
        <ele>150.5</ele>
      </trkpt>
      <trkpt lat="43.767453" lon="5.135969">
        <ele>151.3</ele>
      </trkpt>
      <trkpt lat="43.767527" lon="5.136023">
        <ele>156.1</ele>
      </trkpt>
      <trkpt lat="43.767767" lon="5.136017">
        <ele>158.3</ele>
      </trkpt>
      <trkpt lat="43.767972" lon="5.135926">
        <ele>159.4</ele>
      </trkpt>
      <trkpt lat="43.768174" lon="5.135964">
        <ele>159.9</ele>
      </trkpt>
      <trkpt lat="43.768577" lon="5.135888">
        <ele>165.5</ele>
      </trkpt>
      <trkpt lat="43.768666" lon="5.135905">
        <ele>166.8</ele>
      </trkpt>
      <trkpt lat="43.768929" lon="5.135754">
        <ele>166.8</ele>
      </trkpt>
      <trkpt lat="43.769111" lon="5.135545">
        <ele>167.5</ele>
      </trkpt>
      <trkpt lat="43.769305" lon="5.135588">
        <ele>170.7</ele>
      </trkpt>
      <trkpt lat="43.769557" lon="5.135502">
        <ele>172.3</ele>
      </trkpt>
      <trkpt lat="43.769685" lon="5.135384">
        <ele>173.4</ele>
      </trkpt>
      <trkpt lat="43.769805" lon="5.135384">
        <ele>174</ele>
      </trkpt>
      <trkpt lat="43.769894" lon="5.135491">
        <ele>173.7</ele>
      </trkpt>
      <trkpt lat="43.769967" lon="5.135835">
        <ele>173.4</ele>
      </trkpt>
      <trkpt lat="43.770056" lon="5.136082">
        <ele>175.4</ele>
      </trkpt>
      <trkpt lat="43.770192" lon="5.136328">
        <ele>177.1</ele>
      </trkpt>
      <trkpt lat="43.770378" lon="5.136564">
        <ele>177.5</ele>
      </trkpt>
      <trkpt lat="43.770502" lon="5.136656">
        <ele>177.1</ele>
      </trkpt>
      <trkpt lat="43.770607" lon="5.136645">
        <ele>176.9</ele>
      </trkpt>
      <trkpt lat="43.770785" lon="5.136543">
        <ele>176.6</ele>
      </trkpt>
      <trkpt lat="43.771025" lon="5.136328">
        <ele>176.1</ele>
      </trkpt>
      <trkpt lat="43.771195" lon="5.136103">
        <ele>175.4</ele>
      </trkpt>
      <trkpt lat="43.771172" lon="5.135964">
        <ele>174.7</ele>
      </trkpt>
      <trkpt lat="43.771153" lon="5.135400">
        <ele>175.8</ele>
      </trkpt>
      <trkpt lat="43.771129" lon="5.134703">
        <ele>182.4</ele>
      </trkpt>
      <trkpt lat="43.771172" lon="5.134225">
        <ele>184.1</ele>
      </trkpt>
      <trkpt lat="43.771168" lon="5.134038">
        <ele>189.1</ele>
      </trkpt>
      <trkpt lat="43.771184" lon="5.133673">
        <ele>191.1</ele>
      </trkpt>
      <trkpt lat="43.771191" lon="5.133104">
        <ele>197</ele>
      </trkpt>
      <trkpt lat="43.771230" lon="5.132858">
        <ele>198.2</ele>
      </trkpt>
      <trkpt lat="43.771420" lon="5.132375">
        <ele>202.7</ele>
      </trkpt>
      <trkpt lat="43.771540" lon="5.132192">
        <ele>202.8</ele>
      </trkpt>
      <trkpt lat="43.771641" lon="5.131892">
        <ele>202.6</ele>
      </trkpt>
      <trkpt lat="43.771788" lon="5.131634">
        <ele>203.8</ele>
      </trkpt>
      <trkpt lat="43.771916" lon="5.131554">
        <ele>206.5</ele>
      </trkpt>
      <trkpt lat="43.772048" lon="5.131318">
        <ele>208.5</ele>
      </trkpt>
      <trkpt lat="43.772144" lon="5.131044">
        <ele>208.9</ele>
      </trkpt>
      <trkpt lat="43.772133" lon="5.130846">
        <ele>208.8</ele>
      </trkpt>
      <trkpt lat="43.772144" lon="5.130637">
        <ele>212</ele>
      </trkpt>
      <trkpt lat="43.772210" lon="5.130411">
        <ele>212.9</ele>
      </trkpt>
      <trkpt lat="43.772233" lon="5.130175">
        <ele>213.6</ele>
      </trkpt>
      <trkpt lat="43.772369" lon="5.129349">
        <ele>216</ele>
      </trkpt>
      <trkpt lat="43.772377" lon="5.129231">
        <ele>215.8</ele>
      </trkpt>
      <trkpt lat="43.772129" lon="5.128518">
        <ele>208.1</ele>
      </trkpt>
      <trkpt lat="43.772106" lon="5.128330">
        <ele>198.7</ele>
      </trkpt>
      <trkpt lat="43.772369" lon="5.128475">
        <ele>207.8</ele>
      </trkpt>
      <trkpt lat="43.772501" lon="5.128373">
        <ele>208.6</ele>
      </trkpt>
      <trkpt lat="43.772702" lon="5.127804">
        <ele>210</ele>
      </trkpt>
      <trkpt lat="43.772799" lon="5.127262">
        <ele>206.1</ele>
      </trkpt>
      <trkpt lat="43.772768" lon="5.126914">
        <ele>205</ele>
      </trkpt>
      <trkpt lat="43.772601" lon="5.126501">
        <ele>198.6</ele>
      </trkpt>
      <trkpt lat="43.772648" lon="5.126324">
        <ele>200.3</ele>
      </trkpt>
      <trkpt lat="43.772725" lon="5.126029">
        <ele>199.7</ele>
      </trkpt>
      <trkpt lat="43.773051" lon="5.125363">
        <ele>202.3</ele>
      </trkpt>
      <trkpt lat="43.773140" lon="5.125101">
        <ele>203.5</ele>
      </trkpt>
      <trkpt lat="43.773182" lon="5.124693">
        <ele>204.6</ele>
      </trkpt>
      <trkpt lat="43.773136" lon="5.123937">
        <ele>207.4</ele>
      </trkpt>
      <trkpt lat="43.773241" lon="5.123636">
        <ele>207.9</ele>
      </trkpt>
      <trkpt lat="43.773341" lon="5.123470">
        <ele>211.1</ele>
      </trkpt>
      <trkpt lat="43.773609" lon="5.123320">
        <ele>210.7</ele>
      </trkpt>
      <trkpt lat="43.773988" lon="5.123148">
        <ele>212.8</ele>
      </trkpt>
      <trkpt lat="43.774085" lon="5.122992">
        <ele>212.1</ele>
      </trkpt>
      <trkpt lat="43.774170" lon="5.122730">
        <ele>215.5</ele>
      </trkpt>
      <trkpt lat="43.774232" lon="5.122418">
        <ele>209.8</ele>
      </trkpt>
      <trkpt lat="43.774372" lon="5.122290">
        <ele>209.7</ele>
      </trkpt>
      <trkpt lat="43.774402" lon="5.122306">
        <ele>209.9</ele>
      </trkpt>
      <trkpt lat="43.774333" lon="5.122445">
        <ele>210.1</ele>
      </trkpt>
      <trkpt lat="43.774305" lon="5.122555">
        <ele>214.3</ele>
      </trkpt>
      <trkpt lat="43.774309" lon="5.122727">
        <ele>216.3</ele>
      </trkpt>
      <trkpt lat="43.774416" lon="5.123110">
        <ele>219.3</ele>
      </trkpt>
      <trkpt lat="43.774418" lon="5.123202">
        <ele>219.4</ele>
      </trkpt>
      <trkpt lat="43.774389" lon="5.123320">
        <ele>219.2</ele>
      </trkpt>
      <trkpt lat="43.774234" lon="5.123658">
        <ele>225.6</ele>
      </trkpt>
      <trkpt lat="43.774131" lon="5.124009">
        <ele>221.3</ele>
      </trkpt>
      <trkpt lat="43.774081" lon="5.124299">
        <ele>223.7</ele>
      </trkpt>
      <trkpt lat="43.774061" lon="5.124435">
        <ele>222.8</ele>
      </trkpt>
      <trkpt lat="43.774071" lon="5.124926">
        <ele>229.4</ele>
      </trkpt>
      <trkpt lat="43.774154" lon="5.125447">
        <ele>229.6</ele>
      </trkpt>
      <trkpt lat="43.774158" lon="5.125626">
        <ele>232.2</ele>
      </trkpt>
      <trkpt lat="43.774135" lon="5.125747">
        <ele>235.9</ele>
      </trkpt>
      <trkpt lat="43.774100" lon="5.125911">
        <ele>237.8</ele>
      </trkpt>
      <trkpt lat="43.774007" lon="5.126251">
        <ele>235.5</ele>
      </trkpt>
      <trkpt lat="43.773939" lon="5.126632">
        <ele>239.1</ele>
      </trkpt>
      <trkpt lat="43.773947" lon="5.126823">
        <ele>243.1</ele>
      </trkpt>
      <trkpt lat="43.773949" lon="5.127136">
        <ele>243.2</ele>
      </trkpt>
      <trkpt lat="43.773932" lon="5.127287">
        <ele>244.4</ele>
      </trkpt>
      <trkpt lat="43.773941" lon="5.127389">
        <ele>246</ele>
      </trkpt>
      <trkpt lat="43.773974" lon="5.127437">
        <ele>247.7</ele>
      </trkpt>
      <trkpt lat="43.774005" lon="5.127442">
        <ele>249</ele>
      </trkpt>
      <trkpt lat="43.774040" lon="5.127394">
        <ele>249.4</ele>
      </trkpt>
      <trkpt lat="43.774052" lon="5.127332">
        <ele>248.2</ele>
      </trkpt>
      <trkpt lat="43.774104" lon="5.127088">
        <ele>245</ele>
      </trkpt>
      <trkpt lat="43.774156" lon="5.126863">
        <ele>246.1</ele>
      </trkpt>
      <trkpt lat="43.774236" lon="5.126640">
        <ele>254.4</ele>
      </trkpt>
      <trkpt lat="43.774391" lon="5.126444">
        <ele>258.5</ele>
      </trkpt>
      <trkpt lat="43.774546" lon="5.126351">
        <ele>260.9</ele>
      </trkpt>
      <trkpt lat="43.774726" lon="5.126270">
        <ele>263.5</ele>
      </trkpt>
      <trkpt lat="43.774863" lon="5.126246">
        <ele>265.3</ele>
      </trkpt>
      <trkpt lat="43.774929" lon="5.126262">
        <ele>266.1</ele>
      </trkpt>
      <trkpt lat="43.774970" lon="5.126321">
        <ele>267</ele>
      </trkpt>
      <trkpt lat="43.774989" lon="5.126361">
        <ele>267.7</ele>
      </trkpt>
      <trkpt lat="43.774987" lon="5.126420">
        <ele>268.7</ele>
      </trkpt>
      <trkpt lat="43.774958" lon="5.126498">
        <ele>270.5</ele>
      </trkpt>
      <trkpt lat="43.774896" lon="5.126533">
        <ele>270.3</ele>
      </trkpt>
      <trkpt lat="43.774797" lon="5.126587">
        <ele>268.3</ele>
      </trkpt>
      <trkpt lat="43.774695" lon="5.126675">
        <ele>270</ele>
      </trkpt>
      <trkpt lat="43.774635" lon="5.126756">
        <ele>268.7</ele>
      </trkpt>
      <trkpt lat="43.774615" lon="5.126844">
        <ele>268.4</ele>
      </trkpt>
      <trkpt lat="43.774608" lon="5.126930">
        <ele>268.4</ele>
      </trkpt>
      <trkpt lat="43.774627" lon="5.127069">
        <ele>269.1</ele>
      </trkpt>
      <trkpt lat="43.774701" lon="5.127469">
        <ele>272.4</ele>
      </trkpt>
      <trkpt lat="43.774718" lon="5.127678">
        <ele>274</ele>
      </trkpt>
      <trkpt lat="43.774708" lon="5.127780">
        <ele>273.4</ele>
      </trkpt>
      <trkpt lat="43.774635" lon="5.128051">
        <ele>272.3</ele>
      </trkpt>
      <trkpt lat="43.774640" lon="5.128129">
        <ele>272.4</ele>
      </trkpt>
      <trkpt lat="43.774664" lon="5.128188">
        <ele>272.9</ele>
      </trkpt>
      <trkpt lat="43.774691" lon="5.128233">
        <ele>273.5</ele>
      </trkpt>
      <trkpt lat="43.774722" lon="5.128247">
        <ele>274.1</ele>
      </trkpt>
      <trkpt lat="43.774772" lon="5.128244">
        <ele>275.1</ele>
      </trkpt>
      <trkpt lat="43.774838" lon="5.128191">
        <ele>276</ele>
      </trkpt>
      <trkpt lat="43.774881" lon="5.128089">
        <ele>275.6</ele>
      </trkpt>
      <trkpt lat="43.774912" lon="5.127794">
        <ele>275.9</ele>
      </trkpt>
      <trkpt lat="43.774943" lon="5.127667">
        <ele>277.9</ele>
      </trkpt>
      <trkpt lat="43.774991" lon="5.127627">
        <ele>279.3</ele>
      </trkpt>
      <trkpt lat="43.775037" lon="5.127649">
        <ele>290.2</ele>
      </trkpt>
      <trkpt lat="43.775068" lon="5.127724">
        <ele>292</ele>
      </trkpt>
      <trkpt lat="43.775088" lon="5.127944">
        <ele>293.1</ele>
      </trkpt>
      <trkpt lat="43.775107" lon="5.128140">
        <ele>291</ele>
      </trkpt>
      <trkpt lat="43.775187" lon="5.128394">
        <ele>285.6</ele>
      </trkpt>
      <trkpt lat="43.775235" lon="5.128475">
        <ele>286.3</ele>
      </trkpt>
      <trkpt lat="43.775458" lon="5.128625">
        <ele>289.1</ele>
      </trkpt>
      <trkpt lat="43.775626" lon="5.128810">
        <ele>289.3</ele>
      </trkpt>
      <trkpt lat="43.775758" lon="5.128877">
        <ele>289.8</ele>
      </trkpt>
      <trkpt lat="43.775940" lon="5.128920">
        <ele>302.6</ele>
      </trkpt>
      <trkpt lat="43.776070" lon="5.128984">
        <ele>303.7</ele>
      </trkpt>
      <trkpt lat="43.776149" lon="5.129046">
        <ele>304.7</ele>
      </trkpt>
      <trkpt lat="43.776248" lon="5.129247">
        <ele>298.5</ele>
      </trkpt>
      <trkpt lat="43.776258" lon="5.129365">
        <ele>298.2</ele>
      </trkpt>
      <trkpt lat="43.776267" lon="5.129513">
        <ele>297.4</ele>
      </trkpt>
      <trkpt lat="43.776252" lon="5.129778">
        <ele>295.6</ele>
      </trkpt>
      <trkpt lat="43.776267" lon="5.130036">
        <ele>289.6</ele>
      </trkpt>
      <trkpt lat="43.776287" lon="5.130132">
        <ele>289.7</ele>
      </trkpt>
      <trkpt lat="43.776320" lon="5.130178">
        <ele>290</ele>
      </trkpt>
      <trkpt lat="43.776414" lon="5.130208">
        <ele>291.3</ele>
      </trkpt>
      <trkpt lat="43.776467" lon="5.130194">
        <ele>292.3</ele>
      </trkpt>
      <trkpt lat="43.776504" lon="5.130135">
        <ele>293.8</ele>
      </trkpt>
      <trkpt lat="43.776525" lon="5.130071">
        <ele>295.2</ele>
      </trkpt>
      <trkpt lat="43.776445" lon="5.129835">
        <ele>298.2</ele>
      </trkpt>
      <trkpt lat="43.776432" lon="5.129682">
        <ele>298.5</ele>
      </trkpt>
      <trkpt lat="43.776444" lon="5.129599">
        <ele>299.1</ele>
      </trkpt>
      <trkpt lat="43.776478" lon="5.129387">
        <ele>302</ele>
      </trkpt>
      <trkpt lat="43.776492" lon="5.128982">
        <ele>310.6</ele>
      </trkpt>
      <trkpt lat="43.776469" lon="5.128740">
        <ele>311.5</ele>
      </trkpt>
      <trkpt lat="43.776422" lon="5.128614">
        <ele>312.3</ele>
      </trkpt>
      <trkpt lat="43.776378" lon="5.128520">
        <ele>312.7</ele>
      </trkpt>
      <trkpt lat="43.776360" lon="5.128392">
        <ele>313.3</ele>
      </trkpt>
      <trkpt lat="43.776413" lon="5.128335">
        <ele>314.7</ele>
      </trkpt>
      <trkpt lat="43.776502" lon="5.128359">
        <ele>316.9</ele>
      </trkpt>
      <trkpt lat="43.776581" lon="5.128526">
        <ele>315.8</ele>
      </trkpt>
      <trkpt lat="43.776682" lon="5.128646">
        <ele>322.6</ele>
      </trkpt>
      <trkpt lat="43.776736" lon="5.128703">
        <ele>322.3</ele>
      </trkpt>
      <trkpt lat="43.776823" lon="5.128730">
        <ele>322.4</ele>
      </trkpt>
      <trkpt lat="43.776932" lon="5.128754">
        <ele>322.7</ele>
      </trkpt>
      <trkpt lat="43.777551" lon="5.128598">
        <ele>331.5</ele>
      </trkpt>
      <trkpt lat="43.777629" lon="5.128622">
        <ele>331.5</ele>
      </trkpt>
      <trkpt lat="43.777795" lon="5.128738">
        <ele>331.5</ele>
      </trkpt>
      <trkpt lat="43.777884" lon="5.128781">
        <ele>331.7</ele>
      </trkpt>
      <trkpt lat="43.777987" lon="5.128791">
        <ele>332.1</ele>
      </trkpt>
      <trkpt lat="43.778374" lon="5.128732">
        <ele>339</ele>
      </trkpt>
      <trkpt lat="43.778764" lon="5.128614">
        <ele>341.1</ele>
      </trkpt>
      <trkpt lat="43.778907" lon="5.128628">
        <ele>341.8</ele>
      </trkpt>
      <trkpt lat="43.779281" lon="5.128724">
        <ele>347.8</ele>
      </trkpt>
      <trkpt lat="43.779461" lon="5.128805">
        <ele>348.3</ele>
      </trkpt>
      <trkpt lat="43.779699" lon="5.128909">
        <ele>349.5</ele>
      </trkpt>
      <trkpt lat="43.780150" lon="5.129183">
        <ele>352.8</ele>
      </trkpt>
      <trkpt lat="43.780297" lon="5.129263">
        <ele>352.9</ele>
      </trkpt>
      <trkpt lat="43.780683" lon="5.129465">
        <ele>353.5</ele>
      </trkpt>
      <trkpt lat="43.781047" lon="5.129722">
        <ele>355.2</ele>
      </trkpt>
      <trkpt lat="43.781240" lon="5.130047">
        <ele>354.7</ele>
      </trkpt>
      <trkpt lat="43.781341" lon="5.130202">
        <ele>354.7</ele>
      </trkpt>
      <trkpt lat="43.781938" lon="5.130677">
        <ele>351.3</ele>
      </trkpt>
      <trkpt lat="43.782184" lon="5.130763">
        <ele>349.9</ele>
      </trkpt>
      <trkpt lat="43.782269" lon="5.130843">
        <ele>349.4</ele>
      </trkpt>
      <trkpt lat="43.782701" lon="5.131350">
        <ele>346.6</ele>
      </trkpt>
      <trkpt lat="43.782991" lon="5.131549">
        <ele>346.4</ele>
      </trkpt>
      <trkpt lat="43.783146" lon="5.131702">
        <ele>346.4</ele>
      </trkpt>
      <trkpt lat="43.783282" lon="5.131887">
        <ele>346.5</ele>
      </trkpt>
      <trkpt lat="43.783398" lon="5.132082">
        <ele>348</ele>
      </trkpt>
      <trkpt lat="43.783477" lon="5.132147">
        <ele>348.2</ele>
      </trkpt>
      <trkpt lat="43.783518" lon="5.132166">
        <ele>348.2</ele>
      </trkpt>
      <trkpt lat="43.783646" lon="5.132184">
        <ele>348.5</ele>
      </trkpt>
      <trkpt lat="43.783855" lon="5.132131">
        <ele>348.8</ele>
      </trkpt>
      <trkpt lat="43.784035" lon="5.132096">
        <ele>349</ele>
      </trkpt>
      <trkpt lat="43.784709" lon="5.132085">
        <ele>351.4</ele>
      </trkpt>
      <trkpt lat="43.784922" lon="5.131991">
        <ele>351.6</ele>
      </trkpt>
      <trkpt lat="43.785090" lon="5.131916">
        <ele>354.2</ele>
      </trkpt>
      <trkpt lat="43.785264" lon="5.131734">
        <ele>354.4</ele>
      </trkpt>
      <trkpt lat="43.785565" lon="5.131345">
        <ele>354.6</ele>
      </trkpt>
      <trkpt lat="43.785636" lon="5.131278">
        <ele>354.8</ele>
      </trkpt>
      <trkpt lat="43.785805" lon="5.131229">
        <ele>355.1</ele>
      </trkpt>
      <trkpt lat="43.785870" lon="5.131146">
        <ele>358.2</ele>
      </trkpt>
      <trkpt lat="43.785888" lon="5.131042">
        <ele>358.1</ele>
      </trkpt>
      <trkpt lat="43.785886" lon="5.130975">
        <ele>357.9</ele>
      </trkpt>
      <trkpt lat="43.785863" lon="5.130870">
        <ele>357.4</ele>
      </trkpt>
      <trkpt lat="43.785772" lon="5.130669">
        <ele>355.1</ele>
      </trkpt>
      <trkpt lat="43.785702" lon="5.130481">
        <ele>354.1</ele>
      </trkpt>
      <trkpt lat="43.785671" lon="5.130283">
        <ele>353.7</ele>
      </trkpt>
      <trkpt lat="43.785677" lon="5.130157">
        <ele>353.8</ele>
      </trkpt>
      <trkpt lat="43.785731" lon="5.129805">
        <ele>352.1</ele>
      </trkpt>
      <trkpt lat="43.785802" lon="5.129634">
        <ele>351.4</ele>
      </trkpt>
      <trkpt lat="43.785915" lon="5.129521">
        <ele>354.5</ele>
      </trkpt>
      <trkpt lat="43.785996" lon="5.129489">
        <ele>354.5</ele>
      </trkpt>
      <trkpt lat="43.786275" lon="5.129486">
        <ele>355</ele>
      </trkpt>
      <trkpt lat="43.786947" lon="5.129473">
        <ele>359.2</ele>
      </trkpt>
      <trkpt lat="43.787050" lon="5.129432">
        <ele>359.5</ele>
      </trkpt>
      <trkpt lat="43.787174" lon="5.129349">
        <ele>359.8</ele>
      </trkpt>
      <trkpt lat="43.787234" lon="5.129306">
        <ele>359.9</ele>
      </trkpt>
      <trkpt lat="43.787629" lon="5.128874">
        <ele>363.2</ele>
      </trkpt>
      <trkpt lat="43.787847" lon="5.128692">
        <ele>364.3</ele>
      </trkpt>
      <trkpt lat="43.788415" lon="5.128335">
        <ele>367.9</ele>
      </trkpt>
      <trkpt lat="43.788692" lon="5.128134">
        <ele>371.5</ele>
      </trkpt>
      <trkpt lat="43.789271" lon="5.127635">
        <ele>378.1</ele>
      </trkpt>
      <trkpt lat="43.789509" lon="5.127407">
        <ele>378.5</ele>
      </trkpt>
      <trkpt lat="43.789687" lon="5.127308">
        <ele>378.8</ele>
      </trkpt>
      <trkpt lat="43.789941" lon="5.127225">
        <ele>379</ele>
      </trkpt>
      <trkpt lat="43.790642" lon="5.127112">
        <ele>382.2</ele>
      </trkpt>
      <trkpt lat="43.790866" lon="5.127182">
        <ele>384</ele>
      </trkpt>
      <trkpt lat="43.790976" lon="5.127260">
        <ele>384.6</ele>
      </trkpt>
      <trkpt lat="43.791135" lon="5.127466">
        <ele>385</ele>
      </trkpt>
      <trkpt lat="43.791244" lon="5.127694">
        <ele>390.6</ele>
      </trkpt>
      <trkpt lat="43.791335" lon="5.127850">
        <ele>391.2</ele>
      </trkpt>
      <trkpt lat="43.791559" lon="5.128132">
        <ele>393.4</ele>
      </trkpt>
      <trkpt lat="43.791712" lon="5.128228">
        <ele>396.4</ele>
      </trkpt>
      <trkpt lat="43.791976" lon="5.128228">
        <ele>396.7</ele>
      </trkpt>
      <trkpt lat="43.792185" lon="5.128188">
        <ele>397.9</ele>
      </trkpt>
      <trkpt lat="43.792243" lon="5.128177">
        <ele>398.3</ele>
      </trkpt>
      <trkpt lat="43.792281" lon="5.128212">
        <ele>399</ele>
      </trkpt>
      <trkpt lat="43.792086" lon="5.128528">
        <ele>402.7</ele>
      </trkpt>
      <trkpt lat="43.791997" lon="5.128770">
        <ele>402.8</ele>
      </trkpt>
      <trkpt lat="43.792020" lon="5.129120">
        <ele>403.4</ele>
      </trkpt>
      <trkpt lat="43.792168" lon="5.129403">
        <ele>403.9</ele>
      </trkpt>
      <trkpt lat="43.792460" lon="5.129620">
        <ele>404.5</ele>
      </trkpt>
      <trkpt lat="43.793120" lon="5.129850">
        <ele>414</ele>
      </trkpt>
      <trkpt lat="43.794003" lon="5.130279">
        <ele>421.5</ele>
      </trkpt>
      <trkpt lat="43.794083" lon="5.130318">
        <ele>421.7</ele>
      </trkpt>
      <trkpt lat="43.794170" lon="5.130360">
        <ele>428</ele>
      </trkpt>
      <trkpt lat="43.794360" lon="5.130550">
        <ele>427.8</ele>
      </trkpt>
      <trkpt lat="43.795100" lon="5.130400">
        <ele>439</ele>
      </trkpt>
      <trkpt lat="43.795300" lon="5.130750">
        <ele>440.9</ele>
      </trkpt>
      <trkpt lat="43.795190" lon="5.131520">
        <ele>440.5</ele>
      </trkpt>
      <trkpt lat="43.795460" lon="5.132150">
        <ele>447.6</ele>
      </trkpt>
      <trkpt lat="43.795370" lon="5.132350">
        <ele>445.6</ele>
      </trkpt>
      <trkpt lat="43.794530" lon="5.132740">
        <ele>429.7</ele>
      </trkpt>
      <trkpt lat="43.794440" lon="5.132990">
        <ele>429.2</ele>
      </trkpt>
      <trkpt lat="43.794710" lon="5.133520">
        <ele>428.5</ele>
      </trkpt>
      <trkpt lat="43.794980" lon="5.133940">
        <ele>429.7</ele>
      </trkpt>
      <trkpt lat="43.795110" lon="5.134290">
        <ele>447</ele>
      </trkpt>
      <trkpt lat="43.794880" lon="5.134530">
        <ele>431.4</ele>
      </trkpt>
      <trkpt lat="43.794470" lon="5.134530">
        <ele>425.1</ele>
      </trkpt>
      <trkpt lat="43.794230" lon="5.134710">
        <ele>423</ele>
      </trkpt>
      <trkpt lat="43.794120" lon="5.135060">
        <ele>415.5</ele>
      </trkpt>
      <trkpt lat="43.793980" lon="5.135300">
        <ele>411.4</ele>
      </trkpt>
      <trkpt lat="43.793930" lon="5.135480">
        <ele>411.2</ele>
      </trkpt>
      <trkpt lat="43.794030" lon="5.135800">
        <ele>416.6</ele>
      </trkpt>
      <trkpt lat="43.794210" lon="5.136220">
        <ele>437.6</ele>
      </trkpt>
      <trkpt lat="43.794400" lon="5.136470">
        <ele>439.8</ele>
      </trkpt>
      <trkpt lat="43.794420" lon="5.136650">
        <ele>439.1</ele>
      </trkpt>
      <trkpt lat="43.794130" lon="5.137010">
        <ele>431.8</ele>
      </trkpt>
      <trkpt lat="43.793760" lon="5.137380">
        <ele>435.3</ele>
      </trkpt>
      <trkpt lat="43.793460" lon="5.137220">
        <ele>432.7</ele>
      </trkpt>
      <trkpt lat="43.793130" lon="5.137260">
        <ele>427.3</ele>
      </trkpt>
      <trkpt lat="43.792860" lon="5.137120">
        <ele>423.8</ele>
      </trkpt>
      <trkpt lat="43.792770" lon="5.137200">
        <ele>424</ele>
      </trkpt>
      <trkpt lat="43.792780" lon="5.137590">
        <ele>435.7</ele>
      </trkpt>
      <trkpt lat="43.792730" lon="5.137830">
        <ele>438</ele>
      </trkpt>
      <trkpt lat="43.792540" lon="5.138050">
        <ele>439.1</ele>
      </trkpt>
      <trkpt lat="43.792210" lon="5.138260">
        <ele>429.2</ele>
      </trkpt>
      <trkpt lat="43.792260" lon="5.138560">
        <ele>432.1</ele>
      </trkpt>
      <trkpt lat="43.792300" lon="5.138990">
        <ele>434.1</ele>
      </trkpt>
      <trkpt lat="43.792270" lon="5.139510">
        <ele>430.6</ele>
      </trkpt>
      <trkpt lat="43.792730" lon="5.140120">
        <ele>450.6</ele>
      </trkpt>
      <trkpt lat="43.792470" lon="5.141110">
        <ele>429.5</ele>
      </trkpt>
      <trkpt lat="43.792430" lon="5.141580">
        <ele>434.8</ele>
      </trkpt>
      <trkpt lat="43.792320" lon="5.141870">
        <ele>434.1</ele>
      </trkpt>
      <trkpt lat="43.792080" lon="5.142270">
        <ele>431.8</ele>
      </trkpt>
      <trkpt lat="43.791660" lon="5.142320">
        <ele>427.3</ele>
      </trkpt>
      <trkpt lat="43.791280" lon="5.141900">
        <ele>424.9</ele>
      </trkpt>
      <trkpt lat="43.790960" lon="5.141800">
        <ele>424.1</ele>
      </trkpt>
      <trkpt lat="43.790520" lon="5.141730">
        <ele>419.8</ele>
      </trkpt>
      <trkpt lat="43.790230" lon="5.141960">
        <ele>417.9</ele>
      </trkpt>
      <trkpt lat="43.790110" lon="5.142550">
        <ele>419.2</ele>
      </trkpt>
      <trkpt lat="43.789800" lon="5.142900">
        <ele>409.2</ele>
      </trkpt>
      <trkpt lat="43.789710" lon="5.143150">
        <ele>409.2</ele>
      </trkpt>
      <trkpt lat="43.789840" lon="5.143990">
        <ele>407</ele>
      </trkpt>
      <trkpt lat="43.789680" lon="5.144480">
        <ele>398.9</ele>
      </trkpt>
      <trkpt lat="43.789440" lon="5.144700">
        <ele>396.9</ele>
      </trkpt>
      <trkpt lat="43.788830" lon="5.145130">
        <ele>390.2</ele>
      </trkpt>
      <trkpt lat="43.788310" lon="5.145320">
        <ele>381.6</ele>
      </trkpt>
      <trkpt lat="43.788010" lon="5.145510">
        <ele>381.4</ele>
      </trkpt>
      <trkpt lat="43.787850" lon="5.145880">
        <ele>382.8</ele>
      </trkpt>
      <trkpt lat="43.787760" lon="5.146410">
        <ele>381.5</ele>
      </trkpt>
      <trkpt lat="43.787630" lon="5.146660">
        <ele>379.8</ele>
      </trkpt>
      <trkpt lat="43.787260" lon="5.147050">
        <ele>368.6</ele>
      </trkpt>
      <trkpt lat="43.786970" lon="5.147430">
        <ele>365</ele>
      </trkpt>
      <trkpt lat="43.787090" lon="5.147800">
        <ele>361.3</ele>
      </trkpt>
      <trkpt lat="43.787380" lon="5.147970">
        <ele>361.5</ele>
      </trkpt>
      <trkpt lat="43.787970" lon="5.147770">
        <ele>364.1</ele>
      </trkpt>
      <trkpt lat="43.788470" lon="5.147540">
        <ele>364.2</ele>
      </trkpt>
      <trkpt lat="43.788870" lon="5.147640">
        <ele>364.9</ele>
      </trkpt>
      <trkpt lat="43.788900" lon="5.147830">
        <ele>365.2</ele>
      </trkpt>
      <trkpt lat="43.788580" lon="5.148200">
        <ele>363.3</ele>
      </trkpt>
      <trkpt lat="43.788094" lon="5.149147">
        <ele>361.5</ele>
      </trkpt>
      <trkpt lat="43.788045" lon="5.149243">
        <ele>361.9</ele>
      </trkpt>
      <trkpt lat="43.787800" lon="5.149722">
        <ele>361.5</ele>
      </trkpt>
      <trkpt lat="43.787800" lon="5.149722">
        <ele>361.5</ele>
      </trkpt>
      <trkpt lat="43.787770" lon="5.149780">
        <ele>361.7</ele>
      </trkpt>
      <trkpt lat="43.787450" lon="5.149920">
        <ele>363.5</ele>
      </trkpt>
      <trkpt lat="43.787100" lon="5.149900">
        <ele>362.1</ele>
      </trkpt>
      <trkpt lat="43.786360" lon="5.149970">
        <ele>364.4</ele>
      </trkpt>
      <trkpt lat="43.785910" lon="5.149830">
        <ele>365.6</ele>
      </trkpt>
      <trkpt lat="43.785680" lon="5.149840">
        <ele>366.4</ele>
      </trkpt>
      <trkpt lat="43.785601" lon="5.149983">
        <ele>366.6</ele>
      </trkpt>
      <trkpt lat="43.785663" lon="5.150171">
        <ele>368.4</ele>
      </trkpt>
      <trkpt lat="43.785670" lon="5.150320">
        <ele>368.2</ele>
      </trkpt>
      <trkpt lat="43.785630" lon="5.150445">
        <ele>368</ele>
      </trkpt>
      <trkpt lat="43.785551" lon="5.150517">
        <ele>367.8</ele>
      </trkpt>
      <trkpt lat="43.785470" lon="5.150690">
        <ele>367.5</ele>
      </trkpt>
      <trkpt lat="43.785340" lon="5.151070">
        <ele>363.2</ele>
      </trkpt>
      <trkpt lat="43.785357" lon="5.151255">
        <ele>362.4</ele>
      </trkpt>
      <trkpt lat="43.785460" lon="5.151488">
        <ele>361.9</ele>
      </trkpt>
      <trkpt lat="43.785790" lon="5.151500">
        <ele>363.1</ele>
      </trkpt>
      <trkpt lat="43.786027" lon="5.151590">
        <ele>365</ele>
      </trkpt>
      <trkpt lat="43.786236" lon="5.151740">
        <ele>354</ele>
      </trkpt>
      <trkpt lat="43.786550" lon="5.152080">
        <ele>349.6</ele>
      </trkpt>
      <trkpt lat="43.786753" lon="5.152068">
        <ele>345.8</ele>
      </trkpt>
      <trkpt lat="43.786950" lon="5.151970">
        <ele>346.2</ele>
      </trkpt>
      <trkpt lat="43.788020" lon="5.150871">
        <ele>347.9</ele>
      </trkpt>
      <trkpt lat="43.788062" lon="5.150828">
        <ele>354.3</ele>
      </trkpt>
      <trkpt lat="43.788372" lon="5.150641">
        <ele>346.9</ele>
      </trkpt>
      <trkpt lat="43.788705" lon="5.150206">
        <ele>349.4</ele>
      </trkpt>
      <trkpt lat="43.789007" lon="5.150142">
        <ele>347.9</ele>
      </trkpt>
      <trkpt lat="43.789380" lon="5.150270">
        <ele>346.7</ele>
      </trkpt>
      <trkpt lat="43.789499" lon="5.150410">
        <ele>346.2</ele>
      </trkpt>
      <trkpt lat="43.789534" lon="5.150544">
        <ele>345.2</ele>
      </trkpt>
      <trkpt lat="43.789490" lon="5.150700">
        <ele>343.8</ele>
      </trkpt>
      <trkpt lat="43.789359" lon="5.150764">
        <ele>342</ele>
      </trkpt>
      <trkpt lat="43.789189" lon="5.150684">
        <ele>341.2</ele>
      </trkpt>
      <trkpt lat="43.789060" lon="5.150680">
        <ele>342.4</ele>
      </trkpt>
      <trkpt lat="43.788968" lon="5.150818">
        <ele>342.5</ele>
      </trkpt>
      <trkpt lat="43.788914" lon="5.151113">
        <ele>339.7</ele>
      </trkpt>
      <trkpt lat="43.788770" lon="5.151290">
        <ele>339.7</ele>
      </trkpt>
      <trkpt lat="43.788620" lon="5.151333">
        <ele>339.2</ele>
      </trkpt>
      <trkpt lat="43.788449" lon="5.151317">
        <ele>338.8</ele>
      </trkpt>
      <trkpt lat="43.788279" lon="5.151751">
        <ele>333.9</ele>
      </trkpt>
      <trkpt lat="43.788151" lon="5.151874">
        <ele>335.9</ele>
      </trkpt>
      <trkpt lat="43.787888" lon="5.152019">
        <ele>337.2</ele>
      </trkpt>
      <trkpt lat="43.787690" lon="5.152550">
        <ele>338.1</ele>
      </trkpt>
      <trkpt lat="43.787574" lon="5.152690">
        <ele>338.5</ele>
      </trkpt>
      <trkpt lat="43.786546" lon="5.152955">
        <ele>331.7</ele>
      </trkpt>
      <trkpt lat="43.786056" lon="5.153081">
        <ele>327.6</ele>
      </trkpt>
      <trkpt lat="43.785909" lon="5.153178">
        <ele>323.7</ele>
      </trkpt>
      <trkpt lat="43.785584" lon="5.153548">
        <ele>318.6</ele>
      </trkpt>
      <trkpt lat="43.785340" lon="5.153419">
        <ele>317</ele>
      </trkpt>
      <trkpt lat="43.785140" lon="5.153380">
        <ele>314.6</ele>
      </trkpt>
      <trkpt lat="43.784925" lon="5.153612">
        <ele>311.5</ele>
      </trkpt>
      <trkpt lat="43.784623" lon="5.153511">
        <ele>310.3</ele>
      </trkpt>
      <trkpt lat="43.784213" lon="5.153478">
        <ele>308.3</ele>
      </trkpt>
      <trkpt lat="43.784065" lon="5.153650">
        <ele>306.4</ele>
      </trkpt>
      <trkpt lat="43.783860" lon="5.154120">
        <ele>304.3</ele>
      </trkpt>
      <trkpt lat="43.783674" lon="5.154299">
        <ele>303.1</ele>
      </trkpt>
      <trkpt lat="43.783410" lon="5.154350">
        <ele>300.5</ele>
      </trkpt>
      <trkpt lat="43.782772" lon="5.154186">
        <ele>297.2</ele>
      </trkpt>
      <trkpt lat="43.782555" lon="5.154111">
        <ele>302.6</ele>
      </trkpt>
      <trkpt lat="43.782450" lon="5.154160">
        <ele>305.6</ele>
      </trkpt>
      <trkpt lat="43.782385" lon="5.154530">
        <ele>308.7</ele>
      </trkpt>
      <trkpt lat="43.782430" lon="5.154880">
        <ele>299.8</ele>
      </trkpt>
      <trkpt lat="43.782586" lon="5.155029">
        <ele>290</ele>
      </trkpt>
      <trkpt lat="43.782694" lon="5.155259">
        <ele>291</ele>
      </trkpt>
      <trkpt lat="43.782760" lon="5.155533">
        <ele>290.3</ele>
      </trkpt>
      <trkpt lat="43.782683" lon="5.155689">
        <ele>288.1</ele>
      </trkpt>
      <trkpt lat="43.782380" lon="5.155760">
        <ele>289.7</ele>
      </trkpt>
      <trkpt lat="43.782048" lon="5.155930">
        <ele>289.9</ele>
      </trkpt>
      <trkpt lat="43.781947" lon="5.156225">
        <ele>288.2</ele>
      </trkpt>
      <trkpt lat="43.781950" lon="5.156640">
        <ele>284.2</ele>
      </trkpt>
      <trkpt lat="43.781860" lon="5.157230">
        <ele>278.1</ele>
      </trkpt>
      <trkpt lat="43.781300" lon="5.157610">
        <ele>282.1</ele>
      </trkpt>
      <trkpt lat="43.780870" lon="5.157730">
        <ele>282.4</ele>
      </trkpt>
      <trkpt lat="43.780290" lon="5.157810">
        <ele>275.6</ele>
      </trkpt>
      <trkpt lat="43.779960" lon="5.158247">
        <ele>269.5</ele>
      </trkpt>
      <trkpt lat="43.779800" lon="5.158270">
        <ele>268.9</ele>
      </trkpt>
      <trkpt lat="43.779154" lon="5.157968">
        <ele>261</ele>
      </trkpt>
      <trkpt lat="43.778883" lon="5.157904">
        <ele>259.4</ele>
      </trkpt>
      <trkpt lat="43.778504" lon="5.158253">
        <ele>259.1</ele>
      </trkpt>
      <trkpt lat="43.778244" lon="5.158408">
        <ele>260.5</ele>
      </trkpt>
      <trkpt lat="43.777970" lon="5.158630">
        <ele>261.9</ele>
      </trkpt>
      <trkpt lat="43.777810" lon="5.158970">
        <ele>263.9</ele>
      </trkpt>
      <trkpt lat="43.777400" lon="5.159030">
        <ele>259.2</ele>
      </trkpt>
      <trkpt lat="43.777280" lon="5.159220">
        <ele>263.5</ele>
      </trkpt>
      <trkpt lat="43.777550" lon="5.160050">
        <ele>269.3</ele>
      </trkpt>
      <trkpt lat="43.777710" lon="5.160330">
        <ele>274.5</ele>
      </trkpt>
      <trkpt lat="43.778050" lon="5.160490">
        <ele>277.4</ele>
      </trkpt>
      <trkpt lat="43.777980" lon="5.160730">
        <ele>277.8</ele>
      </trkpt>
      <trkpt lat="43.777560" lon="5.160730">
        <ele>275.4</ele>
      </trkpt>
      <trkpt lat="43.777300" lon="5.160480">
        <ele>274.1</ele>
      </trkpt>
      <trkpt lat="43.776880" lon="5.160000">
        <ele>271.8</ele>
      </trkpt>
      <trkpt lat="43.776614" lon="5.159985">
        <ele>266.8</ele>
      </trkpt>
      <trkpt lat="43.776260" lon="5.160160">
        <ele>265.6</ele>
      </trkpt>
      <trkpt lat="43.776056" lon="5.160372">
        <ele>264.7</ele>
      </trkpt>
      <trkpt lat="43.775950" lon="5.160660">
        <ele>265.4</ele>
      </trkpt>
      <trkpt lat="43.775890" lon="5.161190">
        <ele>272.6</ele>
      </trkpt>
      <trkpt lat="43.776020" lon="5.161780">
        <ele>274.9</ele>
      </trkpt>
      <trkpt lat="43.775950" lon="5.162750">
        <ele>276.8</ele>
      </trkpt>
      <trkpt lat="43.775750" lon="5.163844">
        <ele>270</ele>
      </trkpt>
      <trkpt lat="43.775740" lon="5.163900">
        <ele>270.1</ele>
      </trkpt>
      <trkpt lat="43.776130" lon="5.164530">
        <ele>275.5</ele>
      </trkpt>
      <trkpt lat="43.776308" lon="5.164572">
        <ele>276.3</ele>
      </trkpt>
      <trkpt lat="43.776380" lon="5.164660">
        <ele>276.5</ele>
      </trkpt>
      <trkpt lat="43.776430" lon="5.164830">
        <ele>276.5</ele>
      </trkpt>
      <trkpt lat="43.776246" lon="5.165023">
        <ele>276.6</ele>
      </trkpt>
      <trkpt lat="43.776013" lon="5.165125">
        <ele>274.7</ele>
      </trkpt>
      <trkpt lat="43.775858" lon="5.165243">
        <ele>274.8</ele>
      </trkpt>
      <trkpt lat="43.775502" lon="5.166396">
        <ele>274.7</ele>
      </trkpt>
      <trkpt lat="43.775696" lon="5.166836">
        <ele>274.9</ele>
      </trkpt>
      <trkpt lat="43.776122" lon="5.167115">
        <ele>277.1</ele>
      </trkpt>
      <trkpt lat="43.776428" lon="5.167442">
        <ele>277.2</ele>
      </trkpt>
      <trkpt lat="43.776640" lon="5.167770">
        <ele>274.2</ele>
      </trkpt>
      <trkpt lat="43.776850" lon="5.168456">
        <ele>275.4</ele>
      </trkpt>
      <trkpt lat="43.777067" lon="5.168708">
        <ele>276.7</ele>
      </trkpt>
      <trkpt lat="43.777530" lon="5.168970">
        <ele>280.4</ele>
      </trkpt>
      <trkpt lat="43.777597" lon="5.169067">
        <ele>279.5</ele>
      </trkpt>
      <trkpt lat="43.777540" lon="5.169260">
        <ele>280.3</ele>
      </trkpt>
      <trkpt lat="43.777220" lon="5.169380">
        <ele>280.8</ele>
      </trkpt>
      <trkpt lat="43.776880" lon="5.169160">
        <ele>276.7</ele>
      </trkpt>
      <trkpt lat="43.776580" lon="5.168900">
        <ele>275.1</ele>
      </trkpt>
      <trkpt lat="43.776466" lon="5.168901">
        <ele>274.9</ele>
      </trkpt>
      <trkpt lat="43.776370" lon="5.169100">
        <ele>275.1</ele>
      </trkpt>
      <trkpt lat="43.776270" lon="5.169560">
        <ele>279.2</ele>
      </trkpt>
      <trkpt lat="43.776056" lon="5.169963">
        <ele>279.6</ele>
      </trkpt>
      <trkpt lat="43.775905" lon="5.170231">
        <ele>281.9</ele>
      </trkpt>
      <trkpt lat="43.775890" lon="5.171370">
        <ele>285.3</ele>
      </trkpt>
      <trkpt lat="43.776080" lon="5.172260">
        <ele>289.6</ele>
      </trkpt>
      <trkpt lat="43.776137" lon="5.173171">
        <ele>292.6</ele>
      </trkpt>
      <trkpt lat="43.776106" lon="5.174164">
        <ele>295.4</ele>
      </trkpt>
      <trkpt lat="43.776033" lon="5.174668">
        <ele>297.1</ele>
      </trkpt>
      <trkpt lat="43.775897" lon="5.174941">
        <ele>295.8</ele>
      </trkpt>
      <trkpt lat="43.776000" lon="5.175030">
        <ele>296.6</ele>
      </trkpt>
      <trkpt lat="43.776060" lon="5.175160">
        <ele>297.2</ele>
      </trkpt>
      <trkpt lat="43.776070" lon="5.175350">
        <ele>297.6</ele>
      </trkpt>
      <trkpt lat="43.776090" lon="5.175490">
        <ele>297.8</ele>
      </trkpt>
      <trkpt lat="43.776190" lon="5.175930">
        <ele>300.3</ele>
      </trkpt>
      <trkpt lat="43.776250" lon="5.176110">
        <ele>300.9</ele>
      </trkpt>
      <trkpt lat="43.776330" lon="5.176120">
        <ele>300.9</ele>
      </trkpt>
      <trkpt lat="43.776470" lon="5.176310">
        <ele>301.7</ele>
      </trkpt>
      <trkpt lat="43.776710" lon="5.176390">
        <ele>303.9</ele>
      </trkpt>
      <trkpt lat="43.776810" lon="5.176540">
        <ele>304.3</ele>
      </trkpt>
      <trkpt lat="43.776890" lon="5.176710">
        <ele>306.6</ele>
      </trkpt>
      <trkpt lat="43.776930" lon="5.176920">
        <ele>307.5</ele>
      </trkpt>
      <trkpt lat="43.776820" lon="5.177170">
        <ele>308.2</ele>
      </trkpt>
      <trkpt lat="43.776640" lon="5.177690">
        <ele>310.8</ele>
      </trkpt>
      <trkpt lat="43.776590" lon="5.177780">
        <ele>311.1</ele>
      </trkpt>
      <trkpt lat="43.776380" lon="5.178300">
        <ele>312.3</ele>
      </trkpt>
      <trkpt lat="43.776240" lon="5.178780">
        <ele>313.7</ele>
      </trkpt>
      <trkpt lat="43.776150" lon="5.178990">
        <ele>313</ele>
      </trkpt>
      <trkpt lat="43.776130" lon="5.179080">
        <ele>312.7</ele>
      </trkpt>
      <trkpt lat="43.776110" lon="5.179220">
        <ele>312.4</ele>
      </trkpt>
      <trkpt lat="43.776090" lon="5.179410">
        <ele>312.4</ele>
      </trkpt>
      <trkpt lat="43.776100" lon="5.179690">
        <ele>312.1</ele>
      </trkpt>
      <trkpt lat="43.776130" lon="5.180130">
        <ele>309.6</ele>
      </trkpt>
      <trkpt lat="43.776170" lon="5.180230">
        <ele>310.2</ele>
      </trkpt>
      <trkpt lat="43.776238" lon="5.180596">
        <ele>310.5</ele>
      </trkpt>
      <trkpt lat="43.776191" lon="5.181288">
        <ele>306.4</ele>
      </trkpt>
      <trkpt lat="43.776133" lon="5.181910">
        <ele>303.3</ele>
      </trkpt>
      <trkpt lat="43.776052" lon="5.183031">
        <ele>303.4</ele>
      </trkpt>
      <trkpt lat="43.775924" lon="5.183583">
        <ele>303.9</ele>
      </trkpt>
      <trkpt lat="43.775820" lon="5.184136">
        <ele>297.5</ele>
      </trkpt>
      <trkpt lat="43.775816" lon="5.185456">
        <ele>289.7</ele>
      </trkpt>
      <trkpt lat="43.775792" lon="5.185745">
        <ele>290.3</ele>
      </trkpt>
      <trkpt lat="43.775750" lon="5.186357">
        <ele>283.2</ele>
      </trkpt>
      <trkpt lat="43.775889" lon="5.186802">
        <ele>290.8</ele>
      </trkpt>
      <trkpt lat="43.775823" lon="5.186877">
        <ele>282.5</ele>
      </trkpt>
      <trkpt lat="43.775823" lon="5.186995">
        <ele>282.5</ele>
      </trkpt>
      <trkpt lat="43.775754" lon="5.187167">
        <ele>283</ele>
      </trkpt>
      <trkpt lat="43.775479" lon="5.188106">
        <ele>284.1</ele>
      </trkpt>
      <trkpt lat="43.775405" lon="5.188218">
        <ele>283.3</ele>
      </trkpt>
      <trkpt lat="43.775340" lon="5.188240">
        <ele>282.4</ele>
      </trkpt>
      <trkpt lat="43.775250" lon="5.188290">
        <ele>281</ele>
      </trkpt>
      <trkpt lat="43.774740" lon="5.188710">
        <ele>273</ele>
      </trkpt>
      <trkpt lat="43.774520" lon="5.189210">
        <ele>272.3</ele>
      </trkpt>
      <trkpt lat="43.774340" lon="5.189350">
        <ele>271.6</ele>
      </trkpt>
      <trkpt lat="43.774340" lon="5.189450">
        <ele>271.6</ele>
      </trkpt>
      <trkpt lat="43.774460" lon="5.190010">
        <ele>266.3</ele>
      </trkpt>
      <trkpt lat="43.774540" lon="5.190580">
        <ele>262.8</ele>
      </trkpt>
      <trkpt lat="43.774584" lon="5.191121">
        <ele>257.6</ele>
      </trkpt>
      <trkpt lat="43.774640" lon="5.191140">
        <ele>257.5</ele>
      </trkpt>
      <trkpt lat="43.774762" lon="5.191410">
        <ele>257.3</ele>
      </trkpt>
      <trkpt lat="43.775084" lon="5.191464">
        <ele>258.4</ele>
      </trkpt>
      <trkpt lat="43.775290" lon="5.191610">
        <ele>259.1</ele>
      </trkpt>
      <trkpt lat="43.775440" lon="5.191720">
        <ele>261.9</ele>
      </trkpt>
      <trkpt lat="43.775650" lon="5.191930">
        <ele>262.9</ele>
      </trkpt>
      <trkpt lat="43.775890" lon="5.192090">
        <ele>272.1</ele>
      </trkpt>
      <trkpt lat="43.775970" lon="5.192360">
        <ele>271.4</ele>
      </trkpt>
      <trkpt lat="43.776029" lon="5.192596">
        <ele>272.7</ele>
      </trkpt>
      <trkpt lat="43.775990" lon="5.192687">
        <ele>273</ele>
      </trkpt>
      <trkpt lat="43.775930" lon="5.192740">
        <ele>272.9</ele>
      </trkpt>
      <trkpt lat="43.775700" lon="5.192850">
        <ele>268.1</ele>
      </trkpt>
      <trkpt lat="43.775480" lon="5.192860">
        <ele>267.9</ele>
      </trkpt>
      <trkpt lat="43.775250" lon="5.192850">
        <ele>267.4</ele>
      </trkpt>
      <trkpt lat="43.775060" lon="5.192850">
        <ele>267</ele>
      </trkpt>
      <trkpt lat="43.774960" lon="5.192870">
        <ele>264.8</ele>
      </trkpt>
      <trkpt lat="43.774750" lon="5.193010">
        <ele>265.1</ele>
      </trkpt>
      <trkpt lat="43.774450" lon="5.193410">
        <ele>267.3</ele>
      </trkpt>
      <trkpt lat="43.773870" lon="5.193810">
        <ele>265.4</ele>
      </trkpt>
      <trkpt lat="43.773433" lon="5.194119">
        <ele>267</ele>
      </trkpt>
      <trkpt lat="43.773130" lon="5.194180">
        <ele>270.5</ele>
      </trkpt>
      <trkpt lat="43.773070" lon="5.194590">
        <ele>271.1</ele>
      </trkpt>
      <trkpt lat="43.773070" lon="5.195120">
        <ele>267.6</ele>
      </trkpt>
      <trkpt lat="43.773040" lon="5.195390">
        <ele>267.5</ele>
      </trkpt>
      <trkpt lat="43.773310" lon="5.196160">
        <ele>258.9</ele>
      </trkpt>
      <trkpt lat="43.773330" lon="5.196300">
        <ele>257.8</ele>
      </trkpt>
      <trkpt lat="43.773440" lon="5.196510">
        <ele>255</ele>
      </trkpt>
      <trkpt lat="43.773540" lon="5.196780">
        <ele>253.5</ele>
      </trkpt>
      <trkpt lat="43.773620" lon="5.196920">
        <ele>253.7</ele>
      </trkpt>
      <trkpt lat="43.773560" lon="5.197150">
        <ele>253.9</ele>
      </trkpt>
      <trkpt lat="43.773468" lon="5.197381">
        <ele>254.3</ele>
      </trkpt>
      <trkpt lat="43.773519" lon="5.197874">
        <ele>257.1</ele>
      </trkpt>
      <trkpt lat="43.773588" lon="5.198073">
        <ele>258</ele>
      </trkpt>
      <trkpt lat="43.773500" lon="5.198090">
        <ele>258.5</ele>
      </trkpt>
      <trkpt lat="43.773410" lon="5.198121">
        <ele>259.2</ele>
      </trkpt>
      <trkpt lat="43.773325" lon="5.198239">
        <ele>262.2</ele>
      </trkpt>
      <trkpt lat="43.773236" lon="5.198443">
        <ele>265.4</ele>
      </trkpt>
      <trkpt lat="43.773108" lon="5.198529">
        <ele>266.8</ele>
      </trkpt>
      <trkpt lat="43.773020" lon="5.198650">
        <ele>267.8</ele>
      </trkpt>
      <trkpt lat="43.772787" lon="5.199140">
        <ele>270.6</ele>
      </trkpt>
      <trkpt lat="43.772752" lon="5.199505">
        <ele>273</ele>
      </trkpt>
      <trkpt lat="43.772694" lon="5.199682">
        <ele>273.6</ele>
      </trkpt>
      <trkpt lat="43.772779" lon="5.200412">
        <ele>274.2</ele>
      </trkpt>
      <trkpt lat="43.772770" lon="5.200940">
        <ele>274.6</ele>
      </trkpt>
      <trkpt lat="43.772705" lon="5.201198">
        <ele>274.2</ele>
      </trkpt>
      <trkpt lat="43.772548" lon="5.201168">
        <ele>274.7</ele>
      </trkpt>
      <trkpt lat="43.772428" lon="5.201184">
        <ele>274</ele>
      </trkpt>
      <trkpt lat="43.772403" lon="5.201273">
        <ele>273.6</ele>
      </trkpt>
      <trkpt lat="43.772341" lon="5.201342">
        <ele>273.2</ele>
      </trkpt>
      <trkpt lat="43.772337" lon="5.201688">
        <ele>270.6</ele>
      </trkpt>
      <trkpt lat="43.772304" lon="5.201680">
        <ele>270.2</ele>
      </trkpt>
      <trkpt lat="43.772252" lon="5.201570">
        <ele>272.4</ele>
      </trkpt>
      <trkpt lat="43.772227" lon="5.201568">
        <ele>272.3</ele>
      </trkpt>
      <trkpt lat="43.772209" lon="5.201664">
        <ele>272</ele>
      </trkpt>
      <trkpt lat="43.772207" lon="5.202091">
        <ele>267.9</ele>
      </trkpt>
      <trkpt lat="43.772149" lon="5.202249">
        <ele>267.4</ele>
      </trkpt>
      <trkpt lat="43.772113" lon="5.202659">
        <ele>266.5</ele>
      </trkpt>
      <trkpt lat="43.772082" lon="5.202971">
        <ele>266.5</ele>
      </trkpt>
      <trkpt lat="43.772054" lon="5.203064">
        <ele>266.6</ele>
      </trkpt>
      <trkpt lat="43.772018" lon="5.203193">
        <ele>266.7</ele>
      </trkpt>
      <trkpt lat="43.771948" lon="5.203252">
        <ele>266.8</ele>
      </trkpt>
      <trkpt lat="43.771850" lon="5.203290">
        <ele>267.1</ele>
      </trkpt>
      <trkpt lat="43.771740" lon="5.203720">
        <ele>268.3</ele>
      </trkpt>
      <trkpt lat="43.771790" lon="5.204370">
        <ele>270.2</ele>
      </trkpt>
      <trkpt lat="43.771730" lon="5.204530">
        <ele>270.6</ele>
      </trkpt>
      <trkpt lat="43.771710" lon="5.204880">
        <ele>271.9</ele>
      </trkpt>
      <trkpt lat="43.771620" lon="5.205050">
        <ele>274.8</ele>
      </trkpt>
      <trkpt lat="43.771480" lon="5.205850">
        <ele>279.9</ele>
      </trkpt>
      <trkpt lat="43.771349" lon="5.207058">
        <ele>284.2</ele>
      </trkpt>
      <trkpt lat="43.771241" lon="5.207364">
        <ele>284.7</ele>
      </trkpt>
      <trkpt lat="43.771110" lon="5.207590">
        <ele>285.9</ele>
      </trkpt>
      <trkpt lat="43.771098" lon="5.207691">
        <ele>285.8</ele>
      </trkpt>
      <trkpt lat="43.771148" lon="5.207879">
        <ele>285.4</ele>
      </trkpt>
      <trkpt lat="43.771171" lon="5.208244">
        <ele>285.5</ele>
      </trkpt>
      <trkpt lat="43.771140" lon="5.208528">
        <ele>287.5</ele>
      </trkpt>
      <trkpt lat="43.771060" lon="5.208890">
        <ele>288.4</ele>
      </trkpt>
      <trkpt lat="43.770940" lon="5.209810">
        <ele>291.9</ele>
      </trkpt>
      <trkpt lat="43.770770" lon="5.210310">
        <ele>297.7</ele>
      </trkpt>
      <trkpt lat="43.770753" lon="5.211570">
        <ele>300.8</ele>
      </trkpt>
      <trkpt lat="43.770672" lon="5.212706">
        <ele>304.2</ele>
      </trkpt>
      <trkpt lat="43.770656" lon="5.212927">
        <ele>304.6</ele>
      </trkpt>
      <trkpt lat="43.770598" lon="5.213023">
        <ele>304.7</ele>
      </trkpt>
      <trkpt lat="43.770110" lon="5.213029">
        <ele>305.1</ele>
      </trkpt>
      <trkpt lat="43.769910" lon="5.212760">
        <ele>306.4</ele>
      </trkpt>
      <trkpt lat="43.769660" lon="5.212570">
        <ele>307</ele>
      </trkpt>
      <trkpt lat="43.769530" lon="5.212450">
        <ele>309.1</ele>
      </trkpt>
      <trkpt lat="43.769140" lon="5.212350">
        <ele>313.1</ele>
      </trkpt>
      <trkpt lat="43.768890" lon="5.211910">
        <ele>315.5</ele>
      </trkpt>
      <trkpt lat="43.768758" lon="5.211816">
        <ele>316.2</ele>
      </trkpt>
      <trkpt lat="43.768607" lon="5.211913">
        <ele>316.8</ele>
      </trkpt>
      <trkpt lat="43.768107" lon="5.212348">
        <ele>322</ele>
      </trkpt>
      <trkpt lat="43.767720" lon="5.212570">
        <ele>322.9</ele>
      </trkpt>
      <trkpt lat="43.767360" lon="5.212640">
        <ele>327.6</ele>
      </trkpt>
      <trkpt lat="43.766750" lon="5.212260">
        <ele>331.6</ele>
      </trkpt>
      <trkpt lat="43.766550" lon="5.212069">
        <ele>331.5</ele>
      </trkpt>
      <trkpt lat="43.766426" lon="5.211752">
        <ele>331.8</ele>
      </trkpt>
      <trkpt lat="43.766399" lon="5.211425">
        <ele>332.7</ele>
      </trkpt>
      <trkpt lat="43.766399" lon="5.210931">
        <ele>333.3</ele>
      </trkpt>
      <trkpt lat="43.765901" lon="5.209666">
        <ele>332.2</ele>
      </trkpt>
      <trkpt lat="43.765837" lon="5.209504">
        <ele>331.3</ele>
      </trkpt>
      <trkpt lat="43.765461" lon="5.209832">
        <ele>327</ele>
      </trkpt>
      <trkpt lat="43.765326" lon="5.209901">
        <ele>326.5</ele>
      </trkpt>
      <trkpt lat="43.765093" lon="5.209853">
        <ele>326</ele>
      </trkpt>
      <trkpt lat="43.764849" lon="5.209622">
        <ele>324.5</ele>
      </trkpt>
      <trkpt lat="43.764427" lon="5.208995">
        <ele>318.4</ele>
      </trkpt>
      <trkpt lat="43.764240" lon="5.208550">
        <ele>316.3</ele>
      </trkpt>
      <trkpt lat="43.763970" lon="5.208210">
        <ele>314.1</ele>
      </trkpt>
      <trkpt lat="43.763680" lon="5.207910">
        <ele>312.4</ele>
      </trkpt>
      <trkpt lat="43.763530" lon="5.207500">
        <ele>306.8</ele>
      </trkpt>
      <trkpt lat="43.763480" lon="5.207040">
        <ele>303.6</ele>
      </trkpt>
      <trkpt lat="43.763497" lon="5.206640">
        <ele>297</ele>
      </trkpt>
      <trkpt lat="43.763470" lon="5.206380">
        <ele>295.1</ele>
      </trkpt>
      <trkpt lat="43.763350" lon="5.206170">
        <ele>293.8</ele>
      </trkpt>
      <trkpt lat="43.763086" lon="5.206066">
        <ele>289.1</ele>
      </trkpt>
      <trkpt lat="43.762950" lon="5.205920">
        <ele>287.7</ele>
      </trkpt>
      <trkpt lat="43.762630" lon="5.205950">
        <ele>284</ele>
      </trkpt>
      <trkpt lat="43.762550" lon="5.205920">
        <ele>282.9</ele>
      </trkpt>
      <trkpt lat="43.762290" lon="5.205780">
        <ele>277.4</ele>
      </trkpt>
      <trkpt lat="43.762100" lon="5.205730">
        <ele>274.2</ele>
      </trkpt>
      <trkpt lat="43.761700" lon="5.205480">
        <ele>272.1</ele>
      </trkpt>
      <trkpt lat="43.761590" lon="5.205470">
        <ele>258.8</ele>
      </trkpt>
      <trkpt lat="43.761450" lon="5.205260">
        <ele>261.9</ele>
      </trkpt>
      <trkpt lat="43.761380" lon="5.205100">
        <ele>263.2</ele>
      </trkpt>
      <trkpt lat="43.761050" lon="5.204860">
        <ele>268.3</ele>
      </trkpt>
      <trkpt lat="43.760760" lon="5.204810">
        <ele>253.1</ele>
      </trkpt>
      <trkpt lat="43.760570" lon="5.204620">
        <ele>251.4</ele>
      </trkpt>
      <trkpt lat="43.760460" lon="5.204530">
        <ele>250.3</ele>
      </trkpt>
      <trkpt lat="43.760360" lon="5.204380">
        <ele>249</ele>
      </trkpt>
      <trkpt lat="43.760300" lon="5.203950">
        <ele>245.9</ele>
      </trkpt>
      <trkpt lat="43.760410" lon="5.203540">
        <ele>245.3</ele>
      </trkpt>
      <trkpt lat="43.760510" lon="5.203330">
        <ele>240.3</ele>
      </trkpt>
      <trkpt lat="43.760560" lon="5.203150">
        <ele>240.4</ele>
      </trkpt>
      <trkpt lat="43.760560" lon="5.202840">
        <ele>237.9</ele>
      </trkpt>
      <trkpt lat="43.760530" lon="5.202630">
        <ele>236.9</ele>
      </trkpt>
      <trkpt lat="43.760494" lon="5.202482">
        <ele>232.7</ele>
      </trkpt>
      <trkpt lat="43.760328" lon="5.202177">
        <ele>230.5</ele>
      </trkpt>
      <trkpt lat="43.760250" lon="5.201940">
        <ele>229.8</ele>
      </trkpt>
      <trkpt lat="43.760200" lon="5.201320">
        <ele>227.7</ele>
      </trkpt>
      <trkpt lat="43.760160" lon="5.200990">
        <ele>228.2</ele>
      </trkpt>
      <trkpt lat="43.760110" lon="5.200840">
        <ele>228.9</ele>
      </trkpt>
      <trkpt lat="43.759840" lon="5.200590">
        <ele>228.5</ele>
      </trkpt>
      <trkpt lat="43.759470" lon="5.200690">
        <ele>227.2</ele>
      </trkpt>
      <trkpt lat="43.759330" lon="5.200700">
        <ele>226.3</ele>
      </trkpt>
      <trkpt lat="43.759300" lon="5.200610">
        <ele>226.8</ele>
      </trkpt>
      <trkpt lat="43.759270" lon="5.200290">
        <ele>229.1</ele>
      </trkpt>
      <trkpt lat="43.759130" lon="5.199910">
        <ele>231.8</ele>
      </trkpt>
      <trkpt lat="43.758850" lon="5.199800">
        <ele>229.4</ele>
      </trkpt>
      <trkpt lat="43.758740" lon="5.199800">
        <ele>228.2</ele>
      </trkpt>
      <trkpt lat="43.758709" lon="5.200642">
        <ele>217.4</ele>
      </trkpt>
      <trkpt lat="43.758728" lon="5.200803">
        <ele>217</ele>
      </trkpt>
      <trkpt lat="43.758845" lon="5.201061">
        <ele>210.4</ele>
      </trkpt>
      <trkpt lat="43.758930" lon="5.201377">
        <ele>208.6</ele>
      </trkpt>
      <trkpt lat="43.758926" lon="5.201554">
        <ele>207.9</ele>
      </trkpt>
      <trkpt lat="43.759046" lon="5.201774">
        <ele>204.2</ele>
      </trkpt>
      <trkpt lat="43.759135" lon="5.201887">
        <ele>203.2</ele>
      </trkpt>
      <trkpt lat="43.759159" lon="5.202080">
        <ele>200.9</ele>
      </trkpt>
      <trkpt lat="43.758973" lon="5.202600">
        <ele>196.8</ele>
      </trkpt>
      <trkpt lat="43.758783" lon="5.202858">
        <ele>194.3</ele>
      </trkpt>
      <trkpt lat="43.758666" lon="5.203099">
        <ele>193</ele>
      </trkpt>
      <trkpt lat="43.758531" lon="5.203469">
        <ele>191.8</ele>
      </trkpt>
      <trkpt lat="43.758159" lon="5.204043">
        <ele>185</ele>
      </trkpt>
      <trkpt lat="43.757895" lon="5.205159">
        <ele>184.7</ele>
      </trkpt>
      <trkpt lat="43.757095" lon="5.204766">
        <ele>176.6</ele>
      </trkpt>
      <trkpt lat="43.756911" lon="5.204676">
        <ele>175.6</ele>
      </trkpt>
      <trkpt lat="43.756074" lon="5.204226">
        <ele>169.4</ele>
      </trkpt>
      <trkpt lat="43.755795" lon="5.204076">
        <ele>166.7</ele>
      </trkpt>
      <trkpt lat="43.755760" lon="5.204510">
        <ele>165.3</ele>
      </trkpt>
      <trkpt lat="43.755700" lon="5.205610">
        <ele>164.5</ele>
      </trkpt>
      <trkpt lat="43.755170" lon="5.205480">
        <ele>162.7</ele>
      </trkpt>
      <trkpt lat="43.754810" lon="5.205400">
        <ele>158.1</ele>
      </trkpt>
      <trkpt lat="43.754470" lon="5.205300">
        <ele>156.8</ele>
      </trkpt>
      <trkpt lat="43.754640" lon="5.204260">
        <ele>158</ele>
      </trkpt>
      <trkpt lat="43.754760" lon="5.203110">
        <ele>158.2</ele>
      </trkpt>
      <trkpt lat="43.754483" lon="5.203094">
        <ele>156.8</ele>
      </trkpt>
      <trkpt lat="43.754214" lon="5.203048">
        <ele>155.9</ele>
      </trkpt>
    </trkseg>
  </trk>
</gpx>