<?xml version="1.0" ?>
<gpx xmlns="http://www.topografix.com/GPX/1/1" xmlns:xsi="http://www.w3.org/2001/XMLSchema-instance" xsi:schemaLocation="http://www.topografix.com/GPX/1/1 http://www.topografix.com/GPX/1/1/gpx.xsd" version="1.1" creator="EditGPX">
  <trk>
    <name>Track from PFMLVTTcircuit3</name>
    <trkseg>
      <trkpt lat="43.996880" lon="5.840770">
        <ele>496.5</ele>
      </trkpt>
      <trkpt lat="43.996723" lon="5.840958">
        <ele>494.9</ele>
      </trkpt>
      <trkpt lat="43.996541" lon="5.841141">
        <ele>492.1</ele>
      </trkpt>
      <trkpt lat="43.996396" lon="5.841258">
        <ele>491</ele>
      </trkpt>
      <trkpt lat="43.996246" lon="5.841315">
        <ele>490.5</ele>
      </trkpt>
      <trkpt lat="43.996037" lon="5.841383">
        <ele>489.6</ele>
      </trkpt>
      <trkpt lat="43.995800" lon="5.841398">
        <ele>485.6</ele>
      </trkpt>
      <trkpt lat="43.995556" lon="5.841429">
        <ele>484.8</ele>
      </trkpt>
      <trkpt lat="43.995274" lon="5.841484">
        <ele>483.1</ele>
      </trkpt>
      <trkpt lat="43.994937" lon="5.841548">
        <ele>478.1</ele>
      </trkpt>
      <trkpt lat="43.994530" lon="5.841548">
        <ele>476.2</ele>
      </trkpt>
      <trkpt lat="43.993958" lon="5.841485">
        <ele>471.6</ele>
      </trkpt>
      <trkpt lat="43.993542" lon="5.841433">
        <ele>470.2</ele>
      </trkpt>
      <trkpt lat="43.993125" lon="5.841405">
        <ele>467.7</ele>
      </trkpt>
      <trkpt lat="43.992826" lon="5.841338">
        <ele>467.4</ele>
      </trkpt>
      <trkpt lat="43.992600" lon="5.841369">
        <ele>466.9</ele>
      </trkpt>
      <trkpt lat="43.992365" lon="5.841401">
        <ele>468.3</ele>
      </trkpt>
      <trkpt lat="43.992154" lon="5.841435">
        <ele>469.1</ele>
      </trkpt>
      <trkpt lat="43.991919" lon="5.841382">
        <ele>470.1</ele>
      </trkpt>
      <trkpt lat="43.991685" lon="5.841402">
        <ele>470.2</ele>
      </trkpt>
      <trkpt lat="43.991386" lon="5.841292">
        <ele>473.9</ele>
      </trkpt>
      <trkpt lat="43.990859" lon="5.841118">
        <ele>475.1</ele>
      </trkpt>
      <trkpt lat="43.990505" lon="5.840940">
        <ele>476.8</ele>
      </trkpt>
      <trkpt lat="43.990249" lon="5.840706">
        <ele>477.6</ele>
      </trkpt>
      <trkpt lat="43.990064" lon="5.840548">
        <ele>477.6</ele>
      </trkpt>
      <trkpt lat="43.989831" lon="5.840410">
        <ele>480.3</ele>
      </trkpt>
      <trkpt lat="43.989606" lon="5.840323">
        <ele>481.4</ele>
      </trkpt>
      <trkpt lat="43.989410" lon="5.840348">
        <ele>482.5</ele>
      </trkpt>
      <trkpt lat="43.989238" lon="5.840364">
        <ele>483.2</ele>
      </trkpt>
      <trkpt lat="43.989205" lon="5.840315">
        <ele>483.4</ele>
      </trkpt>
      <trkpt lat="43.989309" lon="5.840169">
        <ele>483.8</ele>
      </trkpt>
      <trkpt lat="43.989444" lon="5.839990">
        <ele>483.3</ele>
      </trkpt>
      <trkpt lat="43.989534" lon="5.839831">
        <ele>482.4</ele>
      </trkpt>
      <trkpt lat="43.989558" lon="5.839706">
        <ele>482.2</ele>
      </trkpt>
      <trkpt lat="43.989509" lon="5.839671">
        <ele>482.4</ele>
      </trkpt>
      <trkpt lat="43.989290" lon="5.839706">
        <ele>483.6</ele>
      </trkpt>
      <trkpt lat="43.989104" lon="5.839734">
        <ele>488.5</ele>
      </trkpt>
      <trkpt lat="43.988962" lon="5.839670">
        <ele>489</ele>
      </trkpt>
      <trkpt lat="43.988817" lon="5.839542">
        <ele>489.5</ele>
      </trkpt>
      <trkpt lat="43.988607" lon="5.839436">
        <ele>490.3</ele>
      </trkpt>
      <trkpt lat="43.988423" lon="5.839412">
        <ele>491.1</ele>
      </trkpt>
      <trkpt lat="43.988148" lon="5.839444">
        <ele>495.2</ele>
      </trkpt>
      <trkpt lat="43.987894" lon="5.839418">
        <ele>496.2</ele>
      </trkpt>
      <trkpt lat="43.987665" lon="5.839341">
        <ele>497.5</ele>
      </trkpt>
      <trkpt lat="43.987360" lon="5.839232">
        <ele>500.1</ele>
      </trkpt>
      <trkpt lat="43.987035" lon="5.839146">
        <ele>501.6</ele>
      </trkpt>
      <trkpt lat="43.986800" lon="5.838962">
        <ele>502.2</ele>
      </trkpt>
      <trkpt lat="43.986629" lon="5.838758">
        <ele>503.2</ele>
      </trkpt>
      <trkpt lat="43.986431" lon="5.838549">
        <ele>503.3</ele>
      </trkpt>
      <trkpt lat="43.986266" lon="5.838383">
        <ele>503.4</ele>
      </trkpt>
      <trkpt lat="43.986022" lon="5.838257">
        <ele>504.2</ele>
      </trkpt>
      <trkpt lat="43.985792" lon="5.838162">
        <ele>505.5</ele>
      </trkpt>
      <trkpt lat="43.985525" lon="5.838073">
        <ele>506.6</ele>
      </trkpt>
      <trkpt lat="43.985354" lon="5.838013">
        <ele>507.1</ele>
      </trkpt>
      <trkpt lat="43.985224" lon="5.837862">
        <ele>508</ele>
      </trkpt>
      <trkpt lat="43.985229" lon="5.837602">
        <ele>509.2</ele>
      </trkpt>
      <trkpt lat="43.985231" lon="5.837306">
        <ele>510.9</ele>
      </trkpt>
      <trkpt lat="43.985166" lon="5.837090">
        <ele>511.1</ele>
      </trkpt>
      <trkpt lat="43.985065" lon="5.837022">
        <ele>511.5</ele>
      </trkpt>
      <trkpt lat="43.984977" lon="5.837218">
        <ele>517.2</ele>
      </trkpt>
      <trkpt lat="43.984828" lon="5.837477">
        <ele>516.5</ele>
      </trkpt>
      <trkpt lat="43.984617" lon="5.837582">
        <ele>515.4</ele>
      </trkpt>
      <trkpt lat="43.984494" lon="5.837756">
        <ele>515.7</ele>
      </trkpt>
      <trkpt lat="43.984348" lon="5.837918">
        <ele>515.5</ele>
      </trkpt>
      <trkpt lat="43.984101" lon="5.837931">
        <ele>519.4</ele>
      </trkpt>
      <trkpt lat="43.983830" lon="5.837919">
        <ele>519.7</ele>
      </trkpt>
      <trkpt lat="43.983622" lon="5.837924">
        <ele>519.8</ele>
      </trkpt>
      <trkpt lat="43.983466" lon="5.837900">
        <ele>520.1</ele>
      </trkpt>
      <trkpt lat="43.983349" lon="5.837915">
        <ele>520</ele>
      </trkpt>
      <trkpt lat="43.983214" lon="5.838031">
        <ele>520.5</ele>
      </trkpt>
      <trkpt lat="43.983046" lon="5.838125">
        <ele>520.4</ele>
      </trkpt>
      <trkpt lat="43.982952" lon="5.838195">
        <ele>520.5</ele>
      </trkpt>
      <trkpt lat="43.982863" lon="5.838251">
        <ele>520.7</ele>
      </trkpt>
      <trkpt lat="43.982753" lon="5.838202">
        <ele>521</ele>
      </trkpt>
      <trkpt lat="43.982644" lon="5.838038">
        <ele>521.7</ele>
      </trkpt>
      <trkpt lat="43.982510" lon="5.837928">
        <ele>522.5</ele>
      </trkpt>
      <trkpt lat="43.982378" lon="5.837910">
        <ele>526.3</ele>
      </trkpt>
      <trkpt lat="43.982249" lon="5.838016">
        <ele>526.2</ele>
      </trkpt>
      <trkpt lat="43.982047" lon="5.838113">
        <ele>526.8</ele>
      </trkpt>
      <trkpt lat="43.981892" lon="5.838188">
        <ele>527.2</ele>
      </trkpt>
      <trkpt lat="43.981744" lon="5.838267">
        <ele>527.2</ele>
      </trkpt>
      <trkpt lat="43.981500" lon="5.838322">
        <ele>532.6</ele>
      </trkpt>
      <trkpt lat="43.981289" lon="5.838317">
        <ele>536.3</ele>
      </trkpt>
      <trkpt lat="43.981045" lon="5.838411">
        <ele>532.7</ele>
      </trkpt>
      <trkpt lat="43.980803" lon="5.838603">
        <ele>537.7</ele>
      </trkpt>
      <trkpt lat="43.980543" lon="5.838746">
        <ele>537.6</ele>
      </trkpt>
      <trkpt lat="43.980269" lon="5.838920">
        <ele>537.9</ele>
      </trkpt>
      <trkpt lat="43.980127" lon="5.838999">
        <ele>537.9</ele>
      </trkpt>
      <trkpt lat="43.979934" lon="5.839051">
        <ele>540.4</ele>
      </trkpt>
      <trkpt lat="43.979765" lon="5.839106">
        <ele>542</ele>
      </trkpt>
      <trkpt lat="43.979593" lon="5.839142">
        <ele>543.5</ele>
      </trkpt>
      <trkpt lat="43.979467" lon="5.839206">
        <ele>540.9</ele>
      </trkpt>
      <trkpt lat="43.979314" lon="5.839317">
        <ele>541.8</ele>
      </trkpt>
      <trkpt lat="43.979160" lon="5.839393">
        <ele>545.6</ele>
      </trkpt>
      <trkpt lat="43.979011" lon="5.839468">
        <ele>545.9</ele>
      </trkpt>
      <trkpt lat="43.978847" lon="5.839490">
        <ele>546.4</ele>
      </trkpt>
      <trkpt lat="43.978756" lon="5.839460">
        <ele>546.8</ele>
      </trkpt>
      <trkpt lat="43.978682" lon="5.839087">
        <ele>548.1</ele>
      </trkpt>
      <trkpt lat="43.978591" lon="5.838719">
        <ele>548.2</ele>
      </trkpt>
      <trkpt lat="43.978476" lon="5.838320">
        <ele>547.9</ele>
      </trkpt>
      <trkpt lat="43.978337" lon="5.838064">
        <ele>547.5</ele>
      </trkpt>
      <trkpt lat="43.978165" lon="5.837905">
        <ele>546</ele>
      </trkpt>
      <trkpt lat="43.977627" lon="5.837557">
        <ele>543.2</ele>
      </trkpt>
      <trkpt lat="43.977282" lon="5.837260">
        <ele>538.8</ele>
      </trkpt>
      <trkpt lat="43.977002" lon="5.836974">
        <ele>537.4</ele>
      </trkpt>
      <trkpt lat="43.976784" lon="5.836758">
        <ele>535.3</ele>
      </trkpt>
      <trkpt lat="43.976585" lon="5.836603">
        <ele>532.2</ele>
      </trkpt>
      <trkpt lat="43.976349" lon="5.836538">
        <ele>531.2</ele>
      </trkpt>
      <trkpt lat="43.976068" lon="5.836608">
        <ele>530.8</ele>
      </trkpt>
      <trkpt lat="43.975665" lon="5.836712">
        <ele>530.8</ele>
      </trkpt>
      <trkpt lat="43.975368" lon="5.836750">
        <ele>529.7</ele>
      </trkpt>
      <trkpt lat="43.975044" lon="5.836817">
        <ele>528</ele>
      </trkpt>
      <trkpt lat="43.974785" lon="5.836796">
        <ele>527.7</ele>
      </trkpt>
      <trkpt lat="43.974546" lon="5.836780">
        <ele>528.8</ele>
      </trkpt>
      <trkpt lat="43.974348" lon="5.836930">
        <ele>529.4</ele>
      </trkpt>
      <trkpt lat="43.974149" lon="5.837159">
        <ele>529.3</ele>
      </trkpt>
      <trkpt lat="43.973910" lon="5.837249">
        <ele>528.9</ele>
      </trkpt>
      <trkpt lat="43.973710" lon="5.837292">
        <ele>528.8</ele>
      </trkpt>
      <trkpt lat="43.973550" lon="5.837309">
        <ele>528.4</ele>
      </trkpt>
      <trkpt lat="43.973424" lon="5.837242">
        <ele>528.5</ele>
      </trkpt>
      <trkpt lat="43.973295" lon="5.837169">
        <ele>528.4</ele>
      </trkpt>
      <trkpt lat="43.973160" lon="5.837198">
        <ele>528.3</ele>
      </trkpt>
      <trkpt lat="43.972990" lon="5.837315">
        <ele>528.1</ele>
      </trkpt>
      <trkpt lat="43.973083" lon="5.837122">
        <ele>528.7</ele>
      </trkpt>
      <trkpt lat="43.973241" lon="5.836906">
        <ele>529.7</ele>
      </trkpt>
      <trkpt lat="43.973380" lon="5.836679">
        <ele>531.6</ele>
      </trkpt>
      <trkpt lat="43.973553" lon="5.836335">
        <ele>534.1</ele>
      </trkpt>
      <trkpt lat="43.973696" lon="5.835977">
        <ele>535</ele>
      </trkpt>
      <trkpt lat="43.973820" lon="5.835775">
        <ele>537.2</ele>
      </trkpt>
      <trkpt lat="43.974095" lon="5.835496">
        <ele>538</ele>
      </trkpt>
      <trkpt lat="43.974294" lon="5.835306">
        <ele>538.3</ele>
      </trkpt>
      <trkpt lat="43.974406" lon="5.835039">
        <ele>538.9</ele>
      </trkpt>
      <trkpt lat="43.974487" lon="5.834820">
        <ele>542.5</ele>
      </trkpt>
      <trkpt lat="43.974554" lon="5.834676">
        <ele>542.9</ele>
      </trkpt>
      <trkpt lat="43.974725" lon="5.834542">
        <ele>543.5</ele>
      </trkpt>
      <trkpt lat="43.974836" lon="5.834413">
        <ele>544.6</ele>
      </trkpt>
      <trkpt lat="43.974851" lon="5.834406">
        <ele>544.7</ele>
      </trkpt>
      <trkpt lat="43.974905" lon="5.834247">
        <ele>546.6</ele>
      </trkpt>
      <trkpt lat="43.975091" lon="5.834060">
        <ele>548.2</ele>
      </trkpt>
      <trkpt lat="43.975223" lon="5.833851">
        <ele>547.8</ele>
      </trkpt>
      <trkpt lat="43.975246" lon="5.833713">
        <ele>548.2</ele>
      </trkpt>
      <trkpt lat="43.975258" lon="5.833451">
        <ele>549.4</ele>
      </trkpt>
      <trkpt lat="43.975323" lon="5.833332">
        <ele>552.7</ele>
      </trkpt>
      <trkpt lat="43.975328" lon="5.833084">
        <ele>553</ele>
      </trkpt>
      <trkpt lat="43.975388" lon="5.832879">
        <ele>553.4</ele>
      </trkpt>
      <trkpt lat="43.975391" lon="5.832853">
        <ele>553.5</ele>
      </trkpt>
      <trkpt lat="43.975495" lon="5.832660">
        <ele>554</ele>
      </trkpt>
      <trkpt lat="43.975492" lon="5.832490">
        <ele>557</ele>
      </trkpt>
      <trkpt lat="43.975545" lon="5.832331">
        <ele>557.2</ele>
      </trkpt>
      <trkpt lat="43.975638" lon="5.832087">
        <ele>558</ele>
      </trkpt>
      <trkpt lat="43.975750" lon="5.831942">
        <ele>559</ele>
      </trkpt>
      <trkpt lat="43.975821" lon="5.831746">
        <ele>561.4</ele>
      </trkpt>
      <trkpt lat="43.975855" lon="5.831650">
        <ele>562.7</ele>
      </trkpt>
      <trkpt lat="43.975935" lon="5.831415">
        <ele>561.4</ele>
      </trkpt>
      <trkpt lat="43.976026" lon="5.831225">
        <ele>561.3</ele>
      </trkpt>
      <trkpt lat="43.976102" lon="5.831038">
        <ele>561.6</ele>
      </trkpt>
      <trkpt lat="43.976231" lon="5.830894">
        <ele>561.4</ele>
      </trkpt>
      <trkpt lat="43.976278" lon="5.830756">
        <ele>564.1</ele>
      </trkpt>
      <trkpt lat="43.976340" lon="5.830523">
        <ele>564.5</ele>
      </trkpt>
      <trkpt lat="43.976383" lon="5.830312">
        <ele>565.2</ele>
      </trkpt>
      <trkpt lat="43.976421" lon="5.830142">
        <ele>565.9</ele>
      </trkpt>
      <trkpt lat="43.976535" lon="5.830069">
        <ele>567</ele>
      </trkpt>
      <trkpt lat="43.976576" lon="5.829951">
        <ele>568.3</ele>
      </trkpt>
      <trkpt lat="43.976674" lon="5.829768">
        <ele>568.6</ele>
      </trkpt>
      <trkpt lat="43.976706" lon="5.829629">
        <ele>568.8</ele>
      </trkpt>
      <trkpt lat="43.976587" lon="5.829485">
        <ele>568.1</ele>
      </trkpt>
      <trkpt lat="43.976388" lon="5.829313">
        <ele>567.7</ele>
      </trkpt>
      <trkpt lat="43.976270" lon="5.829193">
        <ele>567</ele>
      </trkpt>
      <trkpt lat="43.976156" lon="5.829092">
        <ele>566.2</ele>
      </trkpt>
      <trkpt lat="43.975983" lon="5.829017">
        <ele>565.1</ele>
      </trkpt>
      <trkpt lat="43.975758" lon="5.829050">
        <ele>560.4</ele>
      </trkpt>
      <trkpt lat="43.975492" lon="5.829116">
        <ele>557.9</ele>
      </trkpt>
      <trkpt lat="43.975329" lon="5.829177">
        <ele>557.3</ele>
      </trkpt>
      <trkpt lat="43.975105" lon="5.829247">
        <ele>555.2</ele>
      </trkpt>
      <trkpt lat="43.974776" lon="5.829389">
        <ele>550.1</ele>
      </trkpt>
      <trkpt lat="43.974508" lon="5.829555">
        <ele>548.7</ele>
      </trkpt>
      <trkpt lat="43.974167" lon="5.829758">
        <ele>546.8</ele>
      </trkpt>
      <trkpt lat="43.973882" lon="5.829837">
        <ele>540.8</ele>
      </trkpt>
      <trkpt lat="43.973827" lon="5.829846">
        <ele>540.4</ele>
      </trkpt>
      <trkpt lat="43.973572" lon="5.829982">
        <ele>537.6</ele>
      </trkpt>
      <trkpt lat="43.973307" lon="5.830181">
        <ele>531.2</ele>
      </trkpt>
      <trkpt lat="43.973069" lon="5.830326">
        <ele>530</ele>
      </trkpt>
      <trkpt lat="43.972771" lon="5.830433">
        <ele>528.7</ele>
      </trkpt>
      <trkpt lat="43.972496" lon="5.830496">
        <ele>525.5</ele>
      </trkpt>
      <trkpt lat="43.972166" lon="5.830595">
        <ele>525.1</ele>
      </trkpt>
      <trkpt lat="43.971904" lon="5.830649">
        <ele>524.3</ele>
      </trkpt>
      <trkpt lat="43.971696" lon="5.830817">
        <ele>521.6</ele>
      </trkpt>
      <trkpt lat="43.971404" lon="5.831033">
        <ele>517.6</ele>
      </trkpt>
      <trkpt lat="43.971160" lon="5.831147">
        <ele>516.8</ele>
      </trkpt>
      <trkpt lat="43.970925" lon="5.831314">
        <ele>515.6</ele>
      </trkpt>
      <trkpt lat="43.970723" lon="5.831542">
        <ele>513.3</ele>
      </trkpt>
      <trkpt lat="43.970469" lon="5.831687">
        <ele>509</ele>
      </trkpt>
      <trkpt lat="43.970254" lon="5.831761">
        <ele>509.4</ele>
      </trkpt>
      <trkpt lat="43.969989" lon="5.831746">
        <ele>511.1</ele>
      </trkpt>
      <trkpt lat="43.969842" lon="5.831859">
        <ele>508.6</ele>
      </trkpt>
      <trkpt lat="43.969725" lon="5.831890">
        <ele>507.7</ele>
      </trkpt>
      <trkpt lat="43.969600" lon="5.831850">
        <ele>507.4</ele>
      </trkpt>
      <trkpt lat="43.969463" lon="5.831723">
        <ele>507.4</ele>
      </trkpt>
      <trkpt lat="43.969299" lon="5.831592">
        <ele>510.2</ele>
      </trkpt>
      <trkpt lat="43.969227" lon="5.831524">
        <ele>510.2</ele>
      </trkpt>
      <trkpt lat="43.969112" lon="5.831544">
        <ele>508</ele>
      </trkpt>
      <trkpt lat="43.968983" lon="5.831670">
        <ele>505.8</ele>
      </trkpt>
      <trkpt lat="43.968820" lon="5.831766">
        <ele>504.7</ele>
      </trkpt>
      <trkpt lat="43.968595" lon="5.831850">
        <ele>504</ele>
      </trkpt>
      <trkpt lat="43.968386" lon="5.831921">
        <ele>503.7</ele>
      </trkpt>
      <trkpt lat="43.968415" lon="5.831926">
        <ele>503.7</ele>
      </trkpt>
      <trkpt lat="43.968231" lon="5.832065">
        <ele>501.5</ele>
      </trkpt>
      <trkpt lat="43.968042" lon="5.832218">
        <ele>501</ele>
      </trkpt>
      <trkpt lat="43.967904" lon="5.832392">
        <ele>500.7</ele>
      </trkpt>
      <trkpt lat="43.967779" lon="5.832558">
        <ele>498.3</ele>
      </trkpt>
      <trkpt lat="43.967585" lon="5.832565">
        <ele>498.5</ele>
      </trkpt>
      <trkpt lat="43.967520" lon="5.832842">
        <ele>497.7</ele>
      </trkpt>
      <trkpt lat="43.967475" lon="5.833022">
        <ele>495.6</ele>
      </trkpt>
      <trkpt lat="43.967285" lon="5.832860">
        <ele>495.5</ele>
      </trkpt>
      <trkpt lat="43.967004" lon="5.832819">
        <ele>494.6</ele>
      </trkpt>
      <trkpt lat="43.966710" lon="5.832772">
        <ele>493.9</ele>
      </trkpt>
      <trkpt lat="43.966755" lon="5.832778">
        <ele>494</ele>
      </trkpt>
      <trkpt lat="43.966495" lon="5.832720">
        <ele>492.6</ele>
      </trkpt>
      <trkpt lat="43.966193" lon="5.832613">
        <ele>492.9</ele>
      </trkpt>
      <trkpt lat="43.966029" lon="5.832471">
        <ele>493.8</ele>
      </trkpt>
      <trkpt lat="43.965879" lon="5.832331">
        <ele>493.8</ele>
      </trkpt>
      <trkpt lat="43.965789" lon="5.832351">
        <ele>492.8</ele>
      </trkpt>
      <trkpt lat="43.965196" lon="5.832425">
        <ele>491.2</ele>
      </trkpt>
      <trkpt lat="43.964672" lon="5.832442">
        <ele>486.5</ele>
      </trkpt>
      <trkpt lat="43.964176" lon="5.832236">
        <ele>484</ele>
      </trkpt>
      <trkpt lat="43.963710" lon="5.831982">
        <ele>473.6</ele>
      </trkpt>
      <trkpt lat="43.963422" lon="5.832106">
        <ele>471.9</ele>
      </trkpt>
      <trkpt lat="43.962932" lon="5.832029">
        <ele>462.9</ele>
      </trkpt>
      <trkpt lat="43.962680" lon="5.831873">
        <ele>461.2</ele>
      </trkpt>
      <trkpt lat="43.962565" lon="5.831662">
        <ele>458.7</ele>
      </trkpt>
      <trkpt lat="43.962590" lon="5.831434">
        <ele>459.9</ele>
      </trkpt>
      <trkpt lat="43.962754" lon="5.831279">
        <ele>460.6</ele>
      </trkpt>
      <trkpt lat="43.962971" lon="5.831244">
        <ele>461.1</ele>
      </trkpt>
      <trkpt lat="43.963133" lon="5.831241">
        <ele>461.5</ele>
      </trkpt>
      <trkpt lat="43.963157" lon="5.831047">
        <ele>461.5</ele>
      </trkpt>
      <trkpt lat="43.963074" lon="5.830824">
        <ele>462.4</ele>
      </trkpt>
      <trkpt lat="43.963160" lon="5.830590">
        <ele>462.7</ele>
      </trkpt>
      <trkpt lat="43.963402" lon="5.830177">
        <ele>465.9</ele>
      </trkpt>
      <trkpt lat="43.963923" lon="5.829334">
        <ele>468.9</ele>
      </trkpt>
      <trkpt lat="43.964110" lon="5.828884">
        <ele>471.2</ele>
      </trkpt>
      <trkpt lat="43.964310" lon="5.828438">
        <ele>472.7</ele>
      </trkpt>
      <trkpt lat="43.964377" lon="5.828127">
        <ele>474.6</ele>
      </trkpt>
      <trkpt lat="43.964659" lon="5.827622">
        <ele>475.7</ele>
      </trkpt>
      <trkpt lat="43.964891" lon="5.827341">
        <ele>477.8</ele>
      </trkpt>
      <trkpt lat="43.965138" lon="5.827273">
        <ele>478.1</ele>
      </trkpt>
      <trkpt lat="43.965611" lon="5.826981">
        <ele>478.7</ele>
      </trkpt>
      <trkpt lat="43.966017" lon="5.826665">
        <ele>482.7</ele>
      </trkpt>
      <trkpt lat="43.966622" lon="5.826317">
        <ele>483.9</ele>
      </trkpt>
      <trkpt lat="43.967066" lon="5.826063">
        <ele>485.5</ele>
      </trkpt>
      <trkpt lat="43.967580" lon="5.825736">
        <ele>487.3</ele>
      </trkpt>
      <trkpt lat="43.968093" lon="5.825454">
        <ele>488.8</ele>
      </trkpt>
      <trkpt lat="43.968419" lon="5.825278">
        <ele>490</ele>
      </trkpt>
      <trkpt lat="43.968582" lon="5.824998">
        <ele>490.9</ele>
      </trkpt>
      <trkpt lat="43.968583" lon="5.824980">
        <ele>490.9</ele>
      </trkpt>
      <trkpt lat="43.968725" lon="5.824725">
        <ele>491.8</ele>
      </trkpt>
      <trkpt lat="43.968761" lon="5.824513">
        <ele>492.4</ele>
      </trkpt>
      <trkpt lat="43.968681" lon="5.824317">
        <ele>492.9</ele>
      </trkpt>
      <trkpt lat="43.968441" lon="5.824231">
        <ele>493.3</ele>
      </trkpt>
      <trkpt lat="43.968414" lon="5.824246">
        <ele>493.3</ele>
      </trkpt>
      <trkpt lat="43.968384" lon="5.824083">
        <ele>495.2</ele>
      </trkpt>
      <trkpt lat="43.968455" lon="5.823833">
        <ele>497</ele>
      </trkpt>
      <trkpt lat="43.968462" lon="5.823825">
        <ele>497.1</ele>
      </trkpt>
      <trkpt lat="43.968652" lon="5.823474">
        <ele>498.5</ele>
      </trkpt>
      <trkpt lat="43.969096" lon="5.822528">
        <ele>505.4</ele>
      </trkpt>
      <trkpt lat="43.969420" lon="5.821940">
        <ele>510.5</ele>
      </trkpt>
      <trkpt lat="43.969514" lon="5.821411">
        <ele>514.3</ele>
      </trkpt>
      <trkpt lat="43.969558" lon="5.820732">
        <ele>516.5</ele>
      </trkpt>
      <trkpt lat="43.969581" lon="5.820067">
        <ele>517</ele>
      </trkpt>
      <trkpt lat="43.969608" lon="5.819438">
        <ele>518.1</ele>
      </trkpt>
      <trkpt lat="43.969656" lon="5.818700">
        <ele>521.1</ele>
      </trkpt>
      <trkpt lat="43.969694" lon="5.818164">
        <ele>525.3</ele>
      </trkpt>
      <trkpt lat="43.969728" lon="5.818006">
        <ele>525.7</ele>
      </trkpt>
      <trkpt lat="43.970263" lon="5.818222">
        <ele>527</ele>
      </trkpt>
      <trkpt lat="43.970607" lon="5.818205">
        <ele>527.5</ele>
      </trkpt>
      <trkpt lat="43.970843" lon="5.818136">
        <ele>528.6</ele>
      </trkpt>
      <trkpt lat="43.970982" lon="5.817913">
        <ele>529.6</ele>
      </trkpt>
      <trkpt lat="43.971258" lon="5.817188">
        <ele>533.8</ele>
      </trkpt>
      <trkpt lat="43.971499" lon="5.816649">
        <ele>538</ele>
      </trkpt>
      <trkpt lat="43.971802" lon="5.816121">
        <ele>541.5</ele>
      </trkpt>
      <trkpt lat="43.972109" lon="5.815758">
        <ele>546.1</ele>
      </trkpt>
      <trkpt lat="43.972128" lon="5.815742">
        <ele>546.1</ele>
      </trkpt>
      <trkpt lat="43.972272" lon="5.815485">
        <ele>547.2</ele>
      </trkpt>
      <trkpt lat="43.972350" lon="5.815130">
        <ele>549.3</ele>
      </trkpt>
      <trkpt lat="43.972490" lon="5.814799">
        <ele>553.9</ele>
      </trkpt>
      <trkpt lat="43.972617" lon="5.814587">
        <ele>557.1</ele>
      </trkpt>
      <trkpt lat="43.972643" lon="5.814408">
        <ele>558.5</ele>
      </trkpt>
      <trkpt lat="43.972534" lon="5.814119">
        <ele>562.4</ele>
      </trkpt>
      <trkpt lat="43.972417" lon="5.814035">
        <ele>562.2</ele>
      </trkpt>
      <trkpt lat="43.972518" lon="5.813866">
        <ele>563.7</ele>
      </trkpt>
      <trkpt lat="43.972651" lon="5.813742">
        <ele>564.2</ele>
      </trkpt>
      <trkpt lat="43.972721" lon="5.813620">
        <ele>564.6</ele>
      </trkpt>
      <trkpt lat="43.972871" lon="5.813499">
        <ele>564.7</ele>
      </trkpt>
      <trkpt lat="43.972778" lon="5.813050">
        <ele>567.4</ele>
      </trkpt>
      <trkpt lat="43.972859" lon="5.812922">
        <ele>567.5</ele>
      </trkpt>
      <trkpt lat="43.972791" lon="5.812556">
        <ele>567.8</ele>
      </trkpt>
      <trkpt lat="43.972722" lon="5.812222">
        <ele>568.1</ele>
      </trkpt>
      <trkpt lat="43.972536" lon="5.811507">
        <ele>567.3</ele>
      </trkpt>
      <trkpt lat="43.972478" lon="5.810992">
        <ele>565.3</ele>
      </trkpt>
      <trkpt lat="43.972334" lon="5.810548">
        <ele>563.7</ele>
      </trkpt>
      <trkpt lat="43.972146" lon="5.810299">
        <ele>562.9</ele>
      </trkpt>
      <trkpt lat="43.971718" lon="5.810059">
        <ele>562.2</ele>
      </trkpt>
      <trkpt lat="43.971362" lon="5.809824">
        <ele>558.3</ele>
      </trkpt>
      <trkpt lat="43.971027" lon="5.809485">
        <ele>556.5</ele>
      </trkpt>
      <trkpt lat="43.970782" lon="5.809161">
        <ele>553.3</ele>
      </trkpt>
      <trkpt lat="43.970539" lon="5.808892">
        <ele>551</ele>
      </trkpt>
      <trkpt lat="43.970401" lon="5.808911">
        <ele>550.6</ele>
      </trkpt>
      <trkpt lat="43.970312" lon="5.809009">
        <ele>550.4</ele>
      </trkpt>
      <trkpt lat="43.970093" lon="5.808955">
        <ele>549.8</ele>
      </trkpt>
      <trkpt lat="43.969925" lon="5.808798">
        <ele>546.7</ele>
      </trkpt>
      <trkpt lat="43.969812" lon="5.808762">
        <ele>546.5</ele>
      </trkpt>
      <trkpt lat="43.969593" lon="5.808866">
        <ele>545.8</ele>
      </trkpt>
      <trkpt lat="43.969344" lon="5.809027">
        <ele>544.7</ele>
      </trkpt>
      <trkpt lat="43.968970" lon="5.809206">
        <ele>540.4</ele>
      </trkpt>
      <trkpt lat="43.968712" lon="5.809380">
        <ele>538.4</ele>
      </trkpt>
      <trkpt lat="43.968529" lon="5.809434">
        <ele>537.4</ele>
      </trkpt>
      <trkpt lat="43.968331" lon="5.809418">
        <ele>533.4</ele>
      </trkpt>
      <trkpt lat="43.968101" lon="5.809323">
        <ele>533.2</ele>
      </trkpt>
      <trkpt lat="43.968405" lon="5.809272">
        <ele>536.3</ele>
      </trkpt>
      <trkpt lat="43.968622" lon="5.809138">
        <ele>538.2</ele>
      </trkpt>
      <trkpt lat="43.968761" lon="5.808989">
        <ele>539.3</ele>
      </trkpt>
      <trkpt lat="43.968769" lon="5.808697">
        <ele>539.4</ele>
      </trkpt>
      <trkpt lat="43.968730" lon="5.808175">
        <ele>539.2</ele>
      </trkpt>
      <trkpt lat="43.968740" lon="5.807759">
        <ele>539.2</ele>
      </trkpt>
      <trkpt lat="43.968674" lon="5.807599">
        <ele>538.9</ele>
      </trkpt>
      <trkpt lat="43.968673" lon="5.807367">
        <ele>538.5</ele>
      </trkpt>
      <trkpt lat="43.968614" lon="5.807129">
        <ele>538.4</ele>
      </trkpt>
      <trkpt lat="43.968545" lon="5.807001">
        <ele>538.4</ele>
      </trkpt>
      <trkpt lat="43.968435" lon="5.806984">
        <ele>538.4</ele>
      </trkpt>
      <trkpt lat="43.968370" lon="5.806849">
        <ele>538.6</ele>
      </trkpt>
      <trkpt lat="43.968371" lon="5.806831">
        <ele>538.6</ele>
      </trkpt>
      <trkpt lat="43.968360" lon="5.806596">
        <ele>538.1</ele>
      </trkpt>
      <trkpt lat="43.968363" lon="5.806554">
        <ele>537.7</ele>
      </trkpt>
      <trkpt lat="43.968360" lon="5.806523">
        <ele>537.4</ele>
      </trkpt>
      <trkpt lat="43.968356" lon="5.806498">
        <ele>537.3</ele>
      </trkpt>
      <trkpt lat="43.968331" lon="5.806292">
        <ele>535</ele>
      </trkpt>
      <trkpt lat="43.968328" lon="5.806260">
        <ele>534.8</ele>
      </trkpt>
      <trkpt lat="43.968332" lon="5.806075">
        <ele>534.3</ele>
      </trkpt>
      <trkpt lat="43.968337" lon="5.806057">
        <ele>535.1</ele>
      </trkpt>
      <trkpt lat="43.968410" lon="5.805922">
        <ele>534.6</ele>
      </trkpt>
      <trkpt lat="43.968424" lon="5.805911">
        <ele>534.6</ele>
      </trkpt>
      <trkpt lat="43.968447" lon="5.805907">
        <ele>534.6</ele>
      </trkpt>
      <trkpt lat="43.968621" lon="5.805625">
        <ele>531.3</ele>
      </trkpt>
      <trkpt lat="43.968778" lon="5.805447">
        <ele>530.6</ele>
      </trkpt>
      <trkpt lat="43.968876" lon="5.805287">
        <ele>529.9</ele>
      </trkpt>
      <trkpt lat="43.968968" lon="5.804972">
        <ele>525.5</ele>
      </trkpt>
      <trkpt lat="43.968984" lon="5.804666">
        <ele>523.9</ele>
      </trkpt>
      <trkpt lat="43.968931" lon="5.804360">
        <ele>521.6</ele>
      </trkpt>
      <trkpt lat="43.968900" lon="5.803878">
        <ele>515.3</ele>
      </trkpt>
      <trkpt lat="43.968906" lon="5.803458">
        <ele>512.1</ele>
      </trkpt>
      <trkpt lat="43.968909" lon="5.803011">
        <ele>504.4</ele>
      </trkpt>
      <trkpt lat="43.968879" lon="5.802746">
        <ele>502.5</ele>
      </trkpt>
      <trkpt lat="43.968893" lon="5.802553">
        <ele>500.8</ele>
      </trkpt>
      <trkpt lat="43.968894" lon="5.802540">
        <ele>500.8</ele>
      </trkpt>
      <trkpt lat="43.968873" lon="5.802354">
        <ele>492.7</ele>
      </trkpt>
      <trkpt lat="43.968870" lon="5.802334">
        <ele>492.6</ele>
      </trkpt>
      <trkpt lat="43.968770" lon="5.802077">
        <ele>491.2</ele>
      </trkpt>
      <trkpt lat="43.968644" lon="5.801903">
        <ele>489.5</ele>
      </trkpt>
      <trkpt lat="43.968506" lon="5.801855">
        <ele>488.1</ele>
      </trkpt>
      <trkpt lat="43.968399" lon="5.801831">
        <ele>486.7</ele>
      </trkpt>
      <trkpt lat="43.968265" lon="5.801783">
        <ele>485.8</ele>
      </trkpt>
      <trkpt lat="43.968010" lon="5.801662">
        <ele>479.2</ele>
      </trkpt>
      <trkpt lat="43.967881" lon="5.801517">
        <ele>478.9</ele>
      </trkpt>
      <trkpt lat="43.967762" lon="5.801283">
        <ele>478.1</ele>
      </trkpt>
      <trkpt lat="43.967763" lon="5.801269">
        <ele>478</ele>
      </trkpt>
      <trkpt lat="43.967647" lon="5.801055">
        <ele>476.7</ele>
      </trkpt>
      <trkpt lat="43.967547" lon="5.800813">
        <ele>474.8</ele>
      </trkpt>
      <trkpt lat="43.967585" lon="5.800693">
        <ele>476</ele>
      </trkpt>
      <trkpt lat="43.967653" lon="5.800564">
        <ele>477.1</ele>
      </trkpt>
      <trkpt lat="43.967818" lon="5.800478">
        <ele>477.7</ele>
      </trkpt>
      <trkpt lat="43.967912" lon="5.800480">
        <ele>477.8</ele>
      </trkpt>
      <trkpt lat="43.968012" lon="5.800476">
        <ele>477.8</ele>
      </trkpt>
      <trkpt lat="43.968096" lon="5.800485">
        <ele>477.8</ele>
      </trkpt>
      <trkpt lat="43.968175" lon="5.800493">
        <ele>477.7</ele>
      </trkpt>
      <trkpt lat="43.968215" lon="5.800402">
        <ele>478.1</ele>
      </trkpt>
      <trkpt lat="43.968268" lon="5.800068">
        <ele>479.4</ele>
      </trkpt>
      <trkpt lat="43.968324" lon="5.799860">
        <ele>483.8</ele>
      </trkpt>
      <trkpt lat="43.968332" lon="5.799720">
        <ele>486.2</ele>
      </trkpt>
      <trkpt lat="43.968455" lon="5.799717">
        <ele>485.3</ele>
      </trkpt>
      <trkpt lat="43.968605" lon="5.799748">
        <ele>485.5</ele>
      </trkpt>
      <trkpt lat="43.968728" lon="5.799765">
        <ele>485.7</ele>
      </trkpt>
      <trkpt lat="43.969104" lon="5.799792">
        <ele>485.2</ele>
      </trkpt>
      <trkpt lat="43.969444" lon="5.799588">
        <ele>485.5</ele>
      </trkpt>
      <trkpt lat="43.969791" lon="5.799195">
        <ele>485.5</ele>
      </trkpt>
      <trkpt lat="43.969989" lon="5.798951">
        <ele>490.9</ele>
      </trkpt>
      <trkpt lat="43.970173" lon="5.798767">
        <ele>487.3</ele>
      </trkpt>
      <trkpt lat="43.970200" lon="5.798736">
        <ele>487.4</ele>
      </trkpt>
      <trkpt lat="43.970388" lon="5.798623">
        <ele>487.1</ele>
      </trkpt>
      <trkpt lat="43.970697" lon="5.798698">
        <ele>485.2</ele>
      </trkpt>
      <trkpt lat="43.970873" lon="5.798749">
        <ele>483</ele>
      </trkpt>
      <trkpt lat="43.971063" lon="5.798454">
        <ele>484.2</ele>
      </trkpt>
      <trkpt lat="43.971208" lon="5.798061">
        <ele>488.3</ele>
      </trkpt>
      <trkpt lat="43.971351" lon="5.797829">
        <ele>489.1</ele>
      </trkpt>
      <trkpt lat="43.971477" lon="5.797726">
        <ele>489.5</ele>
      </trkpt>
      <trkpt lat="43.971602" lon="5.797651">
        <ele>490</ele>
      </trkpt>
      <trkpt lat="43.971756" lon="5.797393">
        <ele>493.5</ele>
      </trkpt>
      <trkpt lat="43.971932" lon="5.797086">
        <ele>495.8</ele>
      </trkpt>
      <trkpt lat="43.972132" lon="5.796839">
        <ele>497.3</ele>
      </trkpt>
      <trkpt lat="43.972207" lon="5.796636">
        <ele>497.8</ele>
      </trkpt>
      <trkpt lat="43.972229" lon="5.796466">
        <ele>497.6</ele>
      </trkpt>
      <trkpt lat="43.972172" lon="5.796305">
        <ele>496.9</ele>
      </trkpt>
      <trkpt lat="43.972085" lon="5.796173">
        <ele>496.6</ele>
      </trkpt>
      <trkpt lat="43.972071" lon="5.796146">
        <ele>496.5</ele>
      </trkpt>
      <trkpt lat="43.972068" lon="5.796026">
        <ele>496.6</ele>
      </trkpt>
      <trkpt lat="43.972159" lon="5.795905">
        <ele>496.8</ele>
      </trkpt>
      <trkpt lat="43.972236" lon="5.795863">
        <ele>496.9</ele>
      </trkpt>
      <trkpt lat="43.972219" lon="5.795722">
        <ele>497.6</ele>
      </trkpt>
      <trkpt lat="43.972065" lon="5.795589">
        <ele>497.8</ele>
      </trkpt>
      <trkpt lat="43.971970" lon="5.795439">
        <ele>498</ele>
      </trkpt>
      <trkpt lat="43.971893" lon="5.795331">
        <ele>498.3</ele>
      </trkpt>
      <trkpt lat="43.971863" lon="5.795244">
        <ele>498.5</ele>
      </trkpt>
      <trkpt lat="43.971749" lon="5.795292">
        <ele>498.5</ele>
      </trkpt>
      <trkpt lat="43.971613" lon="5.795424">
        <ele>505.2</ele>
      </trkpt>
      <trkpt lat="43.971487" lon="5.795558">
        <ele>505.5</ele>
      </trkpt>
      <trkpt lat="43.971405" lon="5.795682">
        <ele>505.8</ele>
      </trkpt>
      <trkpt lat="43.971322" lon="5.795708">
        <ele>507.2</ele>
      </trkpt>
      <trkpt lat="43.971288" lon="5.795625">
        <ele>508</ele>
      </trkpt>
      <trkpt lat="43.971298" lon="5.795612">
        <ele>507.8</ele>
      </trkpt>
      <trkpt lat="43.971338" lon="5.795490">
        <ele>507.7</ele>
      </trkpt>
      <trkpt lat="43.971238" lon="5.795492">
        <ele>509</ele>
      </trkpt>
      <trkpt lat="43.971092" lon="5.795595">
        <ele>510.8</ele>
      </trkpt>
      <trkpt lat="43.970934" lon="5.795707">
        <ele>513.3</ele>
      </trkpt>
      <trkpt lat="43.970797" lon="5.795774">
        <ele>519.6</ele>
      </trkpt>
      <trkpt lat="43.970665" lon="5.795797">
        <ele>522.3</ele>
      </trkpt>
      <trkpt lat="43.970457" lon="5.795751">
        <ele>526.1</ele>
      </trkpt>
      <trkpt lat="43.970213" lon="5.795714">
        <ele>529.1</ele>
      </trkpt>
      <trkpt lat="43.970205" lon="5.795708">
        <ele>529.2</ele>
      </trkpt>
      <trkpt lat="43.970058" lon="5.795758">
        <ele>530.7</ele>
      </trkpt>
      <trkpt lat="43.969893" lon="5.795849">
        <ele>531.9</ele>
      </trkpt>
      <trkpt lat="43.969732" lon="5.795974">
        <ele>532</ele>
      </trkpt>
      <trkpt lat="43.969609" lon="5.796097">
        <ele>532.3</ele>
      </trkpt>
      <trkpt lat="43.969417" lon="5.795878">
        <ele>534.6</ele>
      </trkpt>
      <trkpt lat="43.969252" lon="5.795685">
        <ele>538.9</ele>
      </trkpt>
      <trkpt lat="43.969134" lon="5.795551">
        <ele>540</ele>
      </trkpt>
      <trkpt lat="43.969015" lon="5.795459">
        <ele>540.2</ele>
      </trkpt>
      <trkpt lat="43.968913" lon="5.795351">
        <ele>540.6</ele>
      </trkpt>
      <trkpt lat="43.968749" lon="5.795292">
        <ele>540.5</ele>
      </trkpt>
      <trkpt lat="43.968526" lon="5.795288">
        <ele>540.4</ele>
      </trkpt>
      <trkpt lat="43.968378" lon="5.795335">
        <ele>540.1</ele>
      </trkpt>
      <trkpt lat="43.968266" lon="5.795293">
        <ele>537.9</ele>
      </trkpt>
      <trkpt lat="43.968137" lon="5.795133">
        <ele>538.6</ele>
      </trkpt>
      <trkpt lat="43.967961" lon="5.794950">
        <ele>540.9</ele>
      </trkpt>
      <trkpt lat="43.967841" lon="5.794809">
        <ele>540.4</ele>
      </trkpt>
      <trkpt lat="43.967753" lon="5.794709">
        <ele>540.2</ele>
      </trkpt>
      <trkpt lat="43.967715" lon="5.794607">
        <ele>540.4</ele>
      </trkpt>
      <trkpt lat="43.967740" lon="5.794405">
        <ele>540.9</ele>
      </trkpt>
      <trkpt lat="43.967755" lon="5.794383">
        <ele>541</ele>
      </trkpt>
      <trkpt lat="43.967792" lon="5.794206">
        <ele>541.4</ele>
      </trkpt>
      <trkpt lat="43.967768" lon="5.794012">
        <ele>544.4</ele>
      </trkpt>
      <trkpt lat="43.967669" lon="5.793887">
        <ele>544.4</ele>
      </trkpt>
      <trkpt lat="43.967542" lon="5.793872">
        <ele>543.9</ele>
      </trkpt>
      <trkpt lat="43.967433" lon="5.793918">
        <ele>541</ele>
      </trkpt>
      <trkpt lat="43.967364" lon="5.794018">
        <ele>540.6</ele>
      </trkpt>
      <trkpt lat="43.967274" lon="5.794092">
        <ele>540.6</ele>
      </trkpt>
      <trkpt lat="43.967144" lon="5.794060">
        <ele>540.8</ele>
      </trkpt>
      <trkpt lat="43.967092" lon="5.793917">
        <ele>541.2</ele>
      </trkpt>
      <trkpt lat="43.967022" lon="5.793086">
        <ele>547.2</ele>
      </trkpt>
      <trkpt lat="43.966912" lon="5.792321">
        <ele>552.4</ele>
      </trkpt>
      <trkpt lat="43.966867" lon="5.792103">
        <ele>553</ele>
      </trkpt>
      <trkpt lat="43.966816" lon="5.791747">
        <ele>553.5</ele>
      </trkpt>
      <trkpt lat="43.966818" lon="5.791609">
        <ele>555.3</ele>
      </trkpt>
      <trkpt lat="43.967080" lon="5.791827">
        <ele>554.4</ele>
      </trkpt>
      <trkpt lat="43.967324" lon="5.792053">
        <ele>554.6</ele>
      </trkpt>
      <trkpt lat="43.967460" lon="5.792137">
        <ele>554.5</ele>
      </trkpt>
      <trkpt lat="43.967543" lon="5.792083">
        <ele>557.5</ele>
      </trkpt>
      <trkpt lat="43.967590" lon="5.791940">
        <ele>558.1</ele>
      </trkpt>
      <trkpt lat="43.967643" lon="5.791847">
        <ele>558.4</ele>
      </trkpt>
      <trkpt lat="43.967743" lon="5.791855">
        <ele>558.4</ele>
      </trkpt>
      <trkpt lat="43.967832" lon="5.791814">
        <ele>558.6</ele>
      </trkpt>
      <trkpt lat="43.967837" lon="5.791802">
        <ele>558.6</ele>
      </trkpt>
      <trkpt lat="43.967866" lon="5.791590">
        <ele>561.8</ele>
      </trkpt>
      <trkpt lat="43.967991" lon="5.791258">
        <ele>562.9</ele>
      </trkpt>
      <trkpt lat="43.968157" lon="5.790885">
        <ele>564.8</ele>
      </trkpt>
      <trkpt lat="43.968334" lon="5.790594">
        <ele>569.6</ele>
      </trkpt>
      <trkpt lat="43.968518" lon="5.790298">
        <ele>571</ele>
      </trkpt>
      <trkpt lat="43.968651" lon="5.790084">
        <ele>571.6</ele>
      </trkpt>
      <trkpt lat="43.968768" lon="5.789958">
        <ele>575</ele>
      </trkpt>
      <trkpt lat="43.968902" lon="5.789822">
        <ele>575.9</ele>
      </trkpt>
      <trkpt lat="43.969051" lon="5.789774">
        <ele>576.4</ele>
      </trkpt>
      <trkpt lat="43.969201" lon="5.789629">
        <ele>572</ele>
      </trkpt>
      <trkpt lat="43.969324" lon="5.789487">
        <ele>571.9</ele>
      </trkpt>
      <trkpt lat="43.969489" lon="5.789272">
        <ele>571.3</ele>
      </trkpt>
      <trkpt lat="43.969603" lon="5.789078">
        <ele>575.7</ele>
      </trkpt>
      <trkpt lat="43.969707" lon="5.788798">
        <ele>576.2</ele>
      </trkpt>
      <trkpt lat="43.969735" lon="5.788582">
        <ele>577.3</ele>
      </trkpt>
      <trkpt lat="43.969731" lon="5.788162">
        <ele>584.1</ele>
      </trkpt>
      <trkpt lat="43.969730" lon="5.787803">
        <ele>586.8</ele>
      </trkpt>
      <trkpt lat="43.969763" lon="5.787494">
        <ele>592</ele>
      </trkpt>
      <trkpt lat="43.969779" lon="5.787138">
        <ele>593.2</ele>
      </trkpt>
      <trkpt lat="43.969803" lon="5.786861">
        <ele>594.3</ele>
      </trkpt>
      <trkpt lat="43.969882" lon="5.786507">
        <ele>598</ele>
      </trkpt>
      <trkpt lat="43.969967" lon="5.786184">
        <ele>600.2</ele>
      </trkpt>
      <trkpt lat="43.970091" lon="5.785703">
        <ele>601.8</ele>
      </trkpt>
      <trkpt lat="43.970178" lon="5.785224">
        <ele>603.1</ele>
      </trkpt>
      <trkpt lat="43.970297" lon="5.784922">
        <ele>609.4</ele>
      </trkpt>
      <trkpt lat="43.970514" lon="5.784489">
        <ele>610.9</ele>
      </trkpt>
      <trkpt lat="43.970732" lon="5.784079">
        <ele>616.1</ele>
      </trkpt>
      <trkpt lat="43.970960" lon="5.783641">
        <ele>615</ele>
      </trkpt>
      <trkpt lat="43.971180" lon="5.783179">
        <ele>617.7</ele>
      </trkpt>
      <trkpt lat="43.971338" lon="5.782705">
        <ele>617.4</ele>
      </trkpt>
      <trkpt lat="43.971482" lon="5.782350">
        <ele>617.3</ele>
      </trkpt>
      <trkpt lat="43.971729" lon="5.782088">
        <ele>617.4</ele>
      </trkpt>
      <trkpt lat="43.971886" lon="5.781815">
        <ele>617.9</ele>
      </trkpt>
      <trkpt lat="43.972035" lon="5.781570">
        <ele>620.1</ele>
      </trkpt>
      <trkpt lat="43.972148" lon="5.781322">
        <ele>620.4</ele>
      </trkpt>
      <trkpt lat="43.972290" lon="5.780973">
        <ele>621.9</ele>
      </trkpt>
      <trkpt lat="43.972380" lon="5.780716">
        <ele>623.8</ele>
      </trkpt>
      <trkpt lat="43.972506" lon="5.780474">
        <ele>625.4</ele>
      </trkpt>
      <trkpt lat="43.972660" lon="5.780297">
        <ele>625.8</ele>
      </trkpt>
      <trkpt lat="43.973041" lon="5.779796">
        <ele>629.9</ele>
      </trkpt>
      <trkpt lat="43.973266" lon="5.779496">
        <ele>631.6</ele>
      </trkpt>
      <trkpt lat="43.973428" lon="5.779244">
        <ele>633.1</ele>
      </trkpt>
      <trkpt lat="43.973598" lon="5.778956">
        <ele>637.1</ele>
      </trkpt>
      <trkpt lat="43.973780" lon="5.778710">
        <ele>638.3</ele>
      </trkpt>
      <trkpt lat="43.973891" lon="5.778535">
        <ele>639.7</ele>
      </trkpt>
      <trkpt lat="43.973912" lon="5.778428">
        <ele>640.6</ele>
      </trkpt>
      <trkpt lat="43.973869" lon="5.778205">
        <ele>647.4</ele>
      </trkpt>
      <trkpt lat="43.973767" lon="5.777719">
        <ele>649.5</ele>
      </trkpt>
      <trkpt lat="43.973689" lon="5.777372">
        <ele>654.2</ele>
      </trkpt>
      <trkpt lat="43.973581" lon="5.776803">
        <ele>655.5</ele>
      </trkpt>
      <trkpt lat="43.973502" lon="5.776374">
        <ele>660.2</ele>
      </trkpt>
      <trkpt lat="43.973944" lon="5.776767">
        <ele>658.8</ele>
      </trkpt>
      <trkpt lat="43.974213" lon="5.776957">
        <ele>662.9</ele>
      </trkpt>
      <trkpt lat="43.974441" lon="5.777087">
        <ele>662.7</ele>
      </trkpt>
      <trkpt lat="43.974892" lon="5.777180">
        <ele>662.9</ele>
      </trkpt>
      <trkpt lat="43.975185" lon="5.777230">
        <ele>662</ele>
      </trkpt>
      <trkpt lat="43.975319" lon="5.777184">
        <ele>662</ele>
      </trkpt>
      <trkpt lat="43.975419" lon="5.777054">
        <ele>662.7</ele>
      </trkpt>
      <trkpt lat="43.975453" lon="5.776915">
        <ele>663.8</ele>
      </trkpt>
      <trkpt lat="43.975548" lon="5.776772">
        <ele>664.8</ele>
      </trkpt>
      <trkpt lat="43.975667" lon="5.776565">
        <ele>672.5</ele>
      </trkpt>
      <trkpt lat="43.975772" lon="5.776385">
        <ele>674.1</ele>
      </trkpt>
      <trkpt lat="43.975864" lon="5.776210">
        <ele>674.2</ele>
      </trkpt>
      <trkpt lat="43.976019" lon="5.775972">
        <ele>676.8</ele>
      </trkpt>
      <trkpt lat="43.976163" lon="5.775803">
        <ele>684.2</ele>
      </trkpt>
      <trkpt lat="43.976258" lon="5.775643">
        <ele>684.4</ele>
      </trkpt>
      <trkpt lat="43.976369" lon="5.775501">
        <ele>685</ele>
      </trkpt>
      <trkpt lat="43.976518" lon="5.775330">
        <ele>686.4</ele>
      </trkpt>
      <trkpt lat="43.976673" lon="5.775106">
        <ele>688.5</ele>
      </trkpt>
      <trkpt lat="43.976887" lon="5.774860">
        <ele>693.5</ele>
      </trkpt>
      <trkpt lat="43.977087" lon="5.774665">
        <ele>694.3</ele>
      </trkpt>
      <trkpt lat="43.977229" lon="5.774479">
        <ele>695.6</ele>
      </trkpt>
      <trkpt lat="43.977394" lon="5.774371">
        <ele>697</ele>
      </trkpt>
      <trkpt lat="43.977539" lon="5.774310">
        <ele>698.1</ele>
      </trkpt>
      <trkpt lat="43.977678" lon="5.774284">
        <ele>697.7</ele>
      </trkpt>
      <trkpt lat="43.977796" lon="5.774321">
        <ele>697.1</ele>
      </trkpt>
      <trkpt lat="43.977969" lon="5.774507">
        <ele>696</ele>
      </trkpt>
      <trkpt lat="43.978112" lon="5.774696">
        <ele>695</ele>
      </trkpt>
      <trkpt lat="43.978279" lon="5.775027">
        <ele>691.6</ele>
      </trkpt>
      <trkpt lat="43.978360" lon="5.775213">
        <ele>695.3</ele>
      </trkpt>
      <trkpt lat="43.978353" lon="5.775426">
        <ele>695.4</ele>
      </trkpt>
      <trkpt lat="43.978392" lon="5.775547">
        <ele>695.1</ele>
      </trkpt>
      <trkpt lat="43.978404" lon="5.775825">
        <ele>692.6</ele>
      </trkpt>
      <trkpt lat="43.978396" lon="5.775884">
        <ele>691.8</ele>
      </trkpt>
      <trkpt lat="43.978490" lon="5.776131">
        <ele>692.6</ele>
      </trkpt>
      <trkpt lat="43.978628" lon="5.776361">
        <ele>692.6</ele>
      </trkpt>
      <trkpt lat="43.978783" lon="5.776672">
        <ele>690</ele>
      </trkpt>
      <trkpt lat="43.978908" lon="5.776927">
        <ele>690.3</ele>
      </trkpt>
      <trkpt lat="43.979011" lon="5.777083">
        <ele>690.1</ele>
      </trkpt>
      <trkpt lat="43.979173" lon="5.777258">
        <ele>694.6</ele>
      </trkpt>
      <trkpt lat="43.979327" lon="5.777402">
        <ele>694.1</ele>
      </trkpt>
      <trkpt lat="43.979400" lon="5.777428">
        <ele>694.6</ele>
      </trkpt>
      <trkpt lat="43.979762" lon="5.777083">
        <ele>697.6</ele>
      </trkpt>
      <trkpt lat="43.979868" lon="5.777054">
        <ele>698.1</ele>
      </trkpt>
      <trkpt lat="43.980162" lon="5.777140">
        <ele>695.5</ele>
      </trkpt>
      <trkpt lat="43.980284" lon="5.777149">
        <ele>694.8</ele>
      </trkpt>
      <trkpt lat="43.980415" lon="5.777116">
        <ele>694.1</ele>
      </trkpt>
      <trkpt lat="43.980437" lon="5.777020">
        <ele>694.5</ele>
      </trkpt>
      <trkpt lat="43.980379" lon="5.776901">
        <ele>695.6</ele>
      </trkpt>
      <trkpt lat="43.980292" lon="5.776795">
        <ele>697</ele>
      </trkpt>
      <trkpt lat="43.980201" lon="5.776659">
        <ele>704.3</ele>
      </trkpt>
      <trkpt lat="43.980111" lon="5.776558">
        <ele>704.6</ele>
      </trkpt>
      <trkpt lat="43.980012" lon="5.776436">
        <ele>705.3</ele>
      </trkpt>
      <trkpt lat="43.979943" lon="5.776367">
        <ele>704.4</ele>
      </trkpt>
      <trkpt lat="43.979926" lon="5.776246">
        <ele>705.1</ele>
      </trkpt>
      <trkpt lat="43.979933" lon="5.776157">
        <ele>705.8</ele>
      </trkpt>
      <trkpt lat="43.980002" lon="5.776103">
        <ele>707.9</ele>
      </trkpt>
      <trkpt lat="43.980083" lon="5.776074">
        <ele>708.1</ele>
      </trkpt>
      <trkpt lat="43.980213" lon="5.776087">
        <ele>707.5</ele>
      </trkpt>
      <trkpt lat="43.980367" lon="5.776082">
        <ele>707.1</ele>
      </trkpt>
      <trkpt lat="43.980457" lon="5.776072">
        <ele>707</ele>
      </trkpt>
      <trkpt lat="43.980565" lon="5.775995">
        <ele>707.6</ele>
      </trkpt>
      <trkpt lat="43.980604" lon="5.775761">
        <ele>714.3</ele>
      </trkpt>
      <trkpt lat="43.980644" lon="5.775458">
        <ele>716.1</ele>
      </trkpt>
      <trkpt lat="43.980655" lon="5.775249">
        <ele>717.8</ele>
      </trkpt>
      <trkpt lat="43.980647" lon="5.774957">
        <ele>722.6</ele>
      </trkpt>
      <trkpt lat="43.980649" lon="5.774756">
        <ele>722.8</ele>
      </trkpt>
      <trkpt lat="43.980642" lon="5.774532">
        <ele>723.6</ele>
      </trkpt>
      <trkpt lat="43.980621" lon="5.774355">
        <ele>724.5</ele>
      </trkpt>
      <trkpt lat="43.980582" lon="5.774154">
        <ele>728.2</ele>
      </trkpt>
      <trkpt lat="43.980463" lon="5.773833">
        <ele>728.4</ele>
      </trkpt>
      <trkpt lat="43.980404" lon="5.773549">
        <ele>729.2</ele>
      </trkpt>
      <trkpt lat="43.980372" lon="5.773295">
        <ele>732.9</ele>
      </trkpt>
      <trkpt lat="43.980303" lon="5.773025">
        <ele>733.2</ele>
      </trkpt>
      <trkpt lat="43.980236" lon="5.772790">
        <ele>733.4</ele>
      </trkpt>
      <trkpt lat="43.980215" lon="5.772673">
        <ele>733.4</ele>
      </trkpt>
      <trkpt lat="43.980245" lon="5.772306">
        <ele>732.9</ele>
      </trkpt>
      <trkpt lat="43.980259" lon="5.772106">
        <ele>732.4</ele>
      </trkpt>
      <trkpt lat="43.980306" lon="5.771972">
        <ele>732.1</ele>
      </trkpt>
      <trkpt lat="43.980399" lon="5.771939">
        <ele>732.4</ele>
      </trkpt>
      <trkpt lat="43.980531" lon="5.771902">
        <ele>732.8</ele>
      </trkpt>
      <trkpt lat="43.980696" lon="5.771941">
        <ele>733.4</ele>
      </trkpt>
      <trkpt lat="43.980790" lon="5.771917">
        <ele>733.5</ele>
      </trkpt>
      <trkpt lat="43.980800" lon="5.771911">
        <ele>733.5</ele>
      </trkpt>
      <trkpt lat="43.981066" lon="5.771741">
        <ele>738</ele>
      </trkpt>
      <trkpt lat="43.981523" lon="5.771463">
        <ele>739.7</ele>
      </trkpt>
      <trkpt lat="43.981764" lon="5.771311">
        <ele>744.8</ele>
      </trkpt>
      <trkpt lat="43.982053" lon="5.771167">
        <ele>745.6</ele>
      </trkpt>
      <trkpt lat="43.982311" lon="5.771035">
        <ele>746.5</ele>
      </trkpt>
      <trkpt lat="43.982524" lon="5.770905">
        <ele>747.1</ele>
      </trkpt>
      <trkpt lat="43.982649" lon="5.770736">
        <ele>746.3</ele>
      </trkpt>
      <trkpt lat="43.982830" lon="5.770476">
        <ele>745</ele>
      </trkpt>
      <trkpt lat="43.983077" lon="5.770138">
        <ele>744.2</ele>
      </trkpt>
      <trkpt lat="43.983307" lon="5.769861">
        <ele>743.1</ele>
      </trkpt>
      <trkpt lat="43.983523" lon="5.769576">
        <ele>743.4</ele>
      </trkpt>
      <trkpt lat="43.983749" lon="5.769522">
        <ele>743.6</ele>
      </trkpt>
      <trkpt lat="43.983944" lon="5.769478">
        <ele>743.9</ele>
      </trkpt>
      <trkpt lat="43.984133" lon="5.769427">
        <ele>744.2</ele>
      </trkpt>
      <trkpt lat="43.984423" lon="5.769274">
        <ele>747.7</ele>
      </trkpt>
      <trkpt lat="43.984541" lon="5.769329">
        <ele>748.4</ele>
      </trkpt>
      <trkpt lat="43.984709" lon="5.769287">
        <ele>749.8</ele>
      </trkpt>
      <trkpt lat="43.984853" lon="5.769283">
        <ele>751.3</ele>
      </trkpt>
      <trkpt lat="43.984977" lon="5.769303">
        <ele>752.1</ele>
      </trkpt>
      <trkpt lat="43.985134" lon="5.769386">
        <ele>755.9</ele>
      </trkpt>
      <trkpt lat="43.985265" lon="5.769423">
        <ele>756.3</ele>
      </trkpt>
      <trkpt lat="43.985456" lon="5.769385">
        <ele>757.5</ele>
      </trkpt>
      <trkpt lat="43.985580" lon="5.769439">
        <ele>758.1</ele>
      </trkpt>
      <trkpt lat="43.985827" lon="5.769367">
        <ele>759.8</ele>
      </trkpt>
      <trkpt lat="43.985979" lon="5.769369">
        <ele>764.1</ele>
      </trkpt>
      <trkpt lat="43.986084" lon="5.769349">
        <ele>764.4</ele>
      </trkpt>
      <trkpt lat="43.986178" lon="5.769272">
        <ele>764.8</ele>
      </trkpt>
      <trkpt lat="43.986454" lon="5.769329">
        <ele>766.1</ele>
      </trkpt>
      <trkpt lat="43.986709" lon="5.769314">
        <ele>769.1</ele>
      </trkpt>
      <trkpt lat="43.986958" lon="5.769227">
        <ele>769.9</ele>
      </trkpt>
      <trkpt lat="43.987164" lon="5.769158">
        <ele>770.1</ele>
      </trkpt>
      <trkpt lat="43.987367" lon="5.769082">
        <ele>771.6</ele>
      </trkpt>
      <trkpt lat="43.987523" lon="5.769021">
        <ele>774.2</ele>
      </trkpt>
      <trkpt lat="43.987616" lon="5.768993">
        <ele>774.3</ele>
      </trkpt>
      <trkpt lat="43.987832" lon="5.768991">
        <ele>774.9</ele>
      </trkpt>
      <trkpt lat="43.988000" lon="5.769024">
        <ele>775.6</ele>
      </trkpt>
      <trkpt lat="43.988154" lon="5.769059">
        <ele>776.6</ele>
      </trkpt>
      <trkpt lat="43.988539" lon="5.769140">
        <ele>780.8</ele>
      </trkpt>
      <trkpt lat="43.988763" lon="5.769193">
        <ele>782.1</ele>
      </trkpt>
      <trkpt lat="43.988852" lon="5.769218">
        <ele>782.7</ele>
      </trkpt>
      <trkpt lat="43.989209" lon="5.769067">
        <ele>787.7</ele>
      </trkpt>
      <trkpt lat="43.989394" lon="5.768949">
        <ele>789.7</ele>
      </trkpt>
      <trkpt lat="43.989698" lon="5.768926">
        <ele>791.6</ele>
      </trkpt>
      <trkpt lat="43.989918" lon="5.768900">
        <ele>792.6</ele>
      </trkpt>
      <trkpt lat="43.990268" lon="5.768838">
        <ele>798.7</ele>
      </trkpt>
      <trkpt lat="43.990480" lon="5.768800">
        <ele>799.7</ele>
      </trkpt>
      <trkpt lat="43.990707" lon="5.768834">
        <ele>800.6</ele>
      </trkpt>
      <trkpt lat="43.991122" lon="5.768881">
        <ele>807.9</ele>
      </trkpt>
      <trkpt lat="43.991407" lon="5.768871">
        <ele>809.8</ele>
      </trkpt>
      <trkpt lat="43.991672" lon="5.768855">
        <ele>817</ele>
      </trkpt>
      <trkpt lat="43.992268" lon="5.768855">
        <ele>820.1</ele>
      </trkpt>
      <trkpt lat="43.992451" lon="5.768866">
        <ele>820.5</ele>
      </trkpt>
      <trkpt lat="43.992673" lon="5.768888">
        <ele>827.2</ele>
      </trkpt>
      <trkpt lat="43.993292" lon="5.768881">
        <ele>830.9</ele>
      </trkpt>
      <trkpt lat="43.993562" lon="5.768874">
        <ele>837.6</ele>
      </trkpt>
      <trkpt lat="43.993783" lon="5.768879">
        <ele>838.9</ele>
      </trkpt>
      <trkpt lat="43.994268" lon="5.768905">
        <ele>845.4</ele>
      </trkpt>
      <trkpt lat="43.994469" lon="5.768962">
        <ele>846.6</ele>
      </trkpt>
      <trkpt lat="43.994562" lon="5.769041">
        <ele>847.2</ele>
      </trkpt>
      <trkpt lat="43.994754" lon="5.769052">
        <ele>848.8</ele>
      </trkpt>
      <trkpt lat="43.995035" lon="5.769036">
        <ele>853.9</ele>
      </trkpt>
      <trkpt lat="43.995134" lon="5.768899">
        <ele>855.8</ele>
      </trkpt>
      <trkpt lat="43.995313" lon="5.768915">
        <ele>856.9</ele>
      </trkpt>
      <trkpt lat="43.995491" lon="5.769002">
        <ele>858</ele>
      </trkpt>
      <trkpt lat="43.995830" lon="5.769012">
        <ele>859.8</ele>
      </trkpt>
      <trkpt lat="43.996280" lon="5.769184">
        <ele>866.9</ele>
      </trkpt>
      <trkpt lat="43.997082" lon="5.769448">
        <ele>876.8</ele>
      </trkpt>
      <trkpt lat="43.997515" lon="5.769685">
        <ele>883.4</ele>
      </trkpt>
      <trkpt lat="43.997889" lon="5.769777">
        <ele>884.5</ele>
      </trkpt>
      <trkpt lat="43.998089" lon="5.769823">
        <ele>885.5</ele>
      </trkpt>
      <trkpt lat="43.998231" lon="5.769823">
        <ele>886.1</ele>
      </trkpt>
      <trkpt lat="43.998346" lon="5.769678">
        <ele>888.8</ele>
      </trkpt>
      <trkpt lat="43.998445" lon="5.769496">
        <ele>888.8</ele>
      </trkpt>
      <trkpt lat="43.998567" lon="5.769249">
        <ele>888.6</ele>
      </trkpt>
      <trkpt lat="43.998608" lon="5.769171">
        <ele>888.8</ele>
      </trkpt>
      <trkpt lat="43.998678" lon="5.769118">
        <ele>888.1</ele>
      </trkpt>
      <trkpt lat="43.998740" lon="5.769131">
        <ele>888.3</ele>
      </trkpt>
      <trkpt lat="43.998806" lon="5.769160">
        <ele>888.6</ele>
      </trkpt>
      <trkpt lat="43.998954" lon="5.769150">
        <ele>889.2</ele>
      </trkpt>
      <trkpt lat="43.999071" lon="5.769144">
        <ele>890</ele>
      </trkpt>
      <trkpt lat="43.999235" lon="5.769077">
        <ele>890.2</ele>
      </trkpt>
      <trkpt lat="43.999398" lon="5.768706">
        <ele>888.8</ele>
      </trkpt>
      <trkpt lat="43.999493" lon="5.768600">
        <ele>888.5</ele>
      </trkpt>
      <trkpt lat="43.999490" lon="5.768408">
        <ele>888.2</ele>
      </trkpt>
      <trkpt lat="43.999441" lon="5.768255">
        <ele>885.1</ele>
      </trkpt>
      <trkpt lat="43.999446" lon="5.768081">
        <ele>884.5</ele>
      </trkpt>
      <trkpt lat="43.999548" lon="5.767711">
        <ele>883</ele>
      </trkpt>
      <trkpt lat="43.999594" lon="5.767466">
        <ele>878.7</ele>
      </trkpt>
      <trkpt lat="43.999627" lon="5.767402">
        <ele>878.4</ele>
      </trkpt>
      <trkpt lat="43.999824" lon="5.767233">
        <ele>877.2</ele>
      </trkpt>
      <trkpt lat="43.999934" lon="5.767142">
        <ele>876.6</ele>
      </trkpt>
      <trkpt lat="44.000243" lon="5.766939">
        <ele>868.2</ele>
      </trkpt>
      <trkpt lat="44.000541" lon="5.766910">
        <ele>865.5</ele>
      </trkpt>
      <trkpt lat="44.001626" lon="5.767194">
        <ele>850.9</ele>
      </trkpt>
      <trkpt lat="44.001959" lon="5.767302">
        <ele>837</ele>
      </trkpt>
      <trkpt lat="44.002260" lon="5.767539">
        <ele>842.5</ele>
      </trkpt>
      <trkpt lat="44.002467" lon="5.767627">
        <ele>838</ele>
      </trkpt>
      <trkpt lat="44.002818" lon="5.767826">
        <ele>828.4</ele>
      </trkpt>
      <trkpt lat="44.003000" lon="5.768149">
        <ele>828.4</ele>
      </trkpt>
      <trkpt lat="44.003200" lon="5.768666">
        <ele>837.1</ele>
      </trkpt>
      <trkpt lat="44.003481" lon="5.769139">
        <ele>829.3</ele>
      </trkpt>
      <trkpt lat="44.004198" lon="5.770032">
        <ele>832.9</ele>
      </trkpt>
      <trkpt lat="44.004422" lon="5.769936">
        <ele>823.4</ele>
      </trkpt>
      <trkpt lat="44.004816" lon="5.770311">
        <ele>828.6</ele>
      </trkpt>
      <trkpt lat="44.005032" lon="5.770644">
        <ele>821.7</ele>
      </trkpt>
      <trkpt lat="44.005302" lon="5.770826">
        <ele>819.4</ele>
      </trkpt>
      <trkpt lat="44.005595" lon="5.771320">
        <ele>823.6</ele>
      </trkpt>
      <trkpt lat="44.005811" lon="5.771459">
        <ele>822.3</ele>
      </trkpt>
      <trkpt lat="44.005927" lon="5.771416">
        <ele>810.7</ele>
      </trkpt>
      <trkpt lat="44.006112" lon="5.771738">
        <ele>811.5</ele>
      </trkpt>
      <trkpt lat="44.006267" lon="5.772114">
        <ele>808.8</ele>
      </trkpt>
      <trkpt lat="44.006421" lon="5.772382">
        <ele>806.4</ele>
      </trkpt>
      <trkpt lat="44.006490" lon="5.772725">
        <ele>810.8</ele>
      </trkpt>
      <trkpt lat="44.006706" lon="5.773133">
        <ele>803.9</ele>
      </trkpt>
      <trkpt lat="44.007262" lon="5.773648">
        <ele>811.9</ele>
      </trkpt>
      <trkpt lat="44.007787" lon="5.774227">
        <ele>819.1</ele>
      </trkpt>
      <trkpt lat="44.007951" lon="5.774482">
        <ele>820.3</ele>
      </trkpt>
      <trkpt lat="44.008304" lon="5.774850">
        <ele>822.2</ele>
      </trkpt>
      <trkpt lat="44.008606" lon="5.775147">
        <ele>818</ele>
      </trkpt>
      <trkpt lat="44.008670" lon="5.775638">
        <ele>819</ele>
      </trkpt>
      <trkpt lat="44.008753" lon="5.775839">
        <ele>823.3</ele>
      </trkpt>
      <trkpt lat="44.008803" lon="5.776106">
        <ele>823.7</ele>
      </trkpt>
      <trkpt lat="44.009113" lon="5.776415">
        <ele>821.7</ele>
      </trkpt>
      <trkpt lat="44.009432" lon="5.777215">
        <ele>813.9</ele>
      </trkpt>
      <trkpt lat="44.009584" lon="5.777536">
        <ele>818.7</ele>
      </trkpt>
      <trkpt lat="44.009856" lon="5.777978">
        <ele>817.3</ele>
      </trkpt>
      <trkpt lat="44.010055" lon="5.778493">
        <ele>808.5</ele>
      </trkpt>
      <trkpt lat="44.010106" lon="5.778708">
        <ele>806.4</ele>
      </trkpt>
      <trkpt lat="44.010171" lon="5.779036">
        <ele>807.4</ele>
      </trkpt>
      <trkpt lat="44.010260" lon="5.779538">
        <ele>802.9</ele>
      </trkpt>
      <trkpt lat="44.010308" lon="5.779943">
        <ele>802.1</ele>
      </trkpt>
      <trkpt lat="44.010336" lon="5.780287">
        <ele>797.9</ele>
      </trkpt>
      <trkpt lat="44.010414" lon="5.780555">
        <ele>796.1</ele>
      </trkpt>
      <trkpt lat="44.010441" lon="5.780891">
        <ele>792.3</ele>
      </trkpt>
      <trkpt lat="44.010489" lon="5.781139">
        <ele>791.4</ele>
      </trkpt>
      <trkpt lat="44.010480" lon="5.781413">
        <ele>790.8</ele>
      </trkpt>
      <trkpt lat="44.010578" lon="5.781694">
        <ele>786.1</ele>
      </trkpt>
      <trkpt lat="44.010593" lon="5.781953">
        <ele>786.3</ele>
      </trkpt>
      <trkpt lat="44.010593" lon="5.782187">
        <ele>785.9</ele>
      </trkpt>
      <trkpt lat="44.010557" lon="5.782711">
        <ele>782.6</ele>
      </trkpt>
      <trkpt lat="44.010545" lon="5.782999">
        <ele>782.1</ele>
      </trkpt>
      <trkpt lat="44.010535" lon="5.783277">
        <ele>781.3</ele>
      </trkpt>
      <trkpt lat="44.010534" lon="5.783556">
        <ele>778.7</ele>
      </trkpt>
      <trkpt lat="44.010545" lon="5.783826">
        <ele>778.1</ele>
      </trkpt>
      <trkpt lat="44.010644" lon="5.784135">
        <ele>776.2</ele>
      </trkpt>
      <trkpt lat="44.010733" lon="5.784454">
        <ele>773.4</ele>
      </trkpt>
      <trkpt lat="44.010785" lon="5.784620">
        <ele>772.7</ele>
      </trkpt>
      <trkpt lat="44.010784" lon="5.784785">
        <ele>771.5</ele>
      </trkpt>
      <trkpt lat="44.010739" lon="5.784937">
        <ele>770.3</ele>
      </trkpt>
      <trkpt lat="44.010640" lon="5.785138">
        <ele>768.3</ele>
      </trkpt>
      <trkpt lat="44.010573" lon="5.785367">
        <ele>767.9</ele>
      </trkpt>
      <trkpt lat="44.010531" lon="5.785714">
        <ele>766.6</ele>
      </trkpt>
      <trkpt lat="44.010523" lon="5.785988">
        <ele>762.2</ele>
      </trkpt>
      <trkpt lat="44.010557" lon="5.786243">
        <ele>761.3</ele>
      </trkpt>
      <trkpt lat="44.010549" lon="5.786551">
        <ele>760</ele>
      </trkpt>
      <trkpt lat="44.010534" lon="5.786726">
        <ele>757.2</ele>
      </trkpt>
      <trkpt lat="44.010399" lon="5.787118">
        <ele>757.2</ele>
      </trkpt>
      <trkpt lat="44.010249" lon="5.787328">
        <ele>757.4</ele>
      </trkpt>
      <trkpt lat="44.010129" lon="5.787441">
        <ele>757.6</ele>
      </trkpt>
      <trkpt lat="44.010025" lon="5.787749">
        <ele>754.9</ele>
      </trkpt>
      <trkpt lat="44.009961" lon="5.788013">
        <ele>757.3</ele>
      </trkpt>
      <trkpt lat="44.009937" lon="5.788317">
        <ele>753.1</ele>
      </trkpt>
      <trkpt lat="44.009979" lon="5.788918">
        <ele>750.9</ele>
      </trkpt>
      <trkpt lat="44.010035" lon="5.789477">
        <ele>740.7</ele>
      </trkpt>
      <trkpt lat="44.010147" lon="5.789926">
        <ele>739.3</ele>
      </trkpt>
      <trkpt lat="44.010249" lon="5.790361">
        <ele>733.7</ele>
      </trkpt>
      <trkpt lat="44.010292" lon="5.790557">
        <ele>732.8</ele>
      </trkpt>
      <trkpt lat="44.010329" lon="5.790724">
        <ele>732.4</ele>
      </trkpt>
      <trkpt lat="44.010331" lon="5.790744">
        <ele>732.4</ele>
      </trkpt>
      <trkpt lat="44.010315" lon="5.790933">
        <ele>730.2</ele>
      </trkpt>
      <trkpt lat="44.010267" lon="5.791091">
        <ele>730</ele>
      </trkpt>
      <trkpt lat="44.010136" lon="5.791300">
        <ele>729.6</ele>
      </trkpt>
      <trkpt lat="44.010047" lon="5.791503">
        <ele>728.8</ele>
      </trkpt>
      <trkpt lat="44.009955" lon="5.791702">
        <ele>727.4</ele>
      </trkpt>
      <trkpt lat="44.009928" lon="5.791873">
        <ele>726.4</ele>
      </trkpt>
      <trkpt lat="44.009857" lon="5.792268">
        <ele>725.4</ele>
      </trkpt>
      <trkpt lat="44.009807" lon="5.792495">
        <ele>725.2</ele>
      </trkpt>
      <trkpt lat="44.009698" lon="5.792897">
        <ele>723.4</ele>
      </trkpt>
      <trkpt lat="44.009600" lon="5.793282">
        <ele>723.1</ele>
      </trkpt>
      <trkpt lat="44.009553" lon="5.793568">
        <ele>720.9</ele>
      </trkpt>
      <trkpt lat="44.009531" lon="5.793673">
        <ele>720.5</ele>
      </trkpt>
      <trkpt lat="44.009873" lon="5.793852">
        <ele>721.1</ele>
      </trkpt>
      <trkpt lat="44.010164" lon="5.794044">
        <ele>723.3</ele>
      </trkpt>
      <trkpt lat="44.010436" lon="5.794215">
        <ele>721.6</ele>
      </trkpt>
      <trkpt lat="44.010730" lon="5.794382">
        <ele>722.6</ele>
      </trkpt>
      <trkpt lat="44.010857" lon="5.794465">
        <ele>724</ele>
      </trkpt>
      <trkpt lat="44.010931" lon="5.794674">
        <ele>723.8</ele>
      </trkpt>
      <trkpt lat="44.011037" lon="5.794935">
        <ele>723.7</ele>
      </trkpt>
      <trkpt lat="44.011124" lon="5.795104">
        <ele>725.1</ele>
      </trkpt>
      <trkpt lat="44.011242" lon="5.795277">
        <ele>725.7</ele>
      </trkpt>
      <trkpt lat="44.011389" lon="5.795369">
        <ele>726.2</ele>
      </trkpt>
      <trkpt lat="44.011550" lon="5.795296">
        <ele>726.7</ele>
      </trkpt>
      <trkpt lat="44.011666" lon="5.795249">
        <ele>727</ele>
      </trkpt>
      <trkpt lat="44.011777" lon="5.795261">
        <ele>729.3</ele>
      </trkpt>
      <trkpt lat="44.011877" lon="5.795370">
        <ele>729.7</ele>
      </trkpt>
      <trkpt lat="44.011967" lon="5.795490">
        <ele>730</ele>
      </trkpt>
      <trkpt lat="44.012106" lon="5.795604">
        <ele>730.6</ele>
      </trkpt>
      <trkpt lat="44.012206" lon="5.795760">
        <ele>731.4</ele>
      </trkpt>
      <trkpt lat="44.012349" lon="5.796037">
        <ele>734.5</ele>
      </trkpt>
      <trkpt lat="44.012464" lon="5.796366">
        <ele>735.6</ele>
      </trkpt>
      <trkpt lat="44.012595" lon="5.796627">
        <ele>738.4</ele>
      </trkpt>
      <trkpt lat="44.012766" lon="5.796909">
        <ele>742.1</ele>
      </trkpt>
      <trkpt lat="44.012909" lon="5.797169">
        <ele>743.3</ele>
      </trkpt>
      <trkpt lat="44.013098" lon="5.797377">
        <ele>744.7</ele>
      </trkpt>
      <trkpt lat="44.013389" lon="5.797676">
        <ele>751.8</ele>
      </trkpt>
      <trkpt lat="44.013649" lon="5.797914">
        <ele>754.8</ele>
      </trkpt>
      <trkpt lat="44.013947" lon="5.798187">
        <ele>756.8</ele>
      </trkpt>
      <trkpt lat="44.014334" lon="5.798543">
        <ele>764.2</ele>
      </trkpt>
      <trkpt lat="44.014593" lon="5.798793">
        <ele>766.3</ele>
      </trkpt>
      <trkpt lat="44.014776" lon="5.798994">
        <ele>767.5</ele>
      </trkpt>
      <trkpt lat="44.014992" lon="5.799251">
        <ele>773.6</ele>
      </trkpt>
      <trkpt lat="44.015204" lon="5.799449">
        <ele>775.8</ele>
      </trkpt>
      <trkpt lat="44.015389" lon="5.799560">
        <ele>776.8</ele>
      </trkpt>
      <trkpt lat="44.015534" lon="5.799593">
        <ele>776.9</ele>
      </trkpt>
      <trkpt lat="44.015630" lon="5.799694">
        <ele>777.9</ele>
      </trkpt>
      <trkpt lat="44.015834" lon="5.799964">
        <ele>781.3</ele>
      </trkpt>
      <trkpt lat="44.016021" lon="5.800320">
        <ele>784.3</ele>
      </trkpt>
      <trkpt lat="44.016193" lon="5.800626">
        <ele>785.8</ele>
      </trkpt>
      <trkpt lat="44.016278" lon="5.800878">
        <ele>795.2</ele>
      </trkpt>
      <trkpt lat="44.016424" lon="5.801214">
        <ele>796.3</ele>
      </trkpt>
      <trkpt lat="44.016514" lon="5.801495">
        <ele>797.6</ele>
      </trkpt>
      <trkpt lat="44.016713" lon="5.801816">
        <ele>794.2</ele>
      </trkpt>
      <trkpt lat="44.016852" lon="5.802082">
        <ele>793.8</ele>
      </trkpt>
      <trkpt lat="44.016940" lon="5.802329">
        <ele>794.8</ele>
      </trkpt>
      <trkpt lat="44.016990" lon="5.802643">
        <ele>797</ele>
      </trkpt>
      <trkpt lat="44.017008" lon="5.803101">
        <ele>796.6</ele>
      </trkpt>
      <trkpt lat="44.017039" lon="5.803381">
        <ele>794.9</ele>
      </trkpt>
      <trkpt lat="44.017044" lon="5.803671">
        <ele>793.9</ele>
      </trkpt>
      <trkpt lat="44.017152" lon="5.803871">
        <ele>792.3</ele>
      </trkpt>
      <trkpt lat="44.017222" lon="5.804278">
        <ele>789.8</ele>
      </trkpt>
      <trkpt lat="44.017272" lon="5.804576">
        <ele>790.1</ele>
      </trkpt>
      <trkpt lat="44.017293" lon="5.804817">
        <ele>790.3</ele>
      </trkpt>
      <trkpt lat="44.017298" lon="5.805054">
        <ele>791.4</ele>
      </trkpt>
      <trkpt lat="44.017319" lon="5.805208">
        <ele>791.8</ele>
      </trkpt>
      <trkpt lat="44.017392" lon="5.805509">
        <ele>792.9</ele>
      </trkpt>
      <trkpt lat="44.017523" lon="5.805851">
        <ele>794.6</ele>
      </trkpt>
      <trkpt lat="44.017633" lon="5.806055">
        <ele>792.8</ele>
      </trkpt>
      <trkpt lat="44.017794" lon="5.806382">
        <ele>792.5</ele>
      </trkpt>
      <trkpt lat="44.017974" lon="5.806682">
        <ele>794.3</ele>
      </trkpt>
      <trkpt lat="44.018118" lon="5.806957">
        <ele>794.3</ele>
      </trkpt>
      <trkpt lat="44.018330" lon="5.807314">
        <ele>795.7</ele>
      </trkpt>
      <trkpt lat="44.018437" lon="5.807542">
        <ele>796.5</ele>
      </trkpt>
      <trkpt lat="44.018537" lon="5.807721">
        <ele>796.1</ele>
      </trkpt>
      <trkpt lat="44.018684" lon="5.807851">
        <ele>795.8</ele>
      </trkpt>
      <trkpt lat="44.018815" lon="5.808048">
        <ele>795.8</ele>
      </trkpt>
      <trkpt lat="44.018912" lon="5.808257">
        <ele>795.9</ele>
      </trkpt>
      <trkpt lat="44.019003" lon="5.808489">
        <ele>797.6</ele>
      </trkpt>
      <trkpt lat="44.019092" lon="5.808683">
        <ele>798.4</ele>
      </trkpt>
      <trkpt lat="44.019172" lon="5.808765">
        <ele>796.9</ele>
      </trkpt>
      <trkpt lat="44.019313" lon="5.808892">
        <ele>797.4</ele>
      </trkpt>
      <trkpt lat="44.019457" lon="5.809005">
        <ele>797.2</ele>
      </trkpt>
      <trkpt lat="44.019574" lon="5.809112">
        <ele>796.8</ele>
      </trkpt>
      <trkpt lat="44.019643" lon="5.809205">
        <ele>800.7</ele>
      </trkpt>
      <trkpt lat="44.019732" lon="5.809288">
        <ele>800.4</ele>
      </trkpt>
      <trkpt lat="44.019796" lon="5.809360">
        <ele>800.4</ele>
      </trkpt>
      <trkpt lat="44.019832" lon="5.809444">
        <ele>800.9</ele>
      </trkpt>
      <trkpt lat="44.019836" lon="5.809559">
        <ele>801.7</ele>
      </trkpt>
      <trkpt lat="44.019907" lon="5.809683">
        <ele>802.6</ele>
      </trkpt>
      <trkpt lat="44.019992" lon="5.809757">
        <ele>803.2</ele>
      </trkpt>
      <trkpt lat="44.020131" lon="5.809850">
        <ele>802</ele>
      </trkpt>
      <trkpt lat="44.020403" lon="5.809946">
        <ele>800.8</ele>
      </trkpt>
      <trkpt lat="44.020639" lon="5.810063">
        <ele>806.8</ele>
      </trkpt>
      <trkpt lat="44.020895" lon="5.810163">
        <ele>805.4</ele>
      </trkpt>
      <trkpt lat="44.021009" lon="5.810252">
        <ele>806</ele>
      </trkpt>
      <trkpt lat="44.021132" lon="5.810336">
        <ele>806.4</ele>
      </trkpt>
      <trkpt lat="44.021312" lon="5.810337">
        <ele>805.6</ele>
      </trkpt>
      <trkpt lat="44.021325" lon="5.810335">
        <ele>805.5</ele>
      </trkpt>
      <trkpt lat="44.021499" lon="5.810312">
        <ele>804.4</ele>
      </trkpt>
      <trkpt lat="44.021658" lon="5.810391">
        <ele>804.8</ele>
      </trkpt>
      <trkpt lat="44.021877" lon="5.810479">
        <ele>801.4</ele>
      </trkpt>
      <trkpt lat="44.021885" lon="5.810486">
        <ele>801.4</ele>
      </trkpt>
      <trkpt lat="44.022053" lon="5.810660">
        <ele>802.3</ele>
      </trkpt>
      <trkpt lat="44.022207" lon="5.810858">
        <ele>811.1</ele>
      </trkpt>
      <trkpt lat="44.022371" lon="5.811015">
        <ele>810.7</ele>
      </trkpt>
      <trkpt lat="44.022566" lon="5.811098">
        <ele>806.8</ele>
      </trkpt>
      <trkpt lat="44.022755" lon="5.811142">
        <ele>806.4</ele>
      </trkpt>
      <trkpt lat="44.022952" lon="5.811209">
        <ele>805.5</ele>
      </trkpt>
      <trkpt lat="44.023189" lon="5.811292">
        <ele>804.6</ele>
      </trkpt>
      <trkpt lat="44.023401" lon="5.811334">
        <ele>798.2</ele>
      </trkpt>
      <trkpt lat="44.023588" lon="5.811333">
        <ele>797.3</ele>
      </trkpt>
      <trkpt lat="44.023748" lon="5.811248">
        <ele>796.3</ele>
      </trkpt>
      <trkpt lat="44.023938" lon="5.811043">
        <ele>795.4</ele>
      </trkpt>
      <trkpt lat="44.024256" lon="5.811007">
        <ele>791.8</ele>
      </trkpt>
      <trkpt lat="44.024406" lon="5.811011">
        <ele>791.1</ele>
      </trkpt>
      <trkpt lat="44.024546" lon="5.811075">
        <ele>790.4</ele>
      </trkpt>
      <trkpt lat="44.024743" lon="5.811251">
        <ele>789.3</ele>
      </trkpt>
      <trkpt lat="44.024875" lon="5.811342">
        <ele>788.5</ele>
      </trkpt>
      <trkpt lat="44.024935" lon="5.811532">
        <ele>786.6</ele>
      </trkpt>
      <trkpt lat="44.024919" lon="5.811729">
        <ele>783.7</ele>
      </trkpt>
      <trkpt lat="44.024802" lon="5.811971">
        <ele>782.8</ele>
      </trkpt>
      <trkpt lat="44.024724" lon="5.812212">
        <ele>781.7</ele>
      </trkpt>
      <trkpt lat="44.024618" lon="5.812603">
        <ele>777.6</ele>
      </trkpt>
      <trkpt lat="44.024589" lon="5.812783">
        <ele>777.5</ele>
      </trkpt>
      <trkpt lat="44.024585" lon="5.813032">
        <ele>777</ele>
      </trkpt>
      <trkpt lat="44.024581" lon="5.813269">
        <ele>776.7</ele>
      </trkpt>
      <trkpt lat="44.024529" lon="5.813539">
        <ele>773.8</ele>
      </trkpt>
      <trkpt lat="44.024445" lon="5.813856">
        <ele>773</ele>
      </trkpt>
      <trkpt lat="44.024357" lon="5.814094">
        <ele>772.7</ele>
      </trkpt>
      <trkpt lat="44.024293" lon="5.814302">
        <ele>768.7</ele>
      </trkpt>
      <trkpt lat="44.024162" lon="5.814570">
        <ele>772.6</ele>
      </trkpt>
      <trkpt lat="44.024065" lon="5.814700">
        <ele>771.7</ele>
      </trkpt>
      <trkpt lat="44.023952" lon="5.814790">
        <ele>771.7</ele>
      </trkpt>
      <trkpt lat="44.023751" lon="5.814874">
        <ele>773.3</ele>
      </trkpt>
      <trkpt lat="44.023666" lon="5.815144">
        <ele>766.1</ele>
      </trkpt>
      <trkpt lat="44.023575" lon="5.815379">
        <ele>764.9</ele>
      </trkpt>
      <trkpt lat="44.023371" lon="5.815557">
        <ele>764.2</ele>
      </trkpt>
      <trkpt lat="44.023186" lon="5.815853">
        <ele>764.1</ele>
      </trkpt>
      <trkpt lat="44.022992" lon="5.816246">
        <ele>764.4</ele>
      </trkpt>
      <trkpt lat="44.022826" lon="5.816620">
        <ele>764.8</ele>
      </trkpt>
      <trkpt lat="44.022725" lon="5.816846">
        <ele>761.8</ele>
      </trkpt>
      <trkpt lat="44.022755" lon="5.817100">
        <ele>760.2</ele>
      </trkpt>
      <trkpt lat="44.022765" lon="5.817112">
        <ele>760.1</ele>
      </trkpt>
      <trkpt lat="44.022759" lon="5.817502">
        <ele>758</ele>
      </trkpt>
      <trkpt lat="44.022716" lon="5.817969">
        <ele>756.4</ele>
      </trkpt>
      <trkpt lat="44.022630" lon="5.818311">
        <ele>757.8</ele>
      </trkpt>
      <trkpt lat="44.022490" lon="5.818560">
        <ele>759.8</ele>
      </trkpt>
      <trkpt lat="44.022346" lon="5.818833">
        <ele>758.6</ele>
      </trkpt>
      <trkpt lat="44.022141" lon="5.819199">
        <ele>753</ele>
      </trkpt>
      <trkpt lat="44.021974" lon="5.819545">
        <ele>752.3</ele>
      </trkpt>
      <trkpt lat="44.021762" lon="5.819912">
        <ele>750.2</ele>
      </trkpt>
      <trkpt lat="44.021582" lon="5.820177">
        <ele>747.6</ele>
      </trkpt>
      <trkpt lat="44.021363" lon="5.820526">
        <ele>745.9</ele>
      </trkpt>
      <trkpt lat="44.021239" lon="5.820754">
        <ele>745.1</ele>
      </trkpt>
      <trkpt lat="44.021657" lon="5.821100">
        <ele>742</ele>
      </trkpt>
      <trkpt lat="44.021990" lon="5.821441">
        <ele>742.7</ele>
      </trkpt>
      <trkpt lat="44.022250" lon="5.821740">
        <ele>745.1</ele>
      </trkpt>
      <trkpt lat="44.022464" lon="5.821949">
        <ele>745.9</ele>
      </trkpt>
      <trkpt lat="44.022727" lon="5.822065">
        <ele>747.1</ele>
      </trkpt>
      <trkpt lat="44.023125" lon="5.822234">
        <ele>747.8</ele>
      </trkpt>
      <trkpt lat="44.023478" lon="5.822301">
        <ele>746.5</ele>
      </trkpt>
      <trkpt lat="44.023650" lon="5.822347">
        <ele>745.7</ele>
      </trkpt>
      <trkpt lat="44.023945" lon="5.822572">
        <ele>751.3</ele>
      </trkpt>
      <trkpt lat="44.024203" lon="5.822777">
        <ele>750.7</ele>
      </trkpt>
      <trkpt lat="44.024333" lon="5.822840">
        <ele>751.5</ele>
      </trkpt>
      <trkpt lat="44.024492" lon="5.822841">
        <ele>751.5</ele>
      </trkpt>
      <trkpt lat="44.024613" lon="5.822900">
        <ele>751.8</ele>
      </trkpt>
      <trkpt lat="44.024732" lon="5.822961">
        <ele>752.2</ele>
      </trkpt>
      <trkpt lat="44.024890" lon="5.822985">
        <ele>752.3</ele>
      </trkpt>
      <trkpt lat="44.025042" lon="5.822995">
        <ele>750.9</ele>
      </trkpt>
      <trkpt lat="44.025165" lon="5.822936">
        <ele>750.3</ele>
      </trkpt>
      <trkpt lat="44.025315" lon="5.822781">
        <ele>749</ele>
      </trkpt>
      <trkpt lat="44.025490" lon="5.822695">
        <ele>748.1</ele>
      </trkpt>
      <trkpt lat="44.025648" lon="5.822683">
        <ele>747.1</ele>
      </trkpt>
      <trkpt lat="44.025863" lon="5.822781">
        <ele>745.8</ele>
      </trkpt>
      <trkpt lat="44.026037" lon="5.822886">
        <ele>746.7</ele>
      </trkpt>
      <trkpt lat="44.026254" lon="5.822933">
        <ele>746.6</ele>
      </trkpt>
      <trkpt lat="44.026465" lon="5.822964">
        <ele>746.2</ele>
      </trkpt>
      <trkpt lat="44.026663" lon="5.822957">
        <ele>745.9</ele>
      </trkpt>
      <trkpt lat="44.026801" lon="5.822947">
        <ele>740.6</ele>
      </trkpt>
      <trkpt lat="44.026858" lon="5.822965">
        <ele>740.4</ele>
      </trkpt>
      <trkpt lat="44.026975" lon="5.823377">
        <ele>745.4</ele>
      </trkpt>
      <trkpt lat="44.027048" lon="5.823714">
        <ele>746.3</ele>
      </trkpt>
      <trkpt lat="44.027215" lon="5.823939">
        <ele>746.5</ele>
      </trkpt>
      <trkpt lat="44.027382" lon="5.824141">
        <ele>746.2</ele>
      </trkpt>
      <trkpt lat="44.027574" lon="5.824449">
        <ele>749</ele>
      </trkpt>
      <trkpt lat="44.027755" lon="5.824738">
        <ele>751.7</ele>
      </trkpt>
      <trkpt lat="44.027902" lon="5.824977">
        <ele>752.7</ele>
      </trkpt>
      <trkpt lat="44.028077" lon="5.825238">
        <ele>760.2</ele>
      </trkpt>
      <trkpt lat="44.028200" lon="5.825442">
        <ele>761</ele>
      </trkpt>
      <trkpt lat="44.028306" lon="5.825722">
        <ele>762.3</ele>
      </trkpt>
      <trkpt lat="44.028368" lon="5.826007">
        <ele>763.4</ele>
      </trkpt>
      <trkpt lat="44.028463" lon="5.826354">
        <ele>763.7</ele>
      </trkpt>
      <trkpt lat="44.028553" lon="5.826852">
        <ele>763.1</ele>
      </trkpt>
      <trkpt lat="44.028621" lon="5.827248">
        <ele>762.4</ele>
      </trkpt>
      <trkpt lat="44.028658" lon="5.827459">
        <ele>762.1</ele>
      </trkpt>
      <trkpt lat="44.028646" lon="5.827603">
        <ele>759.1</ele>
      </trkpt>
      <trkpt lat="44.028554" lon="5.827432">
        <ele>761.3</ele>
      </trkpt>
      <trkpt lat="44.028442" lon="5.827329">
        <ele>761</ele>
      </trkpt>
      <trkpt lat="44.028374" lon="5.827228">
        <ele>761.5</ele>
      </trkpt>
      <trkpt lat="44.028306" lon="5.827067">
        <ele>763.2</ele>
      </trkpt>
      <trkpt lat="44.028208" lon="5.826953">
        <ele>763.8</ele>
      </trkpt>
      <trkpt lat="44.028126" lon="5.826820">
        <ele>764.2</ele>
      </trkpt>
      <trkpt lat="44.028040" lon="5.826817">
        <ele>764.7</ele>
      </trkpt>
      <trkpt lat="44.027868" lon="5.826928">
        <ele>765.4</ele>
      </trkpt>
      <trkpt lat="44.027701" lon="5.827023">
        <ele>766</ele>
      </trkpt>
      <trkpt lat="44.027579" lon="5.827097">
        <ele>766.1</ele>
      </trkpt>
      <trkpt lat="44.027595" lon="5.827441">
        <ele>766.1</ele>
      </trkpt>
      <trkpt lat="44.027560" lon="5.827897">
        <ele>763.4</ele>
      </trkpt>
      <trkpt lat="44.027538" lon="5.828303">
        <ele>766</ele>
      </trkpt>
      <trkpt lat="44.027500" lon="5.828645">
        <ele>761.3</ele>
      </trkpt>
      <trkpt lat="44.027525" lon="5.828851">
        <ele>760.5</ele>
      </trkpt>
      <trkpt lat="44.027447" lon="5.829090">
        <ele>768</ele>
      </trkpt>
      <trkpt lat="44.027302" lon="5.829355">
        <ele>770.8</ele>
      </trkpt>
      <trkpt lat="44.027148" lon="5.829695">
        <ele>772.8</ele>
      </trkpt>
      <trkpt lat="44.027071" lon="5.830079">
        <ele>771.3</ele>
      </trkpt>
      <trkpt lat="44.027070" lon="5.830096">
        <ele>771.2</ele>
      </trkpt>
      <trkpt lat="44.026966" lon="5.830528">
        <ele>771.5</ele>
      </trkpt>
      <trkpt lat="44.026794" lon="5.830909">
        <ele>771.5</ele>
      </trkpt>
      <trkpt lat="44.026742" lon="5.831084">
        <ele>769</ele>
      </trkpt>
      <trkpt lat="44.026605" lon="5.831422">
        <ele>776.4</ele>
      </trkpt>
      <trkpt lat="44.026586" lon="5.831437">
        <ele>776.3</ele>
      </trkpt>
      <trkpt lat="44.026454" lon="5.831705">
        <ele>769</ele>
      </trkpt>
      <trkpt lat="44.026371" lon="5.832008">
        <ele>768.1</ele>
      </trkpt>
      <trkpt lat="44.026364" lon="5.832024">
        <ele>768</ele>
      </trkpt>
      <trkpt lat="44.026263" lon="5.832433">
        <ele>765.9</ele>
      </trkpt>
      <trkpt lat="44.026169" lon="5.832831">
        <ele>758</ele>
      </trkpt>
      <trkpt lat="44.026026" lon="5.833293">
        <ele>757.8</ele>
      </trkpt>
      <trkpt lat="44.026012" lon="5.833318">
        <ele>757.9</ele>
      </trkpt>
      <trkpt lat="44.025998" lon="5.833334">
        <ele>754.1</ele>
      </trkpt>
      <trkpt lat="44.025824" lon="5.833654">
        <ele>762.2</ele>
      </trkpt>
      <trkpt lat="44.025474" lon="5.834113">
        <ele>762.9</ele>
      </trkpt>
      <trkpt lat="44.025342" lon="5.834263">
        <ele>761.1</ele>
      </trkpt>
      <trkpt lat="44.025099" lon="5.834594">
        <ele>762.1</ele>
      </trkpt>
      <trkpt lat="44.024910" lon="5.834967">
        <ele>768.4</ele>
      </trkpt>
      <trkpt lat="44.024710" lon="5.835200">
        <ele>768.9</ele>
      </trkpt>
      <trkpt lat="44.024605" lon="5.835309">
        <ele>769.6</ele>
      </trkpt>
      <trkpt lat="44.024398" lon="5.835153">
        <ele>771.9</ele>
      </trkpt>
      <trkpt lat="44.023926" lon="5.835079">
        <ele>773.3</ele>
      </trkpt>
      <trkpt lat="44.023491" lon="5.835035">
        <ele>770.2</ele>
      </trkpt>
      <trkpt lat="44.022944" lon="5.834868">
        <ele>770.4</ele>
      </trkpt>
      <trkpt lat="44.022158" lon="5.834712">
        <ele>766.6</ele>
      </trkpt>
      <trkpt lat="44.021462" lon="5.834578">
        <ele>760</ele>
      </trkpt>
      <trkpt lat="44.021157" lon="5.834490">
        <ele>758.5</ele>
      </trkpt>
      <trkpt lat="44.020783" lon="5.834110">
        <ele>755.2</ele>
      </trkpt>
      <trkpt lat="44.020548" lon="5.834159">
        <ele>753</ele>
      </trkpt>
      <trkpt lat="44.020256" lon="5.834445">
        <ele>746.5</ele>
      </trkpt>
      <trkpt lat="44.020132" lon="5.834606">
        <ele>745.2</ele>
      </trkpt>
      <trkpt lat="44.019806" lon="5.834496">
        <ele>737.2</ele>
      </trkpt>
      <trkpt lat="44.019538" lon="5.834128">
        <ele>740.5</ele>
      </trkpt>
      <trkpt lat="44.019282" lon="5.833802">
        <ele>740.3</ele>
      </trkpt>
      <trkpt lat="44.019063" lon="5.833632">
        <ele>734.8</ele>
      </trkpt>
      <trkpt lat="44.018727" lon="5.834109">
        <ele>730.9</ele>
      </trkpt>
      <trkpt lat="44.018352" lon="5.834650">
        <ele>722.4</ele>
      </trkpt>
      <trkpt lat="44.017949" lon="5.835289">
        <ele>708.7</ele>
      </trkpt>
      <trkpt lat="44.017683" lon="5.835725">
        <ele>704.6</ele>
      </trkpt>
      <trkpt lat="44.017430" lon="5.836534">
        <ele>693.6</ele>
      </trkpt>
      <trkpt lat="44.017169" lon="5.837101">
        <ele>686.1</ele>
      </trkpt>
      <trkpt lat="44.016711" lon="5.837800">
        <ele>678.3</ele>
      </trkpt>
      <trkpt lat="44.016419" lon="5.838205">
        <ele>672.5</ele>
      </trkpt>
      <trkpt lat="44.016572" lon="5.838448">
        <ele>670.7</ele>
      </trkpt>
      <trkpt lat="44.016538" lon="5.838791">
        <ele>669.7</ele>
      </trkpt>
      <trkpt lat="44.016502" lon="5.838827">
        <ele>669.6</ele>
      </trkpt>
      <trkpt lat="44.016360" lon="5.839042">
        <ele>669</ele>
      </trkpt>
      <trkpt lat="44.016196" lon="5.839397">
        <ele>665.8</ele>
      </trkpt>
      <trkpt lat="44.015945" lon="5.839727">
        <ele>663.9</ele>
      </trkpt>
      <trkpt lat="44.015526" lon="5.840209">
        <ele>657.2</ele>
      </trkpt>
      <trkpt lat="44.015080" lon="5.840680">
        <ele>655.3</ele>
      </trkpt>
      <trkpt lat="44.014843" lon="5.840818">
        <ele>651.7</ele>
      </trkpt>
      <trkpt lat="44.014446" lon="5.840707">
        <ele>648.7</ele>
      </trkpt>
      <trkpt lat="44.014055" lon="5.840803">
        <ele>644.5</ele>
      </trkpt>
      <trkpt lat="44.013540" lon="5.840613">
        <ele>639.5</ele>
      </trkpt>
      <trkpt lat="44.013201" lon="5.840624">
        <ele>631.8</ele>
      </trkpt>
      <trkpt lat="44.012684" lon="5.840750">
        <ele>626</ele>
      </trkpt>
      <trkpt lat="44.012225" lon="5.840792">
        <ele>616.4</ele>
      </trkpt>
      <trkpt lat="44.011698" lon="5.840850">
        <ele>610.2</ele>
      </trkpt>
      <trkpt lat="44.011529" lon="5.840976">
        <ele>607.3</ele>
      </trkpt>
      <trkpt lat="44.011252" lon="5.840912">
        <ele>605.5</ele>
      </trkpt>
      <trkpt lat="44.010879" lon="5.840991">
        <ele>603.1</ele>
      </trkpt>
      <trkpt lat="44.010459" lon="5.841177">
        <ele>597.4</ele>
      </trkpt>
      <trkpt lat="44.010087" lon="5.841313">
        <ele>596.3</ele>
      </trkpt>
      <trkpt lat="44.009604" lon="5.841150">
        <ele>591.7</ele>
      </trkpt>
      <trkpt lat="44.009036" lon="5.840859">
        <ele>588.1</ele>
      </trkpt>
      <trkpt lat="44.008366" lon="5.840577">
        <ele>578.9</ele>
      </trkpt>
      <trkpt lat="44.007361" lon="5.840492">
        <ele>570.1</ele>
      </trkpt>
      <trkpt lat="44.006659" lon="5.840402">
        <ele>565.4</ele>
      </trkpt>
      <trkpt lat="44.005933" lon="5.840200">
        <ele>560.3</ele>
      </trkpt>
      <trkpt lat="44.005486" lon="5.840208">
        <ele>554.1</ele>
      </trkpt>
      <trkpt lat="44.004863" lon="5.840391">
        <ele>543.3</ele>
      </trkpt>
      <trkpt lat="44.004178" lon="5.840426">
        <ele>538.5</ele>
      </trkpt>
      <trkpt lat="44.003496" lon="5.840512">
        <ele>530.1</ele>
      </trkpt>
      <trkpt lat="44.003072" lon="5.840500">
        <ele>525.5</ele>
      </trkpt>
      <trkpt lat="44.002701" lon="5.840393">
        <ele>524.4</ele>
      </trkpt>
      <trkpt lat="44.002330" lon="5.840355">
        <ele>517.3</ele>
      </trkpt>
      <trkpt lat="44.001937" lon="5.840207">
        <ele>514.1</ele>
      </trkpt>
      <trkpt lat="44.001285" lon="5.840441">
        <ele>507.2</ele>
      </trkpt>
      <trkpt lat="44.000492" lon="5.840483">
        <ele>503.4</ele>
      </trkpt>
      <trkpt lat="43.999978" lon="5.840536">
        <ele>501.9</ele>
      </trkpt>
      <trkpt lat="43.999289" lon="5.840807">
        <ele>501.1</ele>
      </trkpt>
      <trkpt lat="43.998649" lon="5.840627">
        <ele>498.5</ele>
      </trkpt>
      <trkpt lat="43.998150" lon="5.840631">
        <ele>496.3</ele>
      </trkpt>
      <trkpt lat="43.997672" lon="5.840700">
        <ele>495.6</ele>
      </trkpt>
      <trkpt lat="43.997264" lon="5.840757">
        <ele>495.8</ele>
      </trkpt>
      <trkpt lat="43.997104" lon="5.840752">
        <ele>496.1</ele>
      </trkpt>
      <trkpt lat="43.997037" lon="5.840741">
        <ele>496.2</ele>
      </trkpt>
    </trkseg>
  </trk>
</gpx>