<?xml version="1.0" ?>
<gpx xmlns="http://www.topografix.com/GPX/1/1" xmlns:xsi="http://www.w3.org/2001/XMLSchema-instance" xsi:schemaLocation="http://www.topografix.com/GPX/1/1 http://www.topografix.com/GPX/1/1/gpx.xsd" version="1.1" creator="EditGPX">
  <trk>
    <name>NewTrack</name>
    <trkseg>
      <trkpt lat="43.766201" lon="5.360896">
        <ele>212.9</ele>
      </trkpt>
      <trkpt lat="43.766261" lon="5.361097">
        <ele>213.4</ele>
      </trkpt>
      <trkpt lat="43.766157" lon="5.361127">
        <ele>213.4</ele>
      </trkpt>
      <trkpt lat="43.766073" lon="5.361199">
        <ele>213.6</ele>
      </trkpt>
      <trkpt lat="43.765779" lon="5.361607">
        <ele>215.7</ele>
      </trkpt>
      <trkpt lat="43.765496" lon="5.362042">
        <ele>215.7</ele>
      </trkpt>
      <trkpt lat="43.765199" lon="5.362728">
        <ele>216.4</ele>
      </trkpt>
      <trkpt lat="43.764571" lon="5.361838">
        <ele>214.3</ele>
      </trkpt>
      <trkpt lat="43.764315" lon="5.361478">
        <ele>212.6</ele>
      </trkpt>
      <trkpt lat="43.764183" lon="5.361256">
        <ele>211.6</ele>
      </trkpt>
      <trkpt lat="43.764104" lon="5.361046">
        <ele>211.3</ele>
      </trkpt>
      <trkpt lat="43.764077" lon="5.360904">
        <ele>210.4</ele>
      </trkpt>
      <trkpt lat="43.764080" lon="5.360703">
        <ele>210.3</ele>
      </trkpt>
      <trkpt lat="43.764144" lon="5.360363">
        <ele>212</ele>
      </trkpt>
      <trkpt lat="43.764166" lon="5.360081">
        <ele>214</ele>
      </trkpt>
      <trkpt lat="43.764119" lon="5.359823">
        <ele>215.9</ele>
      </trkpt>
      <trkpt lat="43.764057" lon="5.359721">
        <ele>216.3</ele>
      </trkpt>
      <trkpt lat="43.763958" lon="5.359614">
        <ele>216.6</ele>
      </trkpt>
      <trkpt lat="43.763879" lon="5.359563">
        <ele>216.7</ele>
      </trkpt>
      <trkpt lat="43.763459" lon="5.359424">
        <ele>216</ele>
      </trkpt>
      <trkpt lat="43.763267" lon="5.359349">
        <ele>214.2</ele>
      </trkpt>
      <trkpt lat="43.763131" lon="5.359306">
        <ele>213.8</ele>
      </trkpt>
      <trkpt lat="43.762874" lon="5.359263">
        <ele>212.8</ele>
      </trkpt>
      <trkpt lat="43.762765" lon="5.359252">
        <ele>212.4</ele>
      </trkpt>
      <trkpt lat="43.762103" lon="5.359440">
        <ele>210.6</ele>
      </trkpt>
      <trkpt lat="43.761286" lon="5.359665">
        <ele>208.9</ele>
      </trkpt>
      <trkpt lat="43.761286" lon="5.359665">
        <ele>208.9</ele>
      </trkpt>
      <trkpt lat="43.761286" lon="5.359665">
        <ele>208.9</ele>
      </trkpt>
      <trkpt lat="43.761286" lon="5.359665">
        <ele>208.9</ele>
      </trkpt>
      <trkpt lat="43.761016" lon="5.359740">
        <ele>208.7</ele>
      </trkpt>
      <trkpt lat="43.761016" lon="5.359740">
        <ele>208.7</ele>
      </trkpt>
      <trkpt lat="43.760960" lon="5.359756">
        <ele>208.6</ele>
      </trkpt>
      <trkpt lat="43.760406" lon="5.359925">
        <ele>208.5</ele>
      </trkpt>
      <trkpt lat="43.760286" lon="5.359915">
        <ele>208.6</ele>
      </trkpt>
      <trkpt lat="43.760255" lon="5.359987">
        <ele>208.6</ele>
      </trkpt>
      <trkpt lat="43.760266" lon="5.360108">
        <ele>209</ele>
      </trkpt>
      <trkpt lat="43.760098" lon="5.360169">
        <ele>209.1</ele>
      </trkpt>
      <trkpt lat="43.759993" lon="5.360234">
        <ele>208.9</ele>
      </trkpt>
      <trkpt lat="43.759774" lon="5.360397">
        <ele>208.9</ele>
      </trkpt>
      <trkpt lat="43.759590" lon="5.360574">
        <ele>208.7</ele>
      </trkpt>
      <trkpt lat="43.759257" lon="5.360894">
        <ele>208.2</ele>
      </trkpt>
      <trkpt lat="43.759191" lon="5.360910">
        <ele>208</ele>
      </trkpt>
      <trkpt lat="43.758732" lon="5.361038">
        <ele>207.8</ele>
      </trkpt>
      <trkpt lat="43.758292" lon="5.361073">
        <ele>208.8</ele>
      </trkpt>
      <trkpt lat="43.758007" lon="5.361012">
        <ele>209.4</ele>
      </trkpt>
      <trkpt lat="43.757597" lon="5.361127">
        <ele>210.3</ele>
      </trkpt>
      <trkpt lat="43.757366" lon="5.361248">
        <ele>214.4</ele>
      </trkpt>
      <trkpt lat="43.757238" lon="5.361339">
        <ele>215</ele>
      </trkpt>
      <trkpt lat="43.757058" lon="5.361553">
        <ele>215.9</ele>
      </trkpt>
      <trkpt lat="43.756653" lon="5.361854">
        <ele>221.5</ele>
      </trkpt>
      <trkpt lat="43.756002" lon="5.362358">
        <ele>226.7</ele>
      </trkpt>
      <trkpt lat="43.755911" lon="5.362377">
        <ele>227.6</ele>
      </trkpt>
      <trkpt lat="43.755807" lon="5.362347">
        <ele>235.2</ele>
      </trkpt>
      <trkpt lat="43.755698" lon="5.362347">
        <ele>236.6</ele>
      </trkpt>
      <trkpt lat="43.755634" lon="5.362372">
        <ele>237.5</ele>
      </trkpt>
      <trkpt lat="43.755125" lon="5.362865">
        <ele>237.1</ele>
      </trkpt>
      <trkpt lat="43.754514" lon="5.363581">
        <ele>241</ele>
      </trkpt>
      <trkpt lat="43.754340" lon="5.363857">
        <ele>241</ele>
      </trkpt>
      <trkpt lat="43.754139" lon="5.364099">
        <ele>243.9</ele>
      </trkpt>
      <trkpt lat="43.753813" lon="5.364386">
        <ele>244.2</ele>
      </trkpt>
      <trkpt lat="43.753724" lon="5.364509">
        <ele>244.4</ele>
      </trkpt>
      <trkpt lat="43.753654" lon="5.364724">
        <ele>244.5</ele>
      </trkpt>
      <trkpt lat="43.753631" lon="5.364869">
        <ele>244.5</ele>
      </trkpt>
      <trkpt lat="43.753637" lon="5.364963">
        <ele>244.5</ele>
      </trkpt>
      <trkpt lat="43.753708" lon="5.365072">
        <ele>246.9</ele>
      </trkpt>
      <trkpt lat="43.753708" lon="5.365099">
        <ele>247</ele>
      </trkpt>
      <trkpt lat="43.753019" lon="5.364946">
        <ele>248.4</ele>
      </trkpt>
      <trkpt lat="43.752871" lon="5.364861">
        <ele>249</ele>
      </trkpt>
      <trkpt lat="43.752788" lon="5.364820">
        <ele>249.3</ele>
      </trkpt>
      <trkpt lat="43.752718" lon="5.364836">
        <ele>249.6</ele>
      </trkpt>
      <trkpt lat="43.752523" lon="5.364834">
        <ele>250.1</ele>
      </trkpt>
      <trkpt lat="43.751963" lon="5.364756">
        <ele>254.2</ele>
      </trkpt>
      <trkpt lat="43.751250" lon="5.364662">
        <ele>257</ele>
      </trkpt>
      <trkpt lat="43.751106" lon="5.364678">
        <ele>257.3</ele>
      </trkpt>
      <trkpt lat="43.750663" lon="5.364847">
        <ele>259</ele>
      </trkpt>
      <trkpt lat="43.750421" lon="5.364901">
        <ele>258.8</ele>
      </trkpt>
      <trkpt lat="43.750277" lon="5.364981">
        <ele>259.3</ele>
      </trkpt>
      <trkpt lat="43.749442" lon="5.365544">
        <ele>264.7</ele>
      </trkpt>
      <trkpt lat="43.749440" lon="5.365545">
        <ele>264.7</ele>
      </trkpt>
      <trkpt lat="43.749190" lon="5.365767">
        <ele>266.3</ele>
      </trkpt>
      <trkpt lat="43.748888" lon="5.366132">
        <ele>268.6</ele>
      </trkpt>
      <trkpt lat="43.748789" lon="5.366279">
        <ele>269.2</ele>
      </trkpt>
      <trkpt lat="43.748520" lon="5.366840">
        <ele>277.1</ele>
      </trkpt>
      <trkpt lat="43.748450" lon="5.366937">
        <ele>277.7</ele>
      </trkpt>
      <trkpt lat="43.748363" lon="5.366977">
        <ele>277.9</ele>
      </trkpt>
      <trkpt lat="43.747946" lon="5.367065">
        <ele>272.7</ele>
      </trkpt>
      <trkpt lat="43.747466" lon="5.367199">
        <ele>269.4</ele>
      </trkpt>
      <trkpt lat="43.747350" lon="5.367272">
        <ele>269.7</ele>
      </trkpt>
      <trkpt lat="43.747158" lon="5.367460">
        <ele>269.5</ele>
      </trkpt>
      <trkpt lat="43.746390" lon="5.367969">
        <ele>279</ele>
      </trkpt>
      <trkpt lat="43.746288" lon="5.367980">
        <ele>279.4</ele>
      </trkpt>
      <trkpt lat="43.746156" lon="5.367942">
        <ele>279.8</ele>
      </trkpt>
      <trkpt lat="43.745922" lon="5.367731">
        <ele>279.5</ele>
      </trkpt>
      <trkpt lat="43.745381" lon="5.367320">
        <ele>278.1</ele>
      </trkpt>
      <trkpt lat="43.744833" lon="5.366961">
        <ele>280.3</ele>
      </trkpt>
      <trkpt lat="43.744674" lon="5.366840">
        <ele>280.3</ele>
      </trkpt>
      <trkpt lat="43.744404" lon="5.366617">
        <ele>273.1</ele>
      </trkpt>
      <trkpt lat="43.744056" lon="5.366258">
        <ele>275.8</ele>
      </trkpt>
      <trkpt lat="43.743730" lon="5.366025">
        <ele>275.6</ele>
      </trkpt>
      <trkpt lat="43.743561" lon="5.365955">
        <ele>275.9</ele>
      </trkpt>
      <trkpt lat="43.743216" lon="5.365942">
        <ele>278.2</ele>
      </trkpt>
      <trkpt lat="43.742802" lon="5.365891">
        <ele>279.4</ele>
      </trkpt>
      <trkpt lat="43.742649" lon="5.365904">
        <ele>278.7</ele>
      </trkpt>
      <trkpt lat="43.742499" lon="5.365976">
        <ele>276.8</ele>
      </trkpt>
      <trkpt lat="43.742395" lon="5.366065">
        <ele>277.3</ele>
      </trkpt>
      <trkpt lat="43.742122" lon="5.366384">
        <ele>278.5</ele>
      </trkpt>
      <trkpt lat="43.741732" lon="5.366717">
        <ele>281.7</ele>
      </trkpt>
      <trkpt lat="43.741244" lon="5.367079">
        <ele>276.7</ele>
      </trkpt>
      <trkpt lat="43.740902" lon="5.367368">
        <ele>275.1</ele>
      </trkpt>
      <trkpt lat="43.740571" lon="5.367704">
        <ele>269.9</ele>
      </trkpt>
      <trkpt lat="43.740250" lon="5.368079">
        <ele>267.9</ele>
      </trkpt>
      <trkpt lat="43.740195" lon="5.368141">
        <ele>267.4</ele>
      </trkpt>
      <trkpt lat="43.740085" lon="5.368130">
        <ele>266.5</ele>
      </trkpt>
      <trkpt lat="43.739822" lon="5.368060">
        <ele>256.5</ele>
      </trkpt>
      <trkpt lat="43.739771" lon="5.368028">
        <ele>255.8</ele>
      </trkpt>
      <trkpt lat="43.739695" lon="5.367932">
        <ele>254.5</ele>
      </trkpt>
      <trkpt lat="43.739628" lon="5.367924">
        <ele>253.9</ele>
      </trkpt>
      <trkpt lat="43.739509" lon="5.368023">
        <ele>253.9</ele>
      </trkpt>
      <trkpt lat="43.739230" lon="5.368187">
        <ele>254.9</ele>
      </trkpt>
      <trkpt lat="43.739102" lon="5.368213">
        <ele>249.8</ele>
      </trkpt>
      <trkpt lat="43.739019" lon="5.368192">
        <ele>247.5</ele>
      </trkpt>
      <trkpt lat="43.738928" lon="5.368197">
        <ele>245.7</ele>
      </trkpt>
      <trkpt lat="43.738761" lon="5.368318">
        <ele>243.9</ele>
      </trkpt>
      <trkpt lat="43.738649" lon="5.368350">
        <ele>250.6</ele>
      </trkpt>
      <trkpt lat="43.738478" lon="5.368530">
        <ele>249.4</ele>
      </trkpt>
      <trkpt lat="43.738360" lon="5.368589">
        <ele>249.4</ele>
      </trkpt>
      <trkpt lat="43.738192" lon="5.368801">
        <ele>241.3</ele>
      </trkpt>
      <trkpt lat="43.738089" lon="5.368822">
        <ele>240.4</ele>
      </trkpt>
      <trkpt lat="43.737969" lon="5.368903">
        <ele>239.5</ele>
      </trkpt>
      <trkpt lat="43.737825" lon="5.369034">
        <ele>238.1</ele>
      </trkpt>
      <trkpt lat="43.737796" lon="5.369139">
        <ele>238</ele>
      </trkpt>
      <trkpt lat="43.737779" lon="5.369335">
        <ele>244.3</ele>
      </trkpt>
      <trkpt lat="43.737763" lon="5.369428">
        <ele>244.9</ele>
      </trkpt>
      <trkpt lat="43.737721" lon="5.369503">
        <ele>245.1</ele>
      </trkpt>
      <trkpt lat="43.737473" lon="5.369839">
        <ele>241.5</ele>
      </trkpt>
      <trkpt lat="43.737358" lon="5.369941">
        <ele>241.8</ele>
      </trkpt>
      <trkpt lat="43.737168" lon="5.369968">
        <ele>238</ele>
      </trkpt>
      <trkpt lat="43.736996" lon="5.370008">
        <ele>242.9</ele>
      </trkpt>
      <trkpt lat="43.736899" lon="5.370080">
        <ele>241.8</ele>
      </trkpt>
      <trkpt lat="43.736866" lon="5.370134">
        <ele>241.7</ele>
      </trkpt>
      <trkpt lat="43.736864" lon="5.370177">
        <ele>242.1</ele>
      </trkpt>
      <trkpt lat="43.736822" lon="5.370236">
        <ele>242.4</ele>
      </trkpt>
      <trkpt lat="43.736835" lon="5.370324">
        <ele>243.4</ele>
      </trkpt>
      <trkpt lat="43.736866" lon="5.370375">
        <ele>244.1</ele>
      </trkpt>
      <trkpt lat="43.736886" lon="5.370488">
        <ele>245</ele>
      </trkpt>
      <trkpt lat="43.736872" lon="5.370641">
        <ele>245.8</ele>
      </trkpt>
      <trkpt lat="43.736862" lon="5.370767">
        <ele>246.3</ele>
      </trkpt>
      <trkpt lat="43.736847" lon="5.370845">
        <ele>246.8</ele>
      </trkpt>
      <trkpt lat="43.736794" lon="5.370879">
        <ele>246.8</ele>
      </trkpt>
      <trkpt lat="43.736742" lon="5.370930">
        <ele>246.7</ele>
      </trkpt>
      <trkpt lat="43.736686" lon="5.371003">
        <ele>246.5</ele>
      </trkpt>
      <trkpt lat="43.736634" lon="5.371014">
        <ele>241.2</ele>
      </trkpt>
      <trkpt lat="43.736573" lon="5.371062">
        <ele>239.9</ele>
      </trkpt>
      <trkpt lat="43.736542" lon="5.371121">
        <ele>238.9</ele>
      </trkpt>
      <trkpt lat="43.736544" lon="5.371191">
        <ele>238.4</ele>
      </trkpt>
      <trkpt lat="43.736573" lon="5.371217">
        <ele>238.5</ele>
      </trkpt>
      <trkpt lat="43.736975" lon="5.371279">
        <ele>245.8</ele>
      </trkpt>
      <trkpt lat="43.736974" lon="5.371405">
        <ele>245.3</ele>
      </trkpt>
      <trkpt lat="43.736961" lon="5.371529">
        <ele>244.8</ele>
      </trkpt>
      <trkpt lat="43.736922" lon="5.371577">
        <ele>244.4</ele>
      </trkpt>
      <trkpt lat="43.736847" lon="5.371622">
        <ele>243.7</ele>
      </trkpt>
      <trkpt lat="43.736773" lon="5.371655">
        <ele>242.8</ele>
      </trkpt>
      <trkpt lat="43.736670" lon="5.371630">
        <ele>241.7</ele>
      </trkpt>
      <trkpt lat="43.736451" lon="5.371534">
        <ele>237.5</ele>
      </trkpt>
      <trkpt lat="43.736389" lon="5.371456">
        <ele>236.8</ele>
      </trkpt>
      <trkpt lat="43.736360" lon="5.371365">
        <ele>236.5</ele>
      </trkpt>
      <trkpt lat="43.736395" lon="5.371161">
        <ele>237.2</ele>
      </trkpt>
      <trkpt lat="43.736417" lon="5.371016">
        <ele>238.2</ele>
      </trkpt>
      <trkpt lat="43.736372" lon="5.370976">
        <ele>237.7</ele>
      </trkpt>
      <trkpt lat="43.736296" lon="5.370941">
        <ele>236.5</ele>
      </trkpt>
      <trkpt lat="43.736091" lon="5.370960">
        <ele>232.9</ele>
      </trkpt>
      <trkpt lat="43.735938" lon="5.371003">
        <ele>230.8</ele>
      </trkpt>
      <trkpt lat="43.735872" lon="5.371016">
        <ele>230.4</ele>
      </trkpt>
      <trkpt lat="43.735769" lon="5.371078">
        <ele>220.3</ele>
      </trkpt>
      <trkpt lat="43.735736" lon="5.371107">
        <ele>220</ele>
      </trkpt>
      <trkpt lat="43.735701" lon="5.371175">
        <ele>219.6</ele>
      </trkpt>
      <trkpt lat="43.735690" lon="5.371255">
        <ele>219.6</ele>
      </trkpt>
      <trkpt lat="43.735686" lon="5.371346">
        <ele>220</ele>
      </trkpt>
      <trkpt lat="43.735692" lon="5.371394">
        <ele>220.5</ele>
      </trkpt>
      <trkpt lat="43.735777" lon="5.371483">
        <ele>222.6</ele>
      </trkpt>
      <trkpt lat="43.735880" lon="5.371523">
        <ele>231.6</ele>
      </trkpt>
      <trkpt lat="43.736116" lon="5.371550">
        <ele>233.8</ele>
      </trkpt>
      <trkpt lat="43.736165" lon="5.371561">
        <ele>234.4</ele>
      </trkpt>
      <trkpt lat="43.736256" lon="5.371609">
        <ele>235.4</ele>
      </trkpt>
      <trkpt lat="43.736717" lon="5.371968">
        <ele>233.1</ele>
      </trkpt>
      <trkpt lat="43.737075" lon="5.372156">
        <ele>230.5</ele>
      </trkpt>
      <trkpt lat="43.737285" lon="5.372242">
        <ele>229.4</ele>
      </trkpt>
      <trkpt lat="43.737430" lon="5.372261">
        <ele>228.7</ele>
      </trkpt>
      <trkpt lat="43.737548" lon="5.372269">
        <ele>232.1</ele>
      </trkpt>
      <trkpt lat="43.737668" lon="5.372317">
        <ele>232.4</ele>
      </trkpt>
      <trkpt lat="43.737940" lon="5.372620">
        <ele>225</ele>
      </trkpt>
      <trkpt lat="43.738048" lon="5.372776">
        <ele>225.1</ele>
      </trkpt>
      <trkpt lat="43.738091" lon="5.372880">
        <ele>224.4</ele>
      </trkpt>
      <trkpt lat="43.738106" lon="5.372937">
        <ele>224</ele>
      </trkpt>
      <trkpt lat="43.738133" lon="5.373092">
        <ele>223.1</ele>
      </trkpt>
      <trkpt lat="43.738124" lon="5.373157">
        <ele>222.7</ele>
      </trkpt>
      <trkpt lat="43.738101" lon="5.373200">
        <ele>222.4</ele>
      </trkpt>
      <trkpt lat="43.738031" lon="5.373272">
        <ele>221.7</ele>
      </trkpt>
      <trkpt lat="43.738070" lon="5.373473">
        <ele>215.7</ele>
      </trkpt>
      <trkpt lat="43.738190" lon="5.373752">
        <ele>214.5</ele>
      </trkpt>
      <trkpt lat="43.738443" lon="5.373926">
        <ele>220.5</ele>
      </trkpt>
      <trkpt lat="43.738850" lon="5.374149">
        <ele>224</ele>
      </trkpt>
      <trkpt lat="43.738999" lon="5.374342">
        <ele>220.6</ele>
      </trkpt>
      <trkpt lat="43.739102" lon="5.374417">
        <ele>220.6</ele>
      </trkpt>
      <trkpt lat="43.739486" lon="5.374535">
        <ele>227.9</ele>
      </trkpt>
      <trkpt lat="43.739916" lon="5.374546">
        <ele>230.7</ele>
      </trkpt>
      <trkpt lat="43.740077" lon="5.374592">
        <ele>236.5</ele>
      </trkpt>
      <trkpt lat="43.740399" lon="5.374702">
        <ele>236.9</ele>
      </trkpt>
      <trkpt lat="43.740548" lon="5.374790">
        <ele>237.1</ele>
      </trkpt>
      <trkpt lat="43.741005" lon="5.375061">
        <ele>238.4</ele>
      </trkpt>
      <trkpt lat="43.741259" lon="5.375292">
        <ele>240.4</ele>
      </trkpt>
      <trkpt lat="43.741352" lon="5.375335">
        <ele>240.9</ele>
      </trkpt>
      <trkpt lat="43.741443" lon="5.375361">
        <ele>241.3</ele>
      </trkpt>
      <trkpt lat="43.741676" lon="5.375351">
        <ele>248.2</ele>
      </trkpt>
      <trkpt lat="43.741783" lon="5.375343">
        <ele>248.6</ele>
      </trkpt>
      <trkpt lat="43.741817" lon="5.375380">
        <ele>248.7</ele>
      </trkpt>
      <trkpt lat="43.741845" lon="5.375447">
        <ele>248.7</ele>
      </trkpt>
      <trkpt lat="43.741908" lon="5.376241">
        <ele>248.1</ele>
      </trkpt>
      <trkpt lat="43.741988" lon="5.377649">
        <ele>253.3</ele>
      </trkpt>
      <trkpt lat="43.742019" lon="5.378033">
        <ele>253.6</ele>
      </trkpt>
      <trkpt lat="43.742069" lon="5.378188">
        <ele>253.7</ele>
      </trkpt>
      <trkpt lat="43.742164" lon="5.378320">
        <ele>253.8</ele>
      </trkpt>
      <trkpt lat="43.742350" lon="5.378422">
        <ele>252.7</ele>
      </trkpt>
      <trkpt lat="43.742387" lon="5.378462">
        <ele>252.7</ele>
      </trkpt>
      <trkpt lat="43.742521" lon="5.378634">
        <ele>251.1</ele>
      </trkpt>
      <trkpt lat="43.742610" lon="5.378736">
        <ele>250.4</ele>
      </trkpt>
      <trkpt lat="43.743271" lon="5.379202">
        <ele>244.4</ele>
      </trkpt>
      <trkpt lat="43.743447" lon="5.379361">
        <ele>242.4</ele>
      </trkpt>
      <trkpt lat="43.744056" lon="5.380101">
        <ele>236.3</ele>
      </trkpt>
      <trkpt lat="43.744129" lon="5.380219">
        <ele>236.1</ele>
      </trkpt>
      <trkpt lat="43.744296" lon="5.380637">
        <ele>237.9</ele>
      </trkpt>
      <trkpt lat="43.744348" lon="5.380868">
        <ele>239.8</ele>
      </trkpt>
      <trkpt lat="43.744398" lon="5.380930">
        <ele>240.7</ele>
      </trkpt>
      <trkpt lat="43.744395" lon="5.381037">
        <ele>241.4</ele>
      </trkpt>
      <trkpt lat="43.744492" lon="5.381493">
        <ele>244.1</ele>
      </trkpt>
      <trkpt lat="43.744562" lon="5.381638">
        <ele>244.8</ele>
      </trkpt>
      <trkpt lat="43.745232" lon="5.382593">
        <ele>256.6</ele>
      </trkpt>
      <trkpt lat="43.745709" lon="5.383564">
        <ele>253.9</ele>
      </trkpt>
      <trkpt lat="43.745821" lon="5.383907">
        <ele>251.9</ele>
      </trkpt>
      <trkpt lat="43.746395" lon="5.384647">
        <ele>249.7</ele>
      </trkpt>
      <trkpt lat="43.746953" lon="5.385125">
        <ele>245.2</ele>
      </trkpt>
      <trkpt lat="43.747325" lon="5.385044">
        <ele>246</ele>
      </trkpt>
      <trkpt lat="43.747894" lon="5.384819">
        <ele>253.1</ele>
      </trkpt>
      <trkpt lat="43.747976" lon="5.384792">
        <ele>253.5</ele>
      </trkpt>
      <trkpt lat="43.748146" lon="5.384776">
        <ele>253.7</ele>
      </trkpt>
      <trkpt lat="43.748263" lon="5.384792">
        <ele>253.6</ele>
      </trkpt>
      <trkpt lat="43.748433" lon="5.384905">
        <ele>254.4</ele>
      </trkpt>
      <trkpt lat="43.749286" lon="5.385197">
        <ele>256</ele>
      </trkpt>
      <trkpt lat="43.749286" lon="5.385197">
        <ele>256</ele>
      </trkpt>
      <trkpt lat="43.749286" lon="5.385197">
        <ele>256</ele>
      </trkpt>
      <trkpt lat="43.749309" lon="5.385205">
        <ele>256</ele>
      </trkpt>
      <trkpt lat="43.749437" lon="5.385280">
        <ele>256</ele>
      </trkpt>
      <trkpt lat="43.749518" lon="5.385430">
        <ele>255.9</ele>
      </trkpt>
      <trkpt lat="43.749599" lon="5.385511">
        <ele>255.8</ele>
      </trkpt>
      <trkpt lat="43.749712" lon="5.385838">
        <ele>255.8</ele>
      </trkpt>
      <trkpt lat="43.749855" lon="5.386149">
        <ele>256.2</ele>
      </trkpt>
      <trkpt lat="43.749937" lon="5.386235">
        <ele>256.5</ele>
      </trkpt>
      <trkpt lat="43.750227" lon="5.386063">
        <ele>256</ele>
      </trkpt>
      <trkpt lat="43.751272" lon="5.385672">
        <ele>257.6</ele>
      </trkpt>
      <trkpt lat="43.751459" lon="5.385602">
        <ele>257.7</ele>
      </trkpt>
      <trkpt lat="43.751591" lon="5.385581">
        <ele>257.7</ele>
      </trkpt>
      <trkpt lat="43.751754" lon="5.385447">
        <ele>257.9</ele>
      </trkpt>
      <trkpt lat="43.752576" lon="5.385321">
        <ele>258.8</ele>
      </trkpt>
      <trkpt lat="43.752576" lon="5.385321">
        <ele>258.8</ele>
      </trkpt>
      <trkpt lat="43.752668" lon="5.385307">
        <ele>258.8</ele>
      </trkpt>
      <trkpt lat="43.753350" lon="5.385382">
        <ele>261.3</ele>
      </trkpt>
      <trkpt lat="43.753781" lon="5.385511">
        <ele>262.4</ele>
      </trkpt>
      <trkpt lat="43.753994" lon="5.385522">
        <ele>262.9</ele>
      </trkpt>
      <trkpt lat="43.754040" lon="5.385570">
        <ele>263</ele>
      </trkpt>
      <trkpt lat="43.754195" lon="5.385629">
        <ele>262.3</ele>
      </trkpt>
      <trkpt lat="43.754350" lon="5.385602">
        <ele>261.7</ele>
      </trkpt>
      <trkpt lat="43.754447" lon="5.385543">
        <ele>261.2</ele>
      </trkpt>
      <trkpt lat="43.754517" lon="5.385532">
        <ele>260.9</ele>
      </trkpt>
      <trkpt lat="43.754579" lon="5.385575">
        <ele>260.5</ele>
      </trkpt>
      <trkpt lat="43.754831" lon="5.385661">
        <ele>258.3</ele>
      </trkpt>
      <trkpt lat="43.755059" lon="5.385645">
        <ele>251.7</ele>
      </trkpt>
      <trkpt lat="43.755121" lon="5.385661">
        <ele>251.4</ele>
      </trkpt>
      <trkpt lat="43.755358" lon="5.385849">
        <ele>245.3</ele>
      </trkpt>
      <trkpt lat="43.755637" lon="5.385822">
        <ele>244.5</ele>
      </trkpt>
      <trkpt lat="43.755811" lon="5.385795">
        <ele>240.6</ele>
      </trkpt>
      <trkpt lat="43.756796" lon="5.386001">
        <ele>234.5</ele>
      </trkpt>
      <trkpt lat="43.756915" lon="5.386026">
        <ele>234.7</ele>
      </trkpt>
      <trkpt lat="43.757260" lon="5.386090">
        <ele>235.3</ele>
      </trkpt>
      <trkpt lat="43.757575" lon="5.386198">
        <ele>238.4</ele>
      </trkpt>
      <trkpt lat="43.757465" lon="5.387013">
        <ele>236.9</ele>
      </trkpt>
      <trkpt lat="43.757039" lon="5.388578">
        <ele>236.5</ele>
      </trkpt>
      <trkpt lat="43.757039" lon="5.388578">
        <ele>236.5</ele>
      </trkpt>
      <trkpt lat="43.757039" lon="5.388578">
        <ele>236.5</ele>
      </trkpt>
      <trkpt lat="43.756984" lon="5.388778">
        <ele>236.3</ele>
      </trkpt>
      <trkpt lat="43.756573" lon="5.390425">
        <ele>233.7</ele>
      </trkpt>
      <trkpt lat="43.756426" lon="5.390918">
        <ele>234.1</ele>
      </trkpt>
      <trkpt lat="43.756101" lon="5.391825">
        <ele>233.6</ele>
      </trkpt>
      <trkpt lat="43.756000" lon="5.392115">
        <ele>233.6</ele>
      </trkpt>
      <trkpt lat="43.755864" lon="5.392351">
        <ele>233.4</ele>
      </trkpt>
      <trkpt lat="43.755698" lon="5.392570">
        <ele>231.7</ele>
      </trkpt>
      <trkpt lat="43.755415" lon="5.393091">
        <ele>230.3</ele>
      </trkpt>
      <trkpt lat="43.755295" lon="5.393348">
        <ele>230.3</ele>
      </trkpt>
      <trkpt lat="43.754688" lon="5.394352">
        <ele>226.5</ele>
      </trkpt>
      <trkpt lat="43.754617" lon="5.394469">
        <ele>226.4</ele>
      </trkpt>
      <trkpt lat="43.754504" lon="5.394727">
        <ele>226.5</ele>
      </trkpt>
      <trkpt lat="43.754353" lon="5.395183">
        <ele>229.6</ele>
      </trkpt>
      <trkpt lat="43.754128" lon="5.395542">
        <ele>228.5</ele>
      </trkpt>
      <trkpt lat="43.753726" lon="5.396250">
        <ele>229.9</ele>
      </trkpt>
      <trkpt lat="43.753540" lon="5.396599">
        <ele>229.3</ele>
      </trkpt>
      <trkpt lat="43.753342" lon="5.396889">
        <ele>231.2</ele>
      </trkpt>
      <trkpt lat="43.753044" lon="5.397361">
        <ele>229</ele>
      </trkpt>
      <trkpt lat="43.752493" lon="5.398214">
        <ele>227.7</ele>
      </trkpt>
      <trkpt lat="43.752125" lon="5.398874">
        <ele>227.8</ele>
      </trkpt>
      <trkpt lat="43.752001" lon="5.399120">
        <ele>227.2</ele>
      </trkpt>
      <trkpt lat="43.751796" lon="5.399426">
        <ele>228</ele>
      </trkpt>
      <trkpt lat="43.751606" lon="5.399694">
        <ele>225.5</ele>
      </trkpt>
      <trkpt lat="43.751435" lon="5.399952">
        <ele>226.1</ele>
      </trkpt>
      <trkpt lat="43.751215" lon="5.400360">
        <ele>228.1</ele>
      </trkpt>
      <trkpt lat="43.751036" lon="5.400622">
        <ele>228.1</ele>
      </trkpt>
      <trkpt lat="43.750812" lon="5.400885">
        <ele>227.2</ele>
      </trkpt>
      <trkpt lat="43.750521" lon="5.401154">
        <ele>224.7</ele>
      </trkpt>
      <trkpt lat="43.750312" lon="5.401422">
        <ele>223.9</ele>
      </trkpt>
      <trkpt lat="43.750153" lon="5.401636">
        <ele>223</ele>
      </trkpt>
      <trkpt lat="43.749796" lon="5.402457">
        <ele>223</ele>
      </trkpt>
      <trkpt lat="43.750110" lon="5.403074">
        <ele>224.8</ele>
      </trkpt>
      <trkpt lat="43.750273" lon="5.403337">
        <ele>225.2</ele>
      </trkpt>
      <trkpt lat="43.750428" lon="5.403514">
        <ele>225.7</ele>
      </trkpt>
      <trkpt lat="43.750676" lon="5.403643">
        <ele>226.2</ele>
      </trkpt>
      <trkpt lat="43.752246" lon="5.403633">
        <ele>232.6</ele>
      </trkpt>
      <trkpt lat="43.752420" lon="5.403632">
        <ele>232.9</ele>
      </trkpt>
      <trkpt lat="43.752982" lon="5.403664">
        <ele>235.5</ele>
      </trkpt>
      <trkpt lat="43.753567" lon="5.403911">
        <ele>238.5</ele>
      </trkpt>
      <trkpt lat="43.753896" lon="5.403986">
        <ele>239.3</ele>
      </trkpt>
      <trkpt lat="43.754295" lon="5.404013">
        <ele>241.2</ele>
      </trkpt>
      <trkpt lat="43.755454" lon="5.404021">
        <ele>244.5</ele>
      </trkpt>
      <trkpt lat="43.755907" lon="5.404024">
        <ele>247.4</ele>
      </trkpt>
      <trkpt lat="43.756108" lon="5.404050">
        <ele>248.2</ele>
      </trkpt>
      <trkpt lat="43.756442" lon="5.404056">
        <ele>249.6</ele>
      </trkpt>
      <trkpt lat="43.757763" lon="5.404404">
        <ele>254.8</ele>
      </trkpt>
      <trkpt lat="43.758651" lon="5.404654">
        <ele>256.1</ele>
      </trkpt>
      <trkpt lat="43.758662" lon="5.404657">
        <ele>256.1</ele>
      </trkpt>
      <trkpt lat="43.760240" lon="5.405091">
        <ele>265.6</ele>
      </trkpt>
      <trkpt lat="43.760572" lon="5.405182">
        <ele>267.2</ele>
      </trkpt>
      <trkpt lat="43.761726" lon="5.405461">
        <ele>275.1</ele>
      </trkpt>
      <trkpt lat="43.762246" lon="5.405375">
        <ele>276.5</ele>
      </trkpt>
      <trkpt lat="43.762466" lon="5.405381">
        <ele>277</ele>
      </trkpt>
      <trkpt lat="43.763365" lon="5.405542">
        <ele>284.4</ele>
      </trkpt>
      <trkpt lat="43.763485" lon="5.405534">
        <ele>284.5</ele>
      </trkpt>
      <trkpt lat="43.764132" lon="5.405276">
        <ele>285.4</ele>
      </trkpt>
      <trkpt lat="43.764198" lon="5.405319">
        <ele>288.3</ele>
      </trkpt>
      <trkpt lat="43.764665" lon="5.405198">
        <ele>290.3</ele>
      </trkpt>
      <trkpt lat="43.764746" lon="5.405228">
        <ele>290.7</ele>
      </trkpt>
      <trkpt lat="43.764806" lon="5.405378">
        <ele>290.7</ele>
      </trkpt>
      <trkpt lat="43.764820" lon="5.405614">
        <ele>290.9</ele>
      </trkpt>
      <trkpt lat="43.764748" lon="5.405823">
        <ele>290.7</ele>
      </trkpt>
      <trkpt lat="43.764624" lon="5.406011">
        <ele>290.3</ele>
      </trkpt>
      <trkpt lat="43.764545" lon="5.406207">
        <ele>290</ele>
      </trkpt>
      <trkpt lat="43.764586" lon="5.406309">
        <ele>290.3</ele>
      </trkpt>
      <trkpt lat="43.764880" lon="5.406534">
        <ele>292.6</ele>
      </trkpt>
      <trkpt lat="43.764948" lon="5.406655">
        <ele>294.1</ele>
      </trkpt>
      <trkpt lat="43.764998" lon="5.406888">
        <ele>294</ele>
      </trkpt>
      <trkpt lat="43.765016" lon="5.407304">
        <ele>300.6</ele>
      </trkpt>
      <trkpt lat="43.765213" lon="5.408493">
        <ele>303.3</ele>
      </trkpt>
      <trkpt lat="43.765301" lon="5.409023">
        <ele>304.7</ele>
      </trkpt>
      <trkpt lat="43.765357" lon="5.409364">
        <ele>307.1</ele>
      </trkpt>
      <trkpt lat="43.765384" lon="5.409820">
        <ele>308.5</ele>
      </trkpt>
      <trkpt lat="43.765298" lon="5.410565">
        <ele>310.9</ele>
      </trkpt>
      <trkpt lat="43.765262" lon="5.410764">
        <ele>310.3</ele>
      </trkpt>
      <trkpt lat="43.765111" lon="5.411287">
        <ele>313.2</ele>
      </trkpt>
      <trkpt lat="43.764931" lon="5.412527">
        <ele>314.7</ele>
      </trkpt>
      <trkpt lat="43.764916" lon="5.412634">
        <ele>313.9</ele>
      </trkpt>
      <trkpt lat="43.764867" lon="5.412971">
        <ele>313.9</ele>
      </trkpt>
      <trkpt lat="43.764568" lon="5.413985">
        <ele>316</ele>
      </trkpt>
      <trkpt lat="43.764522" lon="5.414538">
        <ele>318.7</ele>
      </trkpt>
      <trkpt lat="43.764514" lon="5.414822">
        <ele>319.1</ele>
      </trkpt>
      <trkpt lat="43.764642" lon="5.414726">
        <ele>320</ele>
      </trkpt>
      <trkpt lat="43.764803" lon="5.414626">
        <ele>320.9</ele>
      </trkpt>
      <trkpt lat="43.765213" lon="5.414578">
        <ele>328.2</ele>
      </trkpt>
      <trkpt lat="43.765386" lon="5.414506">
        <ele>328.8</ele>
      </trkpt>
      <trkpt lat="43.765492" lon="5.414471">
        <ele>329.2</ele>
      </trkpt>
      <trkpt lat="43.765610" lon="5.414468">
        <ele>329.7</ele>
      </trkpt>
      <trkpt lat="43.765804" lon="5.414540">
        <ele>330.3</ele>
      </trkpt>
      <trkpt lat="43.766236" lon="5.414562">
        <ele>334</ele>
      </trkpt>
      <trkpt lat="43.766385" lon="5.414650">
        <ele>334.3</ele>
      </trkpt>
      <trkpt lat="43.766503" lon="5.414817">
        <ele>334.7</ele>
      </trkpt>
      <trkpt lat="43.766668" lon="5.414862">
        <ele>335.5</ele>
      </trkpt>
      <trkpt lat="43.766759" lon="5.414817">
        <ele>335.3</ele>
      </trkpt>
      <trkpt lat="43.767206" lon="5.414648">
        <ele>334.7</ele>
      </trkpt>
      <trkpt lat="43.767470" lon="5.414468">
        <ele>334.4</ele>
      </trkpt>
      <trkpt lat="43.767669" lon="5.414401">
        <ele>333</ele>
      </trkpt>
      <trkpt lat="43.767772" lon="5.414388">
        <ele>332.7</ele>
      </trkpt>
      <trkpt lat="43.767964" lon="5.414342">
        <ele>332.2</ele>
      </trkpt>
      <trkpt lat="43.768109" lon="5.414224">
        <ele>331.6</ele>
      </trkpt>
      <trkpt lat="43.768059" lon="5.414430">
        <ele>332.1</ele>
      </trkpt>
      <trkpt lat="43.768022" lon="5.414605">
        <ele>332.3</ele>
      </trkpt>
      <trkpt lat="43.768003" lon="5.414892">
        <ele>332.5</ele>
      </trkpt>
      <trkpt lat="43.767957" lon="5.415069">
        <ele>333.1</ele>
      </trkpt>
      <trkpt lat="43.767928" lon="5.415258">
        <ele>333.2</ele>
      </trkpt>
      <trkpt lat="43.767846" lon="5.415887">
        <ele>333.5</ele>
      </trkpt>
      <trkpt lat="43.767827" lon="5.416139">
        <ele>333.5</ele>
      </trkpt>
      <trkpt lat="43.767815" lon="5.416328">
        <ele>333.5</ele>
      </trkpt>
      <trkpt lat="43.767796" lon="5.416539">
        <ele>333.6</ele>
      </trkpt>
      <trkpt lat="43.767759" lon="5.416767">
        <ele>332.6</ele>
      </trkpt>
      <trkpt lat="43.767660" lon="5.417346">
        <ele>331.3</ele>
      </trkpt>
      <trkpt lat="43.767534" lon="5.417711">
        <ele>330.4</ele>
      </trkpt>
      <trkpt lat="43.767470" lon="5.418191">
        <ele>331.9</ele>
      </trkpt>
      <trkpt lat="43.767425" lon="5.418534">
        <ele>331.6</ele>
      </trkpt>
      <trkpt lat="43.767410" lon="5.418789">
        <ele>331.4</ele>
      </trkpt>
      <trkpt lat="43.767435" lon="5.419070">
        <ele>330.2</ele>
      </trkpt>
      <trkpt lat="43.767466" lon="5.419240">
        <ele>329.1</ele>
      </trkpt>
      <trkpt lat="43.767463" lon="5.419461">
        <ele>328.9</ele>
      </trkpt>
      <trkpt lat="43.767418" lon="5.419811">
        <ele>327.5</ele>
      </trkpt>
      <trkpt lat="43.767346" lon="5.420160">
        <ele>326.2</ele>
      </trkpt>
      <trkpt lat="43.767284" lon="5.420453">
        <ele>326.5</ele>
      </trkpt>
      <trkpt lat="43.767007" lon="5.421286">
        <ele>325.5</ele>
      </trkpt>
      <trkpt lat="43.766949" lon="5.421506">
        <ele>325.3</ele>
      </trkpt>
      <trkpt lat="43.766921" lon="5.421874">
        <ele>323.3</ele>
      </trkpt>
      <trkpt lat="43.766817" lon="5.422067">
        <ele>322.7</ele>
      </trkpt>
      <trkpt lat="43.766683" lon="5.422220">
        <ele>322</ele>
      </trkpt>
      <trkpt lat="43.766614" lon="5.422330">
        <ele>321.7</ele>
      </trkpt>
      <trkpt lat="43.766434" lon="5.422410">
        <ele>322.1</ele>
      </trkpt>
      <trkpt lat="43.766298" lon="5.422587">
        <ele>320.4</ele>
      </trkpt>
      <trkpt lat="43.766205" lon="5.422794">
        <ele>320.3</ele>
      </trkpt>
      <trkpt lat="43.766124" lon="5.422922">
        <ele>320.1</ele>
      </trkpt>
      <trkpt lat="43.765945" lon="5.423051">
        <ele>319.7</ele>
      </trkpt>
      <trkpt lat="43.765870" lon="5.423193">
        <ele>319</ele>
      </trkpt>
      <trkpt lat="43.765781" lon="5.423445">
        <ele>318.1</ele>
      </trkpt>
      <trkpt lat="43.765827" lon="5.423555">
        <ele>318</ele>
      </trkpt>
      <trkpt lat="43.766343" lon="5.424454">
        <ele>318.1</ele>
      </trkpt>
      <trkpt lat="43.766406" lon="5.424564">
        <ele>318</ele>
      </trkpt>
      <trkpt lat="43.767036" lon="5.425392">
        <ele>318.7</ele>
      </trkpt>
      <trkpt lat="43.767201" lon="5.425608">
        <ele>319.2</ele>
      </trkpt>
      <trkpt lat="43.767301" lon="5.425763">
        <ele>319.7</ele>
      </trkpt>
      <trkpt lat="43.767394" lon="5.425942">
        <ele>321.1</ele>
      </trkpt>
      <trkpt lat="43.767479" lon="5.426098">
        <ele>321.4</ele>
      </trkpt>
      <trkpt lat="43.767576" lon="5.426231">
        <ele>323.1</ele>
      </trkpt>
      <trkpt lat="43.767663" lon="5.426358">
        <ele>323.4</ele>
      </trkpt>
      <trkpt lat="43.767780" lon="5.426448">
        <ele>323.6</ele>
      </trkpt>
      <trkpt lat="43.767899" lon="5.426505">
        <ele>323.8</ele>
      </trkpt>
      <trkpt lat="43.768023" lon="5.426545">
        <ele>323.9</ele>
      </trkpt>
      <trkpt lat="43.768130" lon="5.426559">
        <ele>324.1</ele>
      </trkpt>
      <trkpt lat="43.768265" lon="5.426597">
        <ele>324.5</ele>
      </trkpt>
      <trkpt lat="43.768401" lon="5.426646">
        <ele>325.1</ele>
      </trkpt>
      <trkpt lat="43.768539" lon="5.426728">
        <ele>326.5</ele>
      </trkpt>
      <trkpt lat="43.768649" lon="5.426834">
        <ele>327</ele>
      </trkpt>
      <trkpt lat="43.768746" lon="5.426951">
        <ele>327.5</ele>
      </trkpt>
      <trkpt lat="43.768838" lon="5.427072">
        <ele>327.9</ele>
      </trkpt>
      <trkpt lat="43.768918" lon="5.427170">
        <ele>328.4</ele>
      </trkpt>
      <trkpt lat="43.768993" lon="5.427296">
        <ele>329.1</ele>
      </trkpt>
      <trkpt lat="43.769046" lon="5.427441">
        <ele>330.2</ele>
      </trkpt>
      <trkpt lat="43.769089" lon="5.427580">
        <ele>331.4</ele>
      </trkpt>
      <trkpt lat="43.769150" lon="5.427684">
        <ele>331.3</ele>
      </trkpt>
      <trkpt lat="43.769285" lon="5.427627">
        <ele>333</ele>
      </trkpt>
      <trkpt lat="43.769832" lon="5.427547">
        <ele>334.4</ele>
      </trkpt>
      <trkpt lat="43.770463" lon="5.427648">
        <ele>335.9</ele>
      </trkpt>
      <trkpt lat="43.770905" lon="5.427724">
        <ele>337.2</ele>
      </trkpt>
      <trkpt lat="43.770982" lon="5.427809">
        <ele>337.4</ele>
      </trkpt>
      <trkpt lat="43.770900" lon="5.428555">
        <ele>338.5</ele>
      </trkpt>
      <trkpt lat="43.770955" lon="5.428641">
        <ele>338.8</ele>
      </trkpt>
      <trkpt lat="43.771614" lon="5.428813">
        <ele>340.2</ele>
      </trkpt>
      <trkpt lat="43.771656" lon="5.428842">
        <ele>340.3</ele>
      </trkpt>
      <trkpt lat="43.771664" lon="5.428914">
        <ele>340.5</ele>
      </trkpt>
      <trkpt lat="43.771601" lon="5.429432">
        <ele>342.2</ele>
      </trkpt>
      <trkpt lat="43.771605" lon="5.429507">
        <ele>342.3</ele>
      </trkpt>
      <trkpt lat="43.771644" lon="5.429547">
        <ele>342.5</ele>
      </trkpt>
      <trkpt lat="43.772226" lon="5.429617">
        <ele>346.5</ele>
      </trkpt>
      <trkpt lat="43.772169" lon="5.429743">
        <ele>346.6</ele>
      </trkpt>
      <trkpt lat="43.771989" lon="5.430239">
        <ele>347.8</ele>
      </trkpt>
      <trkpt lat="43.771824" lon="5.430556">
        <ele>347.7</ele>
      </trkpt>
      <trkpt lat="43.771739" lon="5.430781">
        <ele>347.4</ele>
      </trkpt>
      <trkpt lat="43.771654" lon="5.431052">
        <ele>346.5</ele>
      </trkpt>
      <trkpt lat="43.771609" lon="5.431256">
        <ele>346.5</ele>
      </trkpt>
      <trkpt lat="43.771650" lon="5.431728">
        <ele>347.6</ele>
      </trkpt>
      <trkpt lat="43.771828" lon="5.432908">
        <ele>348.4</ele>
      </trkpt>
      <trkpt lat="43.771931" lon="5.433340">
        <ele>347.7</ele>
      </trkpt>
      <trkpt lat="43.772066" lon="5.433804">
        <ele>347.6</ele>
      </trkpt>
      <trkpt lat="43.772165" lon="5.434290">
        <ele>345.3</ele>
      </trkpt>
      <trkpt lat="43.772245" lon="5.434719">
        <ele>344.1</ele>
      </trkpt>
      <trkpt lat="43.772288" lon="5.434826">
        <ele>343.7</ele>
      </trkpt>
      <trkpt lat="43.772330" lon="5.435067">
        <ele>340.7</ele>
      </trkpt>
      <trkpt lat="43.772198" lon="5.435100">
        <ele>340.3</ele>
      </trkpt>
      <trkpt lat="43.772070" lon="5.435129">
        <ele>340.2</ele>
      </trkpt>
      <trkpt lat="43.771915" lon="5.435234">
        <ele>340.1</ele>
      </trkpt>
      <trkpt lat="43.771590" lon="5.435438">
        <ele>337.5</ele>
      </trkpt>
      <trkpt lat="43.771470" lon="5.435513">
        <ele>336.9</ele>
      </trkpt>
      <trkpt lat="43.771083" lon="5.435722">
        <ele>334.9</ele>
      </trkpt>
      <trkpt lat="43.770711" lon="5.435904">
        <ele>329.6</ele>
      </trkpt>
      <trkpt lat="43.770546" lon="5.436004">
        <ele>328.6</ele>
      </trkpt>
      <trkpt lat="43.770531" lon="5.436041">
        <ele>328.5</ele>
      </trkpt>
      <trkpt lat="43.770641" lon="5.436076">
        <ele>328.4</ele>
      </trkpt>
      <trkpt lat="43.770809" lon="5.436089">
        <ele>328.6</ele>
      </trkpt>
      <trkpt lat="43.770912" lon="5.436138">
        <ele>329.4</ele>
      </trkpt>
      <trkpt lat="43.771011" lon="5.436210">
        <ele>329.2</ele>
      </trkpt>
      <trkpt lat="43.771092" lon="5.436371">
        <ele>328.5</ele>
      </trkpt>
      <trkpt lat="43.771207" lon="5.436620">
        <ele>328.1</ele>
      </trkpt>
      <trkpt lat="43.771274" lon="5.436840">
        <ele>325.9</ele>
      </trkpt>
      <trkpt lat="43.771166" lon="5.436929">
        <ele>325.6</ele>
      </trkpt>
      <trkpt lat="43.771019" lon="5.437017">
        <ele>325.2</ele>
      </trkpt>
      <trkpt lat="43.770800" lon="5.437154">
        <ele>322.8</ele>
      </trkpt>
      <trkpt lat="43.770718" lon="5.437310">
        <ele>322.7</ele>
      </trkpt>
      <trkpt lat="43.770633" lon="5.437548">
        <ele>321.7</ele>
      </trkpt>
      <trkpt lat="43.770596" lon="5.437634">
        <ele>321.5</ele>
      </trkpt>
      <trkpt lat="43.770536" lon="5.437723">
        <ele>321.2</ele>
      </trkpt>
      <trkpt lat="43.770277" lon="5.438074">
        <ele>320.4</ele>
      </trkpt>
      <trkpt lat="43.770199" lon="5.438171">
        <ele>320.1</ele>
      </trkpt>
      <trkpt lat="43.769963" lon="5.438345">
        <ele>318.4</ele>
      </trkpt>
      <trkpt lat="43.769266" lon="5.439185">
        <ele>314.1</ele>
      </trkpt>
      <trkpt lat="43.769266" lon="5.439185">
        <ele>314.1</ele>
      </trkpt>
      <trkpt lat="43.769266" lon="5.439185">
        <ele>314.1</ele>
      </trkpt>
      <trkpt lat="43.769205" lon="5.439259">
        <ele>314.1</ele>
      </trkpt>
      <trkpt lat="43.769099" lon="5.439388">
        <ele>312.8</ele>
      </trkpt>
      <trkpt lat="43.769132" lon="5.439480">
        <ele>312.6</ele>
      </trkpt>
      <trkpt lat="43.769335" lon="5.439847">
        <ele>313.6</ele>
      </trkpt>
      <trkpt lat="43.769640" lon="5.440260">
        <ele>314.7</ele>
      </trkpt>
      <trkpt lat="43.769812" lon="5.440483">
        <ele>315.2</ele>
      </trkpt>
      <trkpt lat="43.770397" lon="5.440810">
        <ele>320.2</ele>
      </trkpt>
      <trkpt lat="43.770465" lon="5.440947">
        <ele>321.2</ele>
      </trkpt>
      <trkpt lat="43.770513" lon="5.441033">
        <ele>321.4</ele>
      </trkpt>
      <trkpt lat="43.770815" lon="5.441041">
        <ele>322.9</ele>
      </trkpt>
      <trkpt lat="43.770930" lon="5.441073">
        <ele>328.7</ele>
      </trkpt>
      <trkpt lat="43.770999" lon="5.441169">
        <ele>329.5</ele>
      </trkpt>
      <trkpt lat="43.771092" lon="5.441022">
        <ele>329.6</ele>
      </trkpt>
      <trkpt lat="43.771346" lon="5.440593">
        <ele>329.7</ele>
      </trkpt>
      <trkpt lat="43.771778" lon="5.440220">
        <ele>339.2</ele>
      </trkpt>
      <trkpt lat="43.772012" lon="5.440003">
        <ele>341.3</ele>
      </trkpt>
      <trkpt lat="43.772059" lon="5.439987">
        <ele>340.2</ele>
      </trkpt>
      <trkpt lat="43.772111" lon="5.439901">
        <ele>340.8</ele>
      </trkpt>
      <trkpt lat="43.772181" lon="5.440064">
        <ele>343.6</ele>
      </trkpt>
      <trkpt lat="43.772198" lon="5.440158">
        <ele>343.8</ele>
      </trkpt>
      <trkpt lat="43.772198" lon="5.440252">
        <ele>343.7</ele>
      </trkpt>
      <trkpt lat="43.772225" lon="5.440308">
        <ele>344</ele>
      </trkpt>
      <trkpt lat="43.772192" lon="5.440609">
        <ele>344.4</ele>
      </trkpt>
      <trkpt lat="43.772125" lon="5.440848">
        <ele>344.5</ele>
      </trkpt>
      <trkpt lat="43.772105" lon="5.440995">
        <ele>344.1</ele>
      </trkpt>
      <trkpt lat="43.772106" lon="5.441499">
        <ele>343.9</ele>
      </trkpt>
      <trkpt lat="43.772675" lon="5.442041">
        <ele>343.7</ele>
      </trkpt>
      <trkpt lat="43.772946" lon="5.442248">
        <ele>342.5</ele>
      </trkpt>
      <trkpt lat="43.773132" lon="5.442127">
        <ele>342.8</ele>
      </trkpt>
      <trkpt lat="43.773229" lon="5.442041">
        <ele>343.3</ele>
      </trkpt>
      <trkpt lat="43.773529" lon="5.441719">
        <ele>343.9</ele>
      </trkpt>
      <trkpt lat="43.773920" lon="5.441277">
        <ele>346.4</ele>
      </trkpt>
      <trkpt lat="43.774309" lon="5.440853">
        <ele>345.4</ele>
      </trkpt>
      <trkpt lat="43.774259" lon="5.440657">
        <ele>346.1</ele>
      </trkpt>
      <trkpt lat="43.774021" lon="5.439920">
        <ele>349.4</ele>
      </trkpt>
      <trkpt lat="43.773990" lon="5.439555">
        <ele>350.5</ele>
      </trkpt>
      <trkpt lat="43.773970" lon="5.439222">
        <ele>350.9</ele>
      </trkpt>
      <trkpt lat="43.773949" lon="5.439107">
        <ele>351.7</ele>
      </trkpt>
      <trkpt lat="43.774716" lon="5.438702">
        <ele>351.6</ele>
      </trkpt>
      <trkpt lat="43.774702" lon="5.438509">
        <ele>352.1</ele>
      </trkpt>
      <trkpt lat="43.774673" lon="5.438128">
        <ele>352.6</ele>
      </trkpt>
      <trkpt lat="43.774631" lon="5.437876">
        <ele>352.3</ele>
      </trkpt>
      <trkpt lat="43.774536" lon="5.437481">
        <ele>350.8</ele>
      </trkpt>
      <trkpt lat="43.774524" lon="5.437379">
        <ele>350.7</ele>
      </trkpt>
      <trkpt lat="43.774520" lon="5.437294">
        <ele>350.7</ele>
      </trkpt>
      <trkpt lat="43.774516" lon="5.436671">
        <ele>350.2</ele>
      </trkpt>
      <trkpt lat="43.774526" lon="5.436518">
        <ele>348.1</ele>
      </trkpt>
      <trkpt lat="43.774609" lon="5.436468">
        <ele>348.2</ele>
      </trkpt>
      <trkpt lat="43.774786" lon="5.436253">
        <ele>348</ele>
      </trkpt>
      <trkpt lat="43.774902" lon="5.436084">
        <ele>347.6</ele>
      </trkpt>
      <trkpt lat="43.775078" lon="5.435794">
        <ele>350.1</ele>
      </trkpt>
      <trkpt lat="43.775214" lon="5.435427">
        <ele>354.7</ele>
      </trkpt>
      <trkpt lat="43.775059" lon="5.435255">
        <ele>352.7</ele>
      </trkpt>
      <trkpt lat="43.774826" lon="5.435014">
        <ele>345.5</ele>
      </trkpt>
      <trkpt lat="43.774644" lon="5.434767">
        <ele>345.1</ele>
      </trkpt>
      <trkpt lat="43.774437" lon="5.434265">
        <ele>345.8</ele>
      </trkpt>
      <trkpt lat="43.774387" lon="5.434174">
        <ele>346</ele>
      </trkpt>
      <trkpt lat="43.774321" lon="5.434182">
        <ele>346.2</ele>
      </trkpt>
      <trkpt lat="43.774272" lon="5.434139">
        <ele>348.5</ele>
      </trkpt>
      <trkpt lat="43.774152" lon="5.434078">
        <ele>348.5</ele>
      </trkpt>
      <trkpt lat="43.773959" lon="5.434032">
        <ele>350</ele>
      </trkpt>
      <trkpt lat="43.773841" lon="5.433978">
        <ele>350.6</ele>
      </trkpt>
      <trkpt lat="43.773792" lon="5.433917">
        <ele>351</ele>
      </trkpt>
      <trkpt lat="43.773761" lon="5.433844">
        <ele>351.3</ele>
      </trkpt>
      <trkpt lat="43.773713" lon="5.433662">
        <ele>352.1</ele>
      </trkpt>
      <trkpt lat="43.773598" lon="5.433117">
        <ele>356.3</ele>
      </trkpt>
      <trkpt lat="43.773472" lon="5.431938">
        <ele>357.7</ele>
      </trkpt>
      <trkpt lat="43.773463" lon="5.431850">
        <ele>357.5</ele>
      </trkpt>
      <trkpt lat="43.773391" lon="5.431178">
        <ele>357.7</ele>
      </trkpt>
      <trkpt lat="43.773397" lon="5.430470">
        <ele>356.8</ele>
      </trkpt>
      <trkpt lat="43.773444" lon="5.430049">
        <ele>355.9</ele>
      </trkpt>
      <trkpt lat="43.773469" lon="5.429936">
        <ele>354.6</ele>
      </trkpt>
      <trkpt lat="43.773682" lon="5.429676">
        <ele>354.2</ele>
      </trkpt>
      <trkpt lat="43.773810" lon="5.429671">
        <ele>354.4</ele>
      </trkpt>
      <trkpt lat="43.773910" lon="5.429735">
        <ele>354.8</ele>
      </trkpt>
      <trkpt lat="43.773997" lon="5.429792">
        <ele>355.3</ele>
      </trkpt>
      <trkpt lat="43.774561" lon="5.430416">
        <ele>361.2</ele>
      </trkpt>
      <trkpt lat="43.774989" lon="5.430712">
        <ele>364.1</ele>
      </trkpt>
      <trkpt lat="43.775293" lon="5.430824">
        <ele>364.9</ele>
      </trkpt>
      <trkpt lat="43.775793" lon="5.430878">
        <ele>367.1</ele>
      </trkpt>
      <trkpt lat="43.776235" lon="5.430985">
        <ele>368.3</ele>
      </trkpt>
      <trkpt lat="43.776354" lon="5.430996">
        <ele>368.5</ele>
      </trkpt>
      <trkpt lat="43.776403" lon="5.430950">
        <ele>368.5</ele>
      </trkpt>
      <trkpt lat="43.776434" lon="5.430846">
        <ele>368.6</ele>
      </trkpt>
      <trkpt lat="43.776471" lon="5.430618">
        <ele>368.1</ele>
      </trkpt>
      <trkpt lat="43.776505" lon="5.430489">
        <ele>368.2</ele>
      </trkpt>
      <trkpt lat="43.776562" lon="5.430419">
        <ele>368.3</ele>
      </trkpt>
      <trkpt lat="43.776627" lon="5.430406">
        <ele>368.4</ele>
      </trkpt>
      <trkpt lat="43.776720" lon="5.430390">
        <ele>371.2</ele>
      </trkpt>
      <trkpt lat="43.776744" lon="5.430366">
        <ele>371.2</ele>
      </trkpt>
      <trkpt lat="43.776780" lon="5.430199">
        <ele>371.4</ele>
      </trkpt>
      <trkpt lat="43.776798" lon="5.430111">
        <ele>371.4</ele>
      </trkpt>
      <trkpt lat="43.776881" lon="5.430052">
        <ele>371.6</ele>
      </trkpt>
      <trkpt lat="43.776947" lon="5.430057">
        <ele>371.8</ele>
      </trkpt>
      <trkpt lat="43.776970" lon="5.430022">
        <ele>371.9</ele>
      </trkpt>
      <trkpt lat="43.776937" lon="5.429483">
        <ele>372.9</ele>
      </trkpt>
      <trkpt lat="43.776926" lon="5.428917">
        <ele>372.2</ele>
      </trkpt>
      <trkpt lat="43.776946" lon="5.427782">
        <ele>371.5</ele>
      </trkpt>
      <trkpt lat="43.776947" lon="5.427737">
        <ele>371.5</ele>
      </trkpt>
      <trkpt lat="43.776984" lon="5.427630">
        <ele>371.6</ele>
      </trkpt>
      <trkpt lat="43.777026" lon="5.427611">
        <ele>371.8</ele>
      </trkpt>
      <trkpt lat="43.777054" lon="5.427667">
        <ele>372</ele>
      </trkpt>
      <trkpt lat="43.777117" lon="5.427922">
        <ele>372.1</ele>
      </trkpt>
      <trkpt lat="43.777147" lon="5.427992">
        <ele>372.2</ele>
      </trkpt>
      <trkpt lat="43.777210" lon="5.428104">
        <ele>372.4</ele>
      </trkpt>
      <trkpt lat="43.777267" lon="5.428142">
        <ele>372.6</ele>
      </trkpt>
      <trkpt lat="43.777340" lon="5.428137">
        <ele>372.8</ele>
      </trkpt>
      <trkpt lat="43.777385" lon="5.428094">
        <ele>372.9</ele>
      </trkpt>
      <trkpt lat="43.777425" lon="5.427943">
        <ele>373</ele>
      </trkpt>
      <trkpt lat="43.777489" lon="5.427455">
        <ele>375.6</ele>
      </trkpt>
      <trkpt lat="43.777493" lon="5.427396">
        <ele>375.3</ele>
      </trkpt>
      <trkpt lat="43.777445" lon="5.427265">
        <ele>374.9</ele>
      </trkpt>
      <trkpt lat="43.777441" lon="5.427144">
        <ele>375</ele>
      </trkpt>
      <trkpt lat="43.777575" lon="5.426632">
        <ele>379.8</ele>
      </trkpt>
      <trkpt lat="43.777640" lon="5.426511">
        <ele>380.7</ele>
      </trkpt>
      <trkpt lat="43.777741" lon="5.426420">
        <ele>381.3</ele>
      </trkpt>
      <trkpt lat="43.777832" lon="5.426109">
        <ele>382.1</ele>
      </trkpt>
      <trkpt lat="43.777859" lon="5.425658">
        <ele>383</ele>
      </trkpt>
      <trkpt lat="43.777861" lon="5.425377">
        <ele>382.8</ele>
      </trkpt>
      <trkpt lat="43.777937" lon="5.425017">
        <ele>382.9</ele>
      </trkpt>
      <trkpt lat="43.777962" lon="5.424719">
        <ele>383.1</ele>
      </trkpt>
      <trkpt lat="43.777939" lon="5.424513">
        <ele>383.1</ele>
      </trkpt>
      <trkpt lat="43.777956" lon="5.424154">
        <ele>384.7</ele>
      </trkpt>
      <trkpt lat="43.778057" lon="5.423279">
        <ele>387.7</ele>
      </trkpt>
      <trkpt lat="43.778264" lon="5.422383">
        <ele>390.1</ele>
      </trkpt>
      <trkpt lat="43.778353" lon="5.422147">
        <ele>394.4</ele>
      </trkpt>
      <trkpt lat="43.778448" lon="5.421860">
        <ele>395.1</ele>
      </trkpt>
      <trkpt lat="43.778448" lon="5.421737">
        <ele>395.2</ele>
      </trkpt>
      <trkpt lat="43.778463" lon="5.421141">
        <ele>395</ele>
      </trkpt>
      <trkpt lat="43.778494" lon="5.420892">
        <ele>393.5</ele>
      </trkpt>
      <trkpt lat="43.778649" lon="5.420358">
        <ele>392.5</ele>
      </trkpt>
      <trkpt lat="43.778740" lon="5.420007">
        <ele>392.4</ele>
      </trkpt>
      <trkpt lat="43.778764" lon="5.419908">
        <ele>389.5</ele>
      </trkpt>
      <trkpt lat="43.778862" lon="5.419615">
        <ele>389.3</ele>
      </trkpt>
      <trkpt lat="43.778924" lon="5.419513">
        <ele>389.2</ele>
      </trkpt>
      <trkpt lat="43.778986" lon="5.419454">
        <ele>389.2</ele>
      </trkpt>
      <trkpt lat="43.779137" lon="5.419186">
        <ele>389</ele>
      </trkpt>
      <trkpt lat="43.779296" lon="5.418851">
        <ele>385.5</ele>
      </trkpt>
      <trkpt lat="43.779426" lon="5.418513">
        <ele>383.2</ele>
      </trkpt>
      <trkpt lat="43.779573" lon="5.418229">
        <ele>379.3</ele>
      </trkpt>
      <trkpt lat="43.779674" lon="5.418006">
        <ele>379.3</ele>
      </trkpt>
      <trkpt lat="43.779703" lon="5.417826">
        <ele>379.2</ele>
      </trkpt>
      <trkpt lat="43.779730" lon="5.417604">
        <ele>379.2</ele>
      </trkpt>
      <trkpt lat="43.779740" lon="5.417510">
        <ele>379.1</ele>
      </trkpt>
      <trkpt lat="43.779759" lon="5.417429">
        <ele>380.4</ele>
      </trkpt>
      <trkpt lat="43.779689" lon="5.417405">
        <ele>380.6</ele>
      </trkpt>
      <trkpt lat="43.779457" lon="5.417182">
        <ele>381.3</ele>
      </trkpt>
      <trkpt lat="43.779436" lon="5.417067">
        <ele>381.7</ele>
      </trkpt>
      <trkpt lat="43.779405" lon="5.416920">
        <ele>382.4</ele>
      </trkpt>
      <trkpt lat="43.779211" lon="5.416740">
        <ele>384.6</ele>
      </trkpt>
      <trkpt lat="43.779149" lon="5.416678">
        <ele>385.2</ele>
      </trkpt>
      <trkpt lat="43.779103" lon="5.416606">
        <ele>384.3</ele>
      </trkpt>
      <trkpt lat="43.779042" lon="5.416525">
        <ele>383</ele>
      </trkpt>
      <trkpt lat="43.778953" lon="5.416488">
        <ele>382</ele>
      </trkpt>
      <trkpt lat="43.778946" lon="5.416372">
        <ele>381.8</ele>
      </trkpt>
      <trkpt lat="43.778930" lon="5.416276">
        <ele>381.7</ele>
      </trkpt>
      <trkpt lat="43.778948" lon="5.416169">
        <ele>382.1</ele>
      </trkpt>
      <trkpt lat="43.778950" lon="5.416115">
        <ele>382.4</ele>
      </trkpt>
      <trkpt lat="43.778816" lon="5.416131">
        <ele>381.1</ele>
      </trkpt>
      <trkpt lat="43.778824" lon="5.416008">
        <ele>381.4</ele>
      </trkpt>
      <trkpt lat="43.778824" lon="5.415898">
        <ele>381.7</ele>
      </trkpt>
      <trkpt lat="43.778828" lon="5.415772">
        <ele>382.2</ele>
      </trkpt>
      <trkpt lat="43.778824" lon="5.415643">
        <ele>381.9</ele>
      </trkpt>
      <trkpt lat="43.778857" lon="5.415490">
        <ele>382</ele>
      </trkpt>
      <trkpt lat="43.778862" lon="5.415407">
        <ele>381.9</ele>
      </trkpt>
      <trkpt lat="43.778979" lon="5.415310">
        <ele>382.8</ele>
      </trkpt>
      <trkpt lat="43.779068" lon="5.415211">
        <ele>383.7</ele>
      </trkpt>
      <trkpt lat="43.779118" lon="5.415095">
        <ele>385</ele>
      </trkpt>
      <trkpt lat="43.779096" lon="5.414959">
        <ele>385.2</ele>
      </trkpt>
      <trkpt lat="43.778994" lon="5.414752">
        <ele>382.8</ele>
      </trkpt>
      <trkpt lat="43.778958" lon="5.414312">
        <ele>383.2</ele>
      </trkpt>
      <trkpt lat="43.778999" lon="5.413178">
        <ele>387.9</ele>
      </trkpt>
      <trkpt lat="43.778999" lon="5.413178">
        <ele>387.9</ele>
      </trkpt>
      <trkpt lat="43.778999" lon="5.413178">
        <ele>387.9</ele>
      </trkpt>
      <trkpt lat="43.779018" lon="5.412636">
        <ele>389.2</ele>
      </trkpt>
      <trkpt lat="43.779028" lon="5.412363">
        <ele>390.1</ele>
      </trkpt>
      <trkpt lat="43.779035" lon="5.412167">
        <ele>388.9</ele>
      </trkpt>
      <trkpt lat="43.779155" lon="5.410955">
        <ele>387.5</ele>
      </trkpt>
      <trkpt lat="43.779182" lon="5.410681">
        <ele>390.3</ele>
      </trkpt>
      <trkpt lat="43.779233" lon="5.410514">
        <ele>390.3</ele>
      </trkpt>
      <trkpt lat="43.779623" lon="5.410058">
        <ele>390.4</ele>
      </trkpt>
      <trkpt lat="43.779794" lon="5.409511">
        <ele>386.9</ele>
      </trkpt>
      <trkpt lat="43.779755" lon="5.409415">
        <ele>386.8</ele>
      </trkpt>
      <trkpt lat="43.779681" lon="5.409302">
        <ele>386.4</ele>
      </trkpt>
      <trkpt lat="43.779414" lon="5.409222">
        <ele>384.2</ele>
      </trkpt>
      <trkpt lat="43.779007" lon="5.409071">
        <ele>379</ele>
      </trkpt>
      <trkpt lat="43.778473" lon="5.408739">
        <ele>375.6</ele>
      </trkpt>
      <trkpt lat="43.778190" lon="5.408674">
        <ele>369.3</ele>
      </trkpt>
      <trkpt lat="43.777950" lon="5.408487">
        <ele>368.4</ele>
      </trkpt>
      <trkpt lat="43.777733" lon="5.408412">
        <ele>366.9</ele>
      </trkpt>
      <trkpt lat="43.777632" lon="5.408347">
        <ele>365.8</ele>
      </trkpt>
      <trkpt lat="43.777264" lon="5.408154">
        <ele>361.4</ele>
      </trkpt>
      <trkpt lat="43.776892" lon="5.408079">
        <ele>359.4</ele>
      </trkpt>
      <trkpt lat="43.777024" lon="5.407886">
        <ele>360.3</ele>
      </trkpt>
      <trkpt lat="43.777311" lon="5.407360">
        <ele>361.7</ele>
      </trkpt>
      <trkpt lat="43.777865" lon="5.406271">
        <ele>363.3</ele>
      </trkpt>
      <trkpt lat="43.778295" lon="5.405161">
        <ele>362.9</ele>
      </trkpt>
      <trkpt lat="43.778632" lon="5.403782">
        <ele>368.4</ele>
      </trkpt>
      <trkpt lat="43.778643" lon="5.403616">
        <ele>368.6</ele>
      </trkpt>
      <trkpt lat="43.778837" lon="5.402758">
        <ele>370.6</ele>
      </trkpt>
      <trkpt lat="43.778918" lon="5.402436">
        <ele>372</ele>
      </trkpt>
      <trkpt lat="43.779182" lon="5.401577">
        <ele>375.5</ele>
      </trkpt>
      <trkpt lat="43.779479" lon="5.400517">
        <ele>378.8</ele>
      </trkpt>
      <trkpt lat="43.779479" lon="5.400517">
        <ele>378.8</ele>
      </trkpt>
      <trkpt lat="43.779561" lon="5.400226">
        <ele>379.1</ele>
      </trkpt>
      <trkpt lat="43.779677" lon="5.399898">
        <ele>379.1</ele>
      </trkpt>
      <trkpt lat="43.779921" lon="5.399469">
        <ele>379</ele>
      </trkpt>
      <trkpt lat="43.780313" lon="5.398901">
        <ele>378.1</ele>
      </trkpt>
      <trkpt lat="43.780343" lon="5.398664">
        <ele>377.4</ele>
      </trkpt>
      <trkpt lat="43.780316" lon="5.398445">
        <ele>376.8</ele>
      </trkpt>
      <trkpt lat="43.780243" lon="5.398300">
        <ele>373.8</ele>
      </trkpt>
      <trkpt lat="43.780096" lon="5.398107">
        <ele>373.5</ele>
      </trkpt>
      <trkpt lat="43.780082" lon="5.397938">
        <ele>372.9</ele>
      </trkpt>
      <trkpt lat="43.780129" lon="5.397618">
        <ele>371.9</ele>
      </trkpt>
      <trkpt lat="43.780146" lon="5.397184">
        <ele>368.3</ele>
      </trkpt>
      <trkpt lat="43.780127" lon="5.396454">
        <ele>364.5</ele>
      </trkpt>
      <trkpt lat="43.780169" lon="5.396084">
        <ele>364.2</ele>
      </trkpt>
      <trkpt lat="43.780175" lon="5.395886">
        <ele>364.1</ele>
      </trkpt>
      <trkpt lat="43.780154" lon="5.395687">
        <ele>362.6</ele>
      </trkpt>
      <trkpt lat="43.780053" lon="5.394829">
        <ele>358.4</ele>
      </trkpt>
      <trkpt lat="43.779999" lon="5.394362">
        <ele>355.5</ele>
      </trkpt>
      <trkpt lat="43.779948" lon="5.394314">
        <ele>355.3</ele>
      </trkpt>
      <trkpt lat="43.779871" lon="5.394282">
        <ele>355.3</ele>
      </trkpt>
      <trkpt lat="43.779813" lon="5.394325">
        <ele>355.6</ele>
      </trkpt>
      <trkpt lat="43.779712" lon="5.394292">
        <ele>355.7</ele>
      </trkpt>
      <trkpt lat="43.779709" lon="5.394191">
        <ele>355.5</ele>
      </trkpt>
      <trkpt lat="43.779748" lon="5.393955">
        <ele>352.2</ele>
      </trkpt>
      <trkpt lat="43.779651" lon="5.393477">
        <ele>351</ele>
      </trkpt>
      <trkpt lat="43.779678" lon="5.393252">
        <ele>348.6</ele>
      </trkpt>
      <trkpt lat="43.779732" lon="5.392930">
        <ele>348.1</ele>
      </trkpt>
      <trkpt lat="43.779674" lon="5.392206">
        <ele>346.5</ele>
      </trkpt>
      <trkpt lat="43.779624" lon="5.391787">
        <ele>346.4</ele>
      </trkpt>
      <trkpt lat="43.779585" lon="5.391594">
        <ele>345.2</ele>
      </trkpt>
      <trkpt lat="43.779604" lon="5.391353">
        <ele>344.7</ele>
      </trkpt>
      <trkpt lat="43.779604" lon="5.391213">
        <ele>344.4</ele>
      </trkpt>
      <trkpt lat="43.779663" lon="5.391026">
        <ele>343.9</ele>
      </trkpt>
      <trkpt lat="43.779620" lon="5.390763">
        <ele>340.7</ele>
      </trkpt>
      <trkpt lat="43.779535" lon="5.390623">
        <ele>340.4</ele>
      </trkpt>
      <trkpt lat="43.779523" lon="5.390382">
        <ele>339.6</ele>
      </trkpt>
      <trkpt lat="43.779519" lon="5.390071">
        <ele>338.8</ele>
      </trkpt>
      <trkpt lat="43.779574" lon="5.389743">
        <ele>335.8</ele>
      </trkpt>
      <trkpt lat="43.779655" lon="5.389550">
        <ele>335.5</ele>
      </trkpt>
      <trkpt lat="43.779632" lon="5.389325">
        <ele>335.1</ele>
      </trkpt>
      <trkpt lat="43.779349" lon="5.388907">
        <ele>332.3</ele>
      </trkpt>
      <trkpt lat="43.779089" lon="5.388617">
        <ele>328</ele>
      </trkpt>
      <trkpt lat="43.778989" lon="5.388440">
        <ele>327.6</ele>
      </trkpt>
      <trkpt lat="43.779024" lon="5.388080">
        <ele>324.2</ele>
      </trkpt>
      <trkpt lat="43.778907" lon="5.387737">
        <ele>322.6</ele>
      </trkpt>
      <trkpt lat="43.778841" lon="5.387453">
        <ele>320</ele>
      </trkpt>
      <trkpt lat="43.778880" lon="5.387120">
        <ele>319.5</ele>
      </trkpt>
      <trkpt lat="43.778718" lon="5.386659">
        <ele>316.9</ele>
      </trkpt>
      <trkpt lat="43.778675" lon="5.386187">
        <ele>316.5</ele>
      </trkpt>
      <trkpt lat="43.778698" lon="5.385978">
        <ele>316.4</ele>
      </trkpt>
      <trkpt lat="43.778611" lon="5.385683">
        <ele>314.9</ele>
      </trkpt>
      <trkpt lat="43.778597" lon="5.385570">
        <ele>314.7</ele>
      </trkpt>
      <trkpt lat="43.778605" lon="5.385516">
        <ele>314.7</ele>
      </trkpt>
      <trkpt lat="43.778745" lon="5.385586">
        <ele>315.2</ele>
      </trkpt>
      <trkpt lat="43.779237" lon="5.386031">
        <ele>319.8</ele>
      </trkpt>
      <trkpt lat="43.779202" lon="5.385699">
        <ele>318.5</ele>
      </trkpt>
      <trkpt lat="43.779202" lon="5.385538">
        <ele>318.7</ele>
      </trkpt>
      <trkpt lat="43.779550" lon="5.384438">
        <ele>317.3</ele>
      </trkpt>
      <trkpt lat="43.779744" lon="5.384009">
        <ele>316.6</ele>
      </trkpt>
      <trkpt lat="43.779852" lon="5.383623">
        <ele>316.6</ele>
      </trkpt>
      <trkpt lat="43.779891" lon="5.383472">
        <ele>317</ele>
      </trkpt>
      <trkpt lat="43.779876" lon="5.383376">
        <ele>317.1</ele>
      </trkpt>
      <trkpt lat="43.779302" lon="5.382850">
        <ele>314.7</ele>
      </trkpt>
      <trkpt lat="43.779136" lon="5.382700">
        <ele>312.1</ele>
      </trkpt>
      <trkpt lat="43.778996" lon="5.382534">
        <ele>312.1</ele>
      </trkpt>
      <trkpt lat="43.778993" lon="5.382394">
        <ele>310.7</ele>
      </trkpt>
      <trkpt lat="43.779051" lon="5.381906">
        <ele>309.1</ele>
      </trkpt>
      <trkpt lat="43.779051" lon="5.381724">
        <ele>309.3</ele>
      </trkpt>
      <trkpt lat="43.778934" lon="5.381262">
        <ele>306.9</ele>
      </trkpt>
      <trkpt lat="43.778826" lon="5.381053">
        <ele>306.5</ele>
      </trkpt>
      <trkpt lat="43.778764" lon="5.380999">
        <ele>306.2</ele>
      </trkpt>
      <trkpt lat="43.778346" lon="5.380635">
        <ele>304.8</ele>
      </trkpt>
      <trkpt lat="43.777931" lon="5.380361">
        <ele>300.8</ele>
      </trkpt>
      <trkpt lat="43.777435" lon="5.379873">
        <ele>297.1</ele>
      </trkpt>
      <trkpt lat="43.776843" lon="5.379202">
        <ele>294.4</ele>
      </trkpt>
      <trkpt lat="43.775990" lon="5.378103">
        <ele>287.9</ele>
      </trkpt>
      <trkpt lat="43.775878" lon="5.377958">
        <ele>287.6</ele>
      </trkpt>
      <trkpt lat="43.775249" lon="5.377074">
        <ele>281.5</ele>
      </trkpt>
      <trkpt lat="43.775046" lon="5.376788">
        <ele>280.2</ele>
      </trkpt>
      <trkpt lat="43.774774" lon="5.376477">
        <ele>276.9</ele>
      </trkpt>
      <trkpt lat="43.774627" lon="5.376188">
        <ele>276.1</ele>
      </trkpt>
      <trkpt lat="43.774309" lon="5.375506">
        <ele>272.8</ele>
      </trkpt>
      <trkpt lat="43.774069" lon="5.374814">
        <ele>268.3</ele>
      </trkpt>
      <trkpt lat="43.773868" lon="5.374278">
        <ele>267.5</ele>
      </trkpt>
      <trkpt lat="43.773428" lon="5.373090">
        <ele>263.6</ele>
      </trkpt>
      <trkpt lat="43.773428" lon="5.373090">
        <ele>263.6</ele>
      </trkpt>
      <trkpt lat="43.773299" lon="5.372744">
        <ele>260</ele>
      </trkpt>
      <trkpt lat="43.773117" lon="5.372400">
        <ele>259</ele>
      </trkpt>
      <trkpt lat="43.772981" lon="5.372164">
        <ele>258</ele>
      </trkpt>
      <trkpt lat="43.772446" lon="5.371323">
        <ele>252.3</ele>
      </trkpt>
      <trkpt lat="43.772446" lon="5.371323">
        <ele>252.3</ele>
      </trkpt>
      <trkpt lat="43.772207" lon="5.370948">
        <ele>251.7</ele>
      </trkpt>
      <trkpt lat="43.772175" lon="5.370898">
        <ele>251.6</ele>
      </trkpt>
      <trkpt lat="43.771858" lon="5.370383">
        <ele>249.9</ele>
      </trkpt>
      <trkpt lat="43.771714" lon="5.370147">
        <ele>249</ele>
      </trkpt>
      <trkpt lat="43.771466" lon="5.369638">
        <ele>246.3</ele>
      </trkpt>
      <trkpt lat="43.771354" lon="5.369482">
        <ele>246</ele>
      </trkpt>
      <trkpt lat="43.771230" lon="5.369289">
        <ele>245.7</ele>
      </trkpt>
      <trkpt lat="43.770603" lon="5.368736">
        <ele>241.4</ele>
      </trkpt>
      <trkpt lat="43.770486" lon="5.368602">
        <ele>240.9</ele>
      </trkpt>
      <trkpt lat="43.770417" lon="5.368463">
        <ele>240.6</ele>
      </trkpt>
      <trkpt lat="43.770262" lon="5.367905">
        <ele>237.5</ele>
      </trkpt>
      <trkpt lat="43.770118" lon="5.367551">
        <ele>236.6</ele>
      </trkpt>
      <trkpt lat="43.769952" lon="5.367234">
        <ele>235.3</ele>
      </trkpt>
      <trkpt lat="43.769778" lon="5.366977">
        <ele>234.8</ele>
      </trkpt>
      <trkpt lat="43.769677" lon="5.366816">
        <ele>234.7</ele>
      </trkpt>
      <trkpt lat="43.769410" lon="5.366381">
        <ele>232.3</ele>
      </trkpt>
      <trkpt lat="43.769173" lon="5.366274">
        <ele>231.9</ele>
      </trkpt>
      <trkpt lat="43.769034" lon="5.366231">
        <ele>230.7</ele>
      </trkpt>
      <trkpt lat="43.768211" lon="5.365820">
        <ele>228.3</ele>
      </trkpt>
      <trkpt lat="43.768003" lon="5.365716">
        <ele>227.8</ele>
      </trkpt>
      <trkpt lat="43.767616" lon="5.365486">
        <ele>227.5</ele>
      </trkpt>
      <trkpt lat="43.767019" lon="5.365046">
        <ele>227.1</ele>
      </trkpt>
      <trkpt lat="43.766496" lon="5.364552">
        <ele>224.4</ele>
      </trkpt>
      <trkpt lat="43.766283" lon="5.364069">
        <ele>222.5</ele>
      </trkpt>
      <trkpt lat="43.766171" lon="5.363887">
        <ele>222.4</ele>
      </trkpt>
      <trkpt lat="43.766093" lon="5.363785">
        <ele>222.3</ele>
      </trkpt>
      <trkpt lat="43.765821" lon="5.363632">
        <ele>220.9</ele>
      </trkpt>
      <trkpt lat="43.765913" lon="5.363013">
        <ele>220.5</ele>
      </trkpt>
      <trkpt lat="43.766064" lon="5.362267">
        <ele>217.9</ele>
      </trkpt>
      <trkpt lat="43.766457" lon="5.361323">
        <ele>213.9</ele>
      </trkpt>
      <trkpt lat="43.766416" lon="5.361181">
        <ele>213.5</ele>
      </trkpt>
      <trkpt lat="43.766310" lon="5.361095">
        <ele>213.3</ele>
      </trkpt>
    </trkseg>
  </trk>
</gpx>