<?xml version="1.0" ?>
<gpx xmlns="http://www.topografix.com/GPX/1/1" xmlns:xsi="http://www.w3.org/2001/XMLSchema-instance" xsi:schemaLocation="http://www.topografix.com/GPX/1/1 http://www.topografix.com/GPX/1/1/gpx.xsd" version="1.1" creator="EditGPX">
  <trk>
    <name>NewTrack</name>
    <trkseg>
      <trkpt lat="43.810242" lon="5.595649">
        <ele>490.7</ele>
      </trkpt>
      <trkpt lat="43.810328" lon="5.595678">
        <ele>491.5</ele>
      </trkpt>
      <trkpt lat="43.810461" lon="5.595689">
        <ele>492.7</ele>
      </trkpt>
      <trkpt lat="43.810641" lon="5.595700">
        <ele>494</ele>
      </trkpt>
      <trkpt lat="43.810740" lon="5.595716">
        <ele>494.5</ele>
      </trkpt>
      <trkpt lat="43.810883" lon="5.595692">
        <ele>498.5</ele>
      </trkpt>
      <trkpt lat="43.811009" lon="5.595681">
        <ele>499.7</ele>
      </trkpt>
      <trkpt lat="43.811129" lon="5.595667">
        <ele>500.7</ele>
      </trkpt>
      <trkpt lat="43.811232" lon="5.595622">
        <ele>501.5</ele>
      </trkpt>
      <trkpt lat="43.811278" lon="5.595587">
        <ele>501.8</ele>
      </trkpt>
      <trkpt lat="43.811350" lon="5.595598">
        <ele>502</ele>
      </trkpt>
      <trkpt lat="43.811444" lon="5.595616">
        <ele>502</ele>
      </trkpt>
      <trkpt lat="43.811545" lon="5.595598">
        <ele>502.1</ele>
      </trkpt>
      <trkpt lat="43.811663" lon="5.595504">
        <ele>503</ele>
      </trkpt>
      <trkpt lat="43.812112" lon="5.595142">
        <ele>505.4</ele>
      </trkpt>
      <trkpt lat="43.812664" lon="5.594683">
        <ele>508.6</ele>
      </trkpt>
      <trkpt lat="43.812915" lon="5.594479">
        <ele>509</ele>
      </trkpt>
      <trkpt lat="43.813167" lon="5.594377">
        <ele>508.4</ele>
      </trkpt>
      <trkpt lat="43.813295" lon="5.594361">
        <ele>508.1</ele>
      </trkpt>
      <trkpt lat="43.813436" lon="5.594380">
        <ele>506</ele>
      </trkpt>
      <trkpt lat="43.813647" lon="5.594436">
        <ele>505.4</ele>
      </trkpt>
      <trkpt lat="43.813844" lon="5.594535">
        <ele>505</ele>
      </trkpt>
      <trkpt lat="43.814115" lon="5.594653">
        <ele>504.8</ele>
      </trkpt>
      <trkpt lat="43.814326" lon="5.594702">
        <ele>506.2</ele>
      </trkpt>
      <trkpt lat="43.814516" lon="5.594718">
        <ele>506.8</ele>
      </trkpt>
      <trkpt lat="43.814839" lon="5.594594">
        <ele>507.4</ele>
      </trkpt>
      <trkpt lat="43.815199" lon="5.594447">
        <ele>510</ele>
      </trkpt>
      <trkpt lat="43.815358" lon="5.594439">
        <ele>510.5</ele>
      </trkpt>
      <trkpt lat="43.815470" lon="5.594479">
        <ele>511</ele>
      </trkpt>
      <trkpt lat="43.815584" lon="5.594613">
        <ele>511.8</ele>
      </trkpt>
      <trkpt lat="43.815615" lon="5.594721">
        <ele>512.5</ele>
      </trkpt>
      <trkpt lat="43.815652" lon="5.594916">
        <ele>513.9</ele>
      </trkpt>
      <trkpt lat="43.815646" lon="5.595061">
        <ele>516.9</ele>
      </trkpt>
      <trkpt lat="43.815598" lon="5.595386">
        <ele>517.6</ele>
      </trkpt>
      <trkpt lat="43.815486" lon="5.596198">
        <ele>521.8</ele>
      </trkpt>
      <trkpt lat="43.815401" lon="5.596839">
        <ele>523</ele>
      </trkpt>
      <trkpt lat="43.815389" lon="5.597041">
        <ele>522.8</ele>
      </trkpt>
      <trkpt lat="43.815416" lon="5.597218">
        <ele>522.9</ele>
      </trkpt>
      <trkpt lat="43.815503" lon="5.597413">
        <ele>523.8</ele>
      </trkpt>
      <trkpt lat="43.815741" lon="5.597840">
        <ele>525.9</ele>
      </trkpt>
      <trkpt lat="43.815770" lon="5.597966">
        <ele>526.2</ele>
      </trkpt>
      <trkpt lat="43.815770" lon="5.598159">
        <ele>527.5</ele>
      </trkpt>
      <trkpt lat="43.815733" lon="5.598382">
        <ele>529.8</ele>
      </trkpt>
      <trkpt lat="43.815608" lon="5.598720">
        <ele>529.1</ele>
      </trkpt>
      <trkpt lat="43.815511" lon="5.599031">
        <ele>529.7</ele>
      </trkpt>
      <trkpt lat="43.815461" lon="5.599229">
        <ele>532.7</ele>
      </trkpt>
      <trkpt lat="43.815445" lon="5.599444">
        <ele>533</ele>
      </trkpt>
      <trkpt lat="43.815428" lon="5.600493">
        <ele>539.9</ele>
      </trkpt>
      <trkpt lat="43.815433" lon="5.600656">
        <ele>540.4</ele>
      </trkpt>
      <trkpt lat="43.815468" lon="5.600785">
        <ele>541</ele>
      </trkpt>
      <trkpt lat="43.815519" lon="5.600836">
        <ele>544.9</ele>
      </trkpt>
      <trkpt lat="43.815579" lon="5.600847">
        <ele>545.3</ele>
      </trkpt>
      <trkpt lat="43.815621" lon="5.600825">
        <ele>542.8</ele>
      </trkpt>
      <trkpt lat="43.815681" lon="5.600798">
        <ele>543.6</ele>
      </trkpt>
      <trkpt lat="43.815819" lon="5.600412">
        <ele>541.7</ele>
      </trkpt>
      <trkpt lat="43.815905" lon="5.600173">
        <ele>549.8</ele>
      </trkpt>
      <trkpt lat="43.815923" lon="5.600157">
        <ele>549.8</ele>
      </trkpt>
      <trkpt lat="43.816023" lon="5.599929">
        <ele>548.5</ele>
      </trkpt>
      <trkpt lat="43.816422" lon="5.599160">
        <ele>549.9</ele>
      </trkpt>
      <trkpt lat="43.816600" lon="5.598838">
        <ele>549.1</ele>
      </trkpt>
      <trkpt lat="43.816743" lon="5.598671">
        <ele>564.4</ele>
      </trkpt>
      <trkpt lat="43.817138" lon="5.598645">
        <ele>571.2</ele>
      </trkpt>
      <trkpt lat="43.817235" lon="5.598500">
        <ele>573.4</ele>
      </trkpt>
      <trkpt lat="43.817254" lon="5.598392">
        <ele>574.3</ele>
      </trkpt>
      <trkpt lat="43.817088" lon="5.597931">
        <ele>570.8</ele>
      </trkpt>
      <trkpt lat="43.816980" lon="5.597191">
        <ele>572.2</ele>
      </trkpt>
      <trkpt lat="43.816929" lon="5.596697">
        <ele>570</ele>
      </trkpt>
      <trkpt lat="43.816945" lon="5.596440">
        <ele>568.9</ele>
      </trkpt>
      <trkpt lat="43.817165" lon="5.596134">
        <ele>572.8</ele>
      </trkpt>
      <trkpt lat="43.817247" lon="5.595823">
        <ele>569.1</ele>
      </trkpt>
      <trkpt lat="43.817309" lon="5.595544">
        <ele>566.7</ele>
      </trkpt>
      <trkpt lat="43.817483" lon="5.595356">
        <ele>566.4</ele>
      </trkpt>
      <trkpt lat="43.817610" lon="5.595018">
        <ele>581</ele>
      </trkpt>
      <trkpt lat="43.817870" lon="5.594155">
        <ele>564.2</ele>
      </trkpt>
      <trkpt lat="43.818106" lon="5.593902">
        <ele>567.4</ele>
      </trkpt>
      <trkpt lat="43.818508" lon="5.593795">
        <ele>585.9</ele>
      </trkpt>
      <trkpt lat="43.818741" lon="5.593602">
        <ele>585.8</ele>
      </trkpt>
      <trkpt lat="43.818926" lon="5.593328">
        <ele>570.3</ele>
      </trkpt>
      <trkpt lat="43.819348" lon="5.593168">
        <ele>580.3</ele>
      </trkpt>
      <trkpt lat="43.819720" lon="5.592953">
        <ele>578.7</ele>
      </trkpt>
      <trkpt lat="43.819898" lon="5.592948">
        <ele>580</ele>
      </trkpt>
      <trkpt lat="43.820091" lon="5.593007">
        <ele>585.4</ele>
      </trkpt>
      <trkpt lat="43.820699" lon="5.593264">
        <ele>588.5</ele>
      </trkpt>
      <trkpt lat="43.820989" lon="5.593463">
        <ele>599.6</ele>
      </trkpt>
      <trkpt lat="43.821206" lon="5.593624">
        <ele>602.8</ele>
      </trkpt>
      <trkpt lat="43.821326" lon="5.593683">
        <ele>603.1</ele>
      </trkpt>
      <trkpt lat="43.821729" lon="5.593736">
        <ele>599</ele>
      </trkpt>
      <trkpt lat="43.822038" lon="5.593870">
        <ele>601.2</ele>
      </trkpt>
      <trkpt lat="43.822437" lon="5.593790">
        <ele>599.9</ele>
      </trkpt>
      <trkpt lat="43.823041" lon="5.593768">
        <ele>602.6</ele>
      </trkpt>
      <trkpt lat="43.823865" lon="5.593473">
        <ele>613.7</ele>
      </trkpt>
      <trkpt lat="43.823905" lon="5.593269">
        <ele>616.6</ele>
      </trkpt>
      <trkpt lat="43.823854" lon="5.593007">
        <ele>617.8</ele>
      </trkpt>
      <trkpt lat="43.823041" lon="5.592108">
        <ele>616.3</ele>
      </trkpt>
      <trkpt lat="43.822408" lon="5.591409">
        <ele>616.5</ele>
      </trkpt>
      <trkpt lat="43.822403" lon="5.591403">
        <ele>616.6</ele>
      </trkpt>
      <trkpt lat="43.822035" lon="5.590882">
        <ele>617.5</ele>
      </trkpt>
      <trkpt lat="43.821896" lon="5.590662">
        <ele>630.3</ele>
      </trkpt>
      <trkpt lat="43.821749" lon="5.590142">
        <ele>634.2</ele>
      </trkpt>
      <trkpt lat="43.821528" lon="5.589718">
        <ele>624</ele>
      </trkpt>
      <trkpt lat="43.821404" lon="5.589305">
        <ele>628.1</ele>
      </trkpt>
      <trkpt lat="43.821362" lon="5.588914">
        <ele>632.5</ele>
      </trkpt>
      <trkpt lat="43.821354" lon="5.588527">
        <ele>633.5</ele>
      </trkpt>
      <trkpt lat="43.821458" lon="5.587685">
        <ele>633.6</ele>
      </trkpt>
      <trkpt lat="43.821625" lon="5.586982">
        <ele>624.5</ele>
      </trkpt>
      <trkpt lat="43.821931" lon="5.586457">
        <ele>631.7</ele>
      </trkpt>
      <trkpt lat="43.822106" lon="5.586296">
        <ele>632.5</ele>
      </trkpt>
      <trkpt lat="43.822370" lon="5.586285">
        <ele>635.6</ele>
      </trkpt>
      <trkpt lat="43.823136" lon="5.586331">
        <ele>649.7</ele>
      </trkpt>
      <trkpt lat="43.823366" lon="5.586333">
        <ele>658.2</ele>
      </trkpt>
      <trkpt lat="43.824181" lon="5.586009">
        <ele>663.2</ele>
      </trkpt>
      <trkpt lat="43.824607" lon="5.585800">
        <ele>658.2</ele>
      </trkpt>
      <trkpt lat="43.824721" lon="5.585716">
        <ele>660.1</ele>
      </trkpt>
      <trkpt lat="43.825301" lon="5.584866">
        <ele>667.1</ele>
      </trkpt>
      <trkpt lat="43.825712" lon="5.584268">
        <ele>670.9</ele>
      </trkpt>
      <trkpt lat="43.825897" lon="5.583903">
        <ele>678.3</ele>
      </trkpt>
      <trkpt lat="43.826292" lon="5.583131">
        <ele>680</ele>
      </trkpt>
      <trkpt lat="43.826571" lon="5.582691">
        <ele>679.7</ele>
      </trkpt>
      <trkpt lat="43.827233" lon="5.581757">
        <ele>686.7</ele>
      </trkpt>
      <trkpt lat="43.827745" lon="5.581073">
        <ele>689</ele>
      </trkpt>
      <trkpt lat="43.827854" lon="5.580942">
        <ele>689.4</ele>
      </trkpt>
      <trkpt lat="43.828204" lon="5.580293">
        <ele>689.5</ele>
      </trkpt>
      <trkpt lat="43.828630" lon="5.579451">
        <ele>693.8</ele>
      </trkpt>
      <trkpt lat="43.828926" lon="5.578871">
        <ele>697.2</ele>
      </trkpt>
      <trkpt lat="43.829065" lon="5.578622">
        <ele>697.2</ele>
      </trkpt>
      <trkpt lat="43.829140" lon="5.578579">
        <ele>696.9</ele>
      </trkpt>
      <trkpt lat="43.829193" lon="5.578579">
        <ele>695.6</ele>
      </trkpt>
      <trkpt lat="43.829243" lon="5.578614">
        <ele>695.7</ele>
      </trkpt>
      <trkpt lat="43.829282" lon="5.578681">
        <ele>695.7</ele>
      </trkpt>
      <trkpt lat="43.829280" lon="5.578764">
        <ele>695.5</ele>
      </trkpt>
      <trkpt lat="43.829257" lon="5.578946">
        <ele>694.9</ele>
      </trkpt>
      <trkpt lat="43.829179" lon="5.579402">
        <ele>692.6</ele>
      </trkpt>
      <trkpt lat="43.829090" lon="5.579901">
        <ele>694.3</ele>
      </trkpt>
      <trkpt lat="43.829100" lon="5.580130">
        <ele>694</ele>
      </trkpt>
      <trkpt lat="43.828978" lon="5.580298">
        <ele>693.3</ele>
      </trkpt>
      <trkpt lat="43.828620" lon="5.581430">
        <ele>695.4</ele>
      </trkpt>
      <trkpt lat="43.828498" lon="5.581790">
        <ele>697.2</ele>
      </trkpt>
      <trkpt lat="43.828310" lon="5.582090">
        <ele>698.4</ele>
      </trkpt>
      <trkpt lat="43.827563" lon="5.583293">
        <ele>705.9</ele>
      </trkpt>
      <trkpt lat="43.827440" lon="5.583490">
        <ele>705.3</ele>
      </trkpt>
      <trkpt lat="43.826890" lon="5.584640">
        <ele>713.9</ele>
      </trkpt>
      <trkpt lat="43.826720" lon="5.585290">
        <ele>720.5</ele>
      </trkpt>
      <trkpt lat="43.826690" lon="5.585980">
        <ele>725.1</ele>
      </trkpt>
      <trkpt lat="43.826600" lon="5.586410">
        <ele>724.4</ele>
      </trkpt>
      <trkpt lat="43.826390" lon="5.586680">
        <ele>733.5</ele>
      </trkpt>
      <trkpt lat="43.825600" lon="5.587070">
        <ele>728.7</ele>
      </trkpt>
      <trkpt lat="43.824502" lon="5.587817">
        <ele>737.8</ele>
      </trkpt>
      <trkpt lat="43.824380" lon="5.587900">
        <ele>738.1</ele>
      </trkpt>
      <trkpt lat="43.823880" lon="5.588220">
        <ele>733.4</ele>
      </trkpt>
      <trkpt lat="43.823420" lon="5.588460">
        <ele>740</ele>
      </trkpt>
      <trkpt lat="43.822930" lon="5.588470">
        <ele>726.5</ele>
      </trkpt>
      <trkpt lat="43.822840" lon="5.588540">
        <ele>725</ele>
      </trkpt>
      <trkpt lat="43.822830" lon="5.588690">
        <ele>724.8</ele>
      </trkpt>
      <trkpt lat="43.822890" lon="5.588820">
        <ele>725.5</ele>
      </trkpt>
      <trkpt lat="43.823960" lon="5.589630">
        <ele>736.1</ele>
      </trkpt>
      <trkpt lat="43.824470" lon="5.590070">
        <ele>730</ele>
      </trkpt>
      <trkpt lat="43.824920" lon="5.590570">
        <ele>726.4</ele>
      </trkpt>
      <trkpt lat="43.825770" lon="5.591340">
        <ele>716.9</ele>
      </trkpt>
      <trkpt lat="43.826050" lon="5.591500">
        <ele>720.6</ele>
      </trkpt>
      <trkpt lat="43.827150" lon="5.591770">
        <ele>707.4</ele>
      </trkpt>
      <trkpt lat="43.827810" lon="5.591850">
        <ele>703.1</ele>
      </trkpt>
      <trkpt lat="43.828690" lon="5.591860">
        <ele>696.8</ele>
      </trkpt>
      <trkpt lat="43.829140" lon="5.592170">
        <ele>694</ele>
      </trkpt>
      <trkpt lat="43.829500" lon="5.592280">
        <ele>688</ele>
      </trkpt>
      <trkpt lat="43.829840" lon="5.592190">
        <ele>686.2</ele>
      </trkpt>
      <trkpt lat="43.830070" lon="5.592220">
        <ele>679.7</ele>
      </trkpt>
      <trkpt lat="43.830370" lon="5.592420">
        <ele>678.7</ele>
      </trkpt>
      <trkpt lat="43.830530" lon="5.592600">
        <ele>681.1</ele>
      </trkpt>
      <trkpt lat="43.830620" lon="5.592800">
        <ele>680.9</ele>
      </trkpt>
      <trkpt lat="43.830640" lon="5.593020">
        <ele>680.9</ele>
      </trkpt>
      <trkpt lat="43.830590" lon="5.593330">
        <ele>680.8</ele>
      </trkpt>
      <trkpt lat="43.830553" lon="5.593575">
        <ele>680.8</ele>
      </trkpt>
      <trkpt lat="43.830422" lon="5.593902">
        <ele>681.2</ele>
      </trkpt>
      <trkpt lat="43.830023" lon="5.594804">
        <ele>684.4</ele>
      </trkpt>
      <trkpt lat="43.829679" lon="5.595324">
        <ele>688.9</ele>
      </trkpt>
      <trkpt lat="43.829508" lon="5.595673">
        <ele>689.9</ele>
      </trkpt>
      <trkpt lat="43.829458" lon="5.595801">
        <ele>690.3</ele>
      </trkpt>
      <trkpt lat="43.829307" lon="5.596434">
        <ele>693.7</ele>
      </trkpt>
      <trkpt lat="43.829176" lon="5.596842">
        <ele>694.8</ele>
      </trkpt>
      <trkpt lat="43.829017" lon="5.597116">
        <ele>700.2</ele>
      </trkpt>
      <trkpt lat="43.828680" lon="5.597679">
        <ele>702.2</ele>
      </trkpt>
      <trkpt lat="43.828355" lon="5.598237">
        <ele>704.4</ele>
      </trkpt>
      <trkpt lat="43.828119" lon="5.598446">
        <ele>710.6</ele>
      </trkpt>
      <trkpt lat="43.827949" lon="5.598548">
        <ele>713.1</ele>
      </trkpt>
      <trkpt lat="43.827868" lon="5.598629">
        <ele>714.1</ele>
      </trkpt>
      <trkpt lat="43.827848" lon="5.598779">
        <ele>714.2</ele>
      </trkpt>
      <trkpt lat="43.827895" lon="5.599079">
        <ele>713.4</ele>
      </trkpt>
      <trkpt lat="43.827957" lon="5.599326">
        <ele>712.5</ele>
      </trkpt>
      <trkpt lat="43.828015" lon="5.599814">
        <ele>712.1</ele>
      </trkpt>
      <trkpt lat="43.828100" lon="5.600098">
        <ele>712.5</ele>
      </trkpt>
      <trkpt lat="43.828224" lon="5.600463">
        <ele>714.3</ele>
      </trkpt>
      <trkpt lat="43.828262" lon="5.600731">
        <ele>711.6</ele>
      </trkpt>
      <trkpt lat="43.828409" lon="5.601600">
        <ele>703</ele>
      </trkpt>
      <trkpt lat="43.828464" lon="5.602566">
        <ele>700</ele>
      </trkpt>
      <trkpt lat="43.828475" lon="5.603204">
        <ele>698.6</ele>
      </trkpt>
      <trkpt lat="43.828429" lon="5.603537">
        <ele>695.9</ele>
      </trkpt>
      <trkpt lat="43.828378" lon="5.604132">
        <ele>696.7</ele>
      </trkpt>
      <trkpt lat="43.828344" lon="5.604669">
        <ele>686.8</ele>
      </trkpt>
      <trkpt lat="43.828313" lon="5.605012">
        <ele>692.7</ele>
      </trkpt>
      <trkpt lat="43.828286" lon="5.605270">
        <ele>696.1</ele>
      </trkpt>
      <trkpt lat="43.828286" lon="5.605629">
        <ele>693.8</ele>
      </trkpt>
      <trkpt lat="43.828289" lon="5.606198">
        <ele>690.3</ele>
      </trkpt>
      <trkpt lat="43.828328" lon="5.606402">
        <ele>690</ele>
      </trkpt>
      <trkpt lat="43.828518" lon="5.607067">
        <ele>683.1</ele>
      </trkpt>
      <trkpt lat="43.828680" lon="5.608107">
        <ele>688.3</ele>
      </trkpt>
      <trkpt lat="43.828715" lon="5.608601">
        <ele>691.7</ele>
      </trkpt>
      <trkpt lat="43.828742" lon="5.609078">
        <ele>692.1</ele>
      </trkpt>
      <trkpt lat="43.828762" lon="5.609524">
        <ele>693.9</ele>
      </trkpt>
      <trkpt lat="43.828792" lon="5.609878">
        <ele>693.5</ele>
      </trkpt>
      <trkpt lat="43.828858" lon="5.610602">
        <ele>693.9</ele>
      </trkpt>
      <trkpt lat="43.828827" lon="5.611213">
        <ele>694.3</ele>
      </trkpt>
      <trkpt lat="43.828673" lon="5.611616">
        <ele>696.3</ele>
      </trkpt>
      <trkpt lat="43.828405" lon="5.612050">
        <ele>694</ele>
      </trkpt>
      <trkpt lat="43.828150" lon="5.612469">
        <ele>697.6</ele>
      </trkpt>
      <trkpt lat="43.827991" lon="5.613080">
        <ele>696.9</ele>
      </trkpt>
      <trkpt lat="43.827844" lon="5.613837">
        <ele>700.7</ele>
      </trkpt>
      <trkpt lat="43.827670" lon="5.614529">
        <ele>704</ele>
      </trkpt>
      <trkpt lat="43.827581" lon="5.614824">
        <ele>705.6</ele>
      </trkpt>
      <trkpt lat="43.827512" lon="5.615001">
        <ele>709.4</ele>
      </trkpt>
      <trkpt lat="43.827248" lon="5.615349">
        <ele>710</ele>
      </trkpt>
      <trkpt lat="43.827055" lon="5.615516">
        <ele>710.5</ele>
      </trkpt>
      <trkpt lat="43.826567" lon="5.615795">
        <ele>710.4</ele>
      </trkpt>
      <trkpt lat="43.826242" lon="5.615999">
        <ele>703.5</ele>
      </trkpt>
      <trkpt lat="43.826130" lon="5.616106">
        <ele>702.3</ele>
      </trkpt>
      <trkpt lat="43.825991" lon="5.616277">
        <ele>701.9</ele>
      </trkpt>
      <trkpt lat="43.825917" lon="5.616503">
        <ele>702.2</ele>
      </trkpt>
      <trkpt lat="43.825840" lon="5.616846">
        <ele>699.8</ele>
      </trkpt>
      <trkpt lat="43.825762" lon="5.617109">
        <ele>684</ele>
      </trkpt>
      <trkpt lat="43.825758" lon="5.617345">
        <ele>686.4</ele>
      </trkpt>
      <trkpt lat="43.825832" lon="5.617678">
        <ele>682.4</ele>
      </trkpt>
      <trkpt lat="43.825921" lon="5.617801">
        <ele>687.6</ele>
      </trkpt>
      <trkpt lat="43.826064" lon="5.617742">
        <ele>687.4</ele>
      </trkpt>
      <trkpt lat="43.826625" lon="5.617222">
        <ele>695.3</ele>
      </trkpt>
      <trkpt lat="43.826884" lon="5.616991">
        <ele>690.8</ele>
      </trkpt>
      <trkpt lat="43.826997" lon="5.616927">
        <ele>690.2</ele>
      </trkpt>
      <trkpt lat="43.827303" lon="5.616744">
        <ele>687.9</ele>
      </trkpt>
      <trkpt lat="43.827771" lon="5.616524">
        <ele>687.6</ele>
      </trkpt>
      <trkpt lat="43.828436" lon="5.616272">
        <ele>678.1</ele>
      </trkpt>
      <trkpt lat="43.828986" lon="5.615972">
        <ele>675</ele>
      </trkpt>
      <trkpt lat="43.829222" lon="5.615918">
        <ele>669.8</ele>
      </trkpt>
      <trkpt lat="43.829435" lon="5.616111">
        <ele>666.8</ele>
      </trkpt>
      <trkpt lat="43.829594" lon="5.616428">
        <ele>666.6</ele>
      </trkpt>
      <trkpt lat="43.829772" lon="5.617061">
        <ele>669.9</ele>
      </trkpt>
      <trkpt lat="43.830058" lon="5.618203">
        <ele>671.7</ele>
      </trkpt>
      <trkpt lat="43.830248" lon="5.618858">
        <ele>671.7</ele>
      </trkpt>
      <trkpt lat="43.830491" lon="5.619748">
        <ele>672.6</ele>
      </trkpt>
      <trkpt lat="43.830507" lon="5.620081">
        <ele>672.8</ele>
      </trkpt>
      <trkpt lat="43.830507" lon="5.620419">
        <ele>672.9</ele>
      </trkpt>
      <trkpt lat="43.830441" lon="5.620918">
        <ele>672.1</ele>
      </trkpt>
      <trkpt lat="43.830433" lon="5.621240">
        <ele>672.1</ele>
      </trkpt>
      <trkpt lat="43.830546" lon="5.621835">
        <ele>669.3</ele>
      </trkpt>
      <trkpt lat="43.830596" lon="5.622516">
        <ele>667.9</ele>
      </trkpt>
      <trkpt lat="43.830704" lon="5.623101">
        <ele>667.7</ele>
      </trkpt>
      <trkpt lat="43.830778" lon="5.623664">
        <ele>666.8</ele>
      </trkpt>
      <trkpt lat="43.830782" lon="5.624329">
        <ele>664</ele>
      </trkpt>
      <trkpt lat="43.830894" lon="5.625129">
        <ele>659.8</ele>
      </trkpt>
      <trkpt lat="43.831010" lon="5.626148">
        <ele>656.3</ele>
      </trkpt>
      <trkpt lat="43.831076" lon="5.626674">
        <ele>655.8</ele>
      </trkpt>
      <trkpt lat="43.831111" lon="5.627028">
        <ele>655.1</ele>
      </trkpt>
      <trkpt lat="43.831122" lon="5.627216">
        <ele>655.3</ele>
      </trkpt>
      <trkpt lat="43.831099" lon="5.627382">
        <ele>656.1</ele>
      </trkpt>
      <trkpt lat="43.831056" lon="5.627532">
        <ele>657.2</ele>
      </trkpt>
      <trkpt lat="43.830963" lon="5.627720">
        <ele>657.4</ele>
      </trkpt>
      <trkpt lat="43.830851" lon="5.627849">
        <ele>657.7</ele>
      </trkpt>
      <trkpt lat="43.830619" lon="5.628213">
        <ele>665.9</ele>
      </trkpt>
      <trkpt lat="43.830402" lon="5.628417">
        <ele>669.1</ele>
      </trkpt>
      <trkpt lat="43.830232" lon="5.628503">
        <ele>670.1</ele>
      </trkpt>
      <trkpt lat="43.830081" lon="5.628701">
        <ele>670.9</ele>
      </trkpt>
      <trkpt lat="43.829907" lon="5.629018">
        <ele>677</ele>
      </trkpt>
      <trkpt lat="43.829826" lon="5.629125">
        <ele>677.2</ele>
      </trkpt>
      <trkpt lat="43.829640" lon="5.629318">
        <ele>680.9</ele>
      </trkpt>
      <trkpt lat="43.829551" lon="5.629522">
        <ele>681.7</ele>
      </trkpt>
      <trkpt lat="43.829350" lon="5.629887">
        <ele>685</ele>
      </trkpt>
      <trkpt lat="43.829234" lon="5.630262">
        <ele>687.7</ele>
      </trkpt>
      <trkpt lat="43.829121" lon="5.630493">
        <ele>695.3</ele>
      </trkpt>
      <trkpt lat="43.829021" lon="5.630686">
        <ele>696</ele>
      </trkpt>
      <trkpt lat="43.828878" lon="5.630858">
        <ele>699.1</ele>
      </trkpt>
      <trkpt lat="43.828808" lon="5.630971">
        <ele>699.7</ele>
      </trkpt>
      <trkpt lat="43.828653" lon="5.631201">
        <ele>700.9</ele>
      </trkpt>
      <trkpt lat="43.828564" lon="5.631341">
        <ele>701.7</ele>
      </trkpt>
      <trkpt lat="43.828487" lon="5.631394">
        <ele>702.3</ele>
      </trkpt>
      <trkpt lat="43.828386" lon="5.631496">
        <ele>703.7</ele>
      </trkpt>
      <trkpt lat="43.828344" lon="5.631571">
        <ele>704.9</ele>
      </trkpt>
      <trkpt lat="43.828255" lon="5.631899">
        <ele>707</ele>
      </trkpt>
      <trkpt lat="43.828278" lon="5.632135">
        <ele>707.3</ele>
      </trkpt>
      <trkpt lat="43.828305" lon="5.632280">
        <ele>707.9</ele>
      </trkpt>
      <trkpt lat="43.828305" lon="5.632398">
        <ele>708.7</ele>
      </trkpt>
      <trkpt lat="43.828305" lon="5.632585">
        <ele>709</ele>
      </trkpt>
      <trkpt lat="43.828266" lon="5.632762">
        <ele>708</ele>
      </trkpt>
      <trkpt lat="43.828297" lon="5.633116">
        <ele>709.2</ele>
      </trkpt>
      <trkpt lat="43.828278" lon="5.633535">
        <ele>710.8</ele>
      </trkpt>
      <trkpt lat="43.828224" lon="5.633889">
        <ele>711</ele>
      </trkpt>
      <trkpt lat="43.828111" lon="5.634205">
        <ele>712.9</ele>
      </trkpt>
      <trkpt lat="43.827999" lon="5.634474">
        <ele>712.1</ele>
      </trkpt>
      <trkpt lat="43.827601" lon="5.635734">
        <ele>712.3</ele>
      </trkpt>
      <trkpt lat="43.827523" lon="5.636496">
        <ele>706.4</ele>
      </trkpt>
      <trkpt lat="43.827508" lon="5.636737">
        <ele>704.8</ele>
      </trkpt>
      <trkpt lat="43.827423" lon="5.637338">
        <ele>697.4</ele>
      </trkpt>
      <trkpt lat="43.827423" lon="5.637531">
        <ele>699.7</ele>
      </trkpt>
      <trkpt lat="43.827442" lon="5.637832">
        <ele>694.3</ele>
      </trkpt>
      <trkpt lat="43.827512" lon="5.638706">
        <ele>694.8</ele>
      </trkpt>
      <trkpt lat="43.827608" lon="5.639409">
        <ele>694.4</ele>
      </trkpt>
      <trkpt lat="43.827624" lon="5.639774">
        <ele>694.2</ele>
      </trkpt>
      <trkpt lat="43.827581" lon="5.639988">
        <ele>695.7</ele>
      </trkpt>
      <trkpt lat="43.827504" lon="5.640203">
        <ele>694</ele>
      </trkpt>
      <trkpt lat="43.827152" lon="5.640916">
        <ele>694.9</ele>
      </trkpt>
      <trkpt lat="43.827024" lon="5.641168">
        <ele>694.3</ele>
      </trkpt>
      <trkpt lat="43.826885" lon="5.641485">
        <ele>693.5</ele>
      </trkpt>
      <trkpt lat="43.826838" lon="5.641657">
        <ele>693.1</ele>
      </trkpt>
      <trkpt lat="43.826815" lon="5.641887">
        <ele>688.9</ele>
      </trkpt>
      <trkpt lat="43.826834" lon="5.642059">
        <ele>687.6</ele>
      </trkpt>
      <trkpt lat="43.826908" lon="5.642338">
        <ele>685.6</ele>
      </trkpt>
      <trkpt lat="43.826958" lon="5.642413">
        <ele>685.4</ele>
      </trkpt>
      <trkpt lat="43.827059" lon="5.642445">
        <ele>685.5</ele>
      </trkpt>
      <trkpt lat="43.827237" lon="5.642418">
        <ele>685.3</ele>
      </trkpt>
      <trkpt lat="43.827508" lon="5.642166">
        <ele>680</ele>
      </trkpt>
      <trkpt lat="43.827848" lon="5.641726">
        <ele>679.8</ele>
      </trkpt>
      <trkpt lat="43.828011" lon="5.641388">
        <ele>683.6</ele>
      </trkpt>
      <trkpt lat="43.828111" lon="5.641066">
        <ele>684.1</ele>
      </trkpt>
      <trkpt lat="43.828227" lon="5.640863">
        <ele>682.6</ele>
      </trkpt>
      <trkpt lat="43.828320" lon="5.640734">
        <ele>684.2</ele>
      </trkpt>
      <trkpt lat="43.828506" lon="5.640675">
        <ele>679.3</ele>
      </trkpt>
      <trkpt lat="43.828684" lon="5.640782">
        <ele>678</ele>
      </trkpt>
      <trkpt lat="43.828862" lon="5.640863">
        <ele>673.1</ele>
      </trkpt>
      <trkpt lat="43.829218" lon="5.640857">
        <ele>671.1</ele>
      </trkpt>
      <trkpt lat="43.829516" lon="5.640927">
        <ele>668.8</ele>
      </trkpt>
      <trkpt lat="43.829748" lon="5.640986">
        <ele>668</ele>
      </trkpt>
      <trkpt lat="43.829919" lon="5.641227">
        <ele>667.7</ele>
      </trkpt>
      <trkpt lat="43.830019" lon="5.641356">
        <ele>663.9</ele>
      </trkpt>
      <trkpt lat="43.830077" lon="5.641587">
        <ele>665.2</ele>
      </trkpt>
      <trkpt lat="43.830213" lon="5.641742">
        <ele>664.1</ele>
      </trkpt>
      <trkpt lat="43.830441" lon="5.641887">
        <ele>662.4</ele>
      </trkpt>
      <trkpt lat="43.830805" lon="5.642316">
        <ele>661.1</ele>
      </trkpt>
      <trkpt lat="43.831184" lon="5.643024">
        <ele>652.3</ele>
      </trkpt>
      <trkpt lat="43.831424" lon="5.643845">
        <ele>653.4</ele>
      </trkpt>
      <trkpt lat="43.831525" lon="5.644333">
        <ele>655.8</ele>
      </trkpt>
      <trkpt lat="43.831552" lon="5.644526">
        <ele>655.7</ele>
      </trkpt>
      <trkpt lat="43.831482" lon="5.645401">
        <ele>656.6</ele>
      </trkpt>
      <trkpt lat="43.831536" lon="5.645637">
        <ele>657.3</ele>
      </trkpt>
      <trkpt lat="43.831900" lon="5.645986">
        <ele>654.3</ele>
      </trkpt>
      <trkpt lat="43.831950" lon="5.646125">
        <ele>653.3</ele>
      </trkpt>
      <trkpt lat="43.832043" lon="5.646560">
        <ele>652.4</ele>
      </trkpt>
      <trkpt lat="43.832097" lon="5.646881">
        <ele>649.8</ele>
      </trkpt>
      <trkpt lat="43.832078" lon="5.647064">
        <ele>649.4</ele>
      </trkpt>
      <trkpt lat="43.832004" lon="5.647230">
        <ele>649.5</ele>
      </trkpt>
      <trkpt lat="43.831900" lon="5.647450">
        <ele>650.5</ele>
      </trkpt>
      <trkpt lat="43.831896" lon="5.647649">
        <ele>645.7</ele>
      </trkpt>
      <trkpt lat="43.831919" lon="5.647949">
        <ele>642.9</ele>
      </trkpt>
      <trkpt lat="43.831823" lon="5.648255">
        <ele>642.7</ele>
      </trkpt>
      <trkpt lat="43.831753" lon="5.648512">
        <ele>637.6</ele>
      </trkpt>
      <trkpt lat="43.831722" lon="5.648802">
        <ele>634.2</ele>
      </trkpt>
      <trkpt lat="43.831672" lon="5.649161">
        <ele>633.9</ele>
      </trkpt>
      <trkpt lat="43.831629" lon="5.649376">
        <ele>631</ele>
      </trkpt>
      <trkpt lat="43.831528" lon="5.649853">
        <ele>628.3</ele>
      </trkpt>
      <trkpt lat="43.831463" lon="5.650148">
        <ele>626.3</ele>
      </trkpt>
      <trkpt lat="43.831400" lon="5.650400">
        <ele>625.8</ele>
      </trkpt>
      <trkpt lat="43.831285" lon="5.650572">
        <ele>625.7</ele>
      </trkpt>
      <trkpt lat="43.831219" lon="5.650572">
        <ele>625.9</ele>
      </trkpt>
      <trkpt lat="43.831149" lon="5.650406">
        <ele>626.2</ele>
      </trkpt>
      <trkpt lat="43.831060" lon="5.650277">
        <ele>626.4</ele>
      </trkpt>
      <trkpt lat="43.830851" lon="5.650234">
        <ele>626.6</ele>
      </trkpt>
      <trkpt lat="43.830696" lon="5.650138">
        <ele>627</ele>
      </trkpt>
      <trkpt lat="43.830546" lon="5.649928">
        <ele>625.2</ele>
      </trkpt>
      <trkpt lat="43.830445" lon="5.649692">
        <ele>624.5</ele>
      </trkpt>
      <trkpt lat="43.830418" lon="5.649558">
        <ele>624.2</ele>
      </trkpt>
      <trkpt lat="43.830360" lon="5.649435">
        <ele>623.7</ele>
      </trkpt>
      <trkpt lat="43.830344" lon="5.649236">
        <ele>623.2</ele>
      </trkpt>
      <trkpt lat="43.830313" lon="5.649065">
        <ele>623.6</ele>
      </trkpt>
      <trkpt lat="43.830248" lon="5.648856">
        <ele>623.7</ele>
      </trkpt>
      <trkpt lat="43.830120" lon="5.648603">
        <ele>622.7</ele>
      </trkpt>
      <trkpt lat="43.829768" lon="5.648217">
        <ele>617.9</ele>
      </trkpt>
      <trkpt lat="43.829748" lon="5.648088">
        <ele>617.9</ele>
      </trkpt>
      <trkpt lat="43.829748" lon="5.647954">
        <ele>617.8</ele>
      </trkpt>
      <trkpt lat="43.829640" lon="5.647911">
        <ele>617.8</ele>
      </trkpt>
      <trkpt lat="43.829512" lon="5.647649">
        <ele>616.8</ele>
      </trkpt>
      <trkpt lat="43.829416" lon="5.647370">
        <ele>616.1</ele>
      </trkpt>
      <trkpt lat="43.829050" lon="5.646640">
        <ele>610.6</ele>
      </trkpt>
      <trkpt lat="43.828901" lon="5.646452">
        <ele>610.2</ele>
      </trkpt>
      <trkpt lat="43.828765" lon="5.646340">
        <ele>609.8</ele>
      </trkpt>
      <trkpt lat="43.828727" lon="5.646222">
        <ele>609.6</ele>
      </trkpt>
      <trkpt lat="43.828688" lon="5.646184">
        <ele>609.4</ele>
      </trkpt>
      <trkpt lat="43.828584" lon="5.646200">
        <ele>609</ele>
      </trkpt>
      <trkpt lat="43.828467" lon="5.646232">
        <ele>608.7</ele>
      </trkpt>
      <trkpt lat="43.828371" lon="5.646184">
        <ele>608.3</ele>
      </trkpt>
      <trkpt lat="43.828243" lon="5.646002">
        <ele>606.8</ele>
      </trkpt>
      <trkpt lat="43.828050" lon="5.645792">
        <ele>608.4</ele>
      </trkpt>
      <trkpt lat="43.827852" lon="5.645712">
        <ele>608.8</ele>
      </trkpt>
      <trkpt lat="43.827701" lon="5.645792">
        <ele>607</ele>
      </trkpt>
      <trkpt lat="43.827461" lon="5.645750">
        <ele>604.6</ele>
      </trkpt>
      <trkpt lat="43.827322" lon="5.645814">
        <ele>605.7</ele>
      </trkpt>
      <trkpt lat="43.827206" lon="5.645814">
        <ele>606.5</ele>
      </trkpt>
      <trkpt lat="43.827082" lon="5.645851">
        <ele>605.5</ele>
      </trkpt>
      <trkpt lat="43.826919" lon="5.645921">
        <ele>604.5</ele>
      </trkpt>
      <trkpt lat="43.826505" lon="5.646039">
        <ele>599.2</ele>
      </trkpt>
      <trkpt lat="43.826277" lon="5.646152">
        <ele>599</ele>
      </trkpt>
      <trkpt lat="43.826215" lon="5.646071">
        <ele>598</ele>
      </trkpt>
      <trkpt lat="43.826080" lon="5.646055">
        <ele>596.8</ele>
      </trkpt>
      <trkpt lat="43.825882" lon="5.645835">
        <ele>590.8</ele>
      </trkpt>
      <trkpt lat="43.825669" lon="5.645766">
        <ele>593</ele>
      </trkpt>
      <trkpt lat="43.825557" lon="5.645626">
        <ele>595</ele>
      </trkpt>
      <trkpt lat="43.825402" lon="5.645481">
        <ele>596.3</ele>
      </trkpt>
      <trkpt lat="43.825220" lon="5.645422">
        <ele>596.3</ele>
      </trkpt>
      <trkpt lat="43.825042" lon="5.645460">
        <ele>595.8</ele>
      </trkpt>
      <trkpt lat="43.824922" lon="5.645492">
        <ele>591.8</ele>
      </trkpt>
      <trkpt lat="43.824675" lon="5.645379">
        <ele>591</ele>
      </trkpt>
      <trkpt lat="43.824443" lon="5.645272">
        <ele>589.3</ele>
      </trkpt>
      <trkpt lat="43.824264" lon="5.645251">
        <ele>587.8</ele>
      </trkpt>
      <trkpt lat="43.824183" lon="5.645149">
        <ele>585.9</ele>
      </trkpt>
      <trkpt lat="43.823808" lon="5.644875">
        <ele>583.6</ele>
      </trkpt>
      <trkpt lat="43.823540" lon="5.644730">
        <ele>581.8</ele>
      </trkpt>
      <trkpt lat="43.823328" lon="5.644543">
        <ele>573.1</ele>
      </trkpt>
      <trkpt lat="43.823173" lon="5.644419">
        <ele>574.2</ele>
      </trkpt>
      <trkpt lat="43.822952" lon="5.644446">
        <ele>571.4</ele>
      </trkpt>
      <trkpt lat="43.822759" lon="5.644264">
        <ele>570.3</ele>
      </trkpt>
      <trkpt lat="43.822612" lon="5.643936">
        <ele>575.6</ele>
      </trkpt>
      <trkpt lat="43.822616" lon="5.643523">
        <ele>576.7</ele>
      </trkpt>
      <trkpt lat="43.822709" lon="5.643046">
        <ele>583</ele>
      </trkpt>
      <trkpt lat="43.822716" lon="5.642509">
        <ele>582.1</ele>
      </trkpt>
      <trkpt lat="43.822585" lon="5.641646">
        <ele>580.6</ele>
      </trkpt>
      <trkpt lat="43.822507" lon="5.641142">
        <ele>586.5</ele>
      </trkpt>
      <trkpt lat="43.822519" lon="5.640509">
        <ele>587.6</ele>
      </trkpt>
      <trkpt lat="43.822592" lon="5.640020">
        <ele>582.6</ele>
      </trkpt>
      <trkpt lat="43.822724" lon="5.639532">
        <ele>589</ele>
      </trkpt>
      <trkpt lat="43.822794" lon="5.638990">
        <ele>586.2</ele>
      </trkpt>
      <trkpt lat="43.822871" lon="5.638588">
        <ele>586.6</ele>
      </trkpt>
      <trkpt lat="43.822956" lon="5.638384">
        <ele>587.4</ele>
      </trkpt>
      <trkpt lat="43.823161" lon="5.638068">
        <ele>583.7</ele>
      </trkpt>
      <trkpt lat="43.823339" lon="5.637660">
        <ele>589.5</ele>
      </trkpt>
      <trkpt lat="43.823576" lon="5.637510">
        <ele>592.8</ele>
      </trkpt>
      <trkpt lat="43.823734" lon="5.637349">
        <ele>586</ele>
      </trkpt>
      <trkpt lat="43.823963" lon="5.636968">
        <ele>585.3</ele>
      </trkpt>
      <trkpt lat="43.824071" lon="5.636652">
        <ele>581.4</ele>
      </trkpt>
      <trkpt lat="43.824311" lon="5.636292">
        <ele>590.8</ele>
      </trkpt>
      <trkpt lat="43.824431" lon="5.636035">
        <ele>590.1</ele>
      </trkpt>
      <trkpt lat="43.824454" lon="5.635799">
        <ele>588.6</ele>
      </trkpt>
      <trkpt lat="43.824415" lon="5.635659">
        <ele>588.6</ele>
      </trkpt>
      <trkpt lat="43.824319" lon="5.635546">
        <ele>588.1</ele>
      </trkpt>
      <trkpt lat="43.824164" lon="5.635445">
        <ele>573.4</ele>
      </trkpt>
      <trkpt lat="43.824055" lon="5.635343">
        <ele>573.5</ele>
      </trkpt>
      <trkpt lat="43.824009" lon="5.635171">
        <ele>574.7</ele>
      </trkpt>
      <trkpt lat="43.824028" lon="5.634844">
        <ele>580.1</ele>
      </trkpt>
      <trkpt lat="43.823990" lon="5.634699">
        <ele>580.4</ele>
      </trkpt>
      <trkpt lat="43.823812" lon="5.634554">
        <ele>580</ele>
      </trkpt>
      <trkpt lat="43.823564" lon="5.634393">
        <ele>578.7</ele>
      </trkpt>
      <trkpt lat="43.823444" lon="5.634297">
        <ele>578.1</ele>
      </trkpt>
      <trkpt lat="43.823247" lon="5.634018">
        <ele>575.5</ele>
      </trkpt>
      <trkpt lat="43.823100" lon="5.633803">
        <ele>574.6</ele>
      </trkpt>
      <trkpt lat="43.823030" lon="5.633588">
        <ele>574.7</ele>
      </trkpt>
      <trkpt lat="43.823022" lon="5.633326">
        <ele>576</ele>
      </trkpt>
      <trkpt lat="43.823034" lon="5.632843">
        <ele>575.6</ele>
      </trkpt>
      <trkpt lat="43.823092" lon="5.632392">
        <ele>581.8</ele>
      </trkpt>
      <trkpt lat="43.823103" lon="5.632038">
        <ele>582.5</ele>
      </trkpt>
      <trkpt lat="43.823034" lon="5.631845">
        <ele>583</ele>
      </trkpt>
      <trkpt lat="43.822933" lon="5.631641">
        <ele>589.7</ele>
      </trkpt>
      <trkpt lat="43.822763" lon="5.631545">
        <ele>586.6</ele>
      </trkpt>
      <trkpt lat="43.822577" lon="5.631475">
        <ele>583.8</ele>
      </trkpt>
      <trkpt lat="43.822353" lon="5.631174">
        <ele>572.9</ele>
      </trkpt>
      <trkpt lat="43.822264" lon="5.630976">
        <ele>574.2</ele>
      </trkpt>
      <trkpt lat="43.822310" lon="5.630595">
        <ele>577.2</ele>
      </trkpt>
      <trkpt lat="43.822380" lon="5.630273">
        <ele>577.5</ele>
      </trkpt>
      <trkpt lat="43.822457" lon="5.629978">
        <ele>582.9</ele>
      </trkpt>
      <trkpt lat="43.822465" lon="5.629501">
        <ele>578.3</ele>
      </trkpt>
      <trkpt lat="43.822380" lon="5.629061">
        <ele>581.5</ele>
      </trkpt>
      <trkpt lat="43.822353" lon="5.628921">
        <ele>579.5</ele>
      </trkpt>
      <trkpt lat="43.822233" lon="5.628648">
        <ele>577.9</ele>
      </trkpt>
      <trkpt lat="43.822190" lon="5.628482">
        <ele>577.9</ele>
      </trkpt>
      <trkpt lat="43.822236" lon="5.628160">
        <ele>578.7</ele>
      </trkpt>
      <trkpt lat="43.822333" lon="5.627886">
        <ele>579.1</ele>
      </trkpt>
      <trkpt lat="43.822329" lon="5.627709">
        <ele>580.2</ele>
      </trkpt>
      <trkpt lat="43.822260" lon="5.627543">
        <ele>579.8</ele>
      </trkpt>
      <trkpt lat="43.822186" lon="5.627376">
        <ele>576.1</ele>
      </trkpt>
      <trkpt lat="43.822163" lon="5.627248">
        <ele>574.9</ele>
      </trkpt>
      <trkpt lat="43.822167" lon="5.627012">
        <ele>574.8</ele>
      </trkpt>
      <trkpt lat="43.822240" lon="5.626711">
        <ele>578.7</ele>
      </trkpt>
      <trkpt lat="43.822279" lon="5.626368">
        <ele>577</ele>
      </trkpt>
      <trkpt lat="43.822279" lon="5.625783">
        <ele>580.5</ele>
      </trkpt>
      <trkpt lat="43.822221" lon="5.625536">
        <ele>577.4</ele>
      </trkpt>
      <trkpt lat="43.822078" lon="5.625376">
        <ele>574.8</ele>
      </trkpt>
      <trkpt lat="43.821869" lon="5.625177">
        <ele>571.6</ele>
      </trkpt>
      <trkpt lat="43.821664" lon="5.624989">
        <ele>565.6</ele>
      </trkpt>
      <trkpt lat="43.821242" lon="5.624394">
        <ele>558.5</ele>
      </trkpt>
      <trkpt lat="43.821060" lon="5.624061">
        <ele>559.5</ele>
      </trkpt>
      <trkpt lat="43.820955" lon="5.623906">
        <ele>559.4</ele>
      </trkpt>
      <trkpt lat="43.820897" lon="5.623777">
        <ele>559.7</ele>
      </trkpt>
      <trkpt lat="43.820839" lon="5.623637">
        <ele>559.8</ele>
      </trkpt>
      <trkpt lat="43.820842" lon="5.623536">
        <ele>559.8</ele>
      </trkpt>
      <trkpt lat="43.820885" lon="5.623471">
        <ele>559.7</ele>
      </trkpt>
      <trkpt lat="43.821249" lon="5.623353">
        <ele>560.8</ele>
      </trkpt>
      <trkpt lat="43.821613" lon="5.623337">
        <ele>561.1</ele>
      </trkpt>
      <trkpt lat="43.821830" lon="5.623380">
        <ele>562.8</ele>
      </trkpt>
      <trkpt lat="43.821981" lon="5.623450">
        <ele>563.4</ele>
      </trkpt>
      <trkpt lat="43.822124" lon="5.623595">
        <ele>564.1</ele>
      </trkpt>
      <trkpt lat="43.822209" lon="5.623718">
        <ele>565.1</ele>
      </trkpt>
      <trkpt lat="43.822264" lon="5.623761">
        <ele>565.6</ele>
      </trkpt>
      <trkpt lat="43.822356" lon="5.623809">
        <ele>566.4</ele>
      </trkpt>
      <trkpt lat="43.822484" lon="5.623745">
        <ele>565.4</ele>
      </trkpt>
      <trkpt lat="43.822585" lon="5.623643">
        <ele>569.2</ele>
      </trkpt>
      <trkpt lat="43.822914" lon="5.623224">
        <ele>556</ele>
      </trkpt>
      <trkpt lat="43.823045" lon="5.622967">
        <ele>554.5</ele>
      </trkpt>
      <trkpt lat="43.823301" lon="5.622806">
        <ele>553.2</ele>
      </trkpt>
      <trkpt lat="43.823483" lon="5.622559">
        <ele>556.6</ele>
      </trkpt>
      <trkpt lat="43.823866" lon="5.622441">
        <ele>551.1</ele>
      </trkpt>
      <trkpt lat="43.824110" lon="5.622329">
        <ele>553.5</ele>
      </trkpt>
      <trkpt lat="43.824555" lon="5.622162">
        <ele>556.7</ele>
      </trkpt>
      <trkpt lat="43.824949" lon="5.621974">
        <ele>556.5</ele>
      </trkpt>
      <trkpt lat="43.825066" lon="5.621899">
        <ele>561</ele>
      </trkpt>
      <trkpt lat="43.825069" lon="5.621814">
        <ele>559.7</ele>
      </trkpt>
      <trkpt lat="43.824973" lon="5.621690">
        <ele>555.1</ele>
      </trkpt>
      <trkpt lat="43.824721" lon="5.621433">
        <ele>555.5</ele>
      </trkpt>
      <trkpt lat="43.824580" lon="5.621320">
        <ele>555.1</ele>
      </trkpt>
      <trkpt lat="43.824303" lon="5.621138">
        <ele>553.2</ele>
      </trkpt>
      <trkpt lat="43.824110" lon="5.620990">
        <ele>545.1</ele>
      </trkpt>
      <trkpt lat="43.823974" lon="5.620837">
        <ele>544.6</ele>
      </trkpt>
      <trkpt lat="43.823932" lon="5.620703">
        <ele>547.6</ele>
      </trkpt>
      <trkpt lat="43.823839" lon="5.620607">
        <ele>547.5</ele>
      </trkpt>
      <trkpt lat="43.823715" lon="5.620564">
        <ele>546.9</ele>
      </trkpt>
      <trkpt lat="43.823603" lon="5.620590">
        <ele>545.9</ele>
      </trkpt>
      <trkpt lat="43.823545" lon="5.620676">
        <ele>544.6</ele>
      </trkpt>
      <trkpt lat="43.823436" lon="5.620714">
        <ele>542.7</ele>
      </trkpt>
      <trkpt lat="43.823297" lon="5.620666">
        <ele>538</ele>
      </trkpt>
      <trkpt lat="43.823022" lon="5.620596">
        <ele>537.2</ele>
      </trkpt>
      <trkpt lat="43.822840" lon="5.620478">
        <ele>536.5</ele>
      </trkpt>
      <trkpt lat="43.822620" lon="5.620183">
        <ele>535.5</ele>
      </trkpt>
      <trkpt lat="43.822469" lon="5.619968">
        <ele>532.9</ele>
      </trkpt>
      <trkpt lat="43.822387" lon="5.619770">
        <ele>533</ele>
      </trkpt>
      <trkpt lat="43.822287" lon="5.619641">
        <ele>533.2</ele>
      </trkpt>
      <trkpt lat="43.822128" lon="5.619534">
        <ele>532.9</ele>
      </trkpt>
      <trkpt lat="43.821931" lon="5.619308">
        <ele>532.4</ele>
      </trkpt>
      <trkpt lat="43.821706" lon="5.619099">
        <ele>533</ele>
      </trkpt>
      <trkpt lat="43.821575" lon="5.618922">
        <ele>532.1</ele>
      </trkpt>
      <trkpt lat="43.821493" lon="5.618767">
        <ele>532.5</ele>
      </trkpt>
      <trkpt lat="43.821439" lon="5.618563">
        <ele>533</ele>
      </trkpt>
      <trkpt lat="43.821412" lon="5.618461">
        <ele>533.1</ele>
      </trkpt>
      <trkpt lat="43.821544" lon="5.618391">
        <ele>534.3</ele>
      </trkpt>
      <trkpt lat="43.821687" lon="5.618171">
        <ele>539.1</ele>
      </trkpt>
      <trkpt lat="43.821772" lon="5.617935">
        <ele>540.9</ele>
      </trkpt>
      <trkpt lat="43.821876" lon="5.617720">
        <ele>541.3</ele>
      </trkpt>
      <trkpt lat="43.821954" lon="5.617640">
        <ele>542</ele>
      </trkpt>
      <trkpt lat="43.822089" lon="5.617543">
        <ele>544</ele>
      </trkpt>
      <trkpt lat="43.822109" lon="5.617366">
        <ele>546.4</ele>
      </trkpt>
      <trkpt lat="43.822058" lon="5.617104">
        <ele>546.2</ele>
      </trkpt>
      <trkpt lat="43.821965" lon="5.616782">
        <ele>544.9</ele>
      </trkpt>
      <trkpt lat="43.821857" lon="5.616551">
        <ele>544.2</ele>
      </trkpt>
      <trkpt lat="43.821753" lon="5.616267">
        <ele>545.1</ele>
      </trkpt>
      <trkpt lat="43.821582" lon="5.615956">
        <ele>534.8</ele>
      </trkpt>
      <trkpt lat="43.821482" lon="5.615543">
        <ele>532.7</ele>
      </trkpt>
      <trkpt lat="43.821420" lon="5.615296">
        <ele>532</ele>
      </trkpt>
      <trkpt lat="43.821470" lon="5.615194">
        <ele>532.8</ele>
      </trkpt>
      <trkpt lat="43.821443" lon="5.615070">
        <ele>532.9</ele>
      </trkpt>
      <trkpt lat="43.821323" lon="5.615038">
        <ele>531.5</ele>
      </trkpt>
      <trkpt lat="43.821180" lon="5.614979">
        <ele>532.4</ele>
      </trkpt>
      <trkpt lat="43.821102" lon="5.614910">
        <ele>531.6</ele>
      </trkpt>
      <trkpt lat="43.821037" lon="5.614733">
        <ele>532.2</ele>
      </trkpt>
      <trkpt lat="43.820990" lon="5.614636">
        <ele>532.7</ele>
      </trkpt>
      <trkpt lat="43.820890" lon="5.614496">
        <ele>533.3</ele>
      </trkpt>
      <trkpt lat="43.820831" lon="5.614427">
        <ele>532</ele>
      </trkpt>
      <trkpt lat="43.820810" lon="5.614310">
        <ele>532.9</ele>
      </trkpt>
      <trkpt lat="43.820870" lon="5.614019">
        <ele>538.7</ele>
      </trkpt>
      <trkpt lat="43.820870" lon="5.613772">
        <ele>542.6</ele>
      </trkpt>
      <trkpt lat="43.820835" lon="5.613622">
        <ele>544.2</ele>
      </trkpt>
      <trkpt lat="43.820626" lon="5.613348">
        <ele>544.4</ele>
      </trkpt>
      <trkpt lat="43.820530" lon="5.613166">
        <ele>551.4</ele>
      </trkpt>
      <trkpt lat="43.820456" lon="5.613021">
        <ele>552.5</ele>
      </trkpt>
      <trkpt lat="43.820270" lon="5.612930">
        <ele>553.3</ele>
      </trkpt>
      <trkpt lat="43.820131" lon="5.612914">
        <ele>553.5</ele>
      </trkpt>
      <trkpt lat="43.820034" lon="5.612785">
        <ele>555</ele>
      </trkpt>
      <trkpt lat="43.819949" lon="5.612597">
        <ele>556.3</ele>
      </trkpt>
      <trkpt lat="43.819864" lon="5.612404">
        <ele>558.6</ele>
      </trkpt>
      <trkpt lat="43.819829" lon="5.612308">
        <ele>558.2</ele>
      </trkpt>
      <trkpt lat="43.819906" lon="5.611943">
        <ele>559.2</ele>
      </trkpt>
      <trkpt lat="43.819972" lon="5.611686">
        <ele>562.3</ele>
      </trkpt>
      <trkpt lat="43.820000" lon="5.611540">
        <ele>567.6</ele>
      </trkpt>
      <trkpt lat="43.819953" lon="5.611299">
        <ele>564.6</ele>
      </trkpt>
      <trkpt lat="43.819821" lon="5.611047">
        <ele>566.2</ele>
      </trkpt>
      <trkpt lat="43.819717" lon="5.610892">
        <ele>566.3</ele>
      </trkpt>
      <trkpt lat="43.819558" lon="5.610672">
        <ele>571.6</ele>
      </trkpt>
      <trkpt lat="43.819180" lon="5.610310">
        <ele>571.9</ele>
      </trkpt>
      <trkpt lat="43.819109" lon="5.610157">
        <ele>567.3</ele>
      </trkpt>
      <trkpt lat="43.818962" lon="5.609642">
        <ele>570.1</ele>
      </trkpt>
      <trkpt lat="43.818900" lon="5.609406">
        <ele>570.9</ele>
      </trkpt>
      <trkpt lat="43.818722" lon="5.609180">
        <ele>569.4</ele>
      </trkpt>
      <trkpt lat="43.818652" lon="5.608960">
        <ele>570.8</ele>
      </trkpt>
      <trkpt lat="43.818621" lon="5.608810">
        <ele>570.8</ele>
      </trkpt>
      <trkpt lat="43.818621" lon="5.608440">
        <ele>570.5</ele>
      </trkpt>
      <trkpt lat="43.818610" lon="5.608242">
        <ele>572.5</ele>
      </trkpt>
      <trkpt lat="43.818570" lon="5.608110">
        <ele>572.7</ele>
      </trkpt>
      <trkpt lat="43.818374" lon="5.607989">
        <ele>572</ele>
      </trkpt>
      <trkpt lat="43.818276" lon="5.607893">
        <ele>564.3</ele>
      </trkpt>
      <trkpt lat="43.818145" lon="5.607775">
        <ele>564.4</ele>
      </trkpt>
      <trkpt lat="43.817762" lon="5.607523">
        <ele>562.6</ele>
      </trkpt>
      <trkpt lat="43.817619" lon="5.607383">
        <ele>562.8</ele>
      </trkpt>
      <trkpt lat="43.817514" lon="5.607233">
        <ele>562.9</ele>
      </trkpt>
      <trkpt lat="43.817472" lon="5.607126">
        <ele>555.7</ele>
      </trkpt>
      <trkpt lat="43.817460" lon="5.606997">
        <ele>555.5</ele>
      </trkpt>
      <trkpt lat="43.817468" lon="5.606890">
        <ele>556</ele>
      </trkpt>
      <trkpt lat="43.817500" lon="5.606640">
        <ele>559.6</ele>
      </trkpt>
      <trkpt lat="43.817526" lon="5.606402">
        <ele>562.5</ele>
      </trkpt>
      <trkpt lat="43.817456" lon="5.605929">
        <ele>555.8</ele>
      </trkpt>
      <trkpt lat="43.817336" lon="5.605715">
        <ele>556.5</ele>
      </trkpt>
      <trkpt lat="43.817240" lon="5.605484">
        <ele>556.6</ele>
      </trkpt>
      <trkpt lat="43.817240" lon="5.605211">
        <ele>557.7</ele>
      </trkpt>
      <trkpt lat="43.817170" lon="5.605007">
        <ele>557.8</ele>
      </trkpt>
      <trkpt lat="43.816883" lon="5.604422">
        <ele>561.3</ele>
      </trkpt>
      <trkpt lat="43.816730" lon="5.604161">
        <ele>562.4</ele>
      </trkpt>
      <trkpt lat="43.816520" lon="5.603768">
        <ele>562.4</ele>
      </trkpt>
      <trkpt lat="43.816420" lon="5.603469">
        <ele>563.1</ele>
      </trkpt>
      <trkpt lat="43.816380" lon="5.603181">
        <ele>563.4</ele>
      </trkpt>
      <trkpt lat="43.816360" lon="5.602947">
        <ele>563.1</ele>
      </trkpt>
      <trkpt lat="43.816220" lon="5.602246">
        <ele>560.6</ele>
      </trkpt>
      <trkpt lat="43.816225" lon="5.602083">
        <ele>560.3</ele>
      </trkpt>
      <trkpt lat="43.816342" lon="5.601874">
        <ele>561.2</ele>
      </trkpt>
      <trkpt lat="43.816353" lon="5.601729">
        <ele>561.5</ele>
      </trkpt>
      <trkpt lat="43.816349" lon="5.601638">
        <ele>559.9</ele>
      </trkpt>
      <trkpt lat="43.816090" lon="5.600985">
        <ele>554.9</ele>
      </trkpt>
      <trkpt lat="43.816100" lon="5.600666">
        <ele>553.6</ele>
      </trkpt>
      <trkpt lat="43.816333" lon="5.600082">
        <ele>556.6</ele>
      </trkpt>
      <trkpt lat="43.816330" lon="5.599771">
        <ele>553.4</ele>
      </trkpt>
      <trkpt lat="43.816480" lon="5.599251">
        <ele>554.5</ele>
      </trkpt>
      <trkpt lat="43.816396" lon="5.599127">
        <ele>549.1</ele>
      </trkpt>
      <trkpt lat="43.815886" lon="5.600155">
        <ele>549.3</ele>
      </trkpt>
      <trkpt lat="43.815792" lon="5.600404">
        <ele>541.6</ele>
      </trkpt>
      <trkpt lat="43.815701" lon="5.600678">
        <ele>543</ele>
      </trkpt>
      <trkpt lat="43.815654" lon="5.600753">
        <ele>543</ele>
      </trkpt>
      <trkpt lat="43.815555" lon="5.600806">
        <ele>542</ele>
      </trkpt>
      <trkpt lat="43.815478" lon="5.600731">
        <ele>541</ele>
      </trkpt>
      <trkpt lat="43.815455" lon="5.600597">
        <ele>540.4</ele>
      </trkpt>
      <trkpt lat="43.815474" lon="5.599353">
        <ele>533.1</ele>
      </trkpt>
      <trkpt lat="43.815492" lon="5.599224">
        <ele>533.1</ele>
      </trkpt>
      <trkpt lat="43.815623" lon="5.598741">
        <ele>529.3</ele>
      </trkpt>
      <trkpt lat="43.815743" lon="5.598433">
        <ele>529.8</ele>
      </trkpt>
      <trkpt lat="43.815793" lon="5.598210">
        <ele>528.3</ele>
      </trkpt>
      <trkpt lat="43.815797" lon="5.597993">
        <ele>526.4</ele>
      </trkpt>
      <trkpt lat="43.815770" lon="5.597864">
        <ele>526</ele>
      </trkpt>
      <trkpt lat="43.815629" lon="5.597591">
        <ele>525.8</ele>
      </trkpt>
      <trkpt lat="43.815447" lon="5.597231">
        <ele>523.2</ele>
      </trkpt>
      <trkpt lat="43.815422" lon="5.597086">
        <ele>523</ele>
      </trkpt>
      <trkpt lat="43.815418" lon="5.596931">
        <ele>523.1</ele>
      </trkpt>
      <trkpt lat="43.815430" lon="5.596786">
        <ele>523.3</ele>
      </trkpt>
      <trkpt lat="43.815601" lon="5.595580">
        <ele>518.6</ele>
      </trkpt>
      <trkpt lat="43.815675" lon="5.595056">
        <ele>516.9</ele>
      </trkpt>
      <trkpt lat="43.815672" lon="5.594906">
        <ele>514</ele>
      </trkpt>
      <trkpt lat="43.815639" lon="5.594696">
        <ele>512.4</ele>
      </trkpt>
      <trkpt lat="43.815559" lon="5.594538">
        <ele>511.4</ele>
      </trkpt>
      <trkpt lat="43.815433" lon="5.594423">
        <ele>510.7</ele>
      </trkpt>
      <trkpt lat="43.815304" lon="5.594393">
        <ele>510.2</ele>
      </trkpt>
      <trkpt lat="43.815104" lon="5.594434">
        <ele>509.6</ele>
      </trkpt>
      <trkpt lat="43.814652" lon="5.594640">
        <ele>507.1</ele>
      </trkpt>
      <trkpt lat="43.814446" lon="5.594672">
        <ele>506.5</ele>
      </trkpt>
      <trkpt lat="43.814272" lon="5.594653">
        <ele>506.1</ele>
      </trkpt>
      <trkpt lat="43.813852" lon="5.594501">
        <ele>505</ele>
      </trkpt>
      <trkpt lat="43.813610" lon="5.594404">
        <ele>505.5</ele>
      </trkpt>
      <trkpt lat="43.813376" lon="5.594340">
        <ele>506.3</ele>
      </trkpt>
      <trkpt lat="43.813064" lon="5.594385">
        <ele>508.7</ele>
      </trkpt>
      <trkpt lat="43.812857" lon="5.594476">
        <ele>509.3</ele>
      </trkpt>
      <trkpt lat="43.812224" lon="5.595010">
        <ele>505.5</ele>
      </trkpt>
      <trkpt lat="43.811803" lon="5.595332">
        <ele>505.4</ele>
      </trkpt>
      <trkpt lat="43.811497" lon="5.595579">
        <ele>502.3</ele>
      </trkpt>
      <trkpt lat="43.811292" lon="5.595552">
        <ele>502.1</ele>
      </trkpt>
      <trkpt lat="43.810848" lon="5.595386">
        <ele>502</ele>
      </trkpt>
      <trkpt lat="43.810715" lon="5.595362">
        <ele>496</ele>
      </trkpt>
      <trkpt lat="43.810641" lon="5.595437">
        <ele>495</ele>
      </trkpt>
      <trkpt lat="43.810541" lon="5.595429">
        <ele>494.4</ele>
      </trkpt>
      <trkpt lat="43.810438" lon="5.595399">
        <ele>493.8</ele>
      </trkpt>
      <trkpt lat="43.810390" lon="5.595423">
        <ele>493.3</ele>
      </trkpt>
      <trkpt lat="43.810328" lon="5.595512">
        <ele>492.3</ele>
      </trkpt>
      <trkpt lat="43.810312" lon="5.595608">
        <ele>491.7</ele>
      </trkpt>
    </trkseg>
  </trk>
</gpx>