<?xml version="1.0" ?>
<gpx xmlns="http://www.topografix.com/GPX/1/1" xmlns:xsi="http://www.w3.org/2001/XMLSchema-instance" xsi:schemaLocation="http://www.topografix.com/GPX/1/1 http://www.topografix.com/GPX/1/1/gpx.xsd" version="1.1" creator="EditGPX">
  <trk>
    <name>Track from PFMLVTTcircuit4</name>
    <trkseg>
      <trkpt lat="44.042936" lon="5.781517">
        <ele>674.9</ele>
      </trkpt>
      <trkpt lat="44.042802" lon="5.781421">
        <ele>674.2</ele>
      </trkpt>
      <trkpt lat="44.042714" lon="5.781233">
        <ele>673.9</ele>
      </trkpt>
      <trkpt lat="44.042460" lon="5.781635">
        <ele>670.5</ele>
      </trkpt>
      <trkpt lat="44.042317" lon="5.781957">
        <ele>669.7</ele>
      </trkpt>
      <trkpt lat="44.042168" lon="5.782403">
        <ele>669.4</ele>
      </trkpt>
      <trkpt lat="44.041999" lon="5.783232">
        <ele>668.6</ele>
      </trkpt>
      <trkpt lat="44.041860" lon="5.784006">
        <ele>667.9</ele>
      </trkpt>
      <trkpt lat="44.041684" lon="5.784550">
        <ele>669.4</ele>
      </trkpt>
      <trkpt lat="44.041489" lon="5.784779">
        <ele>665.6</ele>
      </trkpt>
      <trkpt lat="44.041349" lon="5.785117">
        <ele>666.5</ele>
      </trkpt>
      <trkpt lat="44.041256" lon="5.785647">
        <ele>666.6</ele>
      </trkpt>
      <trkpt lat="44.041253" lon="5.786270">
        <ele>668</ele>
      </trkpt>
      <trkpt lat="44.041328" lon="5.786788">
        <ele>668.4</ele>
      </trkpt>
      <trkpt lat="44.041347" lon="5.786969">
        <ele>668.3</ele>
      </trkpt>
      <trkpt lat="44.041353" lon="5.787361">
        <ele>668</ele>
      </trkpt>
      <trkpt lat="44.041263" lon="5.787618">
        <ele>667.2</ele>
      </trkpt>
      <trkpt lat="44.041040" lon="5.787924">
        <ele>666.5</ele>
      </trkpt>
      <trkpt lat="44.040779" lon="5.788364">
        <ele>663.7</ele>
      </trkpt>
      <trkpt lat="44.040513" lon="5.788907">
        <ele>663.3</ele>
      </trkpt>
      <trkpt lat="44.040305" lon="5.789427">
        <ele>664</ele>
      </trkpt>
      <trkpt lat="44.040124" lon="5.790083">
        <ele>663.2</ele>
      </trkpt>
      <trkpt lat="44.040066" lon="5.790593">
        <ele>663</ele>
      </trkpt>
      <trkpt lat="44.039994" lon="5.791155">
        <ele>658.4</ele>
      </trkpt>
      <trkpt lat="44.039933" lon="5.791567">
        <ele>658.3</ele>
      </trkpt>
      <trkpt lat="44.039946" lon="5.791918">
        <ele>656.6</ele>
      </trkpt>
      <trkpt lat="44.039952" lon="5.792321">
        <ele>656.1</ele>
      </trkpt>
      <trkpt lat="44.039877" lon="5.792728">
        <ele>655</ele>
      </trkpt>
      <trkpt lat="44.039856" lon="5.793237">
        <ele>655.3</ele>
      </trkpt>
      <trkpt lat="44.039802" lon="5.793821">
        <ele>654.6</ele>
      </trkpt>
      <trkpt lat="44.039651" lon="5.794629">
        <ele>654.5</ele>
      </trkpt>
      <trkpt lat="44.039565" lon="5.795188">
        <ele>653.9</ele>
      </trkpt>
      <trkpt lat="44.039559" lon="5.795587">
        <ele>653.5</ele>
      </trkpt>
      <trkpt lat="44.039632" lon="5.795980">
        <ele>652.3</ele>
      </trkpt>
      <trkpt lat="44.039822" lon="5.796398">
        <ele>652.2</ele>
      </trkpt>
      <trkpt lat="44.039975" lon="5.796775">
        <ele>652.2</ele>
      </trkpt>
      <trkpt lat="44.040110" lon="5.797203">
        <ele>655</ele>
      </trkpt>
      <trkpt lat="44.040318" lon="5.797566">
        <ele>656.2</ele>
      </trkpt>
      <trkpt lat="44.040723" lon="5.797903">
        <ele>657.1</ele>
      </trkpt>
      <trkpt lat="44.041255" lon="5.798263">
        <ele>660.4</ele>
      </trkpt>
      <trkpt lat="44.041389" lon="5.798523">
        <ele>660.3</ele>
      </trkpt>
      <trkpt lat="44.041564" lon="5.798864">
        <ele>660.2</ele>
      </trkpt>
      <trkpt lat="44.041744" lon="5.799166">
        <ele>662</ele>
      </trkpt>
      <trkpt lat="44.041850" lon="5.799599">
        <ele>663</ele>
      </trkpt>
      <trkpt lat="44.041886" lon="5.799872">
        <ele>663</ele>
      </trkpt>
      <trkpt lat="44.041850" lon="5.800247">
        <ele>663.2</ele>
      </trkpt>
      <trkpt lat="44.041743" lon="5.800458">
        <ele>663.1</ele>
      </trkpt>
      <trkpt lat="44.041732" lon="5.800754">
        <ele>662.6</ele>
      </trkpt>
      <trkpt lat="44.041817" lon="5.801039">
        <ele>662.6</ele>
      </trkpt>
      <trkpt lat="44.041991" lon="5.801467">
        <ele>662.5</ele>
      </trkpt>
      <trkpt lat="44.042160" lon="5.801911">
        <ele>662.4</ele>
      </trkpt>
      <trkpt lat="44.042161" lon="5.802250">
        <ele>662.5</ele>
      </trkpt>
      <trkpt lat="44.042018" lon="5.802576">
        <ele>662.8</ele>
      </trkpt>
      <trkpt lat="44.041802" lon="5.802945">
        <ele>662.9</ele>
      </trkpt>
      <trkpt lat="44.041621" lon="5.803338">
        <ele>662.9</ele>
      </trkpt>
      <trkpt lat="44.041382" lon="5.803983">
        <ele>662.9</ele>
      </trkpt>
      <trkpt lat="44.041165" lon="5.804574">
        <ele>664.1</ele>
      </trkpt>
      <trkpt lat="44.040944" lon="5.805205">
        <ele>663.8</ele>
      </trkpt>
      <trkpt lat="44.040758" lon="5.805707">
        <ele>670.3</ele>
      </trkpt>
      <trkpt lat="44.040637" lon="5.806187">
        <ele>670.2</ele>
      </trkpt>
      <trkpt lat="44.040495" lon="5.806495">
        <ele>670.2</ele>
      </trkpt>
      <trkpt lat="44.040354" lon="5.806817">
        <ele>665.2</ele>
      </trkpt>
      <trkpt lat="44.040219" lon="5.807137">
        <ele>664.3</ele>
      </trkpt>
      <trkpt lat="44.040028" lon="5.807317">
        <ele>664.8</ele>
      </trkpt>
      <trkpt lat="44.039880" lon="5.807315">
        <ele>673</ele>
      </trkpt>
      <trkpt lat="44.039697" lon="5.807297">
        <ele>675.4</ele>
      </trkpt>
      <trkpt lat="44.039475" lon="5.807377">
        <ele>677.3</ele>
      </trkpt>
      <trkpt lat="44.039295" lon="5.807589">
        <ele>673.5</ele>
      </trkpt>
      <trkpt lat="44.038998" lon="5.807788">
        <ele>677.6</ele>
      </trkpt>
      <trkpt lat="44.038775" lon="5.807779">
        <ele>678.3</ele>
      </trkpt>
      <trkpt lat="44.038521" lon="5.807496">
        <ele>686.1</ele>
      </trkpt>
      <trkpt lat="44.038246" lon="5.807137">
        <ele>687.5</ele>
      </trkpt>
      <trkpt lat="44.037775" lon="5.806942">
        <ele>687.5</ele>
      </trkpt>
      <trkpt lat="44.037055" lon="5.806705">
        <ele>686.4</ele>
      </trkpt>
      <trkpt lat="44.036545" lon="5.806534">
        <ele>689.2</ele>
      </trkpt>
      <trkpt lat="44.036079" lon="5.806343">
        <ele>690</ele>
      </trkpt>
      <trkpt lat="44.035876" lon="5.806098">
        <ele>690.5</ele>
      </trkpt>
      <trkpt lat="44.035722" lon="5.805877">
        <ele>693.2</ele>
      </trkpt>
      <trkpt lat="44.035465" lon="5.805720">
        <ele>696.9</ele>
      </trkpt>
      <trkpt lat="44.035312" lon="5.805798">
        <ele>698.9</ele>
      </trkpt>
      <trkpt lat="44.035064" lon="5.806146">
        <ele>699.3</ele>
      </trkpt>
      <trkpt lat="44.034750" lon="5.806629">
        <ele>711.8</ele>
      </trkpt>
      <trkpt lat="44.034337" lon="5.807083">
        <ele>710</ele>
      </trkpt>
      <trkpt lat="44.034037" lon="5.807355">
        <ele>719.7</ele>
      </trkpt>
      <trkpt lat="44.033781" lon="5.807575">
        <ele>719.1</ele>
      </trkpt>
      <trkpt lat="44.033612" lon="5.807911">
        <ele>720.8</ele>
      </trkpt>
      <trkpt lat="44.033638" lon="5.808180">
        <ele>720.2</ele>
      </trkpt>
      <trkpt lat="44.033643" lon="5.808203">
        <ele>720.2</ele>
      </trkpt>
      <trkpt lat="44.033681" lon="5.808406">
        <ele>716.7</ele>
      </trkpt>
      <trkpt lat="44.033587" lon="5.808558">
        <ele>717.4</ele>
      </trkpt>
      <trkpt lat="44.033327" lon="5.808658">
        <ele>726.5</ele>
      </trkpt>
      <trkpt lat="44.033069" lon="5.808872">
        <ele>725.9</ele>
      </trkpt>
      <trkpt lat="44.032664" lon="5.809038">
        <ele>727.1</ele>
      </trkpt>
      <trkpt lat="44.032253" lon="5.809188">
        <ele>724.7</ele>
      </trkpt>
      <trkpt lat="44.031945" lon="5.809330">
        <ele>725.9</ele>
      </trkpt>
      <trkpt lat="44.031464" lon="5.809451">
        <ele>727.6</ele>
      </trkpt>
      <trkpt lat="44.031008" lon="5.809587">
        <ele>725.8</ele>
      </trkpt>
      <trkpt lat="44.030611" lon="5.809626">
        <ele>723.5</ele>
      </trkpt>
      <trkpt lat="44.030259" lon="5.809532">
        <ele>723.5</ele>
      </trkpt>
      <trkpt lat="44.030008" lon="5.809303">
        <ele>724.9</ele>
      </trkpt>
      <trkpt lat="44.029791" lon="5.809066">
        <ele>728.7</ele>
      </trkpt>
      <trkpt lat="44.029693" lon="5.808730">
        <ele>730.7</ele>
      </trkpt>
      <trkpt lat="44.029551" lon="5.808495">
        <ele>731</ele>
      </trkpt>
      <trkpt lat="44.029422" lon="5.808382">
        <ele>730.2</ele>
      </trkpt>
      <trkpt lat="44.029103" lon="5.808574">
        <ele>729.8</ele>
      </trkpt>
      <trkpt lat="44.029092" lon="5.808581">
        <ele>729.9</ele>
      </trkpt>
      <trkpt lat="44.028753" lon="5.808809">
        <ele>731.6</ele>
      </trkpt>
      <trkpt lat="44.028516" lon="5.809022">
        <ele>734.6</ele>
      </trkpt>
      <trkpt lat="44.028416" lon="5.809457">
        <ele>735.2</ele>
      </trkpt>
      <trkpt lat="44.028289" lon="5.809866">
        <ele>742</ele>
      </trkpt>
      <trkpt lat="44.028241" lon="5.810149">
        <ele>742.4</ele>
      </trkpt>
      <trkpt lat="44.028473" lon="5.810594">
        <ele>732.4</ele>
      </trkpt>
      <trkpt lat="44.028458" lon="5.810761">
        <ele>733.4</ele>
      </trkpt>
      <trkpt lat="44.028176" lon="5.810930">
        <ele>739.4</ele>
      </trkpt>
      <trkpt lat="44.027842" lon="5.811125">
        <ele>743.7</ele>
      </trkpt>
      <trkpt lat="44.027611" lon="5.811414">
        <ele>745.4</ele>
      </trkpt>
      <trkpt lat="44.027521" lon="5.811801">
        <ele>745.8</ele>
      </trkpt>
      <trkpt lat="44.027596" lon="5.812663">
        <ele>746.6</ele>
      </trkpt>
      <trkpt lat="44.027677" lon="5.813134">
        <ele>745.6</ele>
      </trkpt>
      <trkpt lat="44.027656" lon="5.813431">
        <ele>746.8</ele>
      </trkpt>
      <trkpt lat="44.027537" lon="5.813813">
        <ele>743.3</ele>
      </trkpt>
      <trkpt lat="44.027301" lon="5.814271">
        <ele>746.8</ele>
      </trkpt>
      <trkpt lat="44.027097" lon="5.814453">
        <ele>747.3</ele>
      </trkpt>
      <trkpt lat="44.026731" lon="5.814539">
        <ele>749.1</ele>
      </trkpt>
      <trkpt lat="44.026250" lon="5.814617">
        <ele>751</ele>
      </trkpt>
      <trkpt lat="44.025860" lon="5.814670">
        <ele>749.7</ele>
      </trkpt>
      <trkpt lat="44.025688" lon="5.814635">
        <ele>753.7</ele>
      </trkpt>
      <trkpt lat="44.025598" lon="5.814311">
        <ele>757.9</ele>
      </trkpt>
      <trkpt lat="44.025515" lon="5.813920">
        <ele>766.2</ele>
      </trkpt>
      <trkpt lat="44.025402" lon="5.813927">
        <ele>766.6</ele>
      </trkpt>
      <trkpt lat="44.025185" lon="5.814207">
        <ele>761.5</ele>
      </trkpt>
      <trkpt lat="44.024830" lon="5.814680">
        <ele>762.8</ele>
      </trkpt>
      <trkpt lat="44.024645" lon="5.814951">
        <ele>762.3</ele>
      </trkpt>
      <trkpt lat="44.024409" lon="5.815112">
        <ele>757.3</ele>
      </trkpt>
      <trkpt lat="44.024169" lon="5.814972">
        <ele>764.1</ele>
      </trkpt>
      <trkpt lat="44.023908" lon="5.814840">
        <ele>771.8</ele>
      </trkpt>
      <trkpt lat="44.023748" lon="5.814866">
        <ele>773.4</ele>
      </trkpt>
      <trkpt lat="44.023653" lon="5.815114">
        <ele>766.4</ele>
      </trkpt>
      <trkpt lat="44.023573" lon="5.815376">
        <ele>765</ele>
      </trkpt>
      <trkpt lat="44.023361" lon="5.815558">
        <ele>764.3</ele>
      </trkpt>
      <trkpt lat="44.023180" lon="5.815843">
        <ele>764.1</ele>
      </trkpt>
      <trkpt lat="44.023065" lon="5.816115">
        <ele>764.5</ele>
      </trkpt>
      <trkpt lat="44.022877" lon="5.816455">
        <ele>764.5</ele>
      </trkpt>
      <trkpt lat="44.022760" lon="5.816803">
        <ele>761.6</ele>
      </trkpt>
      <trkpt lat="44.022721" lon="5.817125">
        <ele>760.5</ele>
      </trkpt>
      <trkpt lat="44.022738" lon="5.817524">
        <ele>758.4</ele>
      </trkpt>
      <trkpt lat="44.022704" lon="5.817981">
        <ele>756.4</ele>
      </trkpt>
      <trkpt lat="44.022611" lon="5.818335">
        <ele>756.5</ele>
      </trkpt>
      <trkpt lat="44.022477" lon="5.818563">
        <ele>759.8</ele>
      </trkpt>
      <trkpt lat="44.022258" lon="5.819072">
        <ele>757.4</ele>
      </trkpt>
      <trkpt lat="44.021956" lon="5.819550">
        <ele>752.4</ele>
      </trkpt>
      <trkpt lat="44.021593" lon="5.820140">
        <ele>747.8</ele>
      </trkpt>
      <trkpt lat="44.021304" lon="5.820616">
        <ele>745.6</ele>
      </trkpt>
      <trkpt lat="44.021241" lon="5.820755">
        <ele>745.1</ele>
      </trkpt>
      <trkpt lat="44.021710" lon="5.821171">
        <ele>742.7</ele>
      </trkpt>
      <trkpt lat="44.022160" lon="5.821634">
        <ele>743</ele>
      </trkpt>
      <trkpt lat="44.022744" lon="5.822084">
        <ele>747.2</ele>
      </trkpt>
      <trkpt lat="44.023303" lon="5.822256">
        <ele>748.1</ele>
      </trkpt>
      <trkpt lat="44.023634" lon="5.822350">
        <ele>745.9</ele>
      </trkpt>
      <trkpt lat="44.024124" lon="5.822731">
        <ele>751.7</ele>
      </trkpt>
      <trkpt lat="44.024420" lon="5.822861">
        <ele>751.7</ele>
      </trkpt>
      <trkpt lat="44.024566" lon="5.822848">
        <ele>751.5</ele>
      </trkpt>
      <trkpt lat="44.024880" lon="5.822982">
        <ele>752.3</ele>
      </trkpt>
      <trkpt lat="44.025144" lon="5.822935">
        <ele>750.3</ele>
      </trkpt>
      <trkpt lat="44.025355" lon="5.822730">
        <ele>748.6</ele>
      </trkpt>
      <trkpt lat="44.025646" lon="5.822675">
        <ele>747.1</ele>
      </trkpt>
      <trkpt lat="44.026051" lon="5.822837">
        <ele>746.3</ele>
      </trkpt>
      <trkpt lat="44.026393" lon="5.822935">
        <ele>746.3</ele>
      </trkpt>
      <trkpt lat="44.026630" lon="5.822953">
        <ele>745.9</ele>
      </trkpt>
      <trkpt lat="44.026852" lon="5.822960">
        <ele>740.4</ele>
      </trkpt>
      <trkpt lat="44.026863" lon="5.822962">
        <ele>740.3</ele>
      </trkpt>
      <trkpt lat="44.026944" lon="5.823245">
        <ele>741.1</ele>
      </trkpt>
      <trkpt lat="44.027010" lon="5.823601">
        <ele>745.9</ele>
      </trkpt>
      <trkpt lat="44.027150" lon="5.823851">
        <ele>746.4</ele>
      </trkpt>
      <trkpt lat="44.027524" lon="5.824362">
        <ele>748.2</ele>
      </trkpt>
      <trkpt lat="44.027918" lon="5.825013">
        <ele>760</ele>
      </trkpt>
      <trkpt lat="44.028176" lon="5.825385">
        <ele>760.7</ele>
      </trkpt>
      <trkpt lat="44.028342" lon="5.825811">
        <ele>762.6</ele>
      </trkpt>
      <trkpt lat="44.028461" lon="5.826361">
        <ele>763.7</ele>
      </trkpt>
      <trkpt lat="44.028566" lon="5.826972">
        <ele>762.9</ele>
      </trkpt>
      <trkpt lat="44.028658" lon="5.827482">
        <ele>762.1</ele>
      </trkpt>
      <trkpt lat="44.028690" lon="5.827906">
        <ele>758.4</ele>
      </trkpt>
      <trkpt lat="44.028748" lon="5.828248">
        <ele>757.3</ele>
      </trkpt>
      <trkpt lat="44.028805" lon="5.828413">
        <ele>750.3</ele>
      </trkpt>
      <trkpt lat="44.028967" lon="5.828480">
        <ele>750.6</ele>
      </trkpt>
      <trkpt lat="44.029121" lon="5.828549">
        <ele>750.5</ele>
      </trkpt>
      <trkpt lat="44.029275" lon="5.828660">
        <ele>743.1</ele>
      </trkpt>
      <trkpt lat="44.029485" lon="5.828646">
        <ele>741.5</ele>
      </trkpt>
      <trkpt lat="44.029780" lon="5.828455">
        <ele>741</ele>
      </trkpt>
      <trkpt lat="44.030210" lon="5.828386">
        <ele>735.8</ele>
      </trkpt>
      <trkpt lat="44.030530" lon="5.828338">
        <ele>732.8</ele>
      </trkpt>
      <trkpt lat="44.030808" lon="5.828275">
        <ele>733.2</ele>
      </trkpt>
      <trkpt lat="44.030971" lon="5.828282">
        <ele>731.1</ele>
      </trkpt>
      <trkpt lat="44.031319" lon="5.828238">
        <ele>730.5</ele>
      </trkpt>
      <trkpt lat="44.031452" lon="5.828260">
        <ele>730.5</ele>
      </trkpt>
      <trkpt lat="44.031617" lon="5.828425">
        <ele>730</ele>
      </trkpt>
      <trkpt lat="44.031699" lon="5.828690">
        <ele>725.9</ele>
      </trkpt>
      <trkpt lat="44.031708" lon="5.828938">
        <ele>724.3</ele>
      </trkpt>
      <trkpt lat="44.031750" lon="5.829331">
        <ele>720.9</ele>
      </trkpt>
      <trkpt lat="44.031813" lon="5.829689">
        <ele>719.1</ele>
      </trkpt>
      <trkpt lat="44.031909" lon="5.829953">
        <ele>718.5</ele>
      </trkpt>
      <trkpt lat="44.031949" lon="5.830177">
        <ele>713.8</ele>
      </trkpt>
      <trkpt lat="44.032289" lon="5.830410">
        <ele>711.2</ele>
      </trkpt>
      <trkpt lat="44.032762" lon="5.830669">
        <ele>704.6</ele>
      </trkpt>
      <trkpt lat="44.033157" lon="5.830908">
        <ele>700.7</ele>
      </trkpt>
      <trkpt lat="44.033624" lon="5.831059">
        <ele>699.9</ele>
      </trkpt>
      <trkpt lat="44.033970" lon="5.831293">
        <ele>699.7</ele>
      </trkpt>
      <trkpt lat="44.034423" lon="5.831555">
        <ele>702.3</ele>
      </trkpt>
      <trkpt lat="44.034708" lon="5.831916">
        <ele>701.7</ele>
      </trkpt>
      <trkpt lat="44.034866" lon="5.832224">
        <ele>702</ele>
      </trkpt>
      <trkpt lat="44.034931" lon="5.832473">
        <ele>703.1</ele>
      </trkpt>
      <trkpt lat="44.034997" lon="5.832620">
        <ele>701.7</ele>
      </trkpt>
      <trkpt lat="44.035084" lon="5.832706">
        <ele>708.5</ele>
      </trkpt>
      <trkpt lat="44.035137" lon="5.832887">
        <ele>709.4</ele>
      </trkpt>
      <trkpt lat="44.035198" lon="5.833109">
        <ele>708.8</ele>
      </trkpt>
      <trkpt lat="44.035307" lon="5.833280">
        <ele>709.7</ele>
      </trkpt>
      <trkpt lat="44.035398" lon="5.833518">
        <ele>707.8</ele>
      </trkpt>
      <trkpt lat="44.035463" lon="5.833675">
        <ele>708.1</ele>
      </trkpt>
      <trkpt lat="44.035634" lon="5.833826">
        <ele>709</ele>
      </trkpt>
      <trkpt lat="44.035744" lon="5.833964">
        <ele>709.7</ele>
      </trkpt>
      <trkpt lat="44.035895" lon="5.834152">
        <ele>713.3</ele>
      </trkpt>
      <trkpt lat="44.036036" lon="5.834277">
        <ele>712.1</ele>
      </trkpt>
      <trkpt lat="44.036140" lon="5.834365">
        <ele>712.2</ele>
      </trkpt>
      <trkpt lat="44.036287" lon="5.834490">
        <ele>712.3</ele>
      </trkpt>
      <trkpt lat="44.036415" lon="5.834551">
        <ele>712.6</ele>
      </trkpt>
      <trkpt lat="44.036656" lon="5.834650">
        <ele>712.8</ele>
      </trkpt>
      <trkpt lat="44.036874" lon="5.834848">
        <ele>705.6</ele>
      </trkpt>
      <trkpt lat="44.037013" lon="5.834994">
        <ele>703.1</ele>
      </trkpt>
      <trkpt lat="44.037208" lon="5.835196">
        <ele>701.1</ele>
      </trkpt>
      <trkpt lat="44.037480" lon="5.835586">
        <ele>700.5</ele>
      </trkpt>
      <trkpt lat="44.037792" lon="5.835998">
        <ele>685.2</ele>
      </trkpt>
      <trkpt lat="44.038031" lon="5.836356">
        <ele>679.9</ele>
      </trkpt>
      <trkpt lat="44.038216" lon="5.836791">
        <ele>675.6</ele>
      </trkpt>
      <trkpt lat="44.038319" lon="5.836964">
        <ele>677.8</ele>
      </trkpt>
      <trkpt lat="44.038364" lon="5.837034">
        <ele>659.1</ele>
      </trkpt>
      <trkpt lat="44.038448" lon="5.837167">
        <ele>658.9</ele>
      </trkpt>
      <trkpt lat="44.038514" lon="5.837198">
        <ele>658.3</ele>
      </trkpt>
      <trkpt lat="44.038555" lon="5.837125">
        <ele>657.2</ele>
      </trkpt>
      <trkpt lat="44.038602" lon="5.837038">
        <ele>656.3</ele>
      </trkpt>
      <trkpt lat="44.038645" lon="5.836972">
        <ele>655.7</ele>
      </trkpt>
      <trkpt lat="44.038708" lon="5.836947">
        <ele>654.6</ele>
      </trkpt>
      <trkpt lat="44.038753" lon="5.837002">
        <ele>653.9</ele>
      </trkpt>
      <trkpt lat="44.038807" lon="5.837035">
        <ele>653</ele>
      </trkpt>
      <trkpt lat="44.038884" lon="5.837023">
        <ele>651.7</ele>
      </trkpt>
      <trkpt lat="44.038923" lon="5.836980">
        <ele>651</ele>
      </trkpt>
      <trkpt lat="44.039009" lon="5.836986">
        <ele>649.8</ele>
      </trkpt>
      <trkpt lat="44.039036" lon="5.837043">
        <ele>649.7</ele>
      </trkpt>
      <trkpt lat="44.039038" lon="5.837055">
        <ele>649.7</ele>
      </trkpt>
      <trkpt lat="44.039090" lon="5.837100">
        <ele>649.2</ele>
      </trkpt>
      <trkpt lat="44.039153" lon="5.837151">
        <ele>648.6</ele>
      </trkpt>
      <trkpt lat="44.039135" lon="5.837257">
        <ele>647.8</ele>
      </trkpt>
      <trkpt lat="44.039156" lon="5.837315">
        <ele>646.7</ele>
      </trkpt>
      <trkpt lat="44.039248" lon="5.837400">
        <ele>636.4</ele>
      </trkpt>
      <trkpt lat="44.039354" lon="5.837490">
        <ele>634.9</ele>
      </trkpt>
      <trkpt lat="44.039479" lon="5.837593">
        <ele>631.6</ele>
      </trkpt>
      <trkpt lat="44.039712" lon="5.837754">
        <ele>628.1</ele>
      </trkpt>
      <trkpt lat="44.039943" lon="5.837911">
        <ele>626.3</ele>
      </trkpt>
      <trkpt lat="44.040039" lon="5.838082">
        <ele>615.7</ele>
      </trkpt>
      <trkpt lat="44.040048" lon="5.838104">
        <ele>615.8</ele>
      </trkpt>
      <trkpt lat="44.040147" lon="5.838357">
        <ele>615.3</ele>
      </trkpt>
      <trkpt lat="44.040195" lon="5.838577">
        <ele>612.7</ele>
      </trkpt>
      <trkpt lat="44.040248" lon="5.838814">
        <ele>611.3</ele>
      </trkpt>
      <trkpt lat="44.040247" lon="5.838984">
        <ele>611.5</ele>
      </trkpt>
      <trkpt lat="44.040308" lon="5.839077">
        <ele>610.7</ele>
      </trkpt>
      <trkpt lat="44.040403" lon="5.839167">
        <ele>606.1</ele>
      </trkpt>
      <trkpt lat="44.040593" lon="5.839332">
        <ele>602.8</ele>
      </trkpt>
      <trkpt lat="44.040720" lon="5.839327">
        <ele>601.1</ele>
      </trkpt>
      <trkpt lat="44.040744" lon="5.839329">
        <ele>600.8</ele>
      </trkpt>
      <trkpt lat="44.040957" lon="5.839357">
        <ele>590.1</ele>
      </trkpt>
      <trkpt lat="44.040971" lon="5.839361">
        <ele>589.9</ele>
      </trkpt>
      <trkpt lat="44.041196" lon="5.839414">
        <ele>586.4</ele>
      </trkpt>
      <trkpt lat="44.041369" lon="5.839429">
        <ele>584.2</ele>
      </trkpt>
      <trkpt lat="44.041507" lon="5.839480">
        <ele>582.8</ele>
      </trkpt>
      <trkpt lat="44.041521" lon="5.839479">
        <ele>582.7</ele>
      </trkpt>
      <trkpt lat="44.041700" lon="5.839486">
        <ele>573.9</ele>
      </trkpt>
      <trkpt lat="44.041827" lon="5.839476">
        <ele>573.5</ele>
      </trkpt>
      <trkpt lat="44.041954" lon="5.839441">
        <ele>573</ele>
      </trkpt>
      <trkpt lat="44.042171" lon="5.839498">
        <ele>571.7</ele>
      </trkpt>
      <trkpt lat="44.042300" lon="5.839527">
        <ele>571.1</ele>
      </trkpt>
      <trkpt lat="44.042470" lon="5.839549">
        <ele>570.6</ele>
      </trkpt>
      <trkpt lat="44.042486" lon="5.839556">
        <ele>570.5</ele>
      </trkpt>
      <trkpt lat="44.042593" lon="5.839671">
        <ele>568.3</ele>
      </trkpt>
      <trkpt lat="44.042600" lon="5.839681">
        <ele>568.3</ele>
      </trkpt>
      <trkpt lat="44.042652" lon="5.839860">
        <ele>567.9</ele>
      </trkpt>
      <trkpt lat="44.042696" lon="5.840008">
        <ele>565.9</ele>
      </trkpt>
      <trkpt lat="44.042706" lon="5.840027">
        <ele>565.8</ele>
      </trkpt>
      <trkpt lat="44.042712" lon="5.840038">
        <ele>565.8</ele>
      </trkpt>
      <trkpt lat="44.042793" lon="5.840137">
        <ele>565.4</ele>
      </trkpt>
      <trkpt lat="44.042900" lon="5.840218">
        <ele>565.2</ele>
      </trkpt>
      <trkpt lat="44.042910" lon="5.840229">
        <ele>565.1</ele>
      </trkpt>
      <trkpt lat="44.043013" lon="5.840405">
        <ele>564.7</ele>
      </trkpt>
      <trkpt lat="44.043019" lon="5.840420">
        <ele>564.7</ele>
      </trkpt>
      <trkpt lat="44.043030" lon="5.840432">
        <ele>564.7</ele>
      </trkpt>
      <trkpt lat="44.043062" lon="5.840585">
        <ele>564.3</ele>
      </trkpt>
      <trkpt lat="44.043069" lon="5.840615">
        <ele>564.3</ele>
      </trkpt>
      <trkpt lat="44.043072" lon="5.840634">
        <ele>564.2</ele>
      </trkpt>
      <trkpt lat="44.043108" lon="5.840755">
        <ele>564</ele>
      </trkpt>
      <trkpt lat="44.043134" lon="5.840890">
        <ele>562.7</ele>
      </trkpt>
      <trkpt lat="44.043172" lon="5.840964">
        <ele>562.7</ele>
      </trkpt>
      <trkpt lat="44.043255" lon="5.841077">
        <ele>562.7</ele>
      </trkpt>
      <trkpt lat="44.043398" lon="5.841224">
        <ele>565.3</ele>
      </trkpt>
      <trkpt lat="44.043462" lon="5.841285">
        <ele>565.4</ele>
      </trkpt>
      <trkpt lat="44.043604" lon="5.841404">
        <ele>565.8</ele>
      </trkpt>
      <trkpt lat="44.043753" lon="5.841436">
        <ele>566.3</ele>
      </trkpt>
      <trkpt lat="44.043887" lon="5.841328">
        <ele>566.7</ele>
      </trkpt>
      <trkpt lat="44.043897" lon="5.841325">
        <ele>566.7</ele>
      </trkpt>
      <trkpt lat="44.044058" lon="5.841080">
        <ele>567.3</ele>
      </trkpt>
      <trkpt lat="44.044294" lon="5.840759">
        <ele>569.6</ele>
      </trkpt>
      <trkpt lat="44.044528" lon="5.840341">
        <ele>570.4</ele>
      </trkpt>
      <trkpt lat="44.044707" lon="5.840081">
        <ele>571</ele>
      </trkpt>
      <trkpt lat="44.044810" lon="5.839860">
        <ele>571.1</ele>
      </trkpt>
      <trkpt lat="44.045154" lon="5.840013">
        <ele>573.4</ele>
      </trkpt>
      <trkpt lat="44.045491" lon="5.840089">
        <ele>574.2</ele>
      </trkpt>
      <trkpt lat="44.045806" lon="5.840203">
        <ele>574.8</ele>
      </trkpt>
      <trkpt lat="44.046143" lon="5.840366">
        <ele>576.6</ele>
      </trkpt>
      <trkpt lat="44.046582" lon="5.840539">
        <ele>577.1</ele>
      </trkpt>
      <trkpt lat="44.046965" lon="5.840557">
        <ele>578.9</ele>
      </trkpt>
      <trkpt lat="44.047236" lon="5.840599">
        <ele>579.1</ele>
      </trkpt>
      <trkpt lat="44.047394" lon="5.840761">
        <ele>579.1</ele>
      </trkpt>
      <trkpt lat="44.047522" lon="5.841078">
        <ele>580.2</ele>
      </trkpt>
      <trkpt lat="44.047622" lon="5.841593">
        <ele>580</ele>
      </trkpt>
      <trkpt lat="44.047859" lon="5.842153">
        <ele>580.6</ele>
      </trkpt>
      <trkpt lat="44.048096" lon="5.842660">
        <ele>582</ele>
      </trkpt>
      <trkpt lat="44.048327" lon="5.843065">
        <ele>582.9</ele>
      </trkpt>
      <trkpt lat="44.048604" lon="5.843485">
        <ele>584.5</ele>
      </trkpt>
      <trkpt lat="44.048947" lon="5.843960">
        <ele>585.1</ele>
      </trkpt>
      <trkpt lat="44.049155" lon="5.844236">
        <ele>585.8</ele>
      </trkpt>
      <trkpt lat="44.049379" lon="5.844432">
        <ele>586.7</ele>
      </trkpt>
      <trkpt lat="44.049603" lon="5.844658">
        <ele>587</ele>
      </trkpt>
      <trkpt lat="44.049885" lon="5.844884">
        <ele>587.5</ele>
      </trkpt>
      <trkpt lat="44.050124" lon="5.845036">
        <ele>587.7</ele>
      </trkpt>
      <trkpt lat="44.050329" lon="5.845161">
        <ele>587.5</ele>
      </trkpt>
      <trkpt lat="44.050452" lon="5.845306">
        <ele>587.4</ele>
      </trkpt>
      <trkpt lat="44.050629" lon="5.845435">
        <ele>587.4</ele>
      </trkpt>
      <trkpt lat="44.050731" lon="5.845484">
        <ele>587.4</ele>
      </trkpt>
      <trkpt lat="44.051076" lon="5.845301">
        <ele>589.7</ele>
      </trkpt>
      <trkpt lat="44.051207" lon="5.845680">
        <ele>589.6</ele>
      </trkpt>
      <trkpt lat="44.051323" lon="5.845936">
        <ele>588.3</ele>
      </trkpt>
      <trkpt lat="44.051538" lon="5.846332">
        <ele>587.9</ele>
      </trkpt>
      <trkpt lat="44.051690" lon="5.846792">
        <ele>589</ele>
      </trkpt>
      <trkpt lat="44.051747" lon="5.847139">
        <ele>589.6</ele>
      </trkpt>
      <trkpt lat="44.051838" lon="5.847356">
        <ele>589.2</ele>
      </trkpt>
      <trkpt lat="44.051985" lon="5.847552">
        <ele>589.3</ele>
      </trkpt>
      <trkpt lat="44.052267" lon="5.847923">
        <ele>590.3</ele>
      </trkpt>
      <trkpt lat="44.052631" lon="5.848372">
        <ele>593.2</ele>
      </trkpt>
      <trkpt lat="44.052907" lon="5.848644">
        <ele>594.9</ele>
      </trkpt>
      <trkpt lat="44.053203" lon="5.849020">
        <ele>597.2</ele>
      </trkpt>
      <trkpt lat="44.053377" lon="5.849178">
        <ele>601.6</ele>
      </trkpt>
      <trkpt lat="44.053499" lon="5.849319">
        <ele>605.7</ele>
      </trkpt>
      <trkpt lat="44.053564" lon="5.849532">
        <ele>608.3</ele>
      </trkpt>
      <trkpt lat="44.053690" lon="5.849576">
        <ele>609.3</ele>
      </trkpt>
      <trkpt lat="44.053977" lon="5.849542">
        <ele>610.7</ele>
      </trkpt>
      <trkpt lat="44.053777" lon="5.849969">
        <ele>612</ele>
      </trkpt>
      <trkpt lat="44.053651" lon="5.850397">
        <ele>617.1</ele>
      </trkpt>
      <trkpt lat="44.053733" lon="5.850723">
        <ele>618.5</ele>
      </trkpt>
      <trkpt lat="44.054111" lon="5.851484">
        <ele>621.7</ele>
      </trkpt>
      <trkpt lat="44.054467" lon="5.852044">
        <ele>625.3</ele>
      </trkpt>
      <trkpt lat="44.054886" lon="5.852563">
        <ele>626.5</ele>
      </trkpt>
      <trkpt lat="44.055307" lon="5.852973">
        <ele>629.3</ele>
      </trkpt>
      <trkpt lat="44.055543" lon="5.853126">
        <ele>630.1</ele>
      </trkpt>
      <trkpt lat="44.055869" lon="5.853164">
        <ele>633.7</ele>
      </trkpt>
      <trkpt lat="44.056018" lon="5.853283">
        <ele>634</ele>
      </trkpt>
      <trkpt lat="44.056017" lon="5.853296">
        <ele>634</ele>
      </trkpt>
      <trkpt lat="44.056162" lon="5.853722">
        <ele>634.2</ele>
      </trkpt>
      <trkpt lat="44.056563" lon="5.854890">
        <ele>634.5</ele>
      </trkpt>
      <trkpt lat="44.056997" lon="5.856175">
        <ele>638.1</ele>
      </trkpt>
      <trkpt lat="44.057282" lon="5.856887">
        <ele>639.7</ele>
      </trkpt>
      <trkpt lat="44.057476" lon="5.857488">
        <ele>642.6</ele>
      </trkpt>
      <trkpt lat="44.057750" lon="5.858195">
        <ele>642.6</ele>
      </trkpt>
      <trkpt lat="44.057963" lon="5.858826">
        <ele>639.1</ele>
      </trkpt>
      <trkpt lat="44.058161" lon="5.859139">
        <ele>638.9</ele>
      </trkpt>
      <trkpt lat="44.058622" lon="5.859264">
        <ele>640.5</ele>
      </trkpt>
      <trkpt lat="44.059120" lon="5.859497">
        <ele>642.3</ele>
      </trkpt>
      <trkpt lat="44.059184" lon="5.860384">
        <ele>645.9</ele>
      </trkpt>
      <trkpt lat="44.059653" lon="5.861053">
        <ele>646</ele>
      </trkpt>
      <trkpt lat="44.060102" lon="5.861422">
        <ele>648.7</ele>
      </trkpt>
      <trkpt lat="44.060727" lon="5.861507">
        <ele>650.7</ele>
      </trkpt>
      <trkpt lat="44.061348" lon="5.861515">
        <ele>655.9</ele>
      </trkpt>
      <trkpt lat="44.061721" lon="5.861592">
        <ele>658.7</ele>
      </trkpt>
      <trkpt lat="44.061977" lon="5.861824">
        <ele>659.6</ele>
      </trkpt>
      <trkpt lat="44.062297" lon="5.862364">
        <ele>661.6</ele>
      </trkpt>
      <trkpt lat="44.062521" lon="5.863066">
        <ele>665.8</ele>
      </trkpt>
      <trkpt lat="44.062793" lon="5.863410">
        <ele>664.2</ele>
      </trkpt>
      <trkpt lat="44.063249" lon="5.863465">
        <ele>667.5</ele>
      </trkpt>
      <trkpt lat="44.063668" lon="5.863427">
        <ele>674</ele>
      </trkpt>
      <trkpt lat="44.063889" lon="5.863517">
        <ele>675.7</ele>
      </trkpt>
      <trkpt lat="44.063933" lon="5.863843">
        <ele>675.7</ele>
      </trkpt>
      <trkpt lat="44.063780" lon="5.864325">
        <ele>676.6</ele>
      </trkpt>
      <trkpt lat="44.063618" lon="5.864783">
        <ele>677</ele>
      </trkpt>
      <trkpt lat="44.063515" lon="5.865225">
        <ele>679.2</ele>
      </trkpt>
      <trkpt lat="44.063498" lon="5.865566">
        <ele>679.6</ele>
      </trkpt>
      <trkpt lat="44.063638" lon="5.865997">
        <ele>681</ele>
      </trkpt>
      <trkpt lat="44.064023" lon="5.866455">
        <ele>684</ele>
      </trkpt>
      <trkpt lat="44.064272" lon="5.866759">
        <ele>689.7</ele>
      </trkpt>
      <trkpt lat="44.064460" lon="5.867254">
        <ele>692.5</ele>
      </trkpt>
      <trkpt lat="44.064542" lon="5.867801">
        <ele>693.2</ele>
      </trkpt>
      <trkpt lat="44.064544" lon="5.868597">
        <ele>694</ele>
      </trkpt>
      <trkpt lat="44.064557" lon="5.869338">
        <ele>696.3</ele>
      </trkpt>
      <trkpt lat="44.064683" lon="5.870162">
        <ele>699.9</ele>
      </trkpt>
      <trkpt lat="44.064797" lon="5.870622">
        <ele>701.2</ele>
      </trkpt>
      <trkpt lat="44.065059" lon="5.870969">
        <ele>706.8</ele>
      </trkpt>
      <trkpt lat="44.065198" lon="5.871262">
        <ele>708.1</ele>
      </trkpt>
      <trkpt lat="44.065223" lon="5.871728">
        <ele>708.1</ele>
      </trkpt>
      <trkpt lat="44.065293" lon="5.872249">
        <ele>709.8</ele>
      </trkpt>
      <trkpt lat="44.065423" lon="5.872954">
        <ele>711</ele>
      </trkpt>
      <trkpt lat="44.065574" lon="5.873541">
        <ele>711.1</ele>
      </trkpt>
      <trkpt lat="44.065573" lon="5.873566">
        <ele>711</ele>
      </trkpt>
      <trkpt lat="44.065791" lon="5.874044">
        <ele>713.4</ele>
      </trkpt>
      <trkpt lat="44.065974" lon="5.874512">
        <ele>720.3</ele>
      </trkpt>
      <trkpt lat="44.066006" lon="5.875026">
        <ele>718.7</ele>
      </trkpt>
      <trkpt lat="44.066462" lon="5.875427">
        <ele>720.8</ele>
      </trkpt>
      <trkpt lat="44.066867" lon="5.875711">
        <ele>726.4</ele>
      </trkpt>
      <trkpt lat="44.067098" lon="5.875742">
        <ele>728.8</ele>
      </trkpt>
      <trkpt lat="44.066899" lon="5.875315">
        <ele>729.1</ele>
      </trkpt>
      <trkpt lat="44.066843" lon="5.874692">
        <ele>731.8</ele>
      </trkpt>
      <trkpt lat="44.066909" lon="5.873947">
        <ele>732.2</ele>
      </trkpt>
      <trkpt lat="44.066992" lon="5.873284">
        <ele>731.8</ele>
      </trkpt>
      <trkpt lat="44.067080" lon="5.872693">
        <ele>731.9</ele>
      </trkpt>
      <trkpt lat="44.067253" lon="5.872194">
        <ele>730.4</ele>
      </trkpt>
      <trkpt lat="44.067468" lon="5.871646">
        <ele>731.4</ele>
      </trkpt>
      <trkpt lat="44.067579" lon="5.871238">
        <ele>736.1</ele>
      </trkpt>
      <trkpt lat="44.067627" lon="5.870837">
        <ele>735.1</ele>
      </trkpt>
      <trkpt lat="44.067494" lon="5.870203">
        <ele>731</ele>
      </trkpt>
      <trkpt lat="44.067464" lon="5.869241">
        <ele>733.2</ele>
      </trkpt>
      <trkpt lat="44.067358" lon="5.868360">
        <ele>734.4</ele>
      </trkpt>
      <trkpt lat="44.067402" lon="5.867846">
        <ele>731.9</ele>
      </trkpt>
      <trkpt lat="44.067400" lon="5.866960">
        <ele>729.4</ele>
      </trkpt>
      <trkpt lat="44.067214" lon="5.865684">
        <ele>729.6</ele>
      </trkpt>
      <trkpt lat="44.067266" lon="5.864609">
        <ele>731.7</ele>
      </trkpt>
      <trkpt lat="44.067173" lon="5.863683">
        <ele>734</ele>
      </trkpt>
      <trkpt lat="44.067165" lon="5.862091">
        <ele>738</ele>
      </trkpt>
      <trkpt lat="44.067248" lon="5.860971">
        <ele>738.8</ele>
      </trkpt>
      <trkpt lat="44.067427" lon="5.860095">
        <ele>736.7</ele>
      </trkpt>
      <trkpt lat="44.067339" lon="5.858801">
        <ele>733.6</ele>
      </trkpt>
      <trkpt lat="44.067095" lon="5.857687">
        <ele>730.7</ele>
      </trkpt>
      <trkpt lat="44.067212" lon="5.856991">
        <ele>730.4</ele>
      </trkpt>
      <trkpt lat="44.067225" lon="5.856352">
        <ele>732.3</ele>
      </trkpt>
      <trkpt lat="44.067072" lon="5.855920">
        <ele>732.6</ele>
      </trkpt>
      <trkpt lat="44.066885" lon="5.855222">
        <ele>736.4</ele>
      </trkpt>
      <trkpt lat="44.066771" lon="5.854399">
        <ele>739.2</ele>
      </trkpt>
      <trkpt lat="44.066654" lon="5.853473">
        <ele>739.2</ele>
      </trkpt>
      <trkpt lat="44.066758" lon="5.853277">
        <ele>744.5</ele>
      </trkpt>
      <trkpt lat="44.066974" lon="5.853114">
        <ele>747.7</ele>
      </trkpt>
      <trkpt lat="44.067129" lon="5.853161">
        <ele>748.8</ele>
      </trkpt>
      <trkpt lat="44.067357" lon="5.853517">
        <ele>747.5</ele>
      </trkpt>
      <trkpt lat="44.067629" lon="5.853836">
        <ele>752.9</ele>
      </trkpt>
      <trkpt lat="44.067892" lon="5.853956">
        <ele>754.2</ele>
      </trkpt>
      <trkpt lat="44.068198" lon="5.854300">
        <ele>754.3</ele>
      </trkpt>
      <trkpt lat="44.068452" lon="5.854593">
        <ele>761.1</ele>
      </trkpt>
      <trkpt lat="44.068626" lon="5.854900">
        <ele>761.2</ele>
      </trkpt>
      <trkpt lat="44.068894" lon="5.855102">
        <ele>762</ele>
      </trkpt>
      <trkpt lat="44.069194" lon="5.855076">
        <ele>769.4</ele>
      </trkpt>
      <trkpt lat="44.069396" lon="5.855265">
        <ele>772.1</ele>
      </trkpt>
      <trkpt lat="44.069606" lon="5.855736">
        <ele>773.5</ele>
      </trkpt>
      <trkpt lat="44.069898" lon="5.856061">
        <ele>775.9</ele>
      </trkpt>
      <trkpt lat="44.070162" lon="5.856390">
        <ele>785.7</ele>
      </trkpt>
      <trkpt lat="44.070321" lon="5.856781">
        <ele>785.9</ele>
      </trkpt>
      <trkpt lat="44.070428" lon="5.857324">
        <ele>786.2</ele>
      </trkpt>
      <trkpt lat="44.070570" lon="5.857702">
        <ele>786.4</ele>
      </trkpt>
      <trkpt lat="44.070674" lon="5.857846">
        <ele>786.9</ele>
      </trkpt>
      <trkpt lat="44.070699" lon="5.857425">
        <ele>789.4</ele>
      </trkpt>
      <trkpt lat="44.070723" lon="5.856742">
        <ele>791.5</ele>
      </trkpt>
      <trkpt lat="44.070841" lon="5.856239">
        <ele>800.6</ele>
      </trkpt>
      <trkpt lat="44.071089" lon="5.855584">
        <ele>801.5</ele>
      </trkpt>
      <trkpt lat="44.071288" lon="5.855179">
        <ele>803.2</ele>
      </trkpt>
      <trkpt lat="44.071562" lon="5.855007">
        <ele>806.9</ele>
      </trkpt>
      <trkpt lat="44.071786" lon="5.854960">
        <ele>812.3</ele>
      </trkpt>
      <trkpt lat="44.071891" lon="5.854949">
        <ele>814.2</ele>
      </trkpt>
      <trkpt lat="44.072011" lon="5.854676">
        <ele>816.5</ele>
      </trkpt>
      <trkpt lat="44.072143" lon="5.854634">
        <ele>817.7</ele>
      </trkpt>
      <trkpt lat="44.072221" lon="5.854521">
        <ele>818.5</ele>
      </trkpt>
      <trkpt lat="44.072110" lon="5.854284">
        <ele>817.8</ele>
      </trkpt>
      <trkpt lat="44.071897" lon="5.853920">
        <ele>820.3</ele>
      </trkpt>
      <trkpt lat="44.071783" lon="5.853595">
        <ele>822.2</ele>
      </trkpt>
      <trkpt lat="44.071670" lon="5.853104">
        <ele>827.7</ele>
      </trkpt>
      <trkpt lat="44.071639" lon="5.852321">
        <ele>827.1</ele>
      </trkpt>
      <trkpt lat="44.071687" lon="5.851648">
        <ele>834.6</ele>
      </trkpt>
      <trkpt lat="44.071769" lon="5.851303">
        <ele>837.3</ele>
      </trkpt>
      <trkpt lat="44.071916" lon="5.851031">
        <ele>837.4</ele>
      </trkpt>
      <trkpt lat="44.071960" lon="5.850616">
        <ele>838</ele>
      </trkpt>
      <trkpt lat="44.072027" lon="5.850311">
        <ele>839.1</ele>
      </trkpt>
      <trkpt lat="44.072177" lon="5.850056">
        <ele>841.3</ele>
      </trkpt>
      <trkpt lat="44.072225" lon="5.849777">
        <ele>844.2</ele>
      </trkpt>
      <trkpt lat="44.072118" lon="5.849513">
        <ele>843.6</ele>
      </trkpt>
      <trkpt lat="44.072094" lon="5.848869">
        <ele>847.8</ele>
      </trkpt>
      <trkpt lat="44.072141" lon="5.848250">
        <ele>852.7</ele>
      </trkpt>
      <trkpt lat="44.072152" lon="5.848251">
        <ele>852.9</ele>
      </trkpt>
      <trkpt lat="44.072101" lon="5.847955">
        <ele>852.4</ele>
      </trkpt>
      <trkpt lat="44.071987" lon="5.847741">
        <ele>851.4</ele>
      </trkpt>
      <trkpt lat="44.071963" lon="5.847251">
        <ele>854.3</ele>
      </trkpt>
      <trkpt lat="44.072093" lon="5.846850">
        <ele>857</ele>
      </trkpt>
      <trkpt lat="44.072030" lon="5.846559">
        <ele>859.5</ele>
      </trkpt>
      <trkpt lat="44.071811" lon="5.846243">
        <ele>858.7</ele>
      </trkpt>
      <trkpt lat="44.071581" lon="5.845867">
        <ele>852.6</ele>
      </trkpt>
      <trkpt lat="44.071442" lon="5.845415">
        <ele>852.8</ele>
      </trkpt>
      <trkpt lat="44.071330" lon="5.845085">
        <ele>853.2</ele>
      </trkpt>
      <trkpt lat="44.071472" lon="5.844567">
        <ele>859.5</ele>
      </trkpt>
      <trkpt lat="44.071484" lon="5.844537">
        <ele>859.8</ele>
      </trkpt>
      <trkpt lat="44.071499" lon="5.844212">
        <ele>863.5</ele>
      </trkpt>
      <trkpt lat="44.071367" lon="5.843914">
        <ele>865</ele>
      </trkpt>
      <trkpt lat="44.071345" lon="5.843502">
        <ele>866.8</ele>
      </trkpt>
      <trkpt lat="44.071269" lon="5.843059">
        <ele>870.8</ele>
      </trkpt>
      <trkpt lat="44.071219" lon="5.842858">
        <ele>870.8</ele>
      </trkpt>
      <trkpt lat="44.071235" lon="5.842339">
        <ele>874.1</ele>
      </trkpt>
      <trkpt lat="44.071332" lon="5.841835">
        <ele>875.9</ele>
      </trkpt>
      <trkpt lat="44.071457" lon="5.841450">
        <ele>876.9</ele>
      </trkpt>
      <trkpt lat="44.071723" lon="5.841084">
        <ele>887.7</ele>
      </trkpt>
      <trkpt lat="44.071921" lon="5.840821">
        <ele>887.5</ele>
      </trkpt>
      <trkpt lat="44.071967" lon="5.840635">
        <ele>888.5</ele>
      </trkpt>
      <trkpt lat="44.071968" lon="5.840620">
        <ele>888.5</ele>
      </trkpt>
      <trkpt lat="44.071855" lon="5.840339">
        <ele>887.5</ele>
      </trkpt>
      <trkpt lat="44.071922" lon="5.840066">
        <ele>887.1</ele>
      </trkpt>
      <trkpt lat="44.072099" lon="5.839714">
        <ele>888.3</ele>
      </trkpt>
      <trkpt lat="44.072298" lon="5.839291">
        <ele>890.2</ele>
      </trkpt>
      <trkpt lat="44.072476" lon="5.838942">
        <ele>889.3</ele>
      </trkpt>
      <trkpt lat="44.072728" lon="5.838787">
        <ele>895.5</ele>
      </trkpt>
      <trkpt lat="44.073050" lon="5.838890">
        <ele>897.8</ele>
      </trkpt>
      <trkpt lat="44.073297" lon="5.838841">
        <ele>898.8</ele>
      </trkpt>
      <trkpt lat="44.073481" lon="5.838646">
        <ele>905.4</ele>
      </trkpt>
      <trkpt lat="44.073670" lon="5.838325">
        <ele>904.4</ele>
      </trkpt>
      <trkpt lat="44.073802" lon="5.837909">
        <ele>905.4</ele>
      </trkpt>
      <trkpt lat="44.073921" lon="5.837537">
        <ele>906.5</ele>
      </trkpt>
      <trkpt lat="44.074114" lon="5.837219">
        <ele>905.2</ele>
      </trkpt>
      <trkpt lat="44.074464" lon="5.837051">
        <ele>913.4</ele>
      </trkpt>
      <trkpt lat="44.074952" lon="5.836701">
        <ele>917.2</ele>
      </trkpt>
      <trkpt lat="44.075352" lon="5.836443">
        <ele>921.1</ele>
      </trkpt>
      <trkpt lat="44.075644" lon="5.835952">
        <ele>922.4</ele>
      </trkpt>
      <trkpt lat="44.075730" lon="5.835790">
        <ele>921.7</ele>
      </trkpt>
      <trkpt lat="44.075834" lon="5.835708">
        <ele>926.4</ele>
      </trkpt>
      <trkpt lat="44.075932" lon="5.835743">
        <ele>926.7</ele>
      </trkpt>
      <trkpt lat="44.076313" lon="5.835072">
        <ele>929</ele>
      </trkpt>
      <trkpt lat="44.076662" lon="5.834549">
        <ele>927.5</ele>
      </trkpt>
      <trkpt lat="44.077251" lon="5.833747">
        <ele>933.6</ele>
      </trkpt>
      <trkpt lat="44.077492" lon="5.833471">
        <ele>934.2</ele>
      </trkpt>
      <trkpt lat="44.077786" lon="5.833224">
        <ele>940.8</ele>
      </trkpt>
      <trkpt lat="44.077794" lon="5.833219">
        <ele>940.9</ele>
      </trkpt>
      <trkpt lat="44.078151" lon="5.833132">
        <ele>945</ele>
      </trkpt>
      <trkpt lat="44.078284" lon="5.833067">
        <ele>945.6</ele>
      </trkpt>
      <trkpt lat="44.078224" lon="5.832821">
        <ele>945.1</ele>
      </trkpt>
      <trkpt lat="44.078216" lon="5.832809">
        <ele>945</ele>
      </trkpt>
      <trkpt lat="44.078021" lon="5.832566">
        <ele>943.9</ele>
      </trkpt>
      <trkpt lat="44.077727" lon="5.831579">
        <ele>948.9</ele>
      </trkpt>
      <trkpt lat="44.077510" lon="5.830577">
        <ele>952.5</ele>
      </trkpt>
      <trkpt lat="44.077525" lon="5.829377">
        <ele>955.1</ele>
      </trkpt>
      <trkpt lat="44.077531" lon="5.828874">
        <ele>956.1</ele>
      </trkpt>
      <trkpt lat="44.077800" lon="5.828041">
        <ele>954.3</ele>
      </trkpt>
      <trkpt lat="44.078324" lon="5.827421">
        <ele>955.9</ele>
      </trkpt>
      <trkpt lat="44.078722" lon="5.826911">
        <ele>963.6</ele>
      </trkpt>
      <trkpt lat="44.078945" lon="5.826716">
        <ele>966.2</ele>
      </trkpt>
      <trkpt lat="44.079185" lon="5.826602">
        <ele>972.9</ele>
      </trkpt>
      <trkpt lat="44.078857" lon="5.826203">
        <ele>965.2</ele>
      </trkpt>
      <trkpt lat="44.078515" lon="5.825496">
        <ele>968.6</ele>
      </trkpt>
      <trkpt lat="44.078317" lon="5.824900">
        <ele>964.8</ele>
      </trkpt>
      <trkpt lat="44.078481" lon="5.824054">
        <ele>971.4</ele>
      </trkpt>
      <trkpt lat="44.078877" lon="5.823170">
        <ele>971.4</ele>
      </trkpt>
      <trkpt lat="44.079341" lon="5.822513">
        <ele>980.7</ele>
      </trkpt>
      <trkpt lat="44.079779" lon="5.822158">
        <ele>983.6</ele>
      </trkpt>
      <trkpt lat="44.080109" lon="5.822045">
        <ele>995.2</ele>
      </trkpt>
      <trkpt lat="44.080121" lon="5.821709">
        <ele>992.7</ele>
      </trkpt>
      <trkpt lat="44.079846" lon="5.821275">
        <ele>989.3</ele>
      </trkpt>
      <trkpt lat="44.079382" lon="5.820790">
        <ele>993.5</ele>
      </trkpt>
      <trkpt lat="44.079149" lon="5.820340">
        <ele>988.8</ele>
      </trkpt>
      <trkpt lat="44.079032" lon="5.819940">
        <ele>996.7</ele>
      </trkpt>
      <trkpt lat="44.078738" lon="5.819674">
        <ele>995.9</ele>
      </trkpt>
      <trkpt lat="44.078475" lon="5.819096">
        <ele>999.4</ele>
      </trkpt>
      <trkpt lat="44.078288" lon="5.817980">
        <ele>996</ele>
      </trkpt>
      <trkpt lat="44.078413" lon="5.817432">
        <ele>1004.2</ele>
      </trkpt>
      <trkpt lat="44.078432" lon="5.817386">
        <ele>1004.8</ele>
      </trkpt>
      <trkpt lat="44.078457" lon="5.817348">
        <ele>1005.3</ele>
      </trkpt>
      <trkpt lat="44.078844" lon="5.816662">
        <ele>1006.6</ele>
      </trkpt>
      <trkpt lat="44.078857" lon="5.816632">
        <ele>1006.9</ele>
      </trkpt>
      <trkpt lat="44.079402" lon="5.816069">
        <ele>1018</ele>
      </trkpt>
      <trkpt lat="44.079934" lon="5.815694">
        <ele>1019.2</ele>
      </trkpt>
      <trkpt lat="44.080353" lon="5.815489">
        <ele>1026.3</ele>
      </trkpt>
      <trkpt lat="44.081082" lon="5.815284">
        <ele>1037.3</ele>
      </trkpt>
      <trkpt lat="44.081637" lon="5.814989">
        <ele>1036.1</ele>
      </trkpt>
      <trkpt lat="44.081959" lon="5.814395">
        <ele>1040.8</ele>
      </trkpt>
      <trkpt lat="44.082368" lon="5.813706">
        <ele>1041.6</ele>
      </trkpt>
      <trkpt lat="44.082560" lon="5.813319">
        <ele>1047.1</ele>
      </trkpt>
      <trkpt lat="44.083024" lon="5.812728">
        <ele>1055.5</ele>
      </trkpt>
      <trkpt lat="44.083468" lon="5.811620">
        <ele>1069.8</ele>
      </trkpt>
      <trkpt lat="44.083936" lon="5.810701">
        <ele>1082.1</ele>
      </trkpt>
      <trkpt lat="44.084412" lon="5.810163">
        <ele>1087.9</ele>
      </trkpt>
      <trkpt lat="44.084919" lon="5.809795">
        <ele>1093.3</ele>
      </trkpt>
      <trkpt lat="44.085328" lon="5.809474">
        <ele>1100.8</ele>
      </trkpt>
      <trkpt lat="44.085903" lon="5.809227">
        <ele>1107.2</ele>
      </trkpt>
      <trkpt lat="44.086417" lon="5.809119">
        <ele>1114.4</ele>
      </trkpt>
      <trkpt lat="44.086999" lon="5.808767">
        <ele>1126.4</ele>
      </trkpt>
      <trkpt lat="44.087924" lon="5.808018">
        <ele>1136.8</ele>
      </trkpt>
      <trkpt lat="44.088836" lon="5.807713">
        <ele>1147.7</ele>
      </trkpt>
      <trkpt lat="44.088885" lon="5.807697">
        <ele>1147.9</ele>
      </trkpt>
      <trkpt lat="44.088910" lon="5.807699">
        <ele>1148.1</ele>
      </trkpt>
      <trkpt lat="44.090121" lon="5.807290">
        <ele>1169.4</ele>
      </trkpt>
      <trkpt lat="44.090899" lon="5.806854">
        <ele>1182.9</ele>
      </trkpt>
      <trkpt lat="44.091709" lon="5.805866">
        <ele>1192.6</ele>
      </trkpt>
      <trkpt lat="44.091823" lon="5.805727">
        <ele>1197.2</ele>
      </trkpt>
      <trkpt lat="44.090768" lon="5.806328">
        <ele>1182.1</ele>
      </trkpt>
      <trkpt lat="44.090336" lon="5.806532">
        <ele>1179.5</ele>
      </trkpt>
      <trkpt lat="44.089483" lon="5.806456">
        <ele>1178.4</ele>
      </trkpt>
      <trkpt lat="44.088343" lon="5.806636">
        <ele>1168.4</ele>
      </trkpt>
      <trkpt lat="44.087526" lon="5.806834">
        <ele>1159.1</ele>
      </trkpt>
      <trkpt lat="44.086610" lon="5.806764">
        <ele>1154.4</ele>
      </trkpt>
      <trkpt lat="44.085684" lon="5.806728">
        <ele>1152.5</ele>
      </trkpt>
      <trkpt lat="44.084833" lon="5.806502">
        <ele>1149.5</ele>
      </trkpt>
      <trkpt lat="44.084420" lon="5.806393">
        <ele>1147.9</ele>
      </trkpt>
      <trkpt lat="44.084370" lon="5.806388">
        <ele>1147.8</ele>
      </trkpt>
      <trkpt lat="44.083630" lon="5.806018">
        <ele>1142.2</ele>
      </trkpt>
      <trkpt lat="44.082934" lon="5.805245">
        <ele>1132.8</ele>
      </trkpt>
      <trkpt lat="44.082410" lon="5.804836">
        <ele>1123.9</ele>
      </trkpt>
      <trkpt lat="44.082187" lon="5.804670">
        <ele>1121.3</ele>
      </trkpt>
      <trkpt lat="44.081748" lon="5.804241">
        <ele>1118.1</ele>
      </trkpt>
      <trkpt lat="44.081176" lon="5.804045">
        <ele>1108.4</ele>
      </trkpt>
      <trkpt lat="44.080763" lon="5.803918">
        <ele>1101.6</ele>
      </trkpt>
      <trkpt lat="44.080243" lon="5.803583">
        <ele>1096.5</ele>
      </trkpt>
      <trkpt lat="44.080004" lon="5.803453">
        <ele>1093.6</ele>
      </trkpt>
      <trkpt lat="44.079637" lon="5.803692">
        <ele>1084.2</ele>
      </trkpt>
      <trkpt lat="44.079070" lon="5.803916">
        <ele>1069.8</ele>
      </trkpt>
      <trkpt lat="44.078548" lon="5.804202">
        <ele>1063.6</ele>
      </trkpt>
      <trkpt lat="44.078379" lon="5.804354">
        <ele>1062.5</ele>
      </trkpt>
      <trkpt lat="44.077426" lon="5.804509">
        <ele>1039.5</ele>
      </trkpt>
      <trkpt lat="44.076975" lon="5.804583">
        <ele>1035.6</ele>
      </trkpt>
      <trkpt lat="44.076166" lon="5.804524">
        <ele>1018.9</ele>
      </trkpt>
      <trkpt lat="44.075327" lon="5.804348">
        <ele>1004.3</ele>
      </trkpt>
      <trkpt lat="44.074590" lon="5.803787">
        <ele>988.9</ele>
      </trkpt>
      <trkpt lat="44.074072" lon="5.803508">
        <ele>981.3</ele>
      </trkpt>
      <trkpt lat="44.073681" lon="5.803199">
        <ele>976.8</ele>
      </trkpt>
      <trkpt lat="44.073361" lon="5.803110">
        <ele>975.7</ele>
      </trkpt>
      <trkpt lat="44.072759" lon="5.803249">
        <ele>966.4</ele>
      </trkpt>
      <trkpt lat="44.072224" lon="5.803146">
        <ele>957.1</ele>
      </trkpt>
      <trkpt lat="44.071525" lon="5.802758">
        <ele>945.2</ele>
      </trkpt>
      <trkpt lat="44.071053" lon="5.802585">
        <ele>940.4</ele>
      </trkpt>
      <trkpt lat="44.070968" lon="5.802198">
        <ele>942.2</ele>
      </trkpt>
      <trkpt lat="44.070800" lon="5.801703">
        <ele>935.4</ele>
      </trkpt>
      <trkpt lat="44.070757" lon="5.801358">
        <ele>929.8</ele>
      </trkpt>
      <trkpt lat="44.070747" lon="5.800853">
        <ele>931.5</ele>
      </trkpt>
      <trkpt lat="44.070748" lon="5.800813">
        <ele>930.7</ele>
      </trkpt>
      <trkpt lat="44.070685" lon="5.800359">
        <ele>925.5</ele>
      </trkpt>
      <trkpt lat="44.070672" lon="5.800338">
        <ele>925.4</ele>
      </trkpt>
      <trkpt lat="44.070658" lon="5.799871">
        <ele>924.6</ele>
      </trkpt>
      <trkpt lat="44.070438" lon="5.799667">
        <ele>921.9</ele>
      </trkpt>
      <trkpt lat="44.070423" lon="5.799666">
        <ele>921.8</ele>
      </trkpt>
      <trkpt lat="44.070104" lon="5.799835">
        <ele>918.7</ele>
      </trkpt>
      <trkpt lat="44.069734" lon="5.800082">
        <ele>911.2</ele>
      </trkpt>
      <trkpt lat="44.069409" lon="5.800273">
        <ele>908.7</ele>
      </trkpt>
      <trkpt lat="44.069055" lon="5.800422">
        <ele>901.9</ele>
      </trkpt>
      <trkpt lat="44.068609" lon="5.800563">
        <ele>899.7</ele>
      </trkpt>
      <trkpt lat="44.068264" lon="5.800324">
        <ele>895.6</ele>
      </trkpt>
      <trkpt lat="44.067921" lon="5.799982">
        <ele>898</ele>
      </trkpt>
      <trkpt lat="44.067717" lon="5.799467">
        <ele>897.5</ele>
      </trkpt>
      <trkpt lat="44.067457" lon="5.798430">
        <ele>892.9</ele>
      </trkpt>
      <trkpt lat="44.067185" lon="5.797557">
        <ele>887.3</ele>
      </trkpt>
      <trkpt lat="44.066879" lon="5.796912">
        <ele>882.8</ele>
      </trkpt>
      <trkpt lat="44.066869" lon="5.796469">
        <ele>884.2</ele>
      </trkpt>
      <trkpt lat="44.066596" lon="5.795986">
        <ele>878.7</ele>
      </trkpt>
      <trkpt lat="44.066437" lon="5.795574">
        <ele>880.7</ele>
      </trkpt>
      <trkpt lat="44.066060" lon="5.795101">
        <ele>878.7</ele>
      </trkpt>
      <trkpt lat="44.065764" lon="5.794760">
        <ele>876.8</ele>
      </trkpt>
      <trkpt lat="44.065339" lon="5.794344">
        <ele>876.9</ele>
      </trkpt>
      <trkpt lat="44.064894" lon="5.794032">
        <ele>876.7</ele>
      </trkpt>
      <trkpt lat="44.064326" lon="5.793750">
        <ele>877.3</ele>
      </trkpt>
      <trkpt lat="44.063686" lon="5.793648">
        <ele>873.6</ele>
      </trkpt>
      <trkpt lat="44.063016" lon="5.793521">
        <ele>871.2</ele>
      </trkpt>
      <trkpt lat="44.062432" lon="5.793423">
        <ele>870.4</ele>
      </trkpt>
      <trkpt lat="44.061683" lon="5.793288">
        <ele>867.4</ele>
      </trkpt>
      <trkpt lat="44.061187" lon="5.793156">
        <ele>865.5</ele>
      </trkpt>
      <trkpt lat="44.060782" lon="5.793034">
        <ele>860.5</ele>
      </trkpt>
      <trkpt lat="44.060302" lon="5.792671">
        <ele>859.5</ele>
      </trkpt>
      <trkpt lat="44.059631" lon="5.792080">
        <ele>855.8</ele>
      </trkpt>
      <trkpt lat="44.059011" lon="5.791104">
        <ele>854.2</ele>
      </trkpt>
      <trkpt lat="44.058509" lon="5.790193">
        <ele>855.2</ele>
      </trkpt>
      <trkpt lat="44.058019" lon="5.789276">
        <ele>848.3</ele>
      </trkpt>
      <trkpt lat="44.057425" lon="5.788745">
        <ele>840</ele>
      </trkpt>
      <trkpt lat="44.057078" lon="5.788379">
        <ele>838.3</ele>
      </trkpt>
      <trkpt lat="44.056894" lon="5.788109">
        <ele>835.5</ele>
      </trkpt>
      <trkpt lat="44.056535" lon="5.787611">
        <ele>827.1</ele>
      </trkpt>
      <trkpt lat="44.055946" lon="5.787028">
        <ele>822.2</ele>
      </trkpt>
      <trkpt lat="44.055564" lon="5.786544">
        <ele>813.2</ele>
      </trkpt>
      <trkpt lat="44.055222" lon="5.786166">
        <ele>810.1</ele>
      </trkpt>
      <trkpt lat="44.054974" lon="5.785731">
        <ele>802.9</ele>
      </trkpt>
      <trkpt lat="44.054749" lon="5.785143">
        <ele>799.5</ele>
      </trkpt>
      <trkpt lat="44.054515" lon="5.784704">
        <ele>795.7</ele>
      </trkpt>
      <trkpt lat="44.054042" lon="5.783930">
        <ele>784.9</ele>
      </trkpt>
      <trkpt lat="44.053663" lon="5.783538">
        <ele>781.3</ele>
      </trkpt>
      <trkpt lat="44.053102" lon="5.782905">
        <ele>773</ele>
      </trkpt>
      <trkpt lat="44.052686" lon="5.783037">
        <ele>770.6</ele>
      </trkpt>
      <trkpt lat="44.051835" lon="5.783236">
        <ele>759.2</ele>
      </trkpt>
      <trkpt lat="44.051177" lon="5.783391">
        <ele>750.5</ele>
      </trkpt>
      <trkpt lat="44.050607" lon="5.783647">
        <ele>742.9</ele>
      </trkpt>
      <trkpt lat="44.049974" lon="5.783764">
        <ele>735.5</ele>
      </trkpt>
      <trkpt lat="44.049466" lon="5.783826">
        <ele>733.4</ele>
      </trkpt>
      <trkpt lat="44.049082" lon="5.783879">
        <ele>727.5</ele>
      </trkpt>
      <trkpt lat="44.048747" lon="5.783785">
        <ele>726</ele>
      </trkpt>
      <trkpt lat="44.048278" lon="5.783658">
        <ele>719.8</ele>
      </trkpt>
      <trkpt lat="44.047813" lon="5.783713">
        <ele>718.1</ele>
      </trkpt>
      <trkpt lat="44.047951" lon="5.782390">
        <ele>718.4</ele>
      </trkpt>
      <trkpt lat="44.048176" lon="5.781936">
        <ele>718.8</ele>
      </trkpt>
      <trkpt lat="44.048275" lon="5.781475">
        <ele>718.8</ele>
      </trkpt>
      <trkpt lat="44.047559" lon="5.781143">
        <ele>716.3</ele>
      </trkpt>
      <trkpt lat="44.046964" lon="5.780883">
        <ele>709.1</ele>
      </trkpt>
      <trkpt lat="44.046320" lon="5.780473">
        <ele>701.4</ele>
      </trkpt>
      <trkpt lat="44.045657" lon="5.780099">
        <ele>695.2</ele>
      </trkpt>
      <trkpt lat="44.045325" lon="5.780129">
        <ele>694</ele>
      </trkpt>
      <trkpt lat="44.044972" lon="5.780225">
        <ele>689.9</ele>
      </trkpt>
      <trkpt lat="44.044376" lon="5.780460">
        <ele>687.5</ele>
      </trkpt>
      <trkpt lat="44.043766" lon="5.780696">
        <ele>681.2</ele>
      </trkpt>
      <trkpt lat="44.043299" lon="5.780949">
        <ele>676.8</ele>
      </trkpt>
      <trkpt lat="44.042804" lon="5.781144">
        <ele>681.1</ele>
      </trkpt>
    </trkseg>
  </trk>
</gpx>